{"type":"FeatureCollection","name":"boundaries_110m","source":"World Bank Official Boundaries (Data Catalog dataset 0038272)","license":"CC BY 4.0","crs":{"type":"name","properties":{"name":"urn:ogc:def:crs:OGC:1.3:CRS84"}},"features":[{"type":"Feature","properties":{"NAME":"Abyei","STYLE":"Tightly Dashed"},"geometry":{"type":"LineString","coordinates":[[28.85,9.482],[28.99,9.66],[28.99,9.682]]}},{"type":"Feature","properties":{"NAME":"Abyei","STYLE":"Tightly Dashed"},"geometry":{"type":"LineString","coordinates":[[27.915,9.617],[28.039,9.347],[28.744,9.347],[28.829,9.456]]}},{"type":"Feature","properties":{"NAME":"Abyei","STYLE":"Tightly Dashed"},"geometry":{"type":"LineString","coordinates":[[27.833,10.16],[27.833,9.794],[27.915,9.617]]}},{"type":"Feature","properties":{"NAME":"Abyei","STYLE":"Tightly Dashed"},"geometry":{"type":"LineString","coordinates":[[28.99,9.682],[28.99,10.16],[27.833,10.16]]}},{"type":"Feature","properties":{"NAME":"Abyei","STYLE":"Tightly Dashed"},"geometry":{"type":"LineString","coordinates":[[28.829,9.456],[28.85,9.482]]}},{"type":"Feature","properties":{"NAME":"Arunchal Pradesh","STYLE":"Tightly Dashed"},"geometry":{"type":"LineString","coordinates":[[96.051,28.249],[96.375,28.151],[96.404,28.163],[97.062,27.763],[97.106,27.793]]}},{"type":"Feature","properties":{"NAME":"Arunchal Pradesh","STYLE":"Tightly Dashed"},"geometry":{"type":"LineString","coordinates":[[95.294,28.078],[95.866,28.305],[95.984,28.269]]}},{"type":"Feature","properties":{"NAME":"Arunchal Pradesh","STYLE":"Tightly Dashed"},"geometry":{"type":"LineString","coordinates":[[92.1,26.898],[92.115,26.857],[92.524,26.934],[92.641,26.969],[93.074,26.888],[93.771,27.027],[93.994,27.336],[94.198,27.543],[94.247,27.549],[94.516,27.605],[94.563,27.618],[95.257,27.941],[95.275,28.024]]}},{"type":"Feature","properties":{"NAME":"Arunchal Pradesh","STYLE":"Tightly Dashed"},"geometry":{"type":"LineString","coordinates":[[92.204,27.801],[92.126,27.813],[92.012,27.741],[91.952,27.725],[91.865,27.73],[91.815,27.755],[91.643,27.76]]}},{"type":"Feature","properties":{"NAME":"Arunchal Pradesh","STYLE":"Tightly Dashed"},"geometry":{"type":"LineString","coordinates":[[93.039,28.36],[92.805,28.178],[92.785,28.183],[92.708,28.155],[92.679,28.133],[92.729,27.978],[92.304,27.786],[92.269,27.792]]}},{"type":"Feature","properties":{"NAME":"Arunchal Pradesh","STYLE":"Tightly Dashed"},"geometry":{"type":"LineString","coordinates":[[95.321,29.076],[95.281,29.053],[95.191,29.097],[95.117,29.108],[95.048,29.141],[94.965,29.15],[94.815,29.169],[94.799,29.166],[94.768,29.214],[94.669,29.306],[94.336,29.15],[94.324,29.146],[94.262,28.934],[93.625,28.672],[93.607,28.672],[93.424,28.66],[93.112,28.417]]}},{"type":"Feature","properties":{"NAME":"Arunchal Pradesh","STYLE":"Tightly Dashed"},"geometry":{"type":"LineString","coordinates":[[96.262,29.148],[96.316,29.172],[96.235,29.241],[96.206,29.257],[96.075,29.369],[96.023,29.365],[96.014,29.364],[95.954,29.359],[95.523,29.161],[95.511,29.132],[95.475,29.137],[95.448,29.148],[95.339,29.085]]}},{"type":"Feature","properties":{"NAME":"Arunchal Pradesh","STYLE":"Tightly Dashed"},"geometry":{"type":"LineString","coordinates":[[96.563,28.73],[96.593,28.758],[96.524,28.864],[96.5,28.929],[96.303,29.063]]}},{"type":"Feature","properties":{"NAME":"Arunchal Pradesh","STYLE":"Tightly Dashed"},"geometry":{"type":"LineString","coordinates":[[96.691,28.54],[96.613,28.609],[96.603,28.594]]}},{"type":"Feature","properties":{"NAME":"Arunchal Pradesh","STYLE":"Tightly Dashed"},"geometry":{"type":"LineString","coordinates":[[96.783,28.457],[96.703,28.529]]}},{"type":"Feature","properties":{"NAME":"Arunchal Pradesh","STYLE":"Tightly Dashed"},"geometry":{"type":"LineString","coordinates":[[97.317,28.166],[97.323,28.217],[97.285,28.236],[97.23,28.275],[97.221,28.283],[97.193,28.311],[97.183,28.315],[96.966,28.33],[96.898,28.355],[96.823,28.422]]}},{"type":"Feature","properties":{"NAME":"Arunchal Pradesh","STYLE":"Tightly Dashed"},"geometry":{"type":"LineString","coordinates":[[97.106,27.793],[97.276,27.91],[97.333,27.894],[97.355,28.023],[97.306,28.07],[97.317,28.166]]}},{"type":"Feature","properties":{"NAME":"Arunchal Pradesh","STYLE":"Tightly Dashed"},"geometry":{"type":"LineString","coordinates":[[96.823,28.422],[96.783,28.457]]}},{"type":"Feature","properties":{"NAME":"Arunchal Pradesh","STYLE":"Tightly Dashed"},"geometry":{"type":"LineString","coordinates":[[96.703,28.529],[96.691,28.54]]}},{"type":"Feature","properties":{"NAME":"Arunchal Pradesh","STYLE":"Tightly Dashed"},"geometry":{"type":"LineString","coordinates":[[96.603,28.594],[96.495,28.421],[96.435,28.611],[96.563,28.73]]}},{"type":"Feature","properties":{"NAME":"Arunchal Pradesh","STYLE":"Tightly Dashed"},"geometry":{"type":"LineString","coordinates":[[96.303,29.063],[96.281,29.077],[96.175,29.109],[96.262,29.148]]}},{"type":"Feature","properties":{"NAME":"Arunchal Pradesh","STYLE":"Tightly Dashed"},"geometry":{"type":"LineString","coordinates":[[95.339,29.085],[95.321,29.076]]}},{"type":"Feature","properties":{"NAME":"Arunchal Pradesh","STYLE":"Tightly Dashed"},"geometry":{"type":"LineString","coordinates":[[93.112,28.417],[93.039,28.36]]}},{"type":"Feature","properties":{"NAME":"Arunchal Pradesh","STYLE":"Tightly Dashed"},"geometry":{"type":"LineString","coordinates":[[92.269,27.792],[92.204,27.801]]}},{"type":"Feature","properties":{"NAME":"Arunchal Pradesh","STYLE":"Tightly Dashed"},"geometry":{"type":"LineString","coordinates":[[91.643,27.76],[91.642,27.76],[91.595,27.546],[91.963,27.469],[91.975,27.472]]}},{"type":"Feature","properties":{"NAME":"Arunchal Pradesh","STYLE":"Tightly Dashed"},"geometry":{"type":"LineString","coordinates":[[95.984,28.269],[96.051,28.249]]}},{"type":"Feature","properties":{"NAME":"Arunchal Pradesh","STYLE":"Tightly Dashed"},"geometry":{"type":"LineString","coordinates":[[95.275,28.024],[95.286,28.075],[95.294,28.078]]}},{"type":"Feature","properties":{"NAME":"Arunchal Pradesh","STYLE":"Tightly Dashed"},"geometry":{"type":"LineString","coordinates":[[91.975,27.472],[92.124,27.283],[92.023,27.11],[92.1,26.898]]}},{"type":"Feature","properties":{"NAME":"Disputed Area: IND/PAK","STYLE":"Tightly Dashed"},"geometry":{"type":"LineString","coordinates":[[79.316,32.567],[79.349,32.577]]}},{"type":"Feature","properties":{"NAME":"Disputed Area: IND/PAK","STYLE":"Tightly Dashed"},"geometry":{"type":"LineString","coordinates":[[79.235,32.732],[79.276,32.556],[79.276,32.556]]}},{"type":"Feature","properties":{"NAME":"Disputed Area: IND/PAK","STYLE":"Tightly Dashed"},"geometry":{"type":"LineString","coordinates":[[79.192,33.054],[79.176,32.993],[79.176,32.987],[79.234,32.737]]}},{"type":"Feature","properties":{"NAME":"Disputed Area: IND/PAK","STYLE":"Tightly Dashed"},"geometry":{"type":"LineString","coordinates":[[79.23,33.192],[79.222,33.164]]}},{"type":"Feature","properties":{"NAME":"Disputed Area: IND/PAK","STYLE":"Tightly Dashed"},"geometry":{"type":"LineString","coordinates":[[79.276,32.556],[79.316,32.567]]}},{"type":"Feature","properties":{"NAME":"Disputed Area: IND/PAK","STYLE":"Tightly Dashed"},"geometry":{"type":"LineString","coordinates":[[79.494,32.734],[79.5,32.747],[79.34,33.013],[79.344,33.066],[79.351,33.085],[79.382,33.127],[79.23,33.192]]}},{"type":"Feature","properties":{"NAME":"Disputed Area: IND/PAK","STYLE":"Tightly Dashed"},"geometry":{"type":"LineString","coordinates":[[79.386,32.588],[79.435,32.602],[79.47,32.68]]}},{"type":"Feature","properties":{"NAME":"Disputed Area: IND/PAK","STYLE":"Tightly Dashed"},"geometry":{"type":"LineString","coordinates":[[79.349,32.577],[79.376,32.585]]}},{"type":"Feature","properties":{"NAME":"Disputed Area: IND/PAK","STYLE":"Tightly Dashed"},"geometry":{"type":"LineString","coordinates":[[79.376,32.585],[79.386,32.588]]}},{"type":"Feature","properties":{"NAME":"Disputed Area: IND/PAK","STYLE":"Tightly Dashed"},"geometry":{"type":"LineString","coordinates":[[79.47,32.68],[79.494,32.734]]}},{"type":"Feature","properties":{"NAME":"Disputed Area: IND/PAK","STYLE":"Tightly Dashed"},"geometry":{"type":"LineString","coordinates":[[79.276,32.556],[79.276,32.556]]}},{"type":"Feature","properties":{"NAME":"Disputed Area: IND/PAK","STYLE":"Tightly Dashed"},"geometry":{"type":"LineString","coordinates":[[79.234,32.737],[79.235,32.732]]}},{"type":"Feature","properties":{"NAME":"Disputed Area: IND/PAK","STYLE":"Tightly Dashed"},"geometry":{"type":"LineString","coordinates":[[79.222,33.164],[79.192,33.054]]}},{"type":"Feature","properties":{"NAME":"Disputed Area: IND/PAK","STYLE":"Tightly Dashed"},"geometry":{"type":"LineString","coordinates":[[78.795,33.572],[78.801,33.494],[78.913,33.402],[78.908,33.46]]}},{"type":"Feature","properties":{"NAME":"Disputed Area: IND/PAK","STYLE":"Tightly Dashed"},"geometry":{"type":"LineString","coordinates":[[78.089,35.535],[77.924,35.497],[78.111,35.484],[78.007,35.257],[78.13,35.055],[78.139,35.019],[78.273,34.659],[78.296,34.625],[78.71,34.525],[78.985,34.286],[78.976,34.217],[78.806,34.123],[78.73,34.079],[78.77,33.872],[78.794,33.586]]}},{"type":"Feature","properties":{"NAME":"Disputed Area: IND/PAK","STYLE":"Tightly Dashed"},"geometry":{"type":"LineString","coordinates":[[78.102,35.538],[78.089,35.535]]}},{"type":"Feature","properties":{"NAME":"Disputed Area: IND/PAK","STYLE":"Tightly Dashed"},"geometry":{"type":"LineString","coordinates":[[78.877,35.895],[78.33,35.709],[78.229,35.647],[78.115,35.545],[78.102,35.538]]}},{"type":"Feature","properties":{"NAME":"Disputed Area: IND/PAK","STYLE":"Tightly Dashed"},"geometry":{"type":"LineString","coordinates":[[78.927,35.895],[78.925,35.895]]}},{"type":"Feature","properties":{"NAME":"Disputed Area: IND/PAK","STYLE":"Tightly Dashed"},"geometry":{"type":"LineString","coordinates":[[80.353,35.454],[80.358,35.502],[80.186,35.555],[80.144,35.476],[80.011,35.414],[79.94,35.583],[79.882,35.598],[79.795,35.619],[79.695,35.637],[79.62,35.775],[79.572,35.851],[79.545,35.865],[79.476,35.847],[79.364,35.975],[78.941,35.895],[78.936,35.895]]}},{"type":"Feature","properties":{"NAME":"Disputed Area: IND/PAK","STYLE":"Tightly Dashed"},"geometry":{"type":"LineString","coordinates":[[79.746,34.537],[79.751,34.552],[80.086,34.777],[80.098,34.794],[80.178,34.899],[80.183,35.103],[80.273,35.228],[80.278,35.345],[80.347,35.396],[80.351,35.441]]}},{"type":"Feature","properties":{"NAME":"Disputed Area: IND/PAK","STYLE":"Tightly Dashed"},"geometry":{"type":"LineString","coordinates":[[79.542,34.284],[79.523,34.426],[79.725,34.476],[79.743,34.527]]}},{"type":"Feature","properties":{"NAME":"Disputed Area: IND/PAK","STYLE":"Tightly Dashed"},"geometry":{"type":"LineString","coordinates":[[78.99,33.975],[79.081,34.0],[79.132,34.026],[79.376,34.011],[79.405,34.022],[79.491,34.145],[79.488,34.182],[79.552,34.21],[79.544,34.265]]}},{"type":"Feature","properties":{"NAME":"Disputed Area: IND/PAK","STYLE":"Tightly Dashed"},"geometry":{"type":"LineString","coordinates":[[78.908,33.46],[78.896,33.62],[79.013,33.634],[78.887,33.946],[78.958,33.966]]}},{"type":"Feature","properties":{"NAME":"Disputed Area: IND/PAK","STYLE":"Tightly Dashed"},"geometry":{"type":"LineString","coordinates":[[78.958,33.966],[78.99,33.975]]}},{"type":"Feature","properties":{"NAME":"Disputed Area: IND/PAK","STYLE":"Tightly Dashed"},"geometry":{"type":"LineString","coordinates":[[79.544,34.265],[79.542,34.284]]}},{"type":"Feature","properties":{"NAME":"Disputed Area: IND/PAK","STYLE":"Tightly Dashed"},"geometry":{"type":"LineString","coordinates":[[79.743,34.527],[79.746,34.537]]}},{"type":"Feature","properties":{"NAME":"Disputed Area: IND/PAK","STYLE":"Tightly Dashed"},"geometry":{"type":"LineString","coordinates":[[80.351,35.441],[80.353,35.454]]}},{"type":"Feature","properties":{"NAME":"Disputed Area: IND/PAK","STYLE":"Tightly Dashed"},"geometry":{"type":"LineString","coordinates":[[78.936,35.895],[78.927,35.895]]}},{"type":"Feature","properties":{"NAME":"Disputed Area: IND/PAK","STYLE":"Tightly Dashed"},"geometry":{"type":"LineString","coordinates":[[78.925,35.895],[78.878,35.895],[78.877,35.895]]}},{"type":"Feature","properties":{"NAME":"Disputed Area: IND/PAK","STYLE":"Tightly Dashed"},"geometry":{"type":"LineString","coordinates":[[78.794,33.586],[78.795,33.572]]}},{"type":"Feature","properties":{"NAME":"Kuril Islands","STYLE":""},"geometry":{"type":"LineString","coordinates":[[146.055,43.414],[146.105,43.432],[146.098,43.448],[146.028,43.414],[146.055,43.414]]}},{"type":"Feature","properties":{"NAME":"Kuril Islands","STYLE":""},"geometry":{"type":"LineString","coordinates":[[145.91,43.425],[145.952,43.424],[145.888,43.462],[145.896,43.43],[145.91,43.425]]}},{"type":"Feature","properties":{"NAME":"Kuril Islands","STYLE":""},"geometry":{"type":"LineString","coordinates":[[146.135,43.549],[146.066,43.527],[146.132,43.465],[146.201,43.534],[146.135,43.549]]}},{"type":"Feature","properties":{"NAME":"Kuril Islands","STYLE":""},"geometry":{"type":"LineString","coordinates":[[146.308,43.621],[146.357,43.618],[146.312,43.651],[146.308,43.621]]}},{"type":"Feature","properties":{"NAME":"Kuril Islands","STYLE":""},"geometry":{"type":"LineString","coordinates":[[146.729,43.747],[146.906,43.815],[146.916,43.832],[146.587,43.807],[146.729,43.747]]}},{"type":"Feature","properties":{"NAME":"Kuril Islands","STYLE":""},"geometry":{"type":"LineString","coordinates":[[146.281,44.443],[146.079,44.471],[145.408,43.843],[145.433,43.721],[145.555,43.672],[145.592,43.87],[145.945,44.152],[146.554,44.431],[146.281,44.443]]}},{"type":"Feature","properties":{"NAME":"Kuril Islands","STYLE":""},"geometry":{"type":"LineString","coordinates":[[148.891,45.485],[148.652,45.537],[148.167,45.258],[147.905,45.43],[147.87,45.224],[147.109,44.823],[147.191,44.707],[146.858,44.453],[147.206,44.571],[147.652,44.993],[147.905,44.961],[148.318,45.221],[148.843,45.337],[148.891,45.485]]}},{"type":"Feature","properties":{"NAME":"UN Buffer Zone in Cyprus","STYLE":"Tightly Dashed"},"geometry":{"type":"LineString","coordinates":[[33.479,35.017],[33.477,35.008]]}},{"type":"Feature","properties":{"NAME":"UN Buffer Zone in Cyprus","STYLE":"Tightly Dashed"},"geometry":{"type":"LineString","coordinates":[[33.469,35.012],[33.479,35.017]]}},{"type":"Feature","properties":{"NAME":"UN Buffer Zone in Cyprus","STYLE":"Tightly Dashed"},"geometry":{"type":"LineString","coordinates":[[33.477,35.008],[33.469,35.012]]}},{"type":"Feature","properties":{"NAME":"UN Buffer Zone in Cyprus","STYLE":"Tightly Dashed"},"geometry":{"type":"LineString","coordinates":[[33.516,35.031],[33.685,35.029],[33.697,35.009],[33.7,35.003],[33.527,35.019]]}},{"type":"Feature","properties":{"NAME":"UN Buffer Zone in Cyprus","STYLE":"Tightly Dashed"},"geometry":{"type":"LineString","coordinates":[[33.527,35.019],[33.516,35.031]]}},{"type":"Feature","properties":{"NAME":"UN Buffer Zone in Cyprus","STYLE":"Tightly Dashed"},"geometry":{"type":"LineString","coordinates":[[33.504,35.031],[33.503,35.031],[33.497,35.026]]}},{"type":"Feature","properties":{"NAME":"UN Buffer Zone in Cyprus","STYLE":"Tightly Dashed"},"geometry":{"type":"LineString","coordinates":[[33.479,35.017],[33.481,35.032],[33.504,35.031]]}},{"type":"Feature","properties":{"NAME":"UN Buffer Zone in Cyprus","STYLE":"Tightly Dashed"},"geometry":{"type":"LineString","coordinates":[[33.497,35.026],[33.479,35.017]]}},{"type":"Feature","properties":{"NAME":"UN Buffer Zone in Cyprus","STYLE":"Tightly Dashed"},"geometry":{"type":"LineString","coordinates":[[33.504,35.031],[33.51,35.037]]}},{"type":"Feature","properties":{"NAME":"UN Buffer Zone in Cyprus","STYLE":"Tightly Dashed"},"geometry":{"type":"LineString","coordinates":[[33.516,35.031],[33.504,35.031]]}},{"type":"Feature","properties":{"NAME":"UN Buffer Zone in Cyprus","STYLE":"Tightly Dashed"},"geometry":{"type":"LineString","coordinates":[[33.51,35.037],[33.516,35.031]]}},{"type":"Feature","properties":{"NAME":"UN Buffer Zone in Cyprus","STYLE":"Tightly Dashed"},"geometry":{"type":"LineString","coordinates":[[33.963,35.068],[34.005,35.06],[33.977,35.065],[33.948,35.062],[33.963,35.068]]}},{"type":"Feature","properties":{"NAME":"UN Buffer Zone in Cyprus","STYLE":"Tightly Dashed"},"geometry":{"type":"LineString","coordinates":[[32.813,35.096],[32.976,35.117]]}},{"type":"Feature","properties":{"NAME":"UN Buffer Zone in Cyprus","STYLE":"Tightly Dashed"},"geometry":{"type":"LineString","coordinates":[[32.976,35.117],[32.969,35.113],[32.839,35.08],[32.813,35.096]]}},{"type":"Feature","properties":{"NAME":"UN Buffer Zone in Cyprus","STYLE":"Tightly Dashed"},"geometry":{"type":"LineString","coordinates":[[33.469,35.012],[33.446,35.001],[33.457,35.101],[33.443,35.114],[33.416,35.16]]}},{"type":"Feature","properties":{"NAME":"UN Buffer Zone in Cyprus","STYLE":"Tightly Dashed"},"geometry":{"type":"LineString","coordinates":[[33.416,35.16],[33.388,35.188],[33.398,35.196],[33.47,35.104],[33.471,35.039],[33.466,35.014],[33.469,35.012]]}},{"type":"Feature","properties":{"NAME":"UN Buffer Zone in Cyprus","STYLE":"Tightly Dashed"},"geometry":{"type":"LineString","coordinates":[[32.813,35.096],[32.807,35.095],[32.795,35.103],[32.755,35.12],[32.698,35.157]]}},{"type":"Feature","properties":{"NAME":"UN Buffer Zone in Cyprus","STYLE":"Tightly Dashed"},"geometry":{"type":"LineString","coordinates":[[32.698,35.157],[32.711,35.182],[32.711,35.175],[32.731,35.143],[32.744,35.138],[32.813,35.096]]}},{"type":"Feature","properties":{"NAME":"UN Buffer Zone in Cyprus","STYLE":"Tightly Dashed"},"geometry":{"type":"LineString","coordinates":[[32.976,35.117],[33.014,35.142],[33.24,35.171],[33.271,35.169],[33.315,35.162],[32.976,35.117]]}},{"type":"Feature","properties":{"NAME":"UN Buffer Zone in Cyprus","STYLE":"Tightly Dashed"},"geometry":{"type":"LineString","coordinates":[[32.637,35.19],[32.636,35.187],[32.628,35.186],[32.63,35.189]]}},{"type":"Feature","properties":{"NAME":"UN Buffer Zone in Cyprus","STYLE":"Tightly Dashed"},"geometry":{"type":"LineString","coordinates":[[32.63,35.189],[32.637,35.19]]}},{"type":"Feature","properties":{"NAME":"UN Buffer Zone in Cyprus","STYLE":"Tightly Dashed"},"geometry":{"type":"LineString","coordinates":[[32.637,35.19],[32.637,35.19],[32.637,35.19]]}},{"type":"Feature","properties":{"NAME":"Western Sahara","STYLE":""},"geometry":{"type":"LineString","coordinates":[[-13.214,27.57],[-13.565,26.742],[-14.475,26.179],[-14.828,25.297],[-14.883,24.703],[-15.843,23.885],[-16.007,23.645],[-15.769,23.921],[-15.71,23.822],[-16.203,23.096],[-16.143,23.014],[-16.494,22.326],[-16.763,22.223],[-16.951,21.84],[-17.009,21.412]]}},{"type":"Feature","properties":{"NAME":"Western Sahara","STYLE":"Tightly Dashed"},"geometry":{"type":"LineString","coordinates":[[-17.052,20.772],[-17.051,20.77],[-17.051,20.773],[-17.052,20.772]]}},{"type":"Feature","properties":{"NAME":"Western Sahara","STYLE":"Tightly Dashed"},"geometry":{"type":"LineString","coordinates":[[-17.095,20.827],[-17.075,20.814],[-17.061,20.784],[-17.08,20.881],[-17.095,20.827]]}},{"type":"Feature","properties":{"NAME":"Western Sahara","STYLE":"Tightly Dashed"},"geometry":{"type":"LineString","coordinates":[[-8.682,27.617],[-8.682,27.661],[-13.173,27.662]]}},{"type":"Feature","properties":{"NAME":"Western Sahara","STYLE":"Tightly Dashed"},"geometry":{"type":"LineString","coordinates":[[-17.009,21.412],[-17.078,20.905],[-16.948,21.333],[-13.015,21.334],[-13.026,21.495],[-13.12,22.884],[-13.034,22.995],[-12.354,23.323],[-12.033,23.445],[-12.001,25.995],[-8.681,26.013],[-8.682,27.285],[-8.682,27.617]]}},{"type":"Feature","properties":{"NAME":"Western Sahara","STYLE":"Tightly Dashed"},"geometry":{"type":"LineString","coordinates":[[-13.173,27.662],[-13.175,27.662]]}},{"type":"Feature","properties":{"NAME":"Western Sahara","STYLE":"Tightly Dashed"},"geometry":{"type":"LineString","coordinates":[[-13.175,27.662],[-13.214,27.57]]}},{"type":"Feature","properties":{"NAME":"China / India","STYLE":"Tightly Dashed"},"geometry":{"type":"LineString","coordinates":[[77.317,35.491],[76.831,35.631]]}},{"type":"Feature","properties":{"NAME":"China / India","STYLE":"Tightly Dashed"},"geometry":{"type":"LineString","coordinates":[[77.364,35.478],[77.351,35.481]]}},{"type":"Feature","properties":{"NAME":"China / India","STYLE":"Tightly Dashed"},"geometry":{"type":"LineString","coordinates":[[78.931,33.376],[78.916,33.388]]}},{"type":"Feature","properties":{"NAME":"China / India","STYLE":"Tightly Dashed"},"geometry":{"type":"LineString","coordinates":[[78.737,32.63],[78.739,32.627]]}},{"type":"Feature","properties":{"NAME":"China / India","STYLE":"Tightly Dashed"},"geometry":{"type":"LineString","coordinates":[[78.676,32.616],[78.737,32.63]]}},{"type":"Feature","properties":{"NAME":"China / India","STYLE":"Tightly Dashed"},"geometry":{"type":"LineString","coordinates":[[78.542,32.584],[78.676,32.616]]}},{"type":"Feature","properties":{"NAME":"China / India","STYLE":"Tightly Dashed"},"geometry":{"type":"LineString","coordinates":[[78.385,32.547],[78.387,32.548]]}},{"type":"Feature","properties":{"NAME":"China / India","STYLE":"Tightly Dashed"},"geometry":{"type":"LineString","coordinates":[[78.458,32.23],[78.445,32.287]]}},{"type":"Feature","properties":{"NAME":"China / India","STYLE":"Tightly Dashed"},"geometry":{"type":"LineString","coordinates":[[78.385,32.547],[78.385,32.547]]}},{"type":"Feature","properties":{"NAME":"China / India","STYLE":"Tightly Dashed"},"geometry":{"type":"LineString","coordinates":[[78.406,32.455],[78.388,32.534]]}},{"type":"Feature","properties":{"NAME":"China / India","STYLE":"Tightly Dashed"},"geometry":{"type":"LineString","coordinates":[[78.744,31.964],[78.458,32.23]]}},{"type":"Feature","properties":{"NAME":"China / India","STYLE":"Tightly Dashed"},"geometry":{"type":"LineString","coordinates":[[78.745,31.835],[78.745,31.844]]}},{"type":"Feature","properties":{"NAME":"China / India","STYLE":"Tightly Dashed"},"geometry":{"type":"LineString","coordinates":[[78.745,31.775],[78.745,31.835]]}},{"type":"Feature","properties":{"NAME":"China / India","STYLE":"Tightly Dashed"},"geometry":{"type":"LineString","coordinates":[[78.745,31.844],[78.745,31.889]]}},{"type":"Feature","properties":{"NAME":"China / India","STYLE":"Tightly Dashed"},"geometry":{"type":"LineString","coordinates":[[78.745,31.901],[78.744,31.964]]}},{"type":"Feature","properties":{"NAME":"China / India","STYLE":"Tightly Dashed"},"geometry":{"type":"LineString","coordinates":[[79.078,31.427],[78.882,31.357]]}},{"type":"Feature","properties":{"NAME":"China / India","STYLE":"Tightly Dashed"},"geometry":{"type":"LineString","coordinates":[[79.401,31.024],[79.346,31.093]]}},{"type":"Feature","properties":{"NAME":"China / India","STYLE":"Tightly Dashed"},"geometry":{"type":"LineString","coordinates":[[79.104,31.394],[79.078,31.427]]}},{"type":"Feature","properties":{"NAME":"China / India","STYLE":"Tightly Dashed"},"geometry":{"type":"LineString","coordinates":[[79.346,31.093],[79.109,31.388]]}},{"type":"Feature","properties":{"NAME":"China / India","STYLE":"Tightly Dashed"},"geometry":{"type":"LineString","coordinates":[[79.805,30.962],[79.711,30.976]]}},{"type":"Feature","properties":{"NAME":"China / India","STYLE":"Tightly Dashed"},"geometry":{"type":"LineString","coordinates":[[79.85,30.955],[79.805,30.962]]}},{"type":"Feature","properties":{"NAME":"China / India","STYLE":"Tightly Dashed"},"geometry":{"type":"LineString","coordinates":[[79.711,30.976],[79.699,30.978]]}},{"type":"Feature","properties":{"NAME":"China / India","STYLE":"Tightly Dashed"},"geometry":{"type":"LineString","coordinates":[[79.417,31.021],[79.401,31.024]]}},{"type":"Feature","properties":{"NAME":"China / India","STYLE":"Tightly Dashed"},"geometry":{"type":"LineString","coordinates":[[80.224,30.734],[79.85,30.955]]}},{"type":"Feature","properties":{"NAME":"China / India","STYLE":"Tightly Dashed"},"geometry":{"type":"LineString","coordinates":[[80.192,30.606],[80.2,30.637]]}},{"type":"Feature","properties":{"NAME":"China / India","STYLE":"Tightly Dashed"},"geometry":{"type":"LineString","coordinates":[[80.206,30.662],[80.224,30.734]]}},{"type":"Feature","properties":{"NAME":"China / Pakistan","STYLE":"Tightly Dashed"},"geometry":{"type":"LineString","coordinates":[[75.987,36.421],[75.874,36.575]]}},{"type":"Feature","properties":{"NAME":"China / Pakistan","STYLE":"Tightly Dashed"},"geometry":{"type":"LineString","coordinates":[[75.962,36.27],[75.987,36.421]]}},{"type":"Feature","properties":{"NAME":"China / Pakistan","STYLE":"Tightly Dashed"},"geometry":{"type":"LineString","coordinates":[[75.922,36.032],[75.95,36.198]]}},{"type":"Feature","properties":{"NAME":"China / Pakistan","STYLE":"Tightly Dashed"},"geometry":{"type":"LineString","coordinates":[[75.987,35.972],[75.922,36.032]]}},{"type":"Feature","properties":{"NAME":"China / Pakistan","STYLE":"Tightly Dashed"},"geometry":{"type":"LineString","coordinates":[[76.166,35.806],[76.096,35.871]]}},{"type":"Feature","properties":{"NAME":"China / Pakistan","STYLE":"Tightly Dashed"},"geometry":{"type":"LineString","coordinates":[[76.555,35.898],[76.166,35.806]]}},{"type":"Feature","properties":{"NAME":"China / Pakistan","STYLE":"Tightly Dashed"},"geometry":{"type":"LineString","coordinates":[[76.571,35.751],[76.555,35.898]]}},{"type":"Feature","properties":{"NAME":"China / Pakistan","STYLE":"Tightly Dashed"},"geometry":{"type":"LineString","coordinates":[[76.763,35.653],[76.754,35.658]]}},{"type":"Feature","properties":{"NAME":"China / Pakistan","STYLE":"Tightly Dashed"},"geometry":{"type":"LineString","coordinates":[[76.725,35.673],[76.571,35.751]]}},{"type":"Feature","properties":{"NAME":"India / Pakistan","STYLE":"Dotted"},"geometry":{"type":"LineString","coordinates":[[77.049,35.11],[76.777,35.646]]}},{"type":"Feature","properties":{"NAME":"India / Pakistan","STYLE":"Dotted"},"geometry":{"type":"LineString","coordinates":[[77.034,35.097],[77.049,35.11]]}},{"type":"Feature","properties":{"NAME":"India / Pakistan","STYLE":"Dotted"},"geometry":{"type":"LineString","coordinates":[[76.956,35.027],[77.034,35.097]]}},{"type":"Feature","properties":{"NAME":"India / Pakistan","STYLE":"Dotted"},"geometry":{"type":"LineString","coordinates":[[76.814,34.898],[76.937,35.01]]}},{"type":"Feature","properties":{"NAME":"India / Pakistan","STYLE":"Dotted"},"geometry":{"type":"LineString","coordinates":[[76.64,34.741],[76.808,34.893]]}},{"type":"Feature","properties":{"NAME":"India / Pakistan","STYLE":"Dotted"},"geometry":{"type":"LineString","coordinates":[[76.509,34.728],[76.64,34.741]]}},{"type":"Feature","properties":{"NAME":"India / Pakistan","STYLE":"Dotted"},"geometry":{"type":"LineString","coordinates":[[76.144,34.69],[76.471,34.724]]}},{"type":"Feature","properties":{"NAME":"India / Pakistan","STYLE":"Dotted"},"geometry":{"type":"LineString","coordinates":[[76.023,34.677],[76.142,34.69]]}},{"type":"Feature","properties":{"NAME":"India / Pakistan","STYLE":"Dotted"},"geometry":{"type":"LineString","coordinates":[[75.656,34.497],[76.023,34.677]]}},{"type":"Feature","properties":{"NAME":"India / Pakistan","STYLE":"Dotted"},"geometry":{"type":"LineString","coordinates":[[75.198,34.594],[75.656,34.497]]}},{"type":"Feature","properties":{"NAME":"India / Pakistan","STYLE":"Dotted"},"geometry":{"type":"LineString","coordinates":[[74.349,34.773],[75.153,34.603]]}},{"type":"Feature","properties":{"NAME":"India / Pakistan","STYLE":"Dotted"},"geometry":{"type":"LineString","coordinates":[[73.919,34.643],[74.349,34.773]]}},{"type":"Feature","properties":{"NAME":"India / Pakistan","STYLE":"Dotted"},"geometry":{"type":"LineString","coordinates":[[73.885,34.578],[73.919,34.643]]}},{"type":"Feature","properties":{"NAME":"India / Pakistan","STYLE":"Dotted"},"geometry":{"type":"LineString","coordinates":[[73.775,34.371],[73.883,34.574]]}},{"type":"Feature","properties":{"NAME":"India / Pakistan","STYLE":"Dotted"},"geometry":{"type":"LineString","coordinates":[[73.991,34.219],[73.775,34.371]]}},{"type":"Feature","properties":{"NAME":"India / Pakistan","STYLE":"Dotted"},"geometry":{"type":"LineString","coordinates":[[73.894,34.054],[73.991,34.219]]}},{"type":"Feature","properties":{"NAME":"India / Pakistan","STYLE":"Dotted"},"geometry":{"type":"LineString","coordinates":[[74.272,33.962],[73.894,34.054]]}},{"type":"Feature","properties":{"NAME":"India / Pakistan","STYLE":"Dotted"},"geometry":{"type":"LineString","coordinates":[[73.966,33.735],[74.272,33.962]]}},{"type":"Feature","properties":{"NAME":"India / Pakistan","STYLE":"Dotted"},"geometry":{"type":"LineString","coordinates":[[74.158,33.494],[73.966,33.735]]}},{"type":"Feature","properties":{"NAME":"India / Pakistan","STYLE":"Dotted"},"geometry":{"type":"LineString","coordinates":[[74.127,33.433],[74.158,33.494]]}},{"type":"Feature","properties":{"NAME":"India / Pakistan","STYLE":"Dotted"},"geometry":{"type":"LineString","coordinates":[[74.002,33.178],[74.084,33.344]]}},{"type":"Feature","properties":{"NAME":"India / Pakistan","STYLE":"Dotted"},"geometry":{"type":"LineString","coordinates":[[74.311,32.994],[74.002,33.178]]}},{"type":"Feature","properties":{"NAME":"India / Pakistan","STYLE":"Dotted"},"geometry":{"type":"LineString","coordinates":[[74.33,32.869],[74.311,32.994]]}},{"type":"Feature","properties":{"NAME":"Israel / Syrian Arab Republic","STYLE":"Dashed"},"geometry":{"type":"LineString","coordinates":[[35.612,32.682],[35.605,33.138]]}},{"type":"Feature","properties":{"NAME":"Israel / Syrian Arab Republic","STYLE":"Dashed"},"geometry":{"type":"LineString","coordinates":[[35.604,33.226],[35.604,33.227]]}},{"type":"Feature","properties":{"NAME":"Israel / West Bank and Gaza","STYLE":"Tightly Dashed"},"geometry":{"type":"LineString","coordinates":[[34.945,31.837],[34.972,31.979]]}},{"type":"Feature","properties":{"NAME":"Israel / West Bank and Gaza","STYLE":"Tightly Dashed"},"geometry":{"type":"LineString","coordinates":[[35.079,31.79],[34.945,31.837]]}},{"type":"Feature","properties":{"NAME":"Jordan / West Bank and Gaza","STYLE":"Dashed"},"geometry":{"type":"LineString","coordinates":[[35.485,31.729],[35.458,31.495]]}},{"type":"Feature","properties":{"NAME":"Jordan / West Bank and Gaza","STYLE":"Dashed"},"geometry":{"type":"LineString","coordinates":[[35.496,31.825],[35.493,31.798]]}},{"type":"Feature","properties":{"NAME":"Jordan / West Bank and Gaza","STYLE":"Dashed"},"geometry":{"type":"LineString","coordinates":[[35.561,32.385],[35.498,31.838]]}},{"type":"Feature","properties":{"NAME":"Kenya / South Sudan","STYLE":"Tightly Dashed"},"geometry":{"type":"LineString","coordinates":[[35.921,4.619],[34.381,4.62]]}},{"type":"Feature","properties":{"NAME":"Kenya / South Sudan","STYLE":"Tightly Dashed"},"geometry":{"type":"LineString","coordinates":[[34.381,4.62],[34.377,4.616]]}},{"type":"Feature","properties":{"NAME":"Korea, Democratic People's Republic of / Korea, Republic of","STYLE":"Tightly Dashed"},"geometry":{"type":"LineString","coordinates":[[128.257,38.518],[128.358,38.618]]}},{"type":"Feature","properties":{"NAME":"Korea, Democratic People's Republic of / Korea, Republic of","STYLE":"Tightly Dashed"},"geometry":{"type":"LineString","coordinates":[[128.04,38.304],[128.123,38.386]]}},{"type":"Feature","properties":{"NAME":"Korea, Democratic People's Republic of / Korea, Republic of","STYLE":"Tightly Dashed"},"geometry":{"type":"LineString","coordinates":[[127.09,38.286],[128.04,38.304]]}},{"type":"Feature","properties":{"NAME":"Korea, Democratic People's Republic of / Korea, Republic of","STYLE":"Tightly Dashed"},"geometry":{"type":"LineString","coordinates":[[126.753,37.921],[127.09,38.286]]}},{"type":"Feature","properties":{"NAME":"Korea, Democratic People's Republic of / Korea, Republic of","STYLE":"Tightly Dashed"},"geometry":{"type":"LineString","coordinates":[[126.679,37.84],[126.739,37.906]]}}]}