{"type":"FeatureCollection","features":[{"type":"Feature","id":236,"geometry":{"type":"Point","coordinates":[21.437,61.236]},"properties":{"name":"Olkiluoto nuclear power plant","fuel":"nuclear","mw":1720.0,"country":"FIN","status":"operating"}},{"type":"Feature","id":237,"geometry":{"type":"Point","coordinates":[-1.882,49.537]},"properties":{"name":"Flamanville nuclear power plant","fuel":"nuclear","mw":1650.0,"country":"FRA","status":"operating"}},{"type":"Feature","id":238,"geometry":{"type":"Point","coordinates":[0.658,46.456]},"properties":{"name":"Civaux nuclear power plant","fuel":"nuclear","mw":1561.0,"country":"FRA","status":"operating"}},{"type":"Feature","id":239,"geometry":{"type":"Point","coordinates":[0.658,46.456]},"properties":{"name":"Civaux nuclear power plant","fuel":"nuclear","mw":1561.0,"country":"FRA","status":"operating"}},{"type":"Feature","id":240,"geometry":{"type":"Point","coordinates":[4.787,50.09]},"properties":{"name":"Chooz nuclear power plant","fuel":"nuclear","mw":1560.0,"country":"FRA","status":"operating"}},{"type":"Feature","id":241,"geometry":{"type":"Point","coordinates":[4.787,50.09]},"properties":{"name":"Chooz nuclear power plant","fuel":"nuclear","mw":1560.0,"country":"FRA","status":"operating"}},{"type":"Feature","id":242,"geometry":{"type":"Point","coordinates":[16.673,57.417]},"properties":{"name":"Oskarshamn nuclear power plant","fuel":"nuclear","mw":1450.0,"country":"SWE","status":"operating"}},{"type":"Feature","id":243,"geometry":{"type":"Point","coordinates":[-1.882,49.537]},"properties":{"name":"Flamanville nuclear power plant","fuel":"nuclear","mw":1382.0,"country":"FRA","status":"operating"}},{"type":"Feature","id":244,"geometry":{"type":"Point","coordinates":[-1.882,49.537]},"properties":{"name":"Flamanville nuclear power plant","fuel":"nuclear","mw":1382.0,"country":"FRA","status":"operating"}},{"type":"Feature","id":245,"geometry":{"type":"Point","coordinates":[0.635,49.858]},"properties":{"name":"Paluel nuclear power plant","fuel":"nuclear","mw":1382.0,"country":"FRA","status":"operating"}},{"type":"Feature","id":246,"geometry":{"type":"Point","coordinates":[0.635,49.858]},"properties":{"name":"Paluel nuclear power plant","fuel":"nuclear","mw":1382.0,"country":"FRA","status":"operating"}},{"type":"Feature","id":247,"geometry":{"type":"Point","coordinates":[0.635,49.858]},"properties":{"name":"Paluel nuclear power plant","fuel":"nuclear","mw":1382.0,"country":"FRA","status":"operating"}},{"type":"Feature","id":248,"geometry":{"type":"Point","coordinates":[0.635,49.858]},"properties":{"name":"Paluel nuclear power plant","fuel":"nuclear","mw":1382.0,"country":"FRA","status":"operating"}},{"type":"Feature","id":249,"geometry":{"type":"Point","coordinates":[1.211,49.976]},"properties":{"name":"Penly nuclear power plant","fuel":"nuclear","mw":1382.0,"country":"FRA","status":"operating"}},{"type":"Feature","id":250,"geometry":{"type":"Point","coordinates":[1.211,49.976]},"properties":{"name":"Penly nuclear power plant","fuel":"nuclear","mw":1382.0,"country":"FRA","status":"operating"}},{"type":"Feature","id":251,"geometry":{"type":"Point","coordinates":[4.755,45.404]},"properties":{"name":"St. Alban nuclear power plant","fuel":"nuclear","mw":1381.0,"country":"FRA","status":"operating"}},{"type":"Feature","id":252,"geometry":{"type":"Point","coordinates":[4.755,45.404]},"properties":{"name":"St. Alban nuclear power plant","fuel":"nuclear","mw":1381.0,"country":"FRA","status":"operating"}},{"type":"Feature","id":253,"geometry":{"type":"Point","coordinates":[2.875,47.51]},"properties":{"name":"Belleville nuclear power plant","fuel":"nuclear","mw":1363.0,"country":"FRA","status":"operating"}},{"type":"Feature","id":254,"geometry":{"type":"Point","coordinates":[2.875,47.51]},"properties":{"name":"Belleville nuclear power plant","fuel":"nuclear","mw":1363.0,"country":"FRA","status":"operating"}},{"type":"Feature","id":255,"geometry":{"type":"Point","coordinates":[0.844,44.106]},"properties":{"name":"Golfech nuclear power plant","fuel":"nuclear","mw":1363.0,"country":"FRA","status":"operating"}},{"type":"Feature","id":256,"geometry":{"type":"Point","coordinates":[0.844,44.106]},"properties":{"name":"Golfech nuclear power plant","fuel":"nuclear","mw":1363.0,"country":"FRA","status":"operating"}},{"type":"Feature","id":257,"geometry":{"type":"Point","coordinates":[3.518,48.517]},"properties":{"name":"Nogent nuclear power plant","fuel":"nuclear","mw":1363.0,"country":"FRA","status":"operating"}},{"type":"Feature","id":258,"geometry":{"type":"Point","coordinates":[3.518,48.517]},"properties":{"name":"Nogent nuclear power plant","fuel":"nuclear","mw":1363.0,"country":"FRA","status":"operating"}},{"type":"Feature","id":259,"geometry":{"type":"Point","coordinates":[6.217,49.416]},"properties":{"name":"Cattenom nuclear power plant","fuel":"nuclear","mw":1362.0,"country":"FRA","status":"operating"}},{"type":"Feature","id":260,"geometry":{"type":"Point","coordinates":[6.217,49.416]},"properties":{"name":"Cattenom nuclear power plant","fuel":"nuclear","mw":1362.0,"country":"FRA","status":"operating"}},{"type":"Feature","id":261,"geometry":{"type":"Point","coordinates":[6.217,49.416]},"properties":{"name":"Cattenom nuclear power plant","fuel":"nuclear","mw":1362.0,"country":"FRA","status":"operating"}},{"type":"Feature","id":262,"geometry":{"type":"Point","coordinates":[6.217,49.416]},"properties":{"name":"Cattenom nuclear power plant","fuel":"nuclear","mw":1362.0,"country":"FRA","status":"operating"}},{"type":"Feature","id":263,"geometry":{"type":"Point","coordinates":[8.184,47.601]},"properties":{"name":"Leibstadt nuclear power plant","fuel":"nuclear","mw":1275.0,"country":"CHE","status":"operating"}},{"type":"Feature","id":264,"geometry":{"type":"Point","coordinates":[18.174,60.403]},"properties":{"name":"Forsmark nuclear power plant","fuel":"nuclear","mw":1208.0,"country":"SWE","status":"operating"}},{"type":"Feature","id":265,"geometry":{"type":"Point","coordinates":[12.109,57.257]},"properties":{"name":"Ringhals nuclear power plant","fuel":"nuclear","mw":1171.0,"country":"SWE","status":"operating"}},{"type":"Feature","id":266,"geometry":{"type":"Point","coordinates":[18.174,60.403]},"properties":{"name":"Forsmark nuclear power plant","fuel":"nuclear","mw":1160.0,"country":"SWE","status":"operating"}},{"type":"Feature","id":267,"geometry":{"type":"Point","coordinates":[-1.051,39.213]},"properties":{"name":"Cofrentes nuclear power plant","fuel":"nuclear","mw":1102.0,"country":"ESP","status":"operating"}},{"type":"Feature","id":268,"geometry":{"type":"Point","coordinates":[33.54,36.145]},"properties":{"name":"Akkuyu nuclear power plant","fuel":"nuclear","mw":1200.0,"country":"TUR","status":"construction"}},{"type":"Feature","id":269,"geometry":{"type":"Point","coordinates":[33.54,36.145]},"properties":{"name":"Akkuyu nuclear power plant","fuel":"nuclear","mw":1200.0,"country":"TUR","status":"construction"}},{"type":"Feature","id":270,"geometry":{"type":"Point","coordinates":[33.54,36.145]},"properties":{"name":"Akkuyu nuclear power plant","fuel":"nuclear","mw":1200.0,"country":"TUR","status":"construction"}},{"type":"Feature","id":271,"geometry":{"type":"Point","coordinates":[33.54,36.145]},"properties":{"name":"Akkuyu nuclear power plant","fuel":"nuclear","mw":1200.0,"country":"TUR","status":"construction"}},{"type":"Feature","id":272,"geometry":{"type":"Point","coordinates":[12.109,57.257]},"properties":{"name":"Ringhals nuclear power plant","fuel":"nuclear","mw":1117.0,"country":"SWE","status":"operating"}},{"type":"Feature","id":336,"geometry":{"type":"Point","coordinates":[15.516,45.939]},"properties":{"name":"Kr\u0161ko nuclear power plant","fuel":"nuclear","mw":1100.0,"country":"SVN","status":"planned"}},{"type":"Feature","id":365,"geometry":{"type":"Point","coordinates":[18.853,46.578]},"properties":{"name":"Paks nuclear power plant","fuel":"nuclear","mw":1265.0,"country":"HUN","status":"planned"}},{"type":"Feature","id":366,"geometry":{"type":"Point","coordinates":[18.853,46.578]},"properties":{"name":"Paks nuclear power plant","fuel":"nuclear","mw":1265.0,"country":"HUN","status":"planned"}},{"type":"Feature","id":369,"geometry":{"type":"Point","coordinates":[16.148,49.085]},"properties":{"name":"Dukovany nuclear power plant","fuel":"nuclear","mw":1200.0,"country":"CZE","status":"planned"}},{"type":"Feature","id":370,"geometry":{"type":"Point","coordinates":[16.148,49.085]},"properties":{"name":"Dukovany nuclear power plant","fuel":"nuclear","mw":1200.0,"country":"CZE","status":"planned"}},{"type":"Feature","id":373,"geometry":{"type":"Point","coordinates":[17.788,54.804]},"properties":{"name":"Lubiatowo-Kopalino nuclear power plant","fuel":"nuclear","mw":1250.0,"country":"POL","status":"planned"}},{"type":"Feature","id":374,"geometry":{"type":"Point","coordinates":[17.788,54.804]},"properties":{"name":"Lubiatowo-Kopalino nuclear power plant","fuel":"nuclear","mw":1250.0,"country":"POL","status":"planned"}},{"type":"Feature","id":375,"geometry":{"type":"Point","coordinates":[17.788,54.804]},"properties":{"name":"Lubiatowo-Kopalino nuclear power plant","fuel":"nuclear","mw":1250.0,"country":"POL","status":"planned"}},{"type":"Feature","id":382,"geometry":{"type":"Point","coordinates":[35.095,42.014]},"properties":{"name":"Sinop nuclear power plant","fuel":"nuclear","mw":1150.0,"country":"TUR","status":"planned"}},{"type":"Feature","id":383,"geometry":{"type":"Point","coordinates":[35.095,42.014]},"properties":{"name":"Sinop nuclear power plant","fuel":"nuclear","mw":1150.0,"country":"TUR","status":"planned"}},{"type":"Feature","id":384,"geometry":{"type":"Point","coordinates":[35.095,42.014]},"properties":{"name":"Sinop nuclear power plant","fuel":"nuclear","mw":1150.0,"country":"TUR","status":"planned"}},{"type":"Feature","id":385,"geometry":{"type":"Point","coordinates":[35.095,42.014]},"properties":{"name":"Sinop nuclear power plant","fuel":"nuclear","mw":1150.0,"country":"TUR","status":"planned"}},{"type":"Feature","id":386,"geometry":{"type":"Point","coordinates":[27.988,41.88]},"properties":{"name":"\u0130\u011fneada nuclear power plant","fuel":"nuclear","mw":1400.0,"country":"TUR","status":"planned"}},{"type":"Feature","id":387,"geometry":{"type":"Point","coordinates":[27.988,41.88]},"properties":{"name":"\u0130\u011fneada nuclear power plant","fuel":"nuclear","mw":1400.0,"country":"TUR","status":"planned"}},{"type":"Feature","id":388,"geometry":{"type":"Point","coordinates":[27.988,41.88]},"properties":{"name":"\u0130\u011fneada nuclear power plant","fuel":"nuclear","mw":1250.0,"country":"TUR","status":"planned"}},{"type":"Feature","id":389,"geometry":{"type":"Point","coordinates":[27.988,41.88]},"properties":{"name":"\u0130\u011fneada nuclear power plant","fuel":"nuclear","mw":1250.0,"country":"TUR","status":"planned"}},{"type":"Feature","id":396,"geometry":{"type":"Point","coordinates":[-3.142,51.206]},"properties":{"name":"Hinkley Point nuclear power plant","fuel":"nuclear","mw":1720.0,"country":"GBR","status":"construction"}},{"type":"Feature","id":397,"geometry":{"type":"Point","coordinates":[-3.142,51.206]},"properties":{"name":"Hinkley Point nuclear power plant","fuel":"nuclear","mw":1720.0,"country":"GBR","status":"construction"}},{"type":"Feature","id":398,"geometry":{"type":"Point","coordinates":[1.621,52.215]},"properties":{"name":"Sizewell nuclear power plant","fuel":"nuclear","mw":1250.0,"country":"GBR","status":"operating"}},{"type":"Feature","id":399,"geometry":{"type":"Point","coordinates":[14.38,49.18]},"properties":{"name":"Temelin nuclear power plant","fuel":"nuclear","mw":1200.0,"country":"CZE","status":"planned"}},{"type":"Feature","id":400,"geometry":{"type":"Point","coordinates":[14.38,49.18]},"properties":{"name":"Temelin nuclear power plant","fuel":"nuclear","mw":1200.0,"country":"CZE","status":"planned"}},{"type":"Feature","id":401,"geometry":{"type":"Point","coordinates":[5.271,45.797]},"properties":{"name":"Bugey nuclear power plant","fuel":"nuclear","mw":1650.0,"country":"FRA","status":"planned"}},{"type":"Feature","id":402,"geometry":{"type":"Point","coordinates":[5.271,45.797]},"properties":{"name":"Bugey nuclear power plant","fuel":"nuclear","mw":1650.0,"country":"FRA","status":"planned"}},{"type":"Feature","id":403,"geometry":{"type":"Point","coordinates":[2.133,51.014]},"properties":{"name":"Gravelines nuclear power plant","fuel":"nuclear","mw":1650.0,"country":"FRA","status":"planned"}},{"type":"Feature","id":404,"geometry":{"type":"Point","coordinates":[2.133,51.014]},"properties":{"name":"Gravelines nuclear power plant","fuel":"nuclear","mw":1650.0,"country":"FRA","status":"planned"}},{"type":"Feature","id":405,"geometry":{"type":"Point","coordinates":[1.211,49.976]},"properties":{"name":"Penly nuclear power plant","fuel":"nuclear","mw":1650.0,"country":"FRA","status":"planned"}},{"type":"Feature","id":406,"geometry":{"type":"Point","coordinates":[1.211,49.976]},"properties":{"name":"Penly nuclear power plant","fuel":"nuclear","mw":1650.0,"country":"FRA","status":"planned"}},{"type":"Feature","id":407,"geometry":{"type":"Point","coordinates":[3.717,51.431]},"properties":{"name":"Borssele nuclear power plant","fuel":"nuclear","mw":1650.0,"country":"NLD","status":"planned"}},{"type":"Feature","id":408,"geometry":{"type":"Point","coordinates":[3.717,51.431]},"properties":{"name":"Borssele nuclear power plant","fuel":"nuclear","mw":1650.0,"country":"NLD","status":"planned"}},{"type":"Feature","id":419,"geometry":{"type":"Point","coordinates":[18.607,51.147]},"properties":{"name":"P\u0105tn\u00f3w nuclear power plant","fuel":"nuclear","mw":1400.0,"country":"POL","status":"planned"}},{"type":"Feature","id":420,"geometry":{"type":"Point","coordinates":[17.691,48.497]},"properties":{"name":"Bohunice nuclear power plant","fuel":"nuclear","mw":1200.0,"country":"SVK","status":"planned"}},{"type":"Feature","id":421,"geometry":{"type":"Point","coordinates":[26.647,50.302]},"properties":{"name":"Khmelnitski nuclear power plant","fuel":"nuclear","mw":1250.0,"country":"UKR","status":"planned"}},{"type":"Feature","id":422,"geometry":{"type":"Point","coordinates":[26.647,50.302]},"properties":{"name":"Khmelnitski nuclear power plant","fuel":"nuclear","mw":1250.0,"country":"UKR","status":"planned"}},{"type":"Feature","id":423,"geometry":{"type":"Point","coordinates":[25.897,51.325]},"properties":{"name":"Rivne nuclear power plant","fuel":"nuclear","mw":1250.0,"country":"UKR","status":"planned"}},{"type":"Feature","id":424,"geometry":{"type":"Point","coordinates":[31.22,47.812]},"properties":{"name":"South Ukraine nuclear power plant","fuel":"nuclear","mw":1250.0,"country":"UKR","status":"planned"}},{"type":"Feature","id":428,"geometry":{"type":"Point","coordinates":[18.607,51.147]},"properties":{"name":"P\u0105tn\u00f3w nuclear power plant","fuel":"nuclear","mw":1400.0,"country":"POL","status":"planned"}},{"type":"Feature","id":462,"geometry":{"type":"Point","coordinates":[1.62,52.22]},"properties":{"name":"Sizewell nuclear power plant","fuel":"nuclear","mw":1600.0,"country":"GBR","status":"planned"}},{"type":"Feature","id":463,"geometry":{"type":"Point","coordinates":[1.62,52.22]},"properties":{"name":"Sizewell nuclear power plant","fuel":"nuclear","mw":1600.0,"country":"GBR","status":"planned"}},{"type":"Feature","id":751,"geometry":{"type":"Point","coordinates":[31.22,47.812]},"properties":{"name":"South Ukraine nuclear power plant","fuel":"nuclear","mw":1250.0,"country":"UKR","status":"planned"}},{"type":"Feature","id":1358,"geometry":{"type":"Point","coordinates":[10.094,52.315]},"properties":{"name":"Mehrum power station","fuel":"gas","mw":1200.0,"country":"DEU","status":"planned"}},{"type":"Feature","id":1846,"geometry":{"type":"Point","coordinates":[5.909,51.154]},"properties":{"name":"Claus power station","fuel":"gas","mw":1304.0,"country":"NLD","status":"operating"}},{"type":"Feature","id":2026,"geometry":{"type":"Point","coordinates":[22.826,45.913]},"properties":{"name":"Mintia-Deva power station","fuel":"gas","mw":1700.0,"country":"ROU","status":"construction"}},{"type":"Feature","id":2445,"geometry":{"type":"Point","coordinates":[-1.281,53.716]},"properties":{"name":"Ferrybridge-C power station","fuel":"gas","mw":1200.0,"country":"GBR","status":"planned"}},{"type":"Feature","id":2513,"geometry":{"type":"Point","coordinates":[-1.789,57.477]},"properties":{"name":"Peterhead power station","fuel":"gas","mw":1180.0,"country":"GBR","status":"operating"}},{"type":"Feature","id":2568,"geometry":{"type":"Point","coordinates":[0.228,53.363]},"properties":{"name":"Theddlethorpe Flexible Generation power station","fuel":"gas","mw":1500.0,"country":"GBR","status":"planned"}},{"type":"Feature","id":2575,"geometry":{"type":"Point","coordinates":[0.252,52.752]},"properties":{"name":"Walpole power station","fuel":"gas","mw":2000.0,"country":"GBR","status":"planned"}},{"type":"Feature","id":16419,"geometry":{"type":"Point","coordinates":[21.071,38.961]},"properties":{"name":"Amvrakikos Kolpos-Boukka solar farm","fuel":"solar","mw":6650.0,"country":"GRC","status":"planned"}},{"type":"Feature","id":19811,"geometry":{"type":"Point","coordinates":[23.835,38.321]},"properties":{"name":"Panayitsa Pouda Kouvelos solar farm","fuel":"solar","mw":6300.0,"country":"GRC","status":"planned"}},{"type":"Feature","id":30050,"geometry":{"type":"Point","coordinates":[-8.775,37.985]},"properties":{"name":"Fernando Pessoa solar farm","fuel":"solar","mw":1140.0,"country":"PRT","status":"planned"}},{"type":"Feature","id":32920,"geometry":{"type":"Point","coordinates":[-4.608,38.943]},"properties":{"name":"Erasmo solar farm","fuel":"solar","mw":1200.0,"country":"ESP","status":"planned"}},{"type":"Feature","id":33283,"geometry":{"type":"Point","coordinates":[-1.754,38.94]},"properties":{"name":"Hive H2 Albamed solar farm","fuel":"solar","mw":1100.0,"country":"ESP","status":"planned"}},{"type":"Feature","id":33311,"geometry":{"type":"Point","coordinates":[-3.252,41.613]},"properties":{"name":"HyDeal Espa\u00f1a solar farm","fuel":"solar","mw":4800.0,"country":"ESP","status":"planned"}},{"type":"Feature","id":33312,"geometry":{"type":"Point","coordinates":[-3.252,41.613]},"properties":{"name":"HyDeal Espa\u00f1a solar farm","fuel":"solar","mw":4700.0,"country":"ESP","status":"planned"}},{"type":"Feature","id":34862,"geometry":{"type":"Point","coordinates":[-0.889,41.654]},"properties":{"name":"Zaragoza and Teruel solar farm","fuel":"solar","mw":2580.0,"country":"ESP","status":"planned"}},{"type":"Feature","id":41440,"geometry":{"type":"Point","coordinates":[2.797,51.59]},"properties":{"name":"Noordhinder Zuid wind farm","fuel":"wind","mw":1400.0,"country":"BEL","status":"planned"}},{"type":"Feature","id":41627,"geometry":{"type":"Point","coordinates":[14.8,54.99]},"properties":{"name":"Bornholm Energy Island wind farm","fuel":"wind","mw":1500.0,"country":"DNK","status":"planned"}},{"type":"Feature","id":41628,"geometry":{"type":"Point","coordinates":[14.8,54.99]},"properties":{"name":"Bornholm Energy Island wind farm","fuel":"wind","mw":1500.0,"country":"DNK","status":"planned"}},{"type":"Feature","id":41667,"geometry":{"type":"Point","coordinates":[11.027,56.667]},"properties":{"name":"Kattegat 2 Offshore wind farm","fuel":"wind","mw":2500.0,"country":"DNK","status":"planned"}},{"type":"Feature","id":41742,"geometry":{"type":"Point","coordinates":[8.134,56.612]},"properties":{"name":"Thybo 1 Offshore wind farm","fuel":"wind","mw":4000.0,"country":"DNK","status":"planned"}},{"type":"Feature","id":41743,"geometry":{"type":"Point","coordinates":[7.514,57.165]},"properties":{"name":"Thybo 2 Offshore wind farm","fuel":"wind","mw":1760.0,"country":"DNK","status":"planned"}},{"type":"Feature","id":41765,"geometry":{"type":"Point","coordinates":[6.534,55.88]},"properties":{"name":"Vind\u00d8 Energy Island Offshore wind farm","fuel":"wind","mw":3000.0,"country":"DNK","status":"planned"}},{"type":"Feature","id":41766,"geometry":{"type":"Point","coordinates":[6.534,55.88]},"properties":{"name":"Vind\u00d8 Energy Island Offshore wind farm","fuel":"wind","mw":7000.0,"country":"DNK","status":"planned"}},{"type":"Feature","id":41779,"geometry":{"type":"Point","coordinates":[23.103,57.973]},"properties":{"name":"Liivi 2 wind farm","fuel":"wind","mw":1400.0,"country":"EST","status":"planned"}},{"type":"Feature","id":41790,"geometry":{"type":"Point","coordinates":[20.965,58.229]},"properties":{"name":"Saare 2.1 wind farm","fuel":"wind","mw":1560.0,"country":"EST","status":"planned"}},{"type":"Feature","id":41793,"geometry":{"type":"Point","coordinates":[23.771,58.053]},"properties":{"name":"Saare Liivi wind farm","fuel":"wind","mw":1200.0,"country":"EST","status":"planned"}},{"type":"Feature","id":41794,"geometry":{"type":"Point","coordinates":[21.669,58.135]},"properties":{"name":"Saare wind farm","fuel":"wind","mw":1400.0,"country":"EST","status":"planned"}},{"type":"Feature","id":41812,"geometry":{"type":"Point","coordinates":[23.992,65.038]},"properties":{"name":"Halla wind farm","fuel":"wind","mw":2100.0,"country":"FIN","status":"planned"}},{"type":"Feature","id":41885,"geometry":{"type":"Point","coordinates":[20.798,62.777]},"properties":{"name":"Korsn\u00e4s Offshore wind farm","fuel":"wind","mw":2000.0,"country":"FIN","status":"planned"}},{"type":"Feature","id":41898,"geometry":{"type":"Point","coordinates":[21.927,63.792]},"properties":{"name":"Laine wind farm","fuel":"wind","mw":1950.0,"country":"FIN","status":"planned"}},{"type":"Feature","id":41948,"geometry":{"type":"Point","coordinates":[21.363,61.702]},"properties":{"name":"Navakka offshore wind farm","fuel":"wind","mw":1500.0,"country":"FIN","status":"planned"}},{"type":"Feature","id":41991,"geometry":{"type":"Point","coordinates":[24.298,65.539]},"properties":{"name":"Pooki Offshore wind farm","fuel":"wind","mw":2000.0,"country":"FIN","status":"planned"}},{"type":"Feature","id":42060,"geometry":{"type":"Point","coordinates":[21.231,62.382]},"properties":{"name":"Tyrsky offshore wind farm","fuel":"wind","mw":1400.0,"country":"FIN","status":"planned"}},{"type":"Feature","id":42077,"geometry":{"type":"Point","coordinates":[21.428,61.411]},"properties":{"name":"Wellamo Offshore wind farm","fuel":"wind","mw":2000.0,"country":"FIN","status":"planned"}},{"type":"Feature","id":42181,"geometry":{"type":"Point","coordinates":[-1.665,46.259]},"properties":{"name":"Bay of Biscay offshore wind farm","fuel":"wind","mw":1200.0,"country":"FRA","status":"planned"}},{"type":"Feature","id":42332,"geometry":{"type":"Point","coordinates":[-0.383,49.433]},"properties":{"name":"Centre Manche 2 offshore wind farm","fuel":"wind","mw":1500.0,"country":"FRA","status":"planned"}},{"type":"Feature","id":42544,"geometry":{"type":"Point","coordinates":[1.228,50.53]},"properties":{"name":"East Channel - North Sea offshore wind farm","fuel":"wind","mw":2000.0,"country":"FRA","status":"planned"}},{"type":"Feature","id":43210,"geometry":{"type":"Point","coordinates":[-2.502,48.999]},"properties":{"name":"North Atlantic Western Floating Offshore wind farm","fuel":"wind","mw":2000.0,"country":"FRA","status":"planned"}},{"type":"Feature","id":46924,"geometry":{"type":"Point","coordinates":[25.611,35.303]},"properties":{"name":"Southern Rhodes wind farm","fuel":"wind","mw":1339.8,"country":"GRC","status":"planned"}},{"type":"Feature","id":47138,"geometry":{"type":"Point","coordinates":[-6.49,51.83]},"properties":{"name":"Blackwater Floating wind farm","fuel":"wind","mw":1500.0,"country":"IRL","status":"planned"}},{"type":"Feature","id":47163,"geometry":{"type":"Point","coordinates":[-7.253,51.505]},"properties":{"name":"Celtic Offshore Renewable Energy Floating wind farm","fuel":"wind","mw":1680.0,"country":"IRL","status":"planned"}},{"type":"Feature","id":47172,"geometry":{"type":"Point","coordinates":[-5.78,53.1]},"properties":{"name":"Codling wind farm","fuel":"wind","mw":1300.0,"country":"IRL","status":"planned"}},{"type":"Feature","id":47225,"geometry":{"type":"Point","coordinates":[-5.74,53.26]},"properties":{"name":"Greystones wind farm","fuel":"wind","mw":1200.0,"country":"IRL","status":"planned"}},{"type":"Feature","id":47230,"geometry":{"type":"Point","coordinates":[-10.409,52.34]},"properties":{"name":"Ilen Array Offshore wind farm","fuel":"wind","mw":1500.0,"country":"IRL","status":"planned"}},{"type":"Feature","id":47283,"geometry":{"type":"Point","coordinates":[-10.345,52.334]},"properties":{"name":"Moneypoint Offshore wind farm","fuel":"wind","mw":1100.0,"country":"IRL","status":"planned"}},{"type":"Feature","id":47302,"geometry":{"type":"Point","coordinates":[-11.061,52.461]},"properties":{"name":"Rian Offshore Array wind farm","fuel":"wind","mw":2500.0,"country":"IRL","status":"planned"}},{"type":"Feature","id":47319,"geometry":{"type":"Point","coordinates":[-5.752,53.503]},"properties":{"name":"South Irish Sea Offshore wind farm","fuel":"wind","mw":1330.0,"country":"IRL","status":"planned"}},{"type":"Feature","id":47321,"geometry":{"type":"Point","coordinates":[-5.495,53.142]},"properties":{"name":"Sunrise Offshore wind farm","fuel":"wind","mw":2000.0,"country":"IRL","status":"planned"}},{"type":"Feature","id":47327,"geometry":{"type":"Point","coordinates":[-9.971,52.558]},"properties":{"name":"Tralee Offshore wind farm","fuel":"wind","mw":2500.0,"country":"IRL","status":"planned"}},{"type":"Feature","id":47343,"geometry":{"type":"Point","coordinates":[-9.866,52.845]},"properties":{"name":"Western Star Floating Offshore wind farm","fuel":"wind","mw":1350.0,"country":"IRL","status":"planned"}},{"type":"Feature","id":47349,"geometry":{"type":"Point","coordinates":[14.381,42.54]},"properties":{"name":"Abruzzo 1 floating wind farm","fuel":"wind","mw":1700.0,"country":"ITA","status":"planned"}},{"type":"Feature","id":47383,"geometry":{"type":"Point","coordinates":[17.004,41.728]},"properties":{"name":"Barium Bay floating wind farm","fuel":"wind","mw":1100.0,"country":"ITA","status":"planned"}},{"type":"Feature","id":47402,"geometry":{"type":"Point","coordinates":[18.369,40.782]},"properties":{"name":"Brindisi 2.0 wind farm","fuel":"wind","mw":1422.0,"country":"ITA","status":"planned"}},{"type":"Feature","id":47507,"geometry":{"type":"Point","coordinates":[18.026,39.637]},"properties":{"name":"Hexicon Puglia 1 floating offshore wind farm","fuel":"wind","mw":1950.0,"country":"ITA","status":"planned"}},{"type":"Feature","id":47508,"geometry":{"type":"Point","coordinates":[18.451,39.62]},"properties":{"name":"Hexicon Puglia 2 floating offshore wind farm","fuel":"wind","mw":1150.0,"country":"ITA","status":"planned"}},{"type":"Feature","id":47514,"geometry":{"type":"Point","coordinates":[18.2,40.581]},"properties":{"name":"Kailia Energia wind farm","fuel":"wind","mw":1170.0,"country":"ITA","status":"planned"}},{"type":"Feature","id":47515,"geometry":{"type":"Point","coordinates":[17.537,38.749]},"properties":{"name":"Krimisa Offshore wind farm","fuel":"wind","mw":1116.0,"country":"ITA","status":"planned"}},{"type":"Feature","id":47551,"geometry":{"type":"Point","coordinates":[11.517,37.961]},"properties":{"name":"Med Wind wind farm","fuel":"wind","mw":2793.0,"country":"ITA","status":"planned"}},{"type":"Feature","id":47557,"geometry":{"type":"Point","coordinates":[18.795,39.754]},"properties":{"name":"Messapia wind farm","fuel":"wind","mw":1314.0,"country":"ITA","status":"planned"}},{"type":"Feature","id":47594,"geometry":{"type":"Point","coordinates":[16.459,41.926]},"properties":{"name":"Nereus Offshore Floating wind farm","fuel":"wind","mw":1800.0,"country":"ITA","status":"planned"}},{"type":"Feature","id":47602,"geometry":{"type":"Point","coordinates":[18.439,40.399]},"properties":{"name":"Odra Energia wind farm","fuel":"wind","mw":1300.0,"country":"ITA","status":"planned"}},{"type":"Feature","id":47698,"geometry":{"type":"Point","coordinates":[9.84,41.273]},"properties":{"name":"Sardinia North East floating wind farm","fuel":"wind","mw":1950.0,"country":"ITA","status":"planned"}},{"type":"Feature","id":47699,"geometry":{"type":"Point","coordinates":[7.833,40.557]},"properties":{"name":"Sardinia North West wind farm","fuel":"wind","mw":1350.0,"country":"ITA","status":"planned"}},{"type":"Feature","id":47700,"geometry":{"type":"Point","coordinates":[8.642,38.767]},"properties":{"name":"Sardinia South 1 wind farm","fuel":"wind","mw":1600.0,"country":"ITA","status":"planned"}},{"type":"Feature","id":47722,"geometry":{"type":"Point","coordinates":[13.351,37.115]},"properties":{"name":"Sicily South wind farm","fuel":"wind","mw":1200.0,"country":"ITA","status":"planned"}},{"type":"Feature","id":47771,"geometry":{"type":"Point","coordinates":[10.061,41.14]},"properties":{"name":"Zefiro Vento offshore wind farm","fuel":"wind","mw":3150.0,"country":"ITA","status":"planned"}},{"type":"Feature","id":47891,"geometry":{"type":"Point","coordinates":[4.113,54.247]},"properties":{"name":"Doordewind offshore wind farm","fuel":"wind","mw":2000.0,"country":"NLD","status":"planned"}},{"type":"Feature","id":47892,"geometry":{"type":"Point","coordinates":[4.113,54.247]},"properties":{"name":"Doordewind offshore wind farm","fuel":"wind","mw":2000.0,"country":"NLD","status":"planned"}},{"type":"Feature","id":47938,"geometry":{"type":"Point","coordinates":[3.569,52.746]},"properties":{"name":"IJmuiden Ver Alpha Offshore wind farm","fuel":"wind","mw":2000.0,"country":"NLD","status":"planned"}},{"type":"Feature","id":47939,"geometry":{"type":"Point","coordinates":[3.583,52.905]},"properties":{"name":"IJmuiden Ver Beta Offshore wind farm","fuel":"wind","mw":2000.0,"country":"NLD","status":"planned"}},{"type":"Feature","id":47970,"geometry":{"type":"Point","coordinates":[3.586,53.391]},"properties":{"name":"Nederwiek II Offshore wind farm","fuel":"wind","mw":2000.0,"country":"NLD","status":"planned"}},{"type":"Feature","id":47971,"geometry":{"type":"Point","coordinates":[4.095,53.172]},"properties":{"name":"Nederwiek III Offshore wind farm","fuel":"wind","mw":2000.0,"country":"NLD","status":"planned"}},{"type":"Feature","id":48151,"geometry":{"type":"Point","coordinates":[7.125,57.877]},"properties":{"name":"S\u00f8rlige Nordsj\u00f8 2 wind farm","fuel":"wind","mw":1500.0,"country":"NOR","status":"planned"}},{"type":"Feature","id":48152,"geometry":{"type":"Point","coordinates":[7.125,57.877]},"properties":{"name":"S\u00f8rlige Nordsj\u00f8 2 wind farm","fuel":"wind","mw":1500.0,"country":"NOR","status":"planned"}},{"type":"Feature","id":48153,"geometry":{"type":"Point","coordinates":[3.481,58.209]},"properties":{"name":"S\u00f8rvest Offshore wind farm","fuel":"wind","mw":1496.0,"country":"NOR","status":"planned"}},{"type":"Feature","id":48154,"geometry":{"type":"Point","coordinates":[2.882,57.879]},"properties":{"name":"S\u00f8rvest Offshore wind farm","fuel":"wind","mw":1496.0,"country":"NOR","status":"planned"}},{"type":"Feature","id":48155,"geometry":{"type":"Point","coordinates":[3.17,57.443]},"properties":{"name":"S\u00f8rvest Offshore wind farm","fuel":"wind","mw":1496.0,"country":"NOR","status":"planned"}},{"type":"Feature","id":48156,"geometry":{"type":"Point","coordinates":[3.649,57.08]},"properties":{"name":"S\u00f8rvest Offshore wind farm","fuel":"wind","mw":1496.0,"country":"NOR","status":"planned"}},{"type":"Feature","id":48157,"geometry":{"type":"Point","coordinates":[5.015,57.777]},"properties":{"name":"S\u00f8rvest Offshore wind farm","fuel":"wind","mw":1496.0,"country":"NOR","status":"planned"}},{"type":"Feature","id":48183,"geometry":{"type":"Point","coordinates":[17.65,55.05]},"properties":{"name":"Baltic Power Offshore wind farm","fuel":"wind","mw":1200.0,"country":"POL","status":"construction"}},{"type":"Feature","id":48185,"geometry":{"type":"Point","coordinates":[17.1,55.07]},"properties":{"name":"Baltica II Offshore wind farm","fuel":"wind","mw":1500.0,"country":"POL","status":"planned"}},{"type":"Feature","id":48190,"geometry":{"type":"Point","coordinates":[17.26,55.52]},"properties":{"name":"Ba\u0142tyk 1 Offshore wind farm","fuel":"wind","mw":1560.0,"country":"POL","status":"planned"}},{"type":"Feature","id":48241,"geometry":{"type":"Point","coordinates":[17.135,55.347]},"properties":{"name":"Freeboard I Offshore wind farm","fuel":"wind","mw":1500.0,"country":"POL","status":"planned"}},{"type":"Feature","id":48361,"geometry":{"type":"Point","coordinates":[15.437,54.496]},"properties":{"name":"Orlen Neptun III Offshore wind farm","fuel":"wind","mw":1200.0,"country":"POL","status":"planned"}},{"type":"Feature","id":48362,"geometry":{"type":"Point","coordinates":[15.594,54.437]},"properties":{"name":"Orlen Neptun IV Offshore wind farm","fuel":"wind","mw":1200.0,"country":"POL","status":"planned"}},{"type":"Feature","id":48413,"geometry":{"type":"Point","coordinates":[16.431,55.036]},"properties":{"name":"Sharco Duo Offshore wind farm","fuel":"wind","mw":1800.0,"country":"POL","status":"planned"}},{"type":"Feature","id":48545,"geometry":{"type":"Point","coordinates":[-9.192,41.503]},"properties":{"name":"Creoula Offshore Floating wind farm","fuel":"wind","mw":1440.0,"country":"PRT","status":"planned"}},{"type":"Feature","id":48590,"geometry":{"type":"Point","coordinates":[-8.871,40.146]},"properties":{"name":"Nortada Offshore Floating wind farm","fuel":"wind","mw":2000.0,"country":"PRT","status":"planned"}},{"type":"Feature","id":48790,"geometry":{"type":"Point","coordinates":[22.131,44.035]},"properties":{"name":"Bor wind farm","fuel":"wind","mw":1500.0,"country":"SRB","status":"planned"}},{"type":"Feature","id":48908,"geometry":{"type":"Point","coordinates":[-6.944,37.259]},"properties":{"name":"Andalusian Green Hydrogen Valley wind farm","fuel":"wind","mw":1500.0,"country":"ESP","status":"planned"}},{"type":"Feature","id":49134,"geometry":{"type":"Point","coordinates":[1.122,40.381]},"properties":{"name":"Catwind Floating wind farm","fuel":"wind","mw":1200.0,"country":"ESP","status":"planned"}},{"type":"Feature","id":50594,"geometry":{"type":"Point","coordinates":[21.492,64.214]},"properties":{"name":"Aurum Offshore wind farm","fuel":"wind","mw":2200.0,"country":"SWE","status":"planned"}},{"type":"Feature","id":50597,"geometry":{"type":"Point","coordinates":[18.338,58.286]},"properties":{"name":"Baltic Offshore Alpha wind farm","fuel":"wind","mw":1900.0,"country":"SWE","status":"planned"}},{"type":"Feature","id":50598,"geometry":{"type":"Point","coordinates":[19.954,58.57]},"properties":{"name":"Baltic Offshore Epsilon wind farm","fuel":"wind","mw":2740.0,"country":"SWE","status":"planned"}},{"type":"Feature","id":50599,"geometry":{"type":"Point","coordinates":[11.176,57.868]},"properties":{"name":"Baltic Offshore Gamma wind farm","fuel":"wind","mw":2000.0,"country":"SWE","status":"planned"}},{"type":"Feature","id":50600,"geometry":{"type":"Point","coordinates":[21.286,63.997]},"properties":{"name":"Baltic Offshore Kappa wind farm","fuel":"wind","mw":1240.0,"country":"SWE","status":"planned"}},{"type":"Feature","id":50601,"geometry":{"type":"Point","coordinates":[17.599,61.613]},"properties":{"name":"Baltic Offshore Lambda wind farm","fuel":"wind","mw":3440.0,"country":"SWE","status":"planned"}},{"type":"Feature","id":50602,"geometry":{"type":"Point","coordinates":[22.063,65.143]},"properties":{"name":"Baltic Offshore Omega wind farm","fuel":"wind","mw":1400.0,"country":"SWE","status":"planned"}},{"type":"Feature","id":50603,"geometry":{"type":"Point","coordinates":[17.858,62.32]},"properties":{"name":"Baltic Offshore Sigma wind farm","fuel":"wind","mw":3000.0,"country":"SWE","status":"planned"}},{"type":"Feature","id":50624,"geometry":{"type":"Point","coordinates":[21.796,65.136]},"properties":{"name":"Bores Krona offshore wind farm","fuel":"wind","mw":3100.0,"country":"SWE","status":"planned"}},{"type":"Feature","id":50645,"geometry":{"type":"Point","coordinates":[18.864,61.846]},"properties":{"name":"Eystrasalt wind farm","fuel":"wind","mw":3600.0,"country":"SWE","status":"planned"}},{"type":"Feature","id":50651,"geometry":{"type":"Point","coordinates":[12.097,56.722]},"properties":{"name":"Falkenberg-Halmstad Offshore wind farm","fuel":"wind","mw":1210.0,"country":"SWE","status":"planned"}},{"type":"Feature","id":50667,"geometry":{"type":"Point","coordinates":[18.605,61.129]},"properties":{"name":"Fyrskeppet wind farm","fuel":"wind","mw":2800.0,"country":"SWE","status":"planned"}},{"type":"Feature","id":50673,"geometry":{"type":"Point","coordinates":[18.005,60.858]},"properties":{"name":"G\u00e4vle \u00d6st offshore wind farm","fuel":"wind","mw":5500.0,"country":"SWE","status":"planned"}},{"type":"Feature","id":50674,"geometry":{"type":"Point","coordinates":[17.79,60.762]},"properties":{"name":"G\u00e4vle V\u00e4st offshore wind farm","fuel":"wind","mw":4000.0,"country":"SWE","status":"planned"}},{"type":"Feature","id":50682,"geometry":{"type":"Point","coordinates":[17.697,61.526]},"properties":{"name":"Gretas Klackar Offshore wind farm","fuel":"wind","mw":1800.0,"country":"SWE","status":"planned"}},{"type":"Feature","id":50699,"geometry":{"type":"Point","coordinates":[19.532,56.864]},"properties":{"name":"Herkules Floating Offshore wind farm","fuel":"wind","mw":2750.0,"country":"SWE","status":"planned"}},{"type":"Feature","id":50728,"geometry":{"type":"Point","coordinates":[17.7,58.161]},"properties":{"name":"Kapheira Offshore wind farm","fuel":"wind","mw":2000.0,"country":"SWE","status":"planned"}},{"type":"Feature","id":50732,"geometry":{"type":"Point","coordinates":[12.514,56.656]},"properties":{"name":"Kattegat (\u00d8rsted) Offshore wind farm","fuel":"wind","mw":1500.0,"country":"SWE","status":"planned"}},{"type":"Feature","id":50733,"geometry":{"type":"Point","coordinates":[11.974,56.83]},"properties":{"name":"Kattegat Syd wind farm","fuel":"wind","mw":1200.0,"country":"SWE","status":"planned"}},{"type":"Feature","id":50773,"geometry":{"type":"Point","coordinates":[10.561,58.199]},"properties":{"name":"Mareld wind farm","fuel":"wind","mw":2500.0,"country":"SWE","status":"planned"}},{"type":"Feature","id":50795,"geometry":{"type":"Point","coordinates":[17.869,60.974]},"properties":{"name":"Najaderna Offshore wind farm","fuel":"wind","mw":1700.0,"country":"SWE","status":"planned"}},{"type":"Feature","id":50813,"geometry":{"type":"Point","coordinates":[18.56,61.344]},"properties":{"name":"Olof Sk\u00f6tkonung Offshore wind farm","fuel":"wind","mw":1750.0,"country":"SWE","status":"planned"}},{"type":"Feature","id":50824,"geometry":{"type":"Point","coordinates":[23.225,65.412]},"properties":{"name":"Polargrund Offshore wind farm","fuel":"wind","mw":3000.0,"country":"SWE","status":"planned"}},{"type":"Feature","id":50825,"geometry":{"type":"Point","coordinates":[10.869,57.994]},"properties":{"name":"Poseidon Offshore wind farm","fuel":"wind","mw":1400.0,"country":"SWE","status":"planned"}},{"type":"Feature","id":50893,"geometry":{"type":"Point","coordinates":[20.648,67.152]},"properties":{"name":"Storlandet wind farm","fuel":"wind","mw":2600.0,"country":"SWE","status":"planned"}},{"type":"Feature","id":50902,"geometry":{"type":"Point","coordinates":[17.795,62.318]},"properties":{"name":"Sundsvall Floating Offshore wind farm","fuel":"wind","mw":1200.0,"country":"SWE","status":"planned"}},{"type":"Feature","id":50907,"geometry":{"type":"Point","coordinates":[17.964,61.529]},"properties":{"name":"Sylen offshore wind farm","fuel":"wind","mw":8675.0,"country":"SWE","status":"planned"}},{"type":"Feature","id":50936,"geometry":{"type":"Point","coordinates":[10.511,58.636]},"properties":{"name":"Vidar wind farm","fuel":"wind","mw":2000.0,"country":"SWE","status":"planned"}},{"type":"Feature","id":51402,"geometry":{"type":"Point","coordinates":[-0.228,59.794]},"properties":{"name":"Arven Offshore wind farm","fuel":"wind","mw":1800.0,"country":"GBR","status":"planned"}},{"type":"Feature","id":51439,"geometry":{"type":"Point","coordinates":[2.155,56.845]},"properties":{"name":"Bellrock floating wind farm","fuel":"wind","mw":1200.0,"country":"GBR","status":"planned"}},{"type":"Feature","id":51446,"geometry":{"type":"Point","coordinates":[-1.466,56.443]},"properties":{"name":"Berwick Bank wind farm","fuel":"wind","mw":4100.0,"country":"GBR","status":"planned"}},{"type":"Feature","id":51506,"geometry":{"type":"Point","coordinates":[-3.631,57.787]},"properties":{"name":"Caledonia Offshore wind farm","fuel":"wind","mw":1100.0,"country":"GBR","status":"planned"}},{"type":"Feature","id":51530,"geometry":{"type":"Point","coordinates":[0.687,57.135]},"properties":{"name":"Cenos floating wind farm","fuel":"wind","mw":1350.0,"country":"GBR","status":"planned"}},{"type":"Feature","id":51609,"geometry":{"type":"Point","coordinates":[2.562,54.501]},"properties":{"name":"Dogger Bank South offshore wind farm","fuel":"wind","mw":1500.0,"country":"GBR","status":"planned"}},{"type":"Feature","id":51610,"geometry":{"type":"Point","coordinates":[1.881,54.625]},"properties":{"name":"Dogger Bank South offshore wind farm","fuel":"wind","mw":1500.0,"country":"GBR","status":"planned"}},{"type":"Feature","id":51611,"geometry":{"type":"Point","coordinates":[2.33,55.967]},"properties":{"name":"Dogger Bank wind farm","fuel":"wind","mw":1200.0,"country":"GBR","status":"operating"}},{"type":"Feature","id":51612,"geometry":{"type":"Point","coordinates":[2.33,55.967]},"properties":{"name":"Dogger Bank wind farm","fuel":"wind","mw":1200.0,"country":"GBR","status":"construction"}},{"type":"Feature","id":51613,"geometry":{"type":"Point","coordinates":[2.33,55.967]},"properties":{"name":"Dogger Bank wind farm","fuel":"wind","mw":1200.0,"country":"GBR","status":"construction"}},{"type":"Feature","id":51614,"geometry":{"type":"Point","coordinates":[2.33,55.967]},"properties":{"name":"Dogger Bank wind farm","fuel":"wind","mw":1320.0,"country":"GBR","status":"planned"}},{"type":"Feature","id":51645,"geometry":{"type":"Point","coordinates":[2.173,52.137]},"properties":{"name":"East Anglia wind farm","fuel":"wind","mw":1400.0,"country":"GBR","status":"construction"}},{"type":"Feature","id":51736,"geometry":{"type":"Point","coordinates":[-6.532,51.025]},"properties":{"name":"Gwynt Glas Floating Offshore wind farm","fuel":"wind","mw":1500.0,"country":"GBR","status":"planned"}},{"type":"Feature","id":51754,"geometry":{"type":"Point","coordinates":[-5.61,58.862]},"properties":{"name":"Havbredey Offshore Floating wind farm","fuel":"wind","mw":1500.0,"country":"GBR","status":"planned"}},{"type":"Feature","id":51773,"geometry":{"type":"Point","coordinates":[1.421,53.681]},"properties":{"name":"Hornsea wind farm","fuel":"wind","mw":1218.0,"country":"GBR","status":"operating"}},{"type":"Feature","id":51774,"geometry":{"type":"Point","coordinates":[1.54,53.96]},"properties":{"name":"Hornsea wind farm","fuel":"wind","mw":1320.0,"country":"GBR","status":"operating"}},{"type":"Feature","id":51775,"geometry":{"type":"Point","coordinates":[1.421,53.681]},"properties":{"name":"Hornsea wind farm","fuel":"wind","mw":2955.0,"country":"GBR","status":"planned"}},{"type":"Feature","id":51776,"geometry":{"type":"Point","coordinates":[1.421,53.681]},"properties":{"name":"Hornsea wind farm","fuel":"wind","mw":2600.0,"country":"GBR","status":"planned"}},{"type":"Feature","id":51861,"geometry":{"type":"Point","coordinates":[-6.97,56.014]},"properties":{"name":"MachairWind Offshore wind farm","fuel":"wind","mw":2000.0,"country":"GBR","status":"planned"}},{"type":"Feature","id":51868,"geometry":{"type":"Point","coordinates":[-0.922,58.162]},"properties":{"name":"MarramWind Floating wind farm","fuel":"wind","mw":3000.0,"country":"GBR","status":"planned"}},{"type":"Feature","id":51895,"geometry":{"type":"Point","coordinates":[-3.832,53.635]},"properties":{"name":"Mona offshore wind farm","fuel":"wind","mw":1500.0,"country":"GBR","status":"planned"}},{"type":"Feature","id":51900,"geometry":{"type":"Point","coordinates":[-3.642,53.996]},"properties":{"name":"Morgan Offshore wind farm","fuel":"wind","mw":1500.0,"country":"GBR","status":"planned"}},{"type":"Feature","id":51901,"geometry":{"type":"Point","coordinates":[-1.095,56.657]},"properties":{"name":"Morven Offshore wind farm","fuel":"wind","mw":2907.0,"country":"GBR","status":"planned"}},{"type":"Feature","id":51919,"geometry":{"type":"Point","coordinates":[2.552,52.62]},"properties":{"name":"Norfolk Boreas wind farm","fuel":"wind","mw":1400.0,"country":"GBR","status":"planned"}},{"type":"Feature","id":51920,"geometry":{"type":"Point","coordinates":[2.552,52.62]},"properties":{"name":"Norfolk Vanguard wind farm","fuel":"wind","mw":2800.0,"country":"GBR","status":"planned"}},{"type":"Feature","id":51936,"geometry":{"type":"Point","coordinates":[-1.379,56.515]},"properties":{"name":"Ossian Offshore wind farm","fuel":"wind","mw":3600.0,"country":"GBR","status":"planned"}},{"type":"Feature","id":51938,"geometry":{"type":"Point","coordinates":[1.629,53.401]},"properties":{"name":"Outer Dowsing wind farm","fuel":"wind","mw":1500.0,"country":"GBR","status":"planned"}},{"type":"Feature","id":51962,"geometry":{"type":"Point","coordinates":[-2.95,50.492]},"properties":{"name":"PortWind Offshore wind farm","fuel":"wind","mw":2000.0,"country":"GBR","status":"planned"}},{"type":"Feature","id":51970,"geometry":{"type":"Point","coordinates":[-0.18,50.64]},"properties":{"name":"Rampion Offshore wind farm","fuel":"wind","mw":1200.0,"country":"GBR","status":"planned"}},{"type":"Feature","id":52027,"geometry":{"type":"Point","coordinates":[2.33,55.21]},"properties":{"name":"Sofia wind farm","fuel":"wind","mw":1400.0,"country":"GBR","status":"construction"}},{"type":"Feature","id":52048,"geometry":{"type":"Point","coordinates":[-1.818,58.514]},"properties":{"name":"Stromar Floating wind farm","fuel":"wind","mw":1500.0,"country":"GBR","status":"planned"}},{"type":"Feature","id":52112,"geometry":{"type":"Point","coordinates":[-3.914,58.863]},"properties":{"name":"West Of Orkney Offshore wind farm","fuel":"wind","mw":2000.0,"country":"GBR","status":"planned"}},{"type":"Feature","id":53322,"geometry":{"type":"Point","coordinates":[20.44,40.693]},"properties":{"name":"Moglic\u00eb Pumped Storage hydroelectric plant","fuel":"hydro","mw":1200.0,"country":"ALB","status":"planned"}},{"type":"Feature","id":53577,"geometry":{"type":"Point","coordinates":[6.051,45.145]},"properties":{"name":"Grand Maison hydroelectric plant","fuel":"hydro","mw":1713.0,"country":"FRA","status":"operating"}},{"type":"Feature","id":53905,"geometry":{"type":"Point","coordinates":[6.183,49.94]},"properties":{"name":"Vianden hydroelectric plant","fuel":"hydro","mw":1294.0,"country":"LUX","status":"operating"}},{"type":"Feature","id":54026,"geometry":{"type":"Point","coordinates":[6.654,59.528]},"properties":{"name":"Kvilldal hydroelectric plant","fuel":"hydro","mw":1240.0,"country":"NOR","status":"operating"}},{"type":"Feature","id":54191,"geometry":{"type":"Point","coordinates":[-7.69,41.55]},"properties":{"name":"Minh\u00e9u hydroelectric plant","fuel":"hydro","mw":1320.0,"country":"PRT","status":"planned"}},{"type":"Feature","id":54227,"geometry":{"type":"Point","coordinates":[22.528,44.67]},"properties":{"name":"Iron Gate I hydroelectric plant","fuel":"hydro","mw":2306.0,"country":"ROU","status":"operating"}},{"type":"Feature","id":54260,"geometry":{"type":"Point","coordinates":[22.565,44.304]},"properties":{"name":"Djerdap III hydroelectric plant","fuel":"hydro","mw":2400.0,"country":"SRB","status":"planned"}},{"type":"Feature","id":54333,"geometry":{"type":"Point","coordinates":[-7.204,42.183]},"properties":{"name":"Conso II hydroelectric plant","fuel":"hydro","mw":1800.0,"country":"ESP","status":"planned"}},{"type":"Feature","id":54557,"geometry":{"type":"Point","coordinates":[7.252,46.183]},"properties":{"name":"Bieudron hydroelectric plant","fuel":"hydro","mw":1260.0,"country":"CHE","status":"operating"}},{"type":"Feature","id":54678,"geometry":{"type":"Point","coordinates":[38.319,37.482]},"properties":{"name":"Ataturk hydroelectric plant","fuel":"hydro","mw":2405.0,"country":"TUR","status":"operating"}},{"type":"Feature","id":54739,"geometry":{"type":"Point","coordinates":[41.843,37.533]},"properties":{"name":"Ilisu hydroelectric plant","fuel":"hydro","mw":1209.0,"country":"TUR","status":"operating"}},{"type":"Feature","id":54747,"geometry":{"type":"Point","coordinates":[39.135,38.226]},"properties":{"name":"Karakaya hydroelectric plant","fuel":"hydro","mw":1800.0,"country":"TUR","status":"operating"}},{"type":"Feature","id":54755,"geometry":{"type":"Point","coordinates":[38.759,38.806]},"properties":{"name":"Keban hydroelectric plant","fuel":"hydro","mw":1330.0,"country":"TUR","status":"operating"}},{"type":"Feature","id":54821,"geometry":{"type":"Point","coordinates":[27.473,48.514]},"properties":{"name":"Dnister Pumped Storage hydroelectric plant","fuel":"hydro","mw":1296.0,"country":"UKR","status":"operating"}},{"type":"Feature","id":54829,"geometry":{"type":"Point","coordinates":[-5.041,56.39]},"properties":{"name":"Balliemeanoch hydroelectric plant","fuel":"hydro","mw":1500.0,"country":"GBR","status":"planned"}},{"type":"Feature","id":54830,"geometry":{"type":"Point","coordinates":[-4.493,57.327]},"properties":{"name":"Balmacaan Estate hydroelectric plant","fuel":"hydro","mw":2000.0,"country":"GBR","status":"planned"}},{"type":"Feature","id":54833,"geometry":{"type":"Point","coordinates":[-4.919,57.013]},"properties":{"name":"Coire Glas hydroelectric plant","fuel":"hydro","mw":1500.0,"country":"GBR","status":"planned"}},{"type":"Feature","id":54836,"geometry":{"type":"Point","coordinates":[-4.115,53.121]},"properties":{"name":"Dinorwig hydroelectric plant","fuel":"hydro","mw":2016.0,"country":"GBR","status":"operating"}},{"type":"Feature","id":54838,"geometry":{"type":"Point","coordinates":[-4.512,56.9]},"properties":{"name":"Earba hydroelectric plant","fuel":"hydro","mw":1800.0,"country":"GBR","status":"planned"}},{"type":"Feature","id":54848,"geometry":{"type":"Point","coordinates":[-5.109,57.064]},"properties":{"name":"Loch Fearna hydroelectric plant","fuel":"hydro","mw":1800.0,"country":"GBR","status":"planned"}},{"type":"Feature","id":55027,"geometry":{"type":"Point","coordinates":[7.346,51.632]},"properties":{"name":"Datteln power station","fuel":"coal","mw":1100.0,"country":"DEU","status":"operating"}},{"type":"Feature","id":55051,"geometry":{"type":"Point","coordinates":[6.633,51.036]},"properties":{"name":"Neurath power station","fuel":"coal","mw":1100.0,"country":"DEU","status":"operating"}},{"type":"Feature","id":55052,"geometry":{"type":"Point","coordinates":[6.633,51.036]},"properties":{"name":"Neurath power station","fuel":"coal","mw":1100.0,"country":"DEU","status":"operating"}},{"type":"Feature","id":55090,"geometry":{"type":"Point","coordinates":[4.027,51.959]},"properties":{"name":"Maasvlakte Power Station (Uniper)","fuel":"coal","mw":1100.0,"country":"NLD","status":"operating"}}]}