{"type": "FeatureCollection", "features": [{"type": "Feature", "id": 0, "geometry": {"type": "Point", "coordinates": [76.875, 52.12]}, "properties": {"name": "Aksu power station", "fuel": "coal", "mw": 2450.0, "country": "KAZ", "status": "operating"}}, {"type": "Feature", "id": 1, "geometry": {"type": "Point", "coordinates": [76.931, 43.281]}, "properties": {"name": "Almaty CHP-1", "fuel": "coal", "mw": 145.0, "country": "KAZ", "status": "operating"}}, {"type": "Feature", "id": 2, "geometry": {"type": "Point", "coordinates": [76.799, 43.294]}, "properties": {"name": "Almaty TPP-2", "fuel": "coal", "mw": 510.0, "country": "KAZ", "status": "operating"}}, {"type": "Feature", "id": 3, "geometry": {"type": "Point", "coordinates": [77.007, 43.421]}, "properties": {"name": "Almaty-3 power station", "fuel": "coal", "mw": 290.0, "country": "KAZ", "status": "operating"}}, {"type": "Feature", "id": 4, "geometry": {"type": "Point", "coordinates": [71.51, 51.189]}, "properties": {"name": "Astana-2 power station", "fuel": "coal", "mw": 360.0, "country": "KAZ", "status": "operating"}}, {"type": "Feature", "id": 5, "geometry": {"type": "Point", "coordinates": [51.942, 47.082]}, "properties": {"name": "Atyrau", "fuel": "gas", "mw": 300.0, "country": "KAZ", "status": "operating"}}, {"type": "Feature", "id": 6, "geometry": {"type": "Point", "coordinates": [70.82, 42.711]}, "properties": {"name": "Burnoy Solar", "fuel": "solar", "mw": 50.0, "country": "KAZ", "status": "operating"}}, {"type": "Feature", "id": 7, "geometry": {"type": "Point", "coordinates": [75.377, 51.888]}, "properties": {"name": "Ekibastuz-1 power station", "fuel": "coal", "mw": 4000.0, "country": "KAZ", "status": "operating"}}, {"type": "Feature", "id": 8, "geometry": {"type": "Point", "coordinates": [75.475, 52.023]}, "properties": {"name": "Ekibastuz-2 power station", "fuel": "coal", "mw": 1000.0, "country": "KAZ", "status": "operating"}}, {"type": "Feature", "id": 9, "geometry": {"type": "Point", "coordinates": [74.335, 46.67]}, "properties": {"name": "Gulshat", "fuel": "solar", "mw": 40.0, "country": "KAZ", "status": "operating"}}, {"type": "Feature", "id": 10, "geometry": {"type": "Point", "coordinates": [83.347, 49.659]}, "properties": {"name": "JSC Bukhtarminskaya", "fuel": "hydro", "mw": 675.0, "country": "KAZ", "status": "operating"}}, {"type": "Feature", "id": 11, "geometry": {"type": "Point", "coordinates": [77.098, 43.923]}, "properties": {"name": "Kapchagan", "fuel": "hydro", "mw": 364.0, "country": "KAZ", "status": "operating"}}, {"type": "Feature", "id": 12, "geometry": {"type": "Point", "coordinates": [75.475, 52.023]}, "properties": {"name": "Karaganda GRES-2", "fuel": "coal", "mw": 608.0, "country": "KAZ", "status": "operating"}}, {"type": "Feature", "id": 13, "geometry": {"type": "Point", "coordinates": [73.237, 49.916]}, "properties": {"name": "Karaganda TETS 1", "fuel": "coal", "mw": 475.0, "country": "KAZ", "status": "operating"}}, {"type": "Feature", "id": 14, "geometry": {"type": "Point", "coordinates": [73.053, 50.047]}, "properties": {"name": "Karaganda TPS-2 power station", "fuel": "coal", "mw": 400.0, "country": "KAZ", "status": "operating"}}, {"type": "Feature", "id": 15, "geometry": {"type": "Point", "coordinates": [73.237, 49.917]}, "properties": {"name": "Karaganda TPS-3 power station", "fuel": "coal", "mw": 590.0, "country": "KAZ", "status": "operating"}}, {"type": "Feature", "id": 16, "geometry": {"type": "Point", "coordinates": [74.949, 46.829]}, "properties": {"name": "Kazakhmys Balkhash power station", "fuel": "coal", "mw": 90.0, "country": "KAZ", "status": "operating"}}, {"type": "Feature", "id": 17, "geometry": {"type": "Point", "coordinates": [68.701, 46.426]}, "properties": {"name": "Kumkol", "fuel": "gas", "mw": 100.0, "country": "KAZ", "status": "operating"}}, {"type": "Feature", "id": 18, "geometry": {"type": "Point", "coordinates": [76.934, 52.367]}, "properties": {"name": "MAEK-Kazatoprom TPP-2", "fuel": "coal", "mw": 1255.0, "country": "KAZ", "status": "operating"}}, {"type": "Feature", "id": 19, "geometry": {"type": "Point", "coordinates": [71.367, 42.9]}, "properties": {"name": "OJSC Zhambyl GRES", "fuel": "coal", "mw": 1230.0, "country": "KAZ", "status": "operating"}}, {"type": "Feature", "id": 20, "geometry": {"type": "Point", "coordinates": [76.934, 52.367]}, "properties": {"name": "Pavlodar TPP-1", "fuel": "coal", "mw": 855.0, "country": "KAZ", "status": "operating"}}, {"type": "Feature", "id": 21, "geometry": {"type": "Point", "coordinates": [76.966, 52.322]}, "properties": {"name": "Pavlodar-2 power station", "fuel": "coal", "mw": 100.0, "country": "KAZ", "status": "operating"}}, {"type": "Feature", "id": 22, "geometry": {"type": "Point", "coordinates": [76.934, 52.367]}, "properties": {"name": "Pavlodar-3 power station", "fuel": "coal", "mw": 440.0, "country": "KAZ", "status": "operating"}}, {"type": "Feature", "id": 23, "geometry": {"type": "Point", "coordinates": [69.187, 54.898]}, "properties": {"name": "Petropavlovsk-2 power station", "fuel": "coal", "mw": 401.0, "country": "KAZ", "status": "operating"}}, {"type": "Feature", "id": 24, "geometry": {"type": "Point", "coordinates": [83.488, 50.355]}, "properties": {"name": "Ridder", "fuel": "coal", "mw": 59.0, "country": "KAZ", "status": "operating"}}, {"type": "Feature", "id": 25, "geometry": {"type": "Point", "coordinates": [72.872, 49.81]}, "properties": {"name": "Saran", "fuel": "solar", "mw": 100.0, "country": "KAZ", "status": "operating"}}, {"type": "Feature", "id": 26, "geometry": {"type": "Point", "coordinates": [81.069, 50.399]}, "properties": {"name": "Shulbinskaya HPP", "fuel": "hydro", "mw": 720.0, "country": "KAZ", "status": "operating"}}, {"type": "Feature", "id": 27, "geometry": {"type": "Point", "coordinates": [82.77, 50.029]}, "properties": {"name": "Sogrinsk", "fuel": "coal", "mw": 75.0, "country": "KAZ", "status": "operating"}}, {"type": "Feature", "id": 28, "geometry": {"type": "Point", "coordinates": [82.718, 49.901]}, "properties": {"name": "Ust-Kamenogorsk HPP", "fuel": "hydro", "mw": 331.0, "country": "KAZ", "status": "operating"}}, {"type": "Feature", "id": 29, "geometry": {"type": "Point", "coordinates": [82.614, 49.982]}, "properties": {"name": "Ust-Kamenogorsk TETS power station", "fuel": "coal", "mw": 308.0, "country": "KAZ", "status": "operating"}}, {"type": "Feature", "id": 30, "geometry": {"type": "Point", "coordinates": [70.823, 42.714]}, "properties": {"name": "Zhambyl II", "fuel": "solar", "mw": 50.0, "country": "KAZ", "status": "operating"}}, {"type": "Feature", "id": 31, "geometry": {"type": "Point", "coordinates": [81.187, 49.225]}, "properties": {"name": "Zhangiztobe", "fuel": "solar", "mw": 30.0, "country": "KAZ", "status": "operating"}}, {"type": "Feature", "id": 32, "geometry": {"type": "Point", "coordinates": [67.744, 47.785]}, "properties": {"name": "Zhezkazgan power station", "fuel": "coal", "mw": 227.0, "country": "KAZ", "status": "operating"}}, {"type": "Feature", "id": 33, "geometry": {"type": "Point", "coordinates": [75.803, 41.163]}, "properties": {"name": "Al-Bashy Hydroelectric Power Plant Kyrgyzstan", "fuel": "hydro", "mw": 40.0, "country": "KGZ", "status": "operating"}}, {"type": "Feature", "id": 34, "geometry": {"type": "Point", "coordinates": [74.654, 42.873]}, "properties": {"name": "Bishkek CHP Power Plant Kyrgyzstan", "fuel": "coal", "mw": 674.0, "country": "KGZ", "status": "operating"}}, {"type": "Feature", "id": 35, "geometry": {"type": "Point", "coordinates": [72.364, 41.499]}, "properties": {"name": "Kurpsay Hydroelectric Power Plant Kyrgyzstan", "fuel": "hydro", "mw": 800.0, "country": "KGZ", "status": "operating"}}, {"type": "Feature", "id": 36, "geometry": {"type": "Point", "coordinates": [72.804, 40.572]}, "properties": {"name": "Osh CHP Power Plant Kyrgyzstan", "fuel": "oil", "mw": 50.0, "country": "KGZ", "status": "operating"}}, {"type": "Feature", "id": 37, "geometry": {"type": "Point", "coordinates": [72.192, 41.312]}, "properties": {"name": "Shamaldy-Say Hydroelectric Power Plant Kyrgyzstan", "fuel": "hydro", "mw": 240.0, "country": "KGZ", "status": "operating"}}, {"type": "Feature", "id": 38, "geometry": {"type": "Point", "coordinates": [72.232, 41.403]}, "properties": {"name": "Tash-Kumyr Hydroelectric Power Project Kyrgyzstan", "fuel": "hydro", "mw": 450.0, "country": "KGZ", "status": "operating"}}, {"type": "Feature", "id": 39, "geometry": {"type": "Point", "coordinates": [72.636, 41.657]}, "properties": {"name": "Toktogul Hydroelectric Power Plant Kyrgyzstan", "fuel": "hydro", "mw": 1200.0, "country": "KGZ", "status": "operating"}}, {"type": "Feature", "id": 40, "geometry": {"type": "Point", "coordinates": [72.16, 41.188]}, "properties": {"name": "Uch-Kurgan Hydroelectric Power Plant Kyrgyzstan", "fuel": "hydro", "mw": 180.0, "country": "KGZ", "status": "operating"}}, {"type": "Feature", "id": 41, "geometry": {"type": "Point", "coordinates": [69.124, 38.267]}, "properties": {"name": "Baipaza", "fuel": "hydro", "mw": 600.0, "country": "TJK", "status": "operating"}}, {"type": "Feature", "id": 42, "geometry": {"type": "Point", "coordinates": [68.773, 38.611]}, "properties": {"name": "Dushanbe", "fuel": "oil", "mw": 430.0, "country": "TJK", "status": "operating"}}, {"type": "Feature", "id": 43, "geometry": {"type": "Point", "coordinates": [68.937, 37.884]}, "properties": {"name": "Golovnaya", "fuel": "hydro", "mw": 210.0, "country": "TJK", "status": "operating"}}, {"type": "Feature", "id": 44, "geometry": {"type": "Point", "coordinates": [69.815, 40.276]}, "properties": {"name": "Kairakkum", "fuel": "hydro", "mw": 126.0, "country": "TJK", "status": "operating"}}, {"type": "Feature", "id": 45, "geometry": {"type": "Point", "coordinates": [71.553, 37.49]}, "properties": {"name": "Khorog", "fuel": "hydro", "mw": 10.0, "country": "TJK", "status": "operating"}}, {"type": "Feature", "id": 46, "geometry": {"type": "Point", "coordinates": [69.348, 38.372]}, "properties": {"name": "Nurek", "fuel": "hydro", "mw": 3015.0, "country": "TJK", "status": "operating"}}, {"type": "Feature", "id": 47, "geometry": {"type": "Point", "coordinates": [69.058, 38.044]}, "properties": {"name": "Sangtuda 1", "fuel": "hydro", "mw": 700.0, "country": "TJK", "status": "operating"}}, {"type": "Feature", "id": 48, "geometry": {"type": "Point", "coordinates": [68.778, 38.586]}, "properties": {"name": "Varzob 1", "fuel": "hydro", "mw": 11.0, "country": "TJK", "status": "operating"}}, {"type": "Feature", "id": 49, "geometry": {"type": "Point", "coordinates": [68.777, 38.612]}, "properties": {"name": "Varzob 2", "fuel": "hydro", "mw": 14.4, "country": "TJK", "status": "operating"}}, {"type": "Feature", "id": 50, "geometry": {"type": "Point", "coordinates": [68.932, 38.296]}, "properties": {"name": "Yavan", "fuel": "oil", "mw": 180.0, "country": "TJK", "status": "operating"}}, {"type": "Feature", "id": 51, "geometry": {"type": "Point", "coordinates": [58.164, 38.059]}, "properties": {"name": "Abadan Power Plant Turkmenistan", "fuel": "gas", "mw": 371.0, "country": "TKM", "status": "operating"}}, {"type": "Feature", "id": 52, "geometry": {"type": "Point", "coordinates": [58.384, 37.828]}, "properties": {"name": "Ashgabat OCGT Power Plant", "fuel": "gas", "mw": 254.0, "country": "TKM", "status": "operating"}}, {"type": "Feature", "id": 53, "geometry": {"type": "Point", "coordinates": [54.327, 39.511]}, "properties": {"name": "Balkanabat OCGT Power Plant Turkmenistan", "fuel": "gas", "mw": 174.0, "country": "TKM", "status": "operating"}}, {"type": "Feature", "id": 54, "geometry": {"type": "Point", "coordinates": [59.948, 41.86]}, "properties": {"name": "Dashoguz OCGT Power Plant Turkmenistan", "fuel": "gas", "mw": 254.0, "country": "TKM", "status": "operating"}}, {"type": "Feature", "id": 55, "geometry": {"type": "Point", "coordinates": [61.842, 37.5]}, "properties": {"name": "Mary Thermal Power Plant Turkmenistan", "fuel": "oil", "mw": 1685.0, "country": "TKM", "status": "operating"}}, {"type": "Feature", "id": 56, "geometry": {"type": "Point", "coordinates": [52.925, 40.01]}, "properties": {"name": "Turkmenbashi Heat and Power Plant Turkmenistan", "fuel": "oil", "mw": 590.0, "country": "TKM", "status": "operating"}}, {"type": "Feature", "id": 57, "geometry": {"type": "Point", "coordinates": [52.959, 40.033]}, "properties": {"name": "Turkmenbashi Oil Refinery OCGT Power Plant Turkmenistan", "fuel": "gas", "mw": 126.0, "country": "TKM", "status": "operating"}}, {"type": "Feature", "id": 58, "geometry": {"type": "Point", "coordinates": [69.558, 41.447]}, "properties": {"name": "Akkavak", "fuel": "hydro", "mw": 39.0, "country": "UZB", "status": "operating"}}, {"type": "Feature", "id": 59, "geometry": {"type": "Point", "coordinates": [70.124, 41.005]}, "properties": {"name": "Angren power station", "fuel": "coal", "mw": 422.0, "country": "UZB", "status": "operating"}}, {"type": "Feature", "id": 60, "geometry": {"type": "Point", "coordinates": [69.969, 41.627]}, "properties": {"name": "Charvak", "fuel": "hydro", "mw": 620.0, "country": "UZB", "status": "operating"}}, {"type": "Feature", "id": 61, "geometry": {"type": "Point", "coordinates": [69.305, 40.192]}, "properties": {"name": "Farkhad", "fuel": "hydro", "mw": 126.0, "country": "UZB", "status": "operating"}}, {"type": "Feature", "id": 62, "geometry": {"type": "Point", "coordinates": [71.782, 40.449]}, "properties": {"name": "Fergana", "fuel": "oil", "mw": 300.0, "country": "UZB", "status": "operating"}}, {"type": "Feature", "id": 63, "geometry": {"type": "Point", "coordinates": [69.771, 41.558]}, "properties": {"name": "Gazalkent", "fuel": "hydro", "mw": 120.0, "country": "UZB", "status": "operating"}}, {"type": "Feature", "id": 64, "geometry": {"type": "Point", "coordinates": [69.864, 41.599]}, "properties": {"name": "Khodjikent", "fuel": "hydro", "mw": 165.0, "country": "UZB", "status": "operating"}}, {"type": "Feature", "id": 65, "geometry": {"type": "Point", "coordinates": [65.153, 39.255]}, "properties": {"name": "Mubarek", "fuel": "gas", "mw": 60.0, "country": "UZB", "status": "operating"}}, {"type": "Feature", "id": 66, "geometry": {"type": "Point", "coordinates": [65.31, 40.157]}, "properties": {"name": "Navoi", "fuel": "gas", "mw": 1758.0, "country": "UZB", "status": "operating"}}, {"type": "Feature", "id": 67, "geometry": {"type": "Point", "coordinates": [69.817, 40.923]}, "properties": {"name": "Novo-Angren power station", "fuel": "coal", "mw": 2100.0, "country": "UZB", "status": "operating"}}, {"type": "Feature", "id": 68, "geometry": {"type": "Point", "coordinates": [66.72, 39.583]}, "properties": {"name": "Sazagan", "fuel": "solar", "mw": 100.0, "country": "UZB", "status": "operating"}}, {"type": "Feature", "id": 69, "geometry": {"type": "Point", "coordinates": [69.1, 40.229]}, "properties": {"name": "Syrdarya", "fuel": "gas", "mw": 3000.0, "country": "UZB", "status": "operating"}}, {"type": "Feature", "id": 70, "geometry": {"type": "Point", "coordinates": [59.555, 42.318]}, "properties": {"name": "Takhiatash", "fuel": "gas", "mw": 730.0, "country": "UZB", "status": "operating"}}, {"type": "Feature", "id": 71, "geometry": {"type": "Point", "coordinates": [65.632, 38.481]}, "properties": {"name": "Talimardjan", "fuel": "gas", "mw": 800.0, "country": "UZB", "status": "operating"}}, {"type": "Feature", "id": 72, "geometry": {"type": "Point", "coordinates": [69.368, 41.382]}, "properties": {"name": "Tashkent", "fuel": "gas", "mw": 2230.0, "country": "UZB", "status": "operating"}}, {"type": "Feature", "id": 73, "geometry": {"type": "Point", "coordinates": [69.681, 41.554]}, "properties": {"name": "Tavak", "fuel": "hydro", "mw": 70.0, "country": "UZB", "status": "operating"}}, {"type": "Feature", "id": 74, "geometry": {"type": "Point", "coordinates": [65.119, 32.322]}, "properties": {"name": "Kajaki Hydroelectric Power Plant Afghanistan", "fuel": "hydro", "mw": 33.0, "country": "AFG", "status": "operating"}}, {"type": "Feature", "id": 75, "geometry": {"type": "Point", "coordinates": [65.795, 31.67]}, "properties": {"name": "Kandahar DOG", "fuel": "solar", "mw": 10.0, "country": "AFG", "status": "operating"}}, {"type": "Feature", "id": 76, "geometry": {"type": "Point", "coordinates": [65.792, 31.623]}, "properties": {"name": "Kandahar JOL", "fuel": "solar", "mw": 10.0, "country": "AFG", "status": "operating"}}, {"type": "Feature", "id": 77, "geometry": {"type": "Point", "coordinates": [69.479, 34.556]}, "properties": {"name": "Mahipar Hydroelectric Power Plant Afghanistan", "fuel": "hydro", "mw": 66.0, "country": "AFG", "status": "operating"}}, {"type": "Feature", "id": 78, "geometry": {"type": "Point", "coordinates": [69.717, 34.641]}, "properties": {"name": "Naghlu Dam Hydroelectric Power Plant Afghanistan", "fuel": "hydro", "mw": 100.0, "country": "AFG", "status": "operating"}}, {"type": "Feature", "id": 79, "geometry": {"type": "Point", "coordinates": [70.363, 34.485]}, "properties": {"name": "Nangarhar (Darunta) Hydroelectric Power Plant Afghanistan", "fuel": "hydro", "mw": 11.6, "country": "AFG", "status": "operating"}}, {"type": "Feature", "id": 80, "geometry": {"type": "Point", "coordinates": [69.113, 34.564]}, "properties": {"name": "Northwest Kabul Power Plant Afghanistan", "fuel": "gas", "mw": 42.0, "country": "AFG", "status": "operating"}}, {"type": "Feature", "id": 81, "geometry": {"type": "Point", "coordinates": [68.71, 35.942]}, "properties": {"name": "Pul-e-Khumri Hydroelectric Power Plant Afghanistan", "fuel": "hydro", "mw": 6.0, "country": "AFG", "status": "operating"}}, {"type": "Feature", "id": 82, "geometry": {"type": "Point", "coordinates": [69.776, 34.587]}, "properties": {"name": "Sarobi Dam Hydroelectric Power Plant Afghanistan", "fuel": "hydro", "mw": 22.0, "country": "AFG", "status": "operating"}}, {"type": "Feature", "id": 83, "geometry": {"type": "Point", "coordinates": [70.993, 30.172]}, "properties": {"name": "AES Lalpir Ltd. Mahmood Kot Muzaffargarh", "fuel": "oil", "mw": 362.0, "country": "PAK", "status": "operating"}}, {"type": "Feature", "id": 84, "geometry": {"type": "Point", "coordinates": [71.83, 32.12]}, "properties": {"name": "Adhi Kot", "fuel": "solar", "mw": 12.0, "country": "PAK", "status": "operating"}}, {"type": "Feature", "id": 85, "geometry": {"type": "Point", "coordinates": [74.084, 31.679]}, "properties": {"name": "Atlas Power Sheikhupura", "fuel": "gas", "mw": 225.0, "country": "PAK", "status": "operating"}}, {"type": "Feature", "id": 86, "geometry": {"type": "Point", "coordinates": [67.36, 24.784]}, "properties": {"name": "Bin Qasim", "fuel": "oil", "mw": 1260.0, "country": "PAK", "status": "operating"}}, {"type": "Feature", "id": 87, "geometry": {"type": "Point", "coordinates": [71.371, 32.435]}, "properties": {"name": "Chashma", "fuel": "hydro", "mw": 184.0, "country": "PAK", "status": "operating"}}, {"type": "Feature", "id": 88, "geometry": {"type": "Point", "coordinates": [71.462, 32.392]}, "properties": {"name": "Chasnupp", "fuel": "nuclear", "mw": 1330.0, "country": "PAK", "status": "operating"}}, {"type": "Feature", "id": 89, "geometry": {"type": "Point", "coordinates": [73.978, 31.713]}, "properties": {"name": "Chichoki", "fuel": "hydro", "mw": 13.0, "country": "PAK", "status": "operating"}}, {"type": "Feature", "id": 90, "geometry": {"type": "Point", "coordinates": [72.546, 35.21]}, "properties": {"name": "Daral Khwar", "fuel": "hydro", "mw": 36.6, "country": "PAK", "status": "operating"}}, {"type": "Feature", "id": 91, "geometry": {"type": "Point", "coordinates": [72.036, 34.862]}, "properties": {"name": "Dargai", "fuel": "hydro", "mw": 20.0, "country": "PAK", "status": "operating"}}, {"type": "Feature", "id": 92, "geometry": {"type": "Point", "coordinates": [67.496, 24.672]}, "properties": {"name": "Dawood Wind Power project", "fuel": "wind", "mw": 50.0, "country": "PAK", "status": "operating"}}, {"type": "Feature", "id": 93, "geometry": {"type": "Point", "coordinates": [72.265, 29.115]}, "properties": {"name": "Din Garh", "fuel": "solar", "mw": 50.0, "country": "PAK", "status": "operating"}}, {"type": "Feature", "id": 94, "geometry": {"type": "Point", "coordinates": [69.363, 28.027]}, "properties": {"name": "Engro Energy Ltd. Karachi", "fuel": "gas", "mw": 217.0, "country": "PAK", "status": "operating"}}, {"type": "Feature", "id": 95, "geometry": {"type": "Point", "coordinates": [73.389, 31.523]}, "properties": {"name": "Faisalabad Sitara Chemical power plant", "fuel": "coal", "mw": 40.0, "country": "PAK", "status": "operating"}}, {"type": "Feature", "id": 96, "geometry": {"type": "Point", "coordinates": [67.418, 24.834]}, "properties": {"name": "Fauji Fertilizer Power Plant", "fuel": "coal", "mw": 118.0, "country": "PAK", "status": "operating"}}, {"type": "Feature", "id": 97, "geometry": {"type": "Point", "coordinates": [71.956, 30.524]}, "properties": {"name": "Fauji KabirWala Khanela", "fuel": "gas", "mw": 157.0, "country": "PAK", "status": "operating"}}, {"type": "Feature", "id": 98, "geometry": {"type": "Point", "coordinates": [69.671, 27.988]}, "properties": {"name": "Foundation Power Company (Daharki)", "fuel": "gas", "mw": 185.0, "country": "PAK", "status": "operating"}}, {"type": "Feature", "id": 99, "geometry": {"type": "Point", "coordinates": [67.463, 24.576]}, "properties": {"name": "Foundation Wind Energy Farm", "fuel": "wind", "mw": 100.0, "country": "PAK", "status": "operating"}}, {"type": "Feature", "id": 100, "geometry": {"type": "Point", "coordinates": [72.259, 33.779]}, "properties": {"name": "Ghazi Barotha", "fuel": "hydro", "mw": 1450.0, "country": "PAK", "status": "operating"}}, {"type": "Feature", "id": 101, "geometry": {"type": "Point", "coordinates": [69.697, 28.427]}, "properties": {"name": "Guddu", "fuel": "gas", "mw": 110.0, "country": "PAK", "status": "operating"}}, {"type": "Feature", "id": 102, "geometry": {"type": "Point", "coordinates": [67.147, 24.85]}, "properties": {"name": "Gul Ahmed Energy Ltd. (GAEL)", "fuel": "oil", "mw": 136.0, "country": "PAK", "status": "operating"}}, {"type": "Feature", "id": 103, "geometry": {"type": "Point", "coordinates": [66.974, 30.277]}, "properties": {"name": "Habibullah Coastal Power ltd. Lahore", "fuel": "gas", "mw": 140.0, "country": "PAK", "status": "operating"}}, {"type": "Feature", "id": 104, "geometry": {"type": "Point", "coordinates": [66.695, 24.906]}, "properties": {"name": "Hub Power Project", "fuel": "oil", "mw": 1292.0, "country": "PAK", "status": "operating"}}, {"type": "Feature", "id": 105, "geometry": {"type": "Point", "coordinates": [66.695, 24.906]}, "properties": {"name": "Hub Power Project- Narowal", "fuel": "oil", "mw": 220.0, "country": "PAK", "status": "operating"}}, {"type": "Feature", "id": 106, "geometry": {"type": "Point", "coordinates": [74.262, 31.326]}, "properties": {"name": "Japan Power Company Lahore", "fuel": "oil", "mw": 120.0, "country": "PAK", "status": "operating"}}, {"type": "Feature", "id": 107, "geometry": {"type": "Point", "coordinates": [67.985, 25.057]}, "properties": {"name": "Jhimpir", "fuel": "wind", "mw": 106.0, "country": "PAK", "status": "operating"}}, {"type": "Feature", "id": 108, "geometry": {"type": "Point", "coordinates": [66.789, 24.845]}, "properties": {"name": "Kanupp", "fuel": "nuclear", "mw": 137.0, "country": "PAK", "status": "operating"}}, {"type": "Feature", "id": 109, "geometry": {"type": "Point", "coordinates": [74.187, 31.263]}, "properties": {"name": "Kohinoor Energy Limited", "fuel": "oil", "mw": 131.0, "country": "PAK", "status": "operating"}}, {"type": "Feature", "id": 110, "geometry": {"type": "Point", "coordinates": [67.145, 24.848]}, "properties": {"name": "Korangi (gas turbine)", "fuel": "gas", "mw": 80.0, "country": "PAK", "status": "operating"}}, {"type": "Feature", "id": 111, "geometry": {"type": "Point", "coordinates": [67.139, 24.786]}, "properties": {"name": "Korangi (thermal)", "fuel": "gas", "mw": 316.0, "country": "PAK", "status": "operating"}}, {"type": "Feature", "id": 112, "geometry": {"type": "Point", "coordinates": [70.981, 30.445]}, "properties": {"name": "Kot Addu Power Company ltd.", "fuel": "hydro", "mw": 1368.0, "country": "PAK", "status": "operating"}}, {"type": "Feature", "id": 113, "geometry": {"type": "Point", "coordinates": [68.286, 25.704]}, "properties": {"name": "Lakhra", "fuel": "coal", "mw": 150.0, "country": "PAK", "status": "operating"}}, {"type": "Feature", "id": 114, "geometry": {"type": "Point", "coordinates": [69.636, 28.032]}, "properties": {"name": "Liberty Power Project", "fuel": "gas", "mw": 232.0, "country": "PAK", "status": "operating"}}, {"type": "Feature", "id": 115, "geometry": {"type": "Point", "coordinates": [73.642, 33.137]}, "properties": {"name": "Mangla", "fuel": "hydro", "mw": 1000.0, "country": "PAK", "status": "operating"}}, {"type": "Feature", "id": 116, "geometry": {"type": "Point", "coordinates": [71.612, 32.905]}, "properties": {"name": "Maple Leaf power station", "fuel": "coal", "mw": 40.0, "country": "PAK", "status": "operating"}}, {"type": "Feature", "id": 117, "geometry": {"type": "Point", "coordinates": [67.969, 25.172]}, "properties": {"name": "Metro Wind Farm", "fuel": "wind", "mw": 50.0, "country": "PAK", "status": "operating"}}, {"type": "Feature", "id": 118, "geometry": {"type": "Point", "coordinates": [70.967, 30.293]}, "properties": {"name": "Muzaffargarh Sugar Mill", "fuel": "coal", "mw": 120.0, "country": "PAK", "status": "operating"}}, {"type": "Feature", "id": 119, "geometry": {"type": "Point", "coordinates": [74.175, 36.166]}, "properties": {"name": "Naltar V", "fuel": "hydro", "mw": 14.0, "country": "PAK", "status": "operating"}}, {"type": "Feature", "id": 120, "geometry": {"type": "Point", "coordinates": [73.912, 31.139]}, "properties": {"name": "Nishat Chunian Limited", "fuel": "oil", "mw": 200.0, "country": "PAK", "status": "operating"}}, {"type": "Feature", "id": 121, "geometry": {"type": "Point", "coordinates": [73.912, 31.139]}, "properties": {"name": "Nishat Power Limited", "fuel": "oil", "mw": 200.0, "country": "PAK", "status": "operating"}}, {"type": "Feature", "id": 122, "geometry": {"type": "Point", "coordinates": [70.993, 30.172]}, "properties": {"name": "Pak Gen (Pvt) Limited", "fuel": "oil", "mw": 365.0, "country": "PAK", "status": "operating"}}, {"type": "Feature", "id": 123, "geometry": {"type": "Point", "coordinates": [73.097, 33.73]}, "properties": {"name": "Pakistan Parliament", "fuel": "solar", "mw": 1.0, "country": "PAK", "status": "operating"}}, {"type": "Feature", "id": 124, "geometry": {"type": "Point", "coordinates": [73.429, 34.342]}, "properties": {"name": "Patrind", "fuel": "hydro", "mw": 147.0, "country": "PAK", "status": "operating"}}, {"type": "Feature", "id": 125, "geometry": {"type": "Point", "coordinates": [71.549, 30.215]}, "properties": {"name": "Piranghaib  Multan", "fuel": "oil", "mw": 192.0, "country": "PAK", "status": "operating"}}, {"type": "Feature", "id": 126, "geometry": {"type": "Point", "coordinates": [67.369, 24.785]}, "properties": {"name": "Port Qasim EPC power station", "fuel": "coal", "mw": 1320.0, "country": "PAK", "status": "operating"}}, {"type": "Feature", "id": 127, "geometry": {"type": "Point", "coordinates": [71.823, 29.321]}, "properties": {"name": "QeA} Jinnah", "fuel": "solar", "mw": 98.0, "country": "PAK", "status": "operating"}}, {"type": "Feature", "id": 128, "geometry": {"type": "Point", "coordinates": [71.799, 29.274]}, "properties": {"name": "QeA} Zorlu", "fuel": "solar", "mw": 117.4, "country": "PAK", "status": "operating"}}, {"type": "Feature", "id": 129, "geometry": {"type": "Point", "coordinates": [71.824, 29.318]}, "properties": {"name": "Quaid-e-Azam", "fuel": "solar", "mw": 400.0, "country": "PAK", "status": "operating"}}, {"type": "Feature", "id": 130, "geometry": {"type": "Point", "coordinates": [73.484, 32.583]}, "properties": {"name": "Rasul", "fuel": "hydro", "mw": 22.0, "country": "PAK", "status": "operating"}}, {"type": "Feature", "id": 131, "geometry": {"type": "Point", "coordinates": [66.99, 24.913]}, "properties": {"name": "SITE", "fuel": "gas", "mw": 100.0, "country": "PAK", "status": "operating"}}, {"type": "Feature", "id": 132, "geometry": {"type": "Point", "coordinates": [73.875, 31.732]}, "properties": {"name": "Saba Power Company Sheikhupura", "fuel": "oil", "mw": 114.0, "country": "PAK", "status": "operating"}}, {"type": "Feature", "id": 133, "geometry": {"type": "Point", "coordinates": [73.243, 30.713]}, "properties": {"name": "Sahiwal", "fuel": "coal", "mw": 1320.0, "country": "PAK", "status": "operating"}}, {"type": "Feature", "id": 134, "geometry": {"type": "Point", "coordinates": [74.278, 31.45]}, "properties": {"name": "Shadiwal", "fuel": "hydro", "mw": 14.0, "country": "PAK", "status": "operating"}}, {"type": "Feature", "id": 135, "geometry": {"type": "Point", "coordinates": [74.249, 31.291]}, "properties": {"name": "Southern Electric Power Company", "fuel": "oil", "mw": 135.0, "country": "PAK", "status": "operating"}}, {"type": "Feature", "id": 136, "geometry": {"type": "Point", "coordinates": [66.907, 25.0]}, "properties": {"name": "Tapal Energy Limited Karachi", "fuel": "oil", "mw": 126.0, "country": "PAK", "status": "operating"}}, {"type": "Feature", "id": 137, "geometry": {"type": "Point", "coordinates": [72.686, 34.089]}, "properties": {"name": "Tarbela", "fuel": "hydro", "mw": 3478.0, "country": "PAK", "status": "operating"}}, {"type": "Feature", "id": 138, "geometry": {"type": "Point", "coordinates": [67.43, 24.613]}, "properties": {"name": "Tenaga Generasi", "fuel": "wind", "mw": 50.0, "country": "PAK", "status": "operating"}}, {"type": "Feature", "id": 139, "geometry": {"type": "Point", "coordinates": [67.943, 25.08]}, "properties": {"name": "Three Gorges First Wind Farm", "fuel": "wind", "mw": 100.0, "country": "PAK", "status": "operating"}}, {"type": "Feature", "id": 140, "geometry": {"type": "Point", "coordinates": [68.178, 28.583]}, "properties": {"name": "Uch Power Limited", "fuel": "gas", "mw": 586.0, "country": "PAK", "status": "operating"}}, {"type": "Feature", "id": 141, "geometry": {"type": "Point", "coordinates": [68.178, 28.583]}, "properties": {"name": "Uch-II Power Project", "fuel": "gas", "mw": 404.0, "country": "PAK", "status": "operating"}}, {"type": "Feature", "id": 142, "geometry": {"type": "Point", "coordinates": [68.362, 27.665]}, "properties": {"name": "Walter Power Interenational Naudero-I", "fuel": "gas", "mw": 101.0, "country": "PAK", "status": "operating"}}, {"type": "Feature", "id": 143, "geometry": {"type": "Point", "coordinates": [71.358, 34.164]}, "properties": {"name": "Warsak", "fuel": "hydro", "mw": 243.0, "country": "PAK", "status": "operating"}}, {"type": "Feature", "id": 144, "geometry": {"type": "Point", "coordinates": [67.995, 25.064]}, "properties": {"name": "Yunus Wind Farm", "fuel": "wind", "mw": 50.0, "country": "PAK", "status": "operating"}}]}