{"type":"FeatureCollection","features":[{"type":"Feature","id":310,"geometry":{"type":"Point","coordinates":[8.996,52.381]},"properties":{"name":"Kraftwerk Heyden","fuel":"coal","mw":875.0,"country":"DEU","status":"operating"}},{"type":"Feature","id":1304,"geometry":{"type":"Point","coordinates":[8.867,45.1]},"properties":{"name":"Stabilimento di Ferrera Erbognone","fuel":"gas","mw":1030.0,"country":"ITA","status":"operating"}},{"type":"Feature","id":1529,"geometry":{"type":"Point","coordinates":[-6.885,39.729]},"properties":{"name":"Central hidroel\u00e9ctrica Jose Mar\u00eda de Oriol","fuel":"hydro","mw":957.0,"country":"ESP","status":"operating"}},{"type":"Feature","id":1531,"geometry":{"type":"Point","coordinates":[-8.775,40.124]},"properties":{"name":"Central de Ciclo Combinado de Lares","fuel":"gas","mw":863.0,"country":"PRT","status":"operating"}},{"type":"Feature","id":1567,"geometry":{"type":"Point","coordinates":[13.752,37.968]},"properties":{"name":"Centrale termoelettrica \"Ettore Maiorana\"","fuel":"gas","mw":1340.0,"country":"ITA","status":"operating"}},{"type":"Feature","id":2010,"geometry":{"type":"Point","coordinates":[-8.234,51.836]},"properties":{"name":"Aghada Power Station","fuel":"gas","mw":963.0,"country":"IRL","status":"operating"}},{"type":"Feature","id":2176,"geometry":{"type":"Point","coordinates":[-9.423,52.608]},"properties":{"name":"Moneypoint Power Station","fuel":"oil","mw":915.0,"country":"","status":"operating"}},{"type":"Feature","id":2318,"geometry":{"type":"Point","coordinates":[6.988,50.975]},"properties":{"name":"Heizkraftwerk K\u00f6ln-Niehl","fuel":"gas","mw":872.0,"country":"DEU","status":"operating"}},{"type":"Feature","id":2433,"geometry":{"type":"Point","coordinates":[6.178,49.949]},"properties":{"name":"Centrale de Vianden","fuel":"hydro","mw":1290.0,"country":"LUX","status":"operating"}},{"type":"Feature","id":2786,"geometry":{"type":"Point","coordinates":[8.237,50.027]},"properties":{"name":"Kraftwerk Mainz","fuel":"gas","mw":868.0,"country":"DEU","status":"operating"}},{"type":"Feature","id":3091,"geometry":{"type":"Point","coordinates":[7.341,51.632]},"properties":{"name":"Kraftwerk Datteln 4","fuel":"coal","mw":1100.0,"country":"DEU","status":"operating"}},{"type":"Feature","id":3094,"geometry":{"type":"Point","coordinates":[7.719,51.674]},"properties":{"name":"Gersteinwerk","fuel":"gas","mw":987.0,"country":"DEU","status":"operating"}},{"type":"Feature","id":3095,"geometry":{"type":"Point","coordinates":[7.928,51.674]},"properties":{"name":"GuD-Kraftwerk Hamm-Uentrop","fuel":"gas","mw":850.0,"country":"DEU","status":"operating"}},{"type":"Feature","id":3240,"geometry":{"type":"Point","coordinates":[-8.953,39.011]},"properties":{"name":"Central Termoel\u00e9ctrica do Ribatejo","fuel":"gas","mw":1176.0,"country":"PRT","status":"operating"}},{"type":"Feature","id":3873,"geometry":{"type":"Point","coordinates":[-8.459,41.069]},"properties":{"name":"Central de Ciclo Combinado da Tapada do Outeiro","fuel":"gas","mw":990.0,"country":"PRT","status":"operating"}},{"type":"Feature","id":5155,"geometry":{"type":"Point","coordinates":[2.159,41.337]},"properties":{"name":"Central t\u00e8rmica del Port de Barcelona","fuel":"gas","mw":866.0,"country":"ESP","status":"operating"}},{"type":"Feature","id":5275,"geometry":{"type":"Point","coordinates":[-7.768,41.54]},"properties":{"name":"Central Hidroel\u00e9ctrica de Gouv\u00e3es","fuel":"hydro","mw":880.0,"country":"PRT","status":"operating"}},{"type":"Feature","id":5751,"geometry":{"type":"Point","coordinates":[-0.945,37.57]},"properties":{"name":"Engie Energ\u00eda Cartagena","fuel":"gas","mw":1200.0,"country":"","status":"operating"}},{"type":"Feature","id":5752,"geometry":{"type":"Point","coordinates":[-0.939,37.573]},"properties":{"name":"Central de ciclo combinado de Cartagena","fuel":"gas","mw":1249.0,"country":"","status":"operating"}},{"type":"Feature","id":6138,"geometry":{"type":"Point","coordinates":[-6.884,37.184]},"properties":{"name":"Central t\u00e9rmica de Palos de la Frontera","fuel":"gas","mw":1200.0,"country":"ESP","status":"operating"}},{"type":"Feature","id":6371,"geometry":{"type":"Point","coordinates":[-8.545,37.882]},"properties":{"name":"Central Solar Fotovoltaica Fernando Pessoa","fuel":"solar","mw":1200.0,"country":"PRT","status":"operating"}},{"type":"Feature","id":6414,"geometry":{"type":"Point","coordinates":[-0.233,39.642]},"properties":{"name":"Central t\u00e9rmica de Sagunto","fuel":"gas","mw":1233.0,"country":"ESP","status":"operating"}},{"type":"Feature","id":6677,"geometry":{"type":"Point","coordinates":[-1.053,39.215]},"properties":{"name":"Central Nuclear de Cofrentes","fuel":"nuclear","mw":1092.0,"country":"ESP","status":"operating"}},{"type":"Feature","id":7047,"geometry":{"type":"Point","coordinates":[-5.816,36.672]},"properties":{"name":"Central t\u00e9rmica de Arcos","fuel":"gas","mw":1585.0,"country":"ESP","status":"operating"}},{"type":"Feature","id":7184,"geometry":{"type":"Point","coordinates":[0.848,44.106]},"properties":{"name":"Centrale Nucl\u00e9aire de Golfech","fuel":"nuclear","mw":2620.0,"country":"FRA","status":"operating"}},{"type":"Feature","id":7256,"geometry":{"type":"Point","coordinates":[-7.865,43.445]},"properties":{"name":"Central de Ciclo Combinado Endesa - As Pontes","fuel":"gas","mw":856.0,"country":"ESP","status":"operating"}},{"type":"Feature","id":7284,"geometry":{"type":"Point","coordinates":[-5.724,43.551]},"properties":{"name":"Central T\u00e9rmica de Abo\u00f1o","fuel":"coal","mw":904.0,"country":"ESP","status":"operating"}},{"type":"Feature","id":7371,"geometry":{"type":"Point","coordinates":[2.659,44.725]},"properties":{"name":"STEP Mont\u00e9zic","fuel":"hydro","mw":910.0,"country":"FRA","status":"operating"}},{"type":"Feature","id":7401,"geometry":{"type":"Point","coordinates":[-0.689,45.255]},"properties":{"name":"Centrale nucl\u00e9aire du Blayais","fuel":"nuclear","mw":3804.0,"country":"FRA","status":"operating"}},{"type":"Feature","id":7556,"geometry":{"type":"Point","coordinates":[2.876,47.508]},"properties":{"name":"Centrale nucl\u00e9aire de Belleville","fuel":"nuclear","mw":2620.0,"country":"FRA","status":"operating"}},{"type":"Feature","id":7728,"geometry":{"type":"Point","coordinates":[-1.882,47.278]},"properties":{"name":"Centrale Thermique de Cordemais","fuel":"coal","mw":1200.0,"country":"FRA","status":"operating"}},{"type":"Feature","id":7783,"geometry":{"type":"Point","coordinates":[1.579,47.721]},"properties":{"name":"Centrale nucl\u00e9aire de Saint-Laurent des Eaux","fuel":"nuclear","mw":1800.0,"country":"FRA","status":"operating"}},{"type":"Feature","id":8055,"geometry":{"type":"Point","coordinates":[0.653,46.454]},"properties":{"name":"Centrale nucl\u00e9aire de Civaux","fuel":"nuclear","mw":2900.0,"country":"FRA","status":"operating"}},{"type":"Feature","id":8295,"geometry":{"type":"Point","coordinates":[0.17,47.229]},"properties":{"name":"Centrale nucl\u00e9aire de Chinon","fuel":"nuclear","mw":3820.0,"country":"FRA","status":"operating"}},{"type":"Feature","id":8717,"geometry":{"type":"Point","coordinates":[2.517,47.733]},"properties":{"name":"Centrale nucl\u00e9aire de Dampierre","fuel":"nuclear","mw":3560.0,"country":"FRA","status":"operating"}},{"type":"Feature","id":9283,"geometry":{"type":"Point","coordinates":[7.305,52.482]},"properties":{"name":"Erdgaskraftwerk Emsland","fuel":"gas","mw":1826.0,"country":"DEU","status":"operating"}},{"type":"Feature","id":9602,"geometry":{"type":"Point","coordinates":[8.495,49.445]},"properties":{"name":"Gro\u00dfkraftwerk Mannheim","fuel":"coal","mw":1958.0,"country":"DEU","status":"operating"}},{"type":"Feature","id":9695,"geometry":{"type":"Point","coordinates":[8.306,49.013]},"properties":{"name":"Rheinhafen-Dampfkraftwerk","fuel":"coal","mw":1704.0,"country":"DEU","status":"operating"}},{"type":"Feature","id":9773,"geometry":{"type":"Point","coordinates":[-1.88,49.538]},"properties":{"name":"Centre nucl\u00e9aire de production d'\u00e9lectricit\u00e9 de Flamanville","fuel":"nuclear","mw":4290.0,"country":"","status":"operating"}},{"type":"Feature","id":9884,"geometry":{"type":"Point","coordinates":[1.218,49.975]},"properties":{"name":"Centre nucl\u00e9aire de production d'\u00e9lectricit\u00e9 de Penly","fuel":"nuclear","mw":2660.0,"country":"FRA","status":"operating"}},{"type":"Feature","id":9889,"geometry":{"type":"Point","coordinates":[1.221,49.978]},"properties":{"name":"Construction des R\u00e9acteurs Nucl\u00e9aires Penly 3 et 4","fuel":"nuclear","mw":3300.0,"country":"FRA","status":"operating"}},{"type":"Feature","id":9914,"geometry":{"type":"Point","coordinates":[0.635,49.858]},"properties":{"name":"Centrale nucl\u00e9aire de Paluel","fuel":"nuclear","mw":5320.0,"country":"FRA","status":"operating"}},{"type":"Feature","id":10077,"geometry":{"type":"Point","coordinates":[5.021,43.36]},"properties":{"name":"Centrale thermique de Martigues","fuel":"gas","mw":930.0,"country":"FRA","status":"operating"}},{"type":"Feature","id":10124,"geometry":{"type":"Point","coordinates":[7.391,44.228]},"properties":{"name":"Centrale idroelettrica Luigi Einaudi","fuel":"hydro","mw":1200.0,"country":"ITA","status":"operating"}},{"type":"Feature","id":10290,"geometry":{"type":"Point","coordinates":[7.943,47.653]},"properties":{"name":"Kavernenkraftwerk Wehr","fuel":"hydro","mw":910.0,"country":"DEU","status":"operating"}},{"type":"Feature","id":10392,"geometry":{"type":"Point","coordinates":[7.9,45.186]},"properties":{"name":"Centrale Termoelettrica di Chivasso","fuel":"gas","mw":1179.0,"country":"ITA","status":"operating"}},{"type":"Feature","id":10564,"geometry":{"type":"Point","coordinates":[8.183,47.601]},"properties":{"name":"Kernkraftwerk Leibstadt","fuel":"nuclear","mw":1220.0,"country":"","status":"operating"}},{"type":"Feature","id":11542,"geometry":{"type":"Point","coordinates":[2.138,51.015]},"properties":{"name":"Centrale nucl\u00e9aire de Gravelines","fuel":"nuclear","mw":5460.0,"country":"FRA","status":"operating"}},{"type":"Feature","id":11855,"geometry":{"type":"Point","coordinates":[4.731,44.331]},"properties":{"name":"Centrale nucl\u00e9aire du Tricastin","fuel":"nuclear","mw":3660.0,"country":"FRA","status":"operating"}},{"type":"Feature","id":11871,"geometry":{"type":"Point","coordinates":[4.754,44.633]},"properties":{"name":"Centrale nucl\u00e9aire de Cruas","fuel":"nuclear","mw":3660.0,"country":"FRA","status":"operating"}},{"type":"Feature","id":12023,"geometry":{"type":"Point","coordinates":[4.754,45.408]},"properties":{"name":"Centrale nucl\u00e9aire de Saint-Alban","fuel":"nuclear","mw":2670.0,"country":"FRA","status":"operating"}},{"type":"Feature","id":12038,"geometry":{"type":"Point","coordinates":[6.095,45.183]},"properties":{"name":"Grand-Maison STEP","fuel":"hydro","mw":1200.0,"country":"FRA","status":"operating"}},{"type":"Feature","id":12297,"geometry":{"type":"Point","coordinates":[3.517,48.517]},"properties":{"name":"Centrale nucl\u00e9aire de Nogent-sur-Seine","fuel":"nuclear","mw":2620.0,"country":"FRA","status":"operating"}},{"type":"Feature","id":12631,"geometry":{"type":"Point","coordinates":[6.219,49.417]},"properties":{"name":"Centrale nucl\u00e9aire de Cattenom","fuel":"nuclear","mw":5200.0,"country":"FRA","status":"operating"}},{"type":"Feature","id":13062,"geometry":{"type":"Point","coordinates":[5.269,45.799]},"properties":{"name":"Centrale nucl\u00e9aire du Bugey","fuel":"nuclear","mw":3580.0,"country":"FRA","status":"operating"}},{"type":"Feature","id":13166,"geometry":{"type":"Point","coordinates":[4.792,50.09]},"properties":{"name":"Centrale nucl\u00e9aire de Chooz","fuel":"nuclear","mw":3000.0,"country":"BEL","status":"operating"}},{"type":"Feature","id":13187,"geometry":{"type":"Point","coordinates":[5.862,50.385]},"properties":{"name":"Coo - Trois-Ponts","fuel":"hydro","mw":1164.0,"country":"BEL","status":"operating"}},{"type":"Feature","id":13191,"geometry":{"type":"Point","coordinates":[5.274,50.534]},"properties":{"name":"Centrale nucl\u00e9aire de Tihange","fuel":"nuclear","mw":3008.0,"country":"BEL","status":"operating"}},{"type":"Feature","id":13226,"geometry":{"type":"Point","coordinates":[6.322,50.838]},"properties":{"name":"Kraftwerk Weisweiler","fuel":"coal","mw":2361.0,"country":"DEU","status":"operating"}},{"type":"Feature","id":13261,"geometry":{"type":"Point","coordinates":[6.845,50.861]},"properties":{"name":"Knapsack Gas Power Plants","fuel":"gas","mw":1230.0,"country":"DEU","status":"operating"}},{"type":"Feature","id":13273,"geometry":{"type":"Point","coordinates":[6.668,50.994]},"properties":{"name":"Kraftwerk Niederau\u00dfem","fuel":"coal","mw":3133.0,"country":"DEU","status":"operating"}},{"type":"Feature","id":13275,"geometry":{"type":"Point","coordinates":[6.633,51.036]},"properties":{"name":"Kraftwerk Neurath BoA 2&3","fuel":"coal","mw":2100.0,"country":"DEU","status":"operating"}},{"type":"Feature","id":13290,"geometry":{"type":"Point","coordinates":[4.258,51.324]},"properties":{"name":"Kerncentrale Doel","fuel":"nuclear","mw":2935.0,"country":"NLD","status":"operating"}},{"type":"Feature","id":13663,"geometry":{"type":"Point","coordinates":[5.529,52.577]},"properties":{"name":"Maxima-centrale","fuel":"gas","mw":880.0,"country":"NLD","status":"operating"}},{"type":"Feature","id":13984,"geometry":{"type":"Point","coordinates":[4.092,51.957]},"properties":{"name":"Enecogen","fuel":"gas","mw":870.0,"country":"NLD","status":"operating"}},{"type":"Feature","id":13995,"geometry":{"type":"Point","coordinates":[4.022,51.963]},"properties":{"name":"Centrale Maasvlakte","fuel":"coal","mw":1070.0,"country":"","status":"operating"}},{"type":"Feature","id":14002,"geometry":{"type":"Point","coordinates":[6.878,53.436]},"properties":{"name":"Eemscentrale","fuel":"gas","mw":2442.0,"country":"NLD","status":"operating"}},{"type":"Feature","id":14004,"geometry":{"type":"Point","coordinates":[6.862,53.443]},"properties":{"name":"Eemshavencentrale","fuel":"coal","mw":1560.0,"country":"NLD","status":"operating"}},{"type":"Feature","id":14005,"geometry":{"type":"Point","coordinates":[6.853,53.448]},"properties":{"name":"Magnum","fuel":"gas","mw":1311.0,"country":"NLD","status":"operating"}},{"type":"Feature","id":14044,"geometry":{"type":"Point","coordinates":[4.842,51.709]},"properties":{"name":"Amercentrale","fuel":"biomass","mw":1245.0,"country":"NLD","status":"operating"}},{"type":"Feature","id":14180,"geometry":{"type":"Point","coordinates":[3.692,51.448]},"properties":{"name":"Sloecentrale","fuel":"gas","mw":870.0,"country":"NLD","status":"operating"}},{"type":"Feature","id":14221,"geometry":{"type":"Point","coordinates":[5.909,51.155]},"properties":{"name":"Clauscentrale","fuel":"gas","mw":1304.0,"country":"NLD","status":"operating"}},{"type":"Feature","id":14882,"geometry":{"type":"Point","coordinates":[12.109,57.261]},"properties":{"name":"Ringhals k\u00e4rnkraftverk","fuel":"nuclear","mw":3550.0,"country":"SWE","status":"operating"}},{"type":"Feature","id":15621,"geometry":{"type":"Point","coordinates":[8.95,50.089]},"properties":{"name":"Kraftwerk Staudinger","fuel":"coal","mw":1090.0,"country":"DEU","status":"operating"}},{"type":"Feature","id":16144,"geometry":{"type":"Point","coordinates":[11.95,51.399]},"properties":{"name":"Saale Energie GmbH","fuel":"coal","mw":900.0,"country":"DEU","status":"operating"}},{"type":"Feature","id":16275,"geometry":{"type":"Point","coordinates":[12.376,51.182]},"properties":{"name":"Kraftwerk Lippendorf","fuel":"coal","mw":1867.2,"country":"DEU","status":"operating"}},{"type":"Feature","id":16488,"geometry":{"type":"Point","coordinates":[11.006,50.508]},"properties":{"name":"Pumpspeicherwerk Goldisthal","fuel":"hydro","mw":1060.0,"country":"DEU","status":"operating"}},{"type":"Feature","id":17045,"geometry":{"type":"Point","coordinates":[9.372,48.719]},"properties":{"name":"Heizkraftwerk Altbach/Deizisau","fuel":"coal","mw":1022.0,"country":"DEU","status":"operating"}},{"type":"Feature","id":17069,"geometry":{"type":"Point","coordinates":[9.207,49.176]},"properties":{"name":"Heizkraftwerk Heilbronn","fuel":"coal","mw":1028.0,"country":"DEU","status":"operating"}},{"type":"Feature","id":17124,"geometry":{"type":"Point","coordinates":[9.71,45.054]},"properties":{"name":"Centrali termoelettriche \"Emilia\" e \"Levante\"","fuel":"gas","mw":855.0,"country":"ITA","status":"operating"}},{"type":"Feature","id":17131,"geometry":{"type":"Point","coordinates":[9.48,45.09]},"properties":{"name":"Centrale termoelettrica \"Edoardo Amaldi\"","fuel":"gas","mw":1476.0,"country":"ITA","status":"operating"}},{"type":"Feature","id":17756,"geometry":{"type":"Point","coordinates":[9.435,45.332]},"properties":{"name":"Centrale Termoelettrica Tavazzano e Montanaso","fuel":"gas","mw":1970.0,"country":"ITA","status":"operating"}},{"type":"Feature","id":17896,"geometry":{"type":"Point","coordinates":[10.354,46.176]},"properties":{"name":"Centrale Enel di Edolo","fuel":"hydro","mw":1000.0,"country":"ITA","status":"operating"}},{"type":"Feature","id":18540,"geometry":{"type":"Point","coordinates":[11.536,42.358]},"properties":{"name":"Centrale termoelettrica \"Alessandro Volta\"","fuel":"gas","mw":934.0,"country":"ITA","status":"operating"}},{"type":"Feature","id":18615,"geometry":{"type":"Point","coordinates":[11.764,42.123]},"properties":{"name":"Centrale termoelettrica di Torrevaldaliga Sud","fuel":"gas","mw":1180.0,"country":"ITA","status":"operating"}},{"type":"Feature","id":18616,"geometry":{"type":"Point","coordinates":[11.757,42.129]},"properties":{"name":"Centrale termoelettrica di Torrevaldaliga Nord","fuel":"coal","mw":1980.0,"country":"ITA","status":"operating"}},{"type":"Feature","id":19676,"geometry":{"type":"Point","coordinates":[12.236,44.448]},"properties":{"name":"Ravenna Baiona Power Plant","fuel":"gas","mw":961.0,"country":"ITA","status":"operating"}},{"type":"Feature","id":21763,"geometry":{"type":"Point","coordinates":[-2.624,40.701]},"properties":{"name":"Central Nuclear de Trillo","fuel":"nuclear","mw":1003.0,"country":"ESP","status":"operating"}},{"type":"Feature","id":22237,"geometry":{"type":"Point","coordinates":[0.569,41.201]},"properties":{"name":"Central nuclear d'Asc\u00f3","fuel":"nuclear","mw":1988.0,"country":"ESP","status":"operating"}},{"type":"Feature","id":22320,"geometry":{"type":"Point","coordinates":[2.229,41.419]},"properties":{"name":"Central T\u00e8rmica de Cicle Combinat Sant Adri\u00e0 de Bes\u00f2s","fuel":"gas","mw":1671.0,"country":"ESP","status":"operating"}},{"type":"Feature","id":22396,"geometry":{"type":"Point","coordinates":[-5.697,39.808]},"properties":{"name":"Central nuclear de Almaraz","fuel":"nuclear","mw":1957.0,"country":"ESP","status":"operating"}},{"type":"Feature","id":22431,"geometry":{"type":"Point","coordinates":[-0.932,39.244]},"properties":{"name":"Central hidroel\u00e8ctrica La Muela-Cortes","fuel":"hydro","mw":1512.0,"country":"ESP","status":"operating"}},{"type":"Feature","id":22676,"geometry":{"type":"Point","coordinates":[8.741,45.52]},"properties":{"name":"Centrale termoelettrica di Turbigo","fuel":"gas","mw":1280.0,"country":"ITA","status":"operating"}},{"type":"Feature","id":22688,"geometry":{"type":"Point","coordinates":[8.732,46.069]},"properties":{"name":"Centrale Roncovalgrande","fuel":"hydro","mw":1040.0,"country":"","status":"operating"}},{"type":"Feature","id":23311,"geometry":{"type":"Point","coordinates":[14.091,41.38]},"properties":{"name":"Centrale Idroelettrica Presenzano","fuel":"hydro","mw":1000.0,"country":"ITA","status":"operating"}},{"type":"Feature","id":24294,"geometry":{"type":"Point","coordinates":[16.149,49.085]},"properties":{"name":"Jadern\u00e1 elektr\u00e1rna Dukovany","fuel":"nuclear","mw":1880.0,"country":"CZE","status":"operating"}},{"type":"Feature","id":24393,"geometry":{"type":"Point","coordinates":[17.682,48.495]},"properties":{"name":"At\u00f3mov\u00e9 elektr\u00e1rne Bohunice","fuel":"nuclear","mw":1010.0,"country":"SVK","status":"operating"}},{"type":"Feature","id":24526,"geometry":{"type":"Point","coordinates":[17.882,50.752]},"properties":{"name":"Elektrownia Opole","fuel":"coal","mw":3292.0,"country":"POL","status":"operating"}},{"type":"Feature","id":24542,"geometry":{"type":"Point","coordinates":[18.46,48.26]},"properties":{"name":"Jadrov\u00e1 elektr\u00e1re\u0148 Mochovce","fuel":"nuclear","mw":1471.0,"country":"SVK","status":"operating"}},{"type":"Feature","id":24645,"geometry":{"type":"Point","coordinates":[18.167,60.404]},"properties":{"name":"Forsmarks K\u00e4rnkraftverk","fuel":"nuclear","mw":3271.0,"country":"SWE","status":"operating"}},{"type":"Feature","id":24692,"geometry":{"type":"Point","coordinates":[19.216,50.209]},"properties":{"name":"Elektrownia Jaworzno III","fuel":"coal","mw":2255.0,"country":"POL","status":"operating"}},{"type":"Feature","id":24714,"geometry":{"type":"Point","coordinates":[18.846,50.134]},"properties":{"name":"TAURON Wytwarzanie S. A. Oddzia\u0142 Elektrownia \u0141aziska w \u0141aziskach G\u00f3rnych","fuel":"coal","mw":1155.0,"country":"POL","status":"operating"}},{"type":"Feature","id":24812,"geometry":{"type":"Point","coordinates":[21.339,50.439]},"properties":{"name":"Elektrownia Po\u0142aniec","fuel":"coal","mw":1882.0,"country":"POL","status":"operating"}},{"type":"Feature","id":25062,"geometry":{"type":"Point","coordinates":[21.439,61.238]},"properties":{"name":"Olkiluodon ydinvoimalaitos","fuel":"nuclear","mw":3380.0,"country":"","status":"operating"}},{"type":"Feature","id":25095,"geometry":{"type":"Point","coordinates":[21.643,61.406]},"properties":{"name":"Oosinselk\u00e4","fuel":"wind","mw":250000.0,"country":"FIN","status":"operating"}},{"type":"Feature","id":25106,"geometry":{"type":"Point","coordinates":[19.822,66.885]},"properties":{"name":"Harspr\u00e5ngets kraftverk","fuel":"hydro","mw":977.0,"country":"SWE","status":"operating"}},{"type":"Feature","id":26358,"geometry":{"type":"Point","coordinates":[12.248,45.433]},"properties":{"name":"Centrale termoelettrica \"Andrea Palladio\"","fuel":"coal","mw":976.0,"country":"ITA","status":"operating"}},{"type":"Feature","id":26458,"geometry":{"type":"Point","coordinates":[11.138,45.061]},"properties":{"name":"Centrale termoelettrica di Ostiglia","fuel":"gas","mw":1164.0,"country":"ITA","status":"operating"}},{"type":"Feature","id":26464,"geometry":{"type":"Point","coordinates":[11.252,45.028]},"properties":{"name":"Centrale termoelettrica di Sermide","fuel":"gas","mw":1234.0,"country":"ITA","status":"operating"}},{"type":"Feature","id":26577,"geometry":{"type":"Point","coordinates":[14.57,51.419]},"properties":{"name":"Kraftwerk Boxberg","fuel":"coal","mw":2575.0,"country":"DEU","status":"operating"}},{"type":"Feature","id":26762,"geometry":{"type":"Point","coordinates":[15.053,46.373]},"properties":{"name":"TE \u0160o\u0161tanj","fuel":"coal","mw":1029.0,"country":"SVN","status":"operating"}},{"type":"Feature","id":26908,"geometry":{"type":"Point","coordinates":[14.377,49.179]},"properties":{"name":"Jadern\u00e1 elektr\u00e1rna Temel\u00edn","fuel":"nuclear","mw":2056.0,"country":"CZE","status":"operating"}},{"type":"Feature","id":27191,"geometry":{"type":"Point","coordinates":[12.881,50.518]},"properties":{"name":"Pumpspeicherwerk Markersbach","fuel":"hydro","mw":1050.0,"country":"DEU","status":"operating"}},{"type":"Feature","id":27264,"geometry":{"type":"Point","coordinates":[13.289,45.817]},"properties":{"name":"Centrale termoelettrica di Torviscosa","fuel":"gas","mw":867.0,"country":"ITA","status":"operating"}},{"type":"Feature","id":27306,"geometry":{"type":"Point","coordinates":[14.466,53.205]},"properties":{"name":"Elektrownia Dolna Odra","fuel":"coal","mw":908.0,"country":"POL","status":"operating"}},{"type":"Feature","id":27829,"geometry":{"type":"Point","coordinates":[14.414,50.413]},"properties":{"name":"Elektr\u00e1rna M\u011bln\u00edk","fuel":"coal","mw":960.0,"country":"CZE","status":"operating"}},{"type":"Feature","id":27928,"geometry":{"type":"Point","coordinates":[13.677,50.427]},"properties":{"name":"Elektr\u00e1rna Po\u010derady","fuel":"coal","mw":1845.0,"country":"CZE","status":"operating"}},{"type":"Feature","id":30877,"geometry":{"type":"Point","coordinates":[19.327,51.267]},"properties":{"name":"Elektrownia Be\u0142chat\u00f3w","fuel":"coal","mw":5472.0,"country":"POL","status":"operating"}},{"type":"Feature","id":31153,"geometry":{"type":"Point","coordinates":[14.911,50.947]},"properties":{"name":"Elektrownia Tur\u00f3w","fuel":"coal","mw":1994.8,"country":"CZE","status":"operating"}},{"type":"Feature","id":31206,"geometry":{"type":"Point","coordinates":[14.46,51.833]},"properties":{"name":"Kraftwerk J\u00e4nschwalde","fuel":"coal","mw":3000.0,"country":"DEU","status":"operating"}},{"type":"Feature","id":31289,"geometry":{"type":"Point","coordinates":[14.355,51.535]},"properties":{"name":"Kraftwerk Schwarze Pumpe","fuel":"coal","mw":1600.0,"country":"DEU","status":"operating"}},{"type":"Feature","id":31873,"geometry":{"type":"Point","coordinates":[15.284,38.203]},"properties":{"name":"Centrale di San Filippo del Mela","fuel":"oil","mw":960.0,"country":"ITA","status":"operating"}},{"type":"Feature","id":32683,"geometry":{"type":"Point","coordinates":[22.085,37.417]},"properties":{"name":"\u0391\u0397\u03a3 M\u03b5\u03b3\u03b1\u03bb\u03cc\u03c0\u03bf\u03bb\u03b7\u03c2","fuel":"coal","mw":1322.0,"country":"GRC","status":"operating"}},{"type":"Feature","id":33145,"geometry":{"type":"Point","coordinates":[16.657,38.876]},"properties":{"name":"Centrale termoelettrica di Simeri Crichi","fuel":"gas","mw":857.0,"country":"ITA","status":"operating"}},{"type":"Feature","id":34061,"geometry":{"type":"Point","coordinates":[26.132,42.253]},"properties":{"name":"\u0422\u0415\u0426 \"\u041c\u0430\u0440\u0438\u0446\u0430 \u0418\u0437\u0442\u043e\u043a 2\"","fuel":"coal","mw":1620.0,"country":"BGR","status":"operating"}},{"type":"Feature","id":34222,"geometry":{"type":"Point","coordinates":[27.922,45.164]},"properties":{"name":"Br\u0103ila Power Station","fuel":"oil","mw":856.0,"country":"ROU","status":"operating"}},{"type":"Feature","id":34652,"geometry":{"type":"Point","coordinates":[16.435,48.183]},"properties":{"name":"Kraftwerk Simmering","fuel":"gas","mw":1154.7,"country":"AUT","status":"operating"}},{"type":"Feature","id":34874,"geometry":{"type":"Point","coordinates":[18.853,46.576]},"properties":{"name":"Paksi Atomer\u0151m\u0171","fuel":"nuclear","mw":2000.0,"country":"HUN","status":"operating"}},{"type":"Feature","id":34981,"geometry":{"type":"Point","coordinates":[18.52,50.135]},"properties":{"name":"PGE Energia Ciep\u0142a Oddzia\u0142 w\u00a0Rybniku","fuel":"coal","mw":1350.0,"country":"POL","status":"operating"}},{"type":"Feature","id":36386,"geometry":{"type":"Point","coordinates":[18.002,40.63]},"properties":{"name":"Brindisi Enipower Power Plant","fuel":"gas","mw":1170.0,"country":"","status":"operating"}},{"type":"Feature","id":36387,"geometry":{"type":"Point","coordinates":[18.03,40.564]},"properties":{"name":"Centrale termoelettrica \"Federico II\"","fuel":"coal","mw":2640.0,"country":"ITA","status":"operating"}},{"type":"Feature","id":36724,"geometry":{"type":"Point","coordinates":[21.461,51.666]},"properties":{"name":"Elektrownia Kozienice","fuel":"coal","mw":4016.0,"country":"POL","status":"operating"}},{"type":"Feature","id":37783,"geometry":{"type":"Point","coordinates":[20.07,47.788]},"properties":{"name":"M\u00e1trai Er\u0151m\u0171","fuel":"coal","mw":950.0,"country":"HUN","status":"operating"}},{"type":"Feature","id":38186,"geometry":{"type":"Point","coordinates":[23.775,43.743]},"properties":{"name":"\u0410\u0415\u0426 \u041a\u043e\u0437\u043b\u043e\u0434\u0443\u0439","fuel":"nuclear","mw":2000.0,"country":"BGR","status":"operating"}},{"type":"Feature","id":38458,"geometry":{"type":"Point","coordinates":[22.53,44.671]},"properties":{"name":"\u0425\u0438\u0434\u0440\u043e\u0435\u043b\u0435\u043a\u0442\u0440\u0430\u043d\u0430 \u0402\u0435\u0440\u0434\u0430\u043f I","fuel":"hydro","mw":2371.8,"country":"ROU","status":"operating"}},{"type":"Feature","id":38462,"geometry":{"type":"Point","coordinates":[23.134,44.91]},"properties":{"name":"Complexul Energetic Rovinari","fuel":"coal","mw":990.0,"country":"ROU","status":"operating"}},{"type":"Feature","id":38463,"geometry":{"type":"Point","coordinates":[23.408,44.67]},"properties":{"name":"Termocentrala Turceni","fuel":"coal","mw":1650.0,"country":"ROU","status":"operating"}},{"type":"Feature","id":38497,"geometry":{"type":"Point","coordinates":[22.826,45.914]},"properties":{"name":"Termocentrala Mintia","fuel":"coal","mw":1285.0,"country":"ROU","status":"operating"}},{"type":"Feature","id":38633,"geometry":{"type":"Point","coordinates":[24.247,54.799]},"properties":{"name":"Kruonio HAE","fuel":"hydro","mw":900.0,"country":"LTU","status":"operating"}},{"type":"Feature","id":38634,"geometry":{"type":"Point","coordinates":[24.274,56.918]},"properties":{"name":"TEC-2","fuel":"gas","mw":881.0,"country":"LVA","status":"operating"}},{"type":"Feature","id":38636,"geometry":{"type":"Point","coordinates":[24.644,54.771]},"properties":{"name":"Elektr\u0117n\u0173 kompleksas","fuel":"gas","mw":1045.0,"country":"LTU","status":"operating"}},{"type":"Feature","id":38646,"geometry":{"type":"Point","coordinates":[25.239,56.583]},"properties":{"name":"P\u013cavi\u0146u HES","fuel":"hydro","mw":908.0,"country":"LVA","status":"operating"}},{"type":"Feature","id":39459,"geometry":{"type":"Point","coordinates":[27.903,59.273]},"properties":{"name":"","fuel":"oil_shale","mw":1615.0,"country":"EST","status":"operating"}},{"type":"Feature","id":39796,"geometry":{"type":"Point","coordinates":[23.861,42.16]},"properties":{"name":"\u041f\u0410\u0412\u0415\u0426 \u0427\u0430\u0438\u0440\u0430","fuel":"hydro","mw":864.0,"country":"BGR","status":"operating"}},{"type":"Feature","id":40834,"geometry":{"type":"Point","coordinates":[21.789,40.407]},"properties":{"name":"\u0391\u03c4\u03bc\u03bf\u03b7\u03bb\u03b5\u03ba\u03c4\u03c1\u03b9\u03ba\u03cc\u03c2 \u03a3\u03c4\u03b1\u03b8\u03bc\u03cc\u03c2 \u039a\u03b1\u03c1\u03b4\u03b9\u03ac\u03c2","fuel":"coal","mw":1103.0,"country":"GRC","status":"operating"}},{"type":"Feature","id":40957,"geometry":{"type":"Point","coordinates":[21.929,40.392]},"properties":{"name":"\u0391\u03c4\u03bc\u03bf\u03b7\u03bb\u03b5\u03ba\u03c4\u03c1\u03b9\u03ba\u03cc\u03c2 \u03a3\u03c4\u03b1\u03b8\u03bc\u03cc\u03c2 \u0391\u03b3\u03af\u03bf\u03c5 \u0394\u03b7\u03bc\u03b7\u03c4\u03c1\u03af\u03bf\u03c5","fuel":"coal","mw":1456.0,"country":"GRC","status":"operating"}},{"type":"Feature","id":42836,"geometry":{"type":"Point","coordinates":[24.067,37.747]},"properties":{"name":"\u0391\u03c4\u03bc\u03bf\u03b7\u03bb\u03b5\u03ba\u03c4\u03c1\u03b9\u03ba\u03cc\u03c2 \u03a3\u03c4\u03b1\u03b8\u03bc\u03cc\u03c2 \u039b\u03b1\u03c5\u03c1\u03af\u03bf\u03c5","fuel":"gas","mw":928.0,"country":"","status":"operating"}},{"type":"Feature","id":43365,"geometry":{"type":"Point","coordinates":[33.29,34.729]},"properties":{"name":"\u0397\u03bb\u03b5\u03ba\u03c4\u03c1\u03bf\u03c0\u03b1\u03c1\u03b1\u03b3\u03c9\u03b3\u03bf\u03c2 \u03a3\u03c4\u03b1\u03b8\u03bc\u03bf\u03c2 \u0392\u03b1\u03c3\u03b9\u03bb\u03b9\u03ba\u03bf\u03c5","fuel":"oil","mw":868.0,"country":"CYP","status":"operating"}},{"type":"Feature","id":44443,"geometry":{"type":"Point","coordinates":[11.583,48.767]},"properties":{"name":"W\u00e4rmekraftwerk Irsching","fuel":"gas","mw":1822.0,"country":"DEU","status":"operating"}},{"type":"Feature","id":45078,"geometry":{"type":"Point","coordinates":[26.0,44.88]},"properties":{"name":"CET 2 Brazi","fuel":"gas","mw":860.0,"country":"ROU","status":"operating"}},{"type":"Feature","id":45191,"geometry":{"type":"Point","coordinates":[26.003,42.145]},"properties":{"name":"\u041c\u0430\u0440\u0438\u0446\u0430 \u0418\u0437\u0442\u043e\u043a 3","fuel":"coal","mw":908.0,"country":"BGR","status":"operating"}},{"type":"Feature","id":45351,"geometry":{"type":"Point","coordinates":[28.056,44.322]},"properties":{"name":"Centrala Nuclear\u0103 de la Cernavod\u0103","fuel":"nuclear","mw":1274.0,"country":"ROU","status":"operating"}}]}