{"type": "FeatureCollection", "features": [{"type": "Feature", "geometry": {"type": "Point", "coordinates": [142.77, -5.913]}, "properties": {"name": "", "v": 0}}, {"type": "Feature", "geometry": {"type": "Point", "coordinates": [142.981, -5.891]}, "properties": {"name": "PNG Power Station", "v": 0}}, {"type": "Feature", "geometry": {"type": "Point", "coordinates": [143.657, -6.134]}, "properties": {"name": "", "v": 0}}, {"type": "Feature", "geometry": {"type": "Point", "coordinates": [146.669, -7.427]}, "properties": {"name": "", "v": 0}}, {"type": "Feature", "geometry": {"type": "Point", "coordinates": [178.093, -18.238]}, "properties": {"name": "EFL 33kV Substation", "v": 0}}, {"type": "Feature", "geometry": {"type": "Point", "coordinates": [177.728, -18.207]}, "properties": {"name": "EFL 33kV Substation", "v": 0}}, {"type": "Feature", "geometry": {"type": "Point", "coordinates": [177.526, -18.109]}, "properties": {"name": "EFL 33kV Substation", "v": 0}}, {"type": "Feature", "geometry": {"type": "Point", "coordinates": [177.355, -18.054]}, "properties": {"name": "EFL 33kV Sub Station", "v": 0}}, {"type": "Feature", "geometry": {"type": "Point", "coordinates": [177.476, -17.726]}, "properties": {"name": "Sabeto 33kV Switching Station", "v": 0}}, {"type": "Feature", "geometry": {"type": "Point", "coordinates": [178.387, -18.105]}, "properties": {"name": "EFL 33kV Substation", "v": 0}}, {"type": "Feature", "geometry": {"type": "Point", "coordinates": [177.683, -17.548]}, "properties": {"name": "Rarawai EFL 33kV Substation", "v": 0}}, {"type": "Feature", "geometry": {"type": "Point", "coordinates": [177.865, -17.456]}, "properties": {"name": "Tavua EFL 33kV Substation", "v": 0}}]}