{"type": "FeatureCollection", "features": [{"type": "Feature", "geometry": {"type": "Point", "coordinates": [-77.513, -0.103]}, "properties": {"name": "Subestaci\u00f3n San Rafael", "v": 500000}}, {"type": "Feature", "geometry": {"type": "Point", "coordinates": [-79.303, -4.117]}, "properties": {"name": "Subestaci\u00f3n Punto de Transformaci\u00f3n \"Renovaloja\"", "v": 138000}}, {"type": "Feature", "geometry": {"type": "Point", "coordinates": [-78.263, -1.409]}, "properties": {"name": "Subestaci\u00f3n San Francisco", "v": 230000}}, {"type": "Feature", "geometry": {"type": "Point", "coordinates": [-71.518, -16.475]}, "properties": {"name": "Consorcio Transmantaro", "v": 500000}}]}