{"type": "FeatureCollection", "features": [{"type": "Feature", "geometry": {"type": "Point", "coordinates": [-83.642, 9.25]}, "properties": {"name": "", "v": 0}}, {"type": "Feature", "geometry": {"type": "Point", "coordinates": [-84.099, 9.658]}, "properties": {"name": "", "v": 0}}, {"type": "Feature", "geometry": {"type": "Point", "coordinates": [-83.974, 9.674]}, "properties": {"name": "", "v": 0}}, {"type": "Feature", "geometry": {"type": "Point", "coordinates": [-84.304, 9.925]}, "properties": {"name": "Planta Hidroel\u00e9ctrica Ventanas", "v": 0}}, {"type": "Feature", "geometry": {"type": "Point", "coordinates": [-84.38, 9.981]}, "properties": {"name": "Subestaci\u00f3n El\u00e9ctrica", "v": 0}}, {"type": "Feature", "geometry": {"type": "Point", "coordinates": [-83.764, 12.034]}, "properties": {"name": "", "v": 0}}, {"type": "Feature", "geometry": {"type": "Point", "coordinates": [-84.633, 14.017]}, "properties": {"name": "Subestacion Vesmisa", "v": 0}}, {"type": "Feature", "geometry": {"type": "Point", "coordinates": [-84.002, 9.749]}, "properties": {"name": "", "v": 0}}, {"type": "Feature", "geometry": {"type": "Point", "coordinates": [-91.108, 14.668]}, "properties": {"name": "", "v": 0}}, {"type": "Feature", "geometry": {"type": "Point", "coordinates": [-90.216, 15.023]}, "properties": {"name": "", "v": 0}}, {"type": "Feature", "geometry": {"type": "Point", "coordinates": [-90.143, 15.297]}, "properties": {"name": "SUB ESTACION ST", "v": 0}}, {"type": "Feature", "geometry": {"type": "Point", "coordinates": [-89.826, 13.58]}, "properties": {"name": "Subestacion Acajutla, ETESAL", "v": 0}}, {"type": "Feature", "geometry": {"type": "Point", "coordinates": [-89.757, 13.968]}, "properties": {"name": "", "v": 0}}, {"type": "Feature", "geometry": {"type": "Point", "coordinates": [-89.192, 13.674]}, "properties": {"name": "Subestaci\u00f3n Monserrat CAES /DELSUR", "v": 0}}, {"type": "Feature", "geometry": {"type": "Point", "coordinates": [-89.166, 13.708]}, "properties": {"name": "", "v": 0}}, {"type": "Feature", "geometry": {"type": "Point", "coordinates": [-87.841, 13.335]}, "properties": {"name": "", "v": 0}}, {"type": "Feature", "geometry": {"type": "Point", "coordinates": [-89.544, 14.804]}, "properties": {"name": "", "v": 0}}, {"type": "Feature", "geometry": {"type": "Point", "coordinates": [-87.802, 15.402]}, "properties": {"name": "ENEE", "v": 0}}, {"type": "Feature", "geometry": {"type": "Point", "coordinates": [-87.176, 14.132]}, "properties": {"name": "Sub Estaci\u00f3n El Hatillo", "v": 0}}, {"type": "Feature", "geometry": {"type": "Point", "coordinates": [-86.875, 12.438]}, "properties": {"name": "Union Fenosa", "v": 0}}]}