{"type": "FeatureCollection", "features": [{"type": "Feature", "id": 0, "geometry": {"type": "Point", "coordinates": [103.646, 1.283]}, "properties": {"name": "Tuas NEXUS power station", "fuel": "biomass", "mw": 80.0, "country": "SGP", "status": "construction"}}, {"type": "Feature", "id": 1, "geometry": {"type": "Point", "coordinates": [103.621, 1.296]}, "properties": {"name": "Tuas South Waste-to-Energy power station", "fuel": "biomass", "mw": 40.0, "country": "SGP", "status": "operating"}}, {"type": "Feature", "id": 2, "geometry": {"type": "Point", "coordinates": [103.621, 1.299]}, "properties": {"name": "TuasOne Waste-to-Energy power station", "fuel": "biomass", "mw": 120.0, "country": "SGP", "status": "operating"}}, {"type": "Feature", "id": 3, "geometry": {"type": "Point", "coordinates": [103.795, 1.462]}, "properties": {"name": "Senoko Waste to Energy power station", "fuel": "biomass", "mw": 28.0, "country": "SGP", "status": "operating"}}, {"type": "Feature", "id": 4, "geometry": {"type": "Point", "coordinates": [103.795, 1.462]}, "properties": {"name": "Senoko Waste to Energy power station", "fuel": "biomass", "mw": 28.0, "country": "SGP", "status": "operating"}}, {"type": "Feature", "id": 5, "geometry": {"type": "Point", "coordinates": [103.621, 1.296]}, "properties": {"name": "Tuas South Waste-to-Energy power station", "fuel": "biomass", "mw": 40.0, "country": "SGP", "status": "operating"}}, {"type": "Feature", "id": 6, "geometry": {"type": "Point", "coordinates": [50.602, 26.055]}, "properties": {"name": "Askar Waste-to-Energy power station", "fuel": "biomass", "mw": 25.0, "country": "BHR", "status": "planned"}}, {"type": "Feature", "id": 7, "geometry": {"type": "Point", "coordinates": [57.394, -20.261]}, "properties": {"name": "Medine Mill power station", "fuel": "biomass", "mw": 13.0, "country": "MUS", "status": "operating"}}, {"type": "Feature", "id": 8, "geometry": {"type": "Point", "coordinates": [57.63, -20.386]}, "properties": {"name": "Mare Chicose power station", "fuel": "biomass", "mw": 3.3, "country": "MUS", "status": "operating"}}, {"type": "Feature", "id": 9, "geometry": {"type": "Point", "coordinates": [57.692, -20.212]}, "properties": {"name": "FUEL Sugar power station", "fuel": "biomass", "mw": 41.0, "country": "MUS", "status": "operating"}}, {"type": "Feature", "id": 10, "geometry": {"type": "Point", "coordinates": [73.101, -0.626]}, "properties": {"name": "Addu City WtE power station", "fuel": "biomass", "mw": 1.5, "country": "MDV", "status": "construction"}}, {"type": "Feature", "id": 11, "geometry": {"type": "Point", "coordinates": [103.622, 1.298]}, "properties": {"name": "Keppel Seghers Tuas power Station", "fuel": "biomass", "mw": 22.0, "country": "SGP", "status": "operating"}}, {"type": "Feature", "id": 12, "geometry": {"type": "Point", "coordinates": [103.673, 1.265]}, "properties": {"name": "Tembusu Multi-Utilities Cogen Complex power station", "fuel": "biomass", "mw": 160.0, "country": "SGP", "status": "operating"}}, {"type": "Feature", "id": 13, "geometry": {"type": "Point", "coordinates": [103.797, 1.372]}, "properties": {"name": "RExus power station", "fuel": "biomass", "mw": 13.0, "country": "SGP", "status": "planned"}}, {"type": "Feature", "id": 14, "geometry": {"type": "Point", "coordinates": [50.66, 26.218]}, "properties": {"name": "Al Ezzel power station", "fuel": "gas", "mw": 471.0, "country": "BHR", "status": "operating"}}, {"type": "Feature", "id": 15, "geometry": {"type": "Point", "coordinates": [50.66, 26.218]}, "properties": {"name": "Al Ezzel power station", "fuel": "gas", "mw": 471.0, "country": "BHR", "status": "operating"}}, {"type": "Feature", "id": 16, "geometry": {"type": "Point", "coordinates": [50.662, 26.222]}, "properties": {"name": "Al Hidd Power and Water Station", "fuel": "gas", "mw": 987.0, "country": "BHR", "status": "operating"}}, {"type": "Feature", "id": 17, "geometry": {"type": "Point", "coordinates": [50.608, 25.969]}, "properties": {"name": "Al-Dur Power and Water Station", "fuel": "gas", "mw": 1800.0, "country": "BHR", "status": "construction"}}, {"type": "Feature", "id": 18, "geometry": {"type": "Point", "coordinates": [50.608, 25.969]}, "properties": {"name": "Al-Dur Power and Water Station", "fuel": "gas", "mw": 613.0, "country": "BHR", "status": "operating"}}, {"type": "Feature", "id": 19, "geometry": {"type": "Point", "coordinates": [50.608, 25.969]}, "properties": {"name": "Al-Dur Power and Water Station", "fuel": "gas", "mw": 613.0, "country": "BHR", "status": "operating"}}, {"type": "Feature", "id": 20, "geometry": {"type": "Point", "coordinates": [50.608, 25.969]}, "properties": {"name": "Al-Dur Power and Water Station", "fuel": "gas", "mw": 750.0, "country": "BHR", "status": "operating"}}, {"type": "Feature", "id": 21, "geometry": {"type": "Point", "coordinates": [50.608, 25.969]}, "properties": {"name": "Al-Dur Power and Water Station", "fuel": "gas", "mw": 750.0, "country": "BHR", "status": "operating"}}, {"type": "Feature", "id": 22, "geometry": {"type": "Point", "coordinates": [50.597, 26.093]}, "properties": {"name": "Aluminium Bahrain (ALBA) power station", "fuel": "gas", "mw": 660.0, "country": "BHR", "status": "operating"}}, {"type": "Feature", "id": 23, "geometry": {"type": "Point", "coordinates": [50.597, 26.093]}, "properties": {"name": "Aluminium Bahrain (ALBA) power station", "fuel": "gas", "mw": 397.0, "country": "BHR", "status": "operating"}}, {"type": "Feature", "id": 24, "geometry": {"type": "Point", "coordinates": [50.597, 26.093]}, "properties": {"name": "Aluminium Bahrain (ALBA) power station", "fuel": "gas", "mw": 397.0, "country": "BHR", "status": "operating"}}, {"type": "Feature", "id": 25, "geometry": {"type": "Point", "coordinates": [50.597, 26.093]}, "properties": {"name": "Aluminium Bahrain (ALBA) power station", "fuel": "gas", "mw": 597.3, "country": "BHR", "status": "operating"}}, {"type": "Feature", "id": 26, "geometry": {"type": "Point", "coordinates": [50.597, 26.093]}, "properties": {"name": "Aluminium Bahrain (ALBA) power station", "fuel": "gas", "mw": 597.3, "country": "BHR", "status": "operating"}}, {"type": "Feature", "id": 27, "geometry": {"type": "Point", "coordinates": [50.597, 26.093]}, "properties": {"name": "Aluminium Bahrain (ALBA) power station", "fuel": "gas", "mw": 597.3, "country": "BHR", "status": "operating"}}, {"type": "Feature", "id": 28, "geometry": {"type": "Point", "coordinates": [50.597, 26.093]}, "properties": {"name": "Aluminium Bahrain (ALBA) power station", "fuel": "gas", "mw": 681.0, "country": "BHR", "status": "operating"}}, {"type": "Feature", "id": 29, "geometry": {"type": "Point", "coordinates": [50.59, 26.12]}, "properties": {"name": "Riffa Power and Water Station", "fuel": "gas", "mw": 50.0, "country": "BHR", "status": "operating"}}, {"type": "Feature", "id": 30, "geometry": {"type": "Point", "coordinates": [50.59, 26.12]}, "properties": {"name": "Riffa Power and Water Station", "fuel": "gas", "mw": 50.0, "country": "BHR", "status": "operating"}}, {"type": "Feature", "id": 31, "geometry": {"type": "Point", "coordinates": [50.59, 26.12]}, "properties": {"name": "Riffa Power and Water Station", "fuel": "gas", "mw": 50.0, "country": "BHR", "status": "operating"}}, {"type": "Feature", "id": 32, "geometry": {"type": "Point", "coordinates": [50.59, 26.12]}, "properties": {"name": "Riffa Power and Water Station", "fuel": "gas", "mw": 50.0, "country": "BHR", "status": "operating"}}, {"type": "Feature", "id": 33, "geometry": {"type": "Point", "coordinates": [50.59, 26.12]}, "properties": {"name": "Riffa Power and Water Station", "fuel": "gas", "mw": 50.0, "country": "BHR", "status": "operating"}}, {"type": "Feature", "id": 34, "geometry": {"type": "Point", "coordinates": [50.59, 26.12]}, "properties": {"name": "Riffa Power and Water Station", "fuel": "gas", "mw": 75.0, "country": "BHR", "status": "operating"}}, {"type": "Feature", "id": 35, "geometry": {"type": "Point", "coordinates": [50.59, 26.12]}, "properties": {"name": "Riffa Power and Water Station", "fuel": "gas", "mw": 75.0, "country": "BHR", "status": "operating"}}, {"type": "Feature", "id": 36, "geometry": {"type": "Point", "coordinates": [50.59, 26.12]}, "properties": {"name": "Riffa Power and Water Station", "fuel": "gas", "mw": 75.0, "country": "BHR", "status": "operating"}}, {"type": "Feature", "id": 37, "geometry": {"type": "Point", "coordinates": [50.59, 26.12]}, "properties": {"name": "Riffa Power and Water Station", "fuel": "gas", "mw": 75.0, "country": "BHR", "status": "operating"}}, {"type": "Feature", "id": 38, "geometry": {"type": "Point", "coordinates": [50.59, 26.12]}, "properties": {"name": "Riffa Power and Water Station", "fuel": "gas", "mw": 75.0, "country": "BHR", "status": "operating"}}, {"type": "Feature", "id": 39, "geometry": {"type": "Point", "coordinates": [50.59, 26.12]}, "properties": {"name": "Riffa Power and Water Station", "fuel": "gas", "mw": 75.0, "country": "BHR", "status": "operating"}}, {"type": "Feature", "id": 40, "geometry": {"type": "Point", "coordinates": [50.614, 26.165]}, "properties": {"name": "Sitra Independent Water and Power Plant", "fuel": "gas", "mw": 600.0, "country": "BHR", "status": "planned"}}, {"type": "Feature", "id": 41, "geometry": {"type": "Point", "coordinates": [50.614, 26.165]}, "properties": {"name": "Sitra Independent Water and Power Plant", "fuel": "gas", "mw": 600.0, "country": "BHR", "status": "planned"}}, {"type": "Feature", "id": 42, "geometry": {"type": "Point", "coordinates": [73.538, 4.204]}, "properties": {"name": "Hulhumale power station", "fuel": "gas", "mw": 80.0, "country": "MDV", "status": "operating"}}, {"type": "Feature", "id": 43, "geometry": {"type": "Point", "coordinates": [73.514, 4.17]}, "properties": {"name": "Male\u2019 power station", "fuel": "gas", "mw": 62.0, "country": "MDV", "status": "operating"}}, {"type": "Feature", "id": 44, "geometry": {"type": "Point", "coordinates": [55.466, -4.632]}, "properties": {"name": "Victoria C (Roche Caiman) power station", "fuel": "gas", "mw": 58.0, "country": "SYC", "status": "operating"}}, {"type": "Feature", "id": 45, "geometry": {"type": "Point", "coordinates": [103.725, 1.285]}, "properties": {"name": "Jurong Island CC power station", "fuel": "gas", "mw": 670.0, "country": "SGP", "status": "planned"}}, {"type": "Feature", "id": 46, "geometry": {"type": "Point", "coordinates": [103.721, 1.284]}, "properties": {"name": "Jurong Island power station", "fuel": "gas", "mw": 415.0, "country": "SGP", "status": "operating"}}, {"type": "Feature", "id": 47, "geometry": {"type": "Point", "coordinates": [103.721, 1.284]}, "properties": {"name": "Jurong Island power station", "fuel": "gas", "mw": 415.0, "country": "SGP", "status": "operating"}}, {"type": "Feature", "id": 48, "geometry": {"type": "Point", "coordinates": [103.721, 1.284]}, "properties": {"name": "Jurong Island power station", "fuel": "gas", "mw": 50.0, "country": "SGP", "status": "operating"}}, {"type": "Feature", "id": 49, "geometry": {"type": "Point", "coordinates": [103.721, 1.284]}, "properties": {"name": "Jurong Island power station", "fuel": "gas", "mw": 50.0, "country": "SGP", "status": "operating"}}, {"type": "Feature", "id": 50, "geometry": {"type": "Point", "coordinates": [103.71, 1.31]}, "properties": {"name": "Jurong Power Station", "fuel": "gas", "mw": 90.0, "country": "SGP", "status": "operating"}}, {"type": "Feature", "id": 51, "geometry": {"type": "Point", "coordinates": [103.71, 1.31]}, "properties": {"name": "Jurong Power Station", "fuel": "gas", "mw": 90.0, "country": "SGP", "status": "operating"}}, {"type": "Feature", "id": 52, "geometry": {"type": "Point", "coordinates": [103.675, 1.282]}, "properties": {"name": "Keppel Merlimau cogeneration power station", "fuel": "gas", "mw": 500.0, "country": "SGP", "status": "operating"}}, {"type": "Feature", "id": 53, "geometry": {"type": "Point", "coordinates": [103.675, 1.282]}, "properties": {"name": "Keppel Merlimau cogeneration power station", "fuel": "gas", "mw": 400.0, "country": "SGP", "status": "operating"}}, {"type": "Feature", "id": 54, "geometry": {"type": "Point", "coordinates": [103.675, 1.282]}, "properties": {"name": "Keppel Merlimau cogeneration power station", "fuel": "gas", "mw": 400.0, "country": "SGP", "status": "operating"}}, {"type": "Feature", "id": 55, "geometry": {"type": "Point", "coordinates": [103.696, 1.264]}, "properties": {"name": "Keppel Sakra cogeneration power station", "fuel": "gas", "mw": 600.0, "country": "SGP", "status": "construction"}}, {"type": "Feature", "id": 56, "geometry": {"type": "Point", "coordinates": [103.677, 1.236]}, "properties": {"name": "Meranti gas turbine power station", "fuel": "gas", "mw": 341.0, "country": "SGP", "status": "operating"}}, {"type": "Feature", "id": 57, "geometry": {"type": "Point", "coordinates": [103.677, 1.236]}, "properties": {"name": "Meranti gas turbine power station", "fuel": "gas", "mw": 341.0, "country": "SGP", "status": "operating"}}, {"type": "Feature", "id": 58, "geometry": {"type": "Point", "coordinates": [103.7, 1.254]}, "properties": {"name": "Pulau Sakra power station", "fuel": "gas", "mw": 407.5, "country": "SGP", "status": "operating"}}, {"type": "Feature", "id": 59, "geometry": {"type": "Point", "coordinates": [103.7, 1.254]}, "properties": {"name": "Pulau Sakra power station", "fuel": "gas", "mw": 407.5, "country": "SGP", "status": "operating"}}, {"type": "Feature", "id": 60, "geometry": {"type": "Point", "coordinates": [103.727, 1.279]}, "properties": {"name": "Pulau Seraya power station", "fuel": "gas", "mw": 370.0, "country": "SGP", "status": "operating"}}, {"type": "Feature", "id": 61, "geometry": {"type": "Point", "coordinates": [103.727, 1.279]}, "properties": {"name": "Pulau Seraya power station", "fuel": "gas", "mw": 370.0, "country": "SGP", "status": "operating"}}, {"type": "Feature", "id": 62, "geometry": {"type": "Point", "coordinates": [103.727, 1.279]}, "properties": {"name": "Pulau Seraya power station", "fuel": "gas", "mw": 400.0, "country": "SGP", "status": "operating"}}, {"type": "Feature", "id": 63, "geometry": {"type": "Point", "coordinates": [103.727, 1.279]}, "properties": {"name": "Pulau Seraya power station", "fuel": "gas", "mw": 400.0, "country": "SGP", "status": "operating"}}, {"type": "Feature", "id": 64, "geometry": {"type": "Point", "coordinates": [103.727, 1.279]}, "properties": {"name": "Pulau Seraya power station", "fuel": "gas", "mw": 600.0, "country": "SGP", "status": "construction"}}, {"type": "Feature", "id": 65, "geometry": {"type": "Point", "coordinates": [103.727, 1.279]}, "properties": {"name": "Pulau Seraya power station", "fuel": "gas", "mw": 250.0, "country": "SGP", "status": "operating"}}, {"type": "Feature", "id": 66, "geometry": {"type": "Point", "coordinates": [103.727, 1.279]}, "properties": {"name": "Pulau Seraya power station", "fuel": "gas", "mw": 250.0, "country": "SGP", "status": "operating"}}, {"type": "Feature", "id": 67, "geometry": {"type": "Point", "coordinates": [103.727, 1.279]}, "properties": {"name": "Pulau Seraya power station", "fuel": "gas", "mw": 250.0, "country": "SGP", "status": "operating"}}, {"type": "Feature", "id": 68, "geometry": {"type": "Point", "coordinates": [103.727, 1.279]}, "properties": {"name": "Pulau Seraya power station", "fuel": "gas", "mw": 250.0, "country": "SGP", "status": "operating"}}, {"type": "Feature", "id": 69, "geometry": {"type": "Point", "coordinates": [103.727, 1.279]}, "properties": {"name": "Pulau Seraya power station", "fuel": "gas", "mw": 250.0, "country": "SGP", "status": "operating"}}, {"type": "Feature", "id": 70, "geometry": {"type": "Point", "coordinates": [103.727, 1.279]}, "properties": {"name": "Pulau Seraya power station", "fuel": "gas", "mw": 250.0, "country": "SGP", "status": "operating"}}, {"type": "Feature", "id": 71, "geometry": {"type": "Point", "coordinates": [103.727, 1.279]}, "properties": {"name": "Pulau Seraya power station", "fuel": "gas", "mw": 250.0, "country": "SGP", "status": "operating"}}, {"type": "Feature", "id": 72, "geometry": {"type": "Point", "coordinates": [103.727, 1.279]}, "properties": {"name": "Pulau Seraya power station", "fuel": "gas", "mw": 250.0, "country": "SGP", "status": "operating"}}, {"type": "Feature", "id": 73, "geometry": {"type": "Point", "coordinates": [103.727, 1.279]}, "properties": {"name": "Pulau Seraya power station", "fuel": "gas", "mw": 250.0, "country": "SGP", "status": "operating"}}, {"type": "Feature", "id": 74, "geometry": {"type": "Point", "coordinates": [103.67, 1.259]}, "properties": {"name": "Sembcorp Banyan cogeneration power station", "fuel": "gas", "mw": 404.0, "country": "SGP", "status": "operating"}}, {"type": "Feature", "id": 75, "geometry": {"type": "Point", "coordinates": [103.67, 1.262]}, "properties": {"name": "Sembcorp hydrogen-ready power plant", "fuel": "gas", "mw": 600.0, "country": "SGP", "status": "construction"}}, {"type": "Feature", "id": 76, "geometry": {"type": "Point", "coordinates": [103.8, 1.466]}, "properties": {"name": "Senoko power station", "fuel": "gas", "mw": 425.0, "country": "SGP", "status": "operating"}}, {"type": "Feature", "id": 77, "geometry": {"type": "Point", "coordinates": [103.8, 1.466]}, "properties": {"name": "Senoko power station", "fuel": "gas", "mw": 425.0, "country": "SGP", "status": "operating"}}, {"type": "Feature", "id": 78, "geometry": {"type": "Point", "coordinates": [103.8, 1.466]}, "properties": {"name": "Senoko power station", "fuel": "gas", "mw": 360.0, "country": "SGP", "status": "operating"}}, {"type": "Feature", "id": 79, "geometry": {"type": "Point", "coordinates": [103.8, 1.466]}, "properties": {"name": "Senoko power station", "fuel": "gas", "mw": 360.0, "country": "SGP", "status": "operating"}}, {"type": "Feature", "id": 80, "geometry": {"type": "Point", "coordinates": [103.8, 1.466]}, "properties": {"name": "Senoko power station", "fuel": "gas", "mw": 360.0, "country": "SGP", "status": "operating"}}, {"type": "Feature", "id": 81, "geometry": {"type": "Point", "coordinates": [103.8, 1.466]}, "properties": {"name": "Senoko power station", "fuel": "gas", "mw": 431.0, "country": "SGP", "status": "operating"}}, {"type": "Feature", "id": 82, "geometry": {"type": "Point", "coordinates": [103.8, 1.466]}, "properties": {"name": "Senoko power station", "fuel": "gas", "mw": 431.0, "country": "SGP", "status": "operating"}}, {"type": "Feature", "id": 83, "geometry": {"type": "Point", "coordinates": [103.8, 1.466]}, "properties": {"name": "Senoko power station", "fuel": "gas", "mw": 250.0, "country": "SGP", "status": "operating"}}, {"type": "Feature", "id": 84, "geometry": {"type": "Point", "coordinates": [103.8, 1.466]}, "properties": {"name": "Senoko power station", "fuel": "gas", "mw": 250.0, "country": "SGP", "status": "operating"}}, {"type": "Feature", "id": 85, "geometry": {"type": "Point", "coordinates": [103.689, 1.268]}, "properties": {"name": "Singapore Chemical power station", "fuel": "gas", "mw": 360.0, "country": "SGP", "status": "operating"}}, {"type": "Feature", "id": 86, "geometry": {"type": "Point", "coordinates": [103.689, 1.268]}, "properties": {"name": "Singapore Chemical power station", "fuel": "gas", "mw": 84.0, "country": "SGP", "status": "operating"}}, {"type": "Feature", "id": 87, "geometry": {"type": "Point", "coordinates": [103.641, 1.289]}, "properties": {"name": "Tuas power station", "fuel": "gas", "mw": 368.0, "country": "SGP", "status": "operating"}}, {"type": "Feature", "id": 88, "geometry": {"type": "Point", "coordinates": [103.641, 1.289]}, "properties": {"name": "Tuas power station", "fuel": "gas", "mw": 368.0, "country": "SGP", "status": "operating"}}, {"type": "Feature", "id": 89, "geometry": {"type": "Point", "coordinates": [103.641, 1.289]}, "properties": {"name": "Tuas power station", "fuel": "gas", "mw": 368.0, "country": "SGP", "status": "operating"}}, {"type": "Feature", "id": 90, "geometry": {"type": "Point", "coordinates": [103.641, 1.289]}, "properties": {"name": "Tuas power station", "fuel": "gas", "mw": 368.0, "country": "SGP", "status": "operating"}}, {"type": "Feature", "id": 91, "geometry": {"type": "Point", "coordinates": [103.641, 1.289]}, "properties": {"name": "Tuas power station", "fuel": "gas", "mw": 406.0, "country": "SGP", "status": "operating"}}, {"type": "Feature", "id": 92, "geometry": {"type": "Point", "coordinates": [103.641, 1.289]}, "properties": {"name": "Tuas power station", "fuel": "gas", "mw": 600.0, "country": "SGP", "status": "operating"}}, {"type": "Feature", "id": 93, "geometry": {"type": "Point", "coordinates": [103.621, 1.301]}, "properties": {"name": "Tuaspring Desalinisation power station", "fuel": "gas", "mw": 411.0, "country": "SGP", "status": "operating"}}, {"type": "Feature", "id": 94, "geometry": {"type": "Point", "coordinates": [57.493, -20.146]}, "properties": {"name": "Fort George power station", "fuel": "gas", "mw": 24.0, "country": "MUS", "status": "operating"}}, {"type": "Feature", "id": 95, "geometry": {"type": "Point", "coordinates": [57.493, -20.146]}, "properties": {"name": "Fort George power station", "fuel": "gas", "mw": 24.0, "country": "MUS", "status": "operating"}}, {"type": "Feature", "id": 96, "geometry": {"type": "Point", "coordinates": [57.493, -20.146]}, "properties": {"name": "Fort George power station", "fuel": "gas", "mw": 30.0, "country": "MUS", "status": "operating"}}, {"type": "Feature", "id": 97, "geometry": {"type": "Point", "coordinates": [57.493, -20.146]}, "properties": {"name": "Fort George power station", "fuel": "gas", "mw": 30.0, "country": "MUS", "status": "operating"}}, {"type": "Feature", "id": 98, "geometry": {"type": "Point", "coordinates": [57.493, -20.146]}, "properties": {"name": "Fort George power station", "fuel": "gas", "mw": 39.0, "country": "MUS", "status": "operating"}}, {"type": "Feature", "id": 99, "geometry": {"type": "Point", "coordinates": [57.477, -20.163]}, "properties": {"name": "Fort Victoria power station", "fuel": "gas", "mw": 15.0, "country": "MUS", "status": "operating"}}, {"type": "Feature", "id": 100, "geometry": {"type": "Point", "coordinates": [57.477, -20.163]}, "properties": {"name": "Fort Victoria power station", "fuel": "gas", "mw": 10.0, "country": "MUS", "status": "operating"}}, {"type": "Feature", "id": 101, "geometry": {"type": "Point", "coordinates": [57.477, -20.163]}, "properties": {"name": "Fort Victoria power station", "fuel": "gas", "mw": 10.0, "country": "MUS", "status": "operating"}}, {"type": "Feature", "id": 102, "geometry": {"type": "Point", "coordinates": [57.477, -20.163]}, "properties": {"name": "Fort Victoria power station", "fuel": "gas", "mw": 15.0, "country": "MUS", "status": "operating"}}, {"type": "Feature", "id": 103, "geometry": {"type": "Point", "coordinates": [57.477, -20.163]}, "properties": {"name": "Fort Victoria power station", "fuel": "gas", "mw": 10.0, "country": "MUS", "status": "operating"}}, {"type": "Feature", "id": 104, "geometry": {"type": "Point", "coordinates": [57.477, -20.163]}, "properties": {"name": "Fort Victoria power station", "fuel": "gas", "mw": 10.0, "country": "MUS", "status": "operating"}}, {"type": "Feature", "id": 105, "geometry": {"type": "Point", "coordinates": [57.477, -20.163]}, "properties": {"name": "Fort Victoria power station", "fuel": "gas", "mw": 10.0, "country": "MUS", "status": "operating"}}, {"type": "Feature", "id": 106, "geometry": {"type": "Point", "coordinates": [57.477, -20.163]}, "properties": {"name": "Fort Victoria power station", "fuel": "gas", "mw": 10.0, "country": "MUS", "status": "operating"}}, {"type": "Feature", "id": 107, "geometry": {"type": "Point", "coordinates": [57.512, -20.152]}, "properties": {"name": "Nicolay power station", "fuel": "gas", "mw": 22.0, "country": "MUS", "status": "operating"}}, {"type": "Feature", "id": 108, "geometry": {"type": "Point", "coordinates": [57.512, -20.152]}, "properties": {"name": "Nicolay power station", "fuel": "gas", "mw": 23.0, "country": "MUS", "status": "operating"}}, {"type": "Feature", "id": 109, "geometry": {"type": "Point", "coordinates": [57.512, -20.152]}, "properties": {"name": "Nicolay power station", "fuel": "gas", "mw": 34.0, "country": "MUS", "status": "operating"}}, {"type": "Feature", "id": 110, "geometry": {"type": "Point", "coordinates": [57.512, -20.152]}, "properties": {"name": "Nicolay power station", "fuel": "gas", "mw": 30.0, "country": "MUS", "status": "operating"}}, {"type": "Feature", "id": 111, "geometry": {"type": "Point", "coordinates": [57.479, -20.178]}, "properties": {"name": "Saint Louis (Mauritius) power station", "fuel": "gas", "mw": 17.0, "country": "MUS", "status": "operating"}}, {"type": "Feature", "id": 112, "geometry": {"type": "Point", "coordinates": [57.479, -20.178]}, "properties": {"name": "Saint Louis (Mauritius) power station", "fuel": "gas", "mw": 17.0, "country": "MUS", "status": "operating"}}, {"type": "Feature", "id": 113, "geometry": {"type": "Point", "coordinates": [57.479, -20.178]}, "properties": {"name": "Saint Louis (Mauritius) power station", "fuel": "gas", "mw": 17.0, "country": "MUS", "status": "operating"}}, {"type": "Feature", "id": 114, "geometry": {"type": "Point", "coordinates": [57.479, -20.178]}, "properties": {"name": "Saint Louis (Mauritius) power station", "fuel": "gas", "mw": 17.0, "country": "MUS", "status": "operating"}}, {"type": "Feature", "id": 115, "geometry": {"type": "Point", "coordinates": [57.479, -20.178]}, "properties": {"name": "Saint Louis (Mauritius) power station", "fuel": "gas", "mw": 14.0, "country": "MUS", "status": "operating"}}, {"type": "Feature", "id": 116, "geometry": {"type": "Point", "coordinates": [57.479, -20.178]}, "properties": {"name": "Saint Louis (Mauritius) power station", "fuel": "gas", "mw": 14.0, "country": "MUS", "status": "operating"}}, {"type": "Feature", "id": 117, "geometry": {"type": "Point", "coordinates": [57.479, -20.178]}, "properties": {"name": "Saint Louis (Mauritius) power station", "fuel": "gas", "mw": 14.0, "country": "MUS", "status": "operating"}}, {"type": "Feature", "id": 118, "geometry": {"type": "Point", "coordinates": [55.756, -4.339]}, "properties": {"name": "Baie Sainte Anne Praslin power station", "fuel": "gas", "mw": 12.0, "country": "SYC", "status": "operating"}}, {"type": "Feature", "id": 119, "geometry": {"type": "Point", "coordinates": [55.45, -4.616]}, "properties": {"name": "Victoria B (New Port) power station", "fuel": "gas", "mw": 23.0, "country": "SYC", "status": "operating"}}, {"type": "Feature", "id": 120, "geometry": {"type": "Point", "coordinates": [55.466, -4.632]}, "properties": {"name": "Victoria C (Roche Caiman) power station", "fuel": "gas", "mw": 16.0, "country": "SYC", "status": "planned"}}, {"type": "Feature", "id": 121, "geometry": {"type": "Point", "coordinates": [50.715, 26.19]}, "properties": {"name": "APM Terminals solar farm", "fuel": "solar", "mw": 11.4, "country": "BHR", "status": "planned"}}, {"type": "Feature", "id": 122, "geometry": {"type": "Point", "coordinates": [50.597, 26.053]}, "properties": {"name": "Al Askar IPP solar farm", "fuel": "solar", "mw": 100.0, "country": "BHR", "status": "planned"}}, {"type": "Feature", "id": 123, "geometry": {"type": "Point", "coordinates": [50.61, 25.974]}, "properties": {"name": "Al Dur solar farm", "fuel": "solar", "mw": 95.0, "country": "BHR", "status": "construction"}}, {"type": "Feature", "id": 124, "geometry": {"type": "Point", "coordinates": [50.605, 26.045]}, "properties": {"name": "Askar Landfill Remediation solar farm", "fuel": "solar", "mw": 100.0, "country": "BHR", "status": "planned"}}, {"type": "Feature", "id": 125, "geometry": {"type": "Point", "coordinates": [50.573, 26.072]}, "properties": {"name": "Awali solar project", "fuel": "solar", "mw": 4.1, "country": "BHR", "status": "operating"}}, {"type": "Feature", "id": 126, "geometry": {"type": "Point", "coordinates": [50.481, 25.973]}, "properties": {"name": "Bilaj Al Jazayer solar farm", "fuel": "solar", "mw": 100.0, "country": "BHR", "status": "planned"}}, {"type": "Feature", "id": 127, "geometry": {"type": "Point", "coordinates": [50.538, 26.229]}, "properties": {"name": "Capital Governorate solar project", "fuel": "solar", "mw": 1.4, "country": "BHR", "status": "operating"}}, {"type": "Feature", "id": 128, "geometry": {"type": "Point", "coordinates": [50.6, 26.121]}, "properties": {"name": "Riffa solar project I", "fuel": "solar", "mw": 1.9, "country": "BHR", "status": "operating"}}, {"type": "Feature", "id": 129, "geometry": {"type": "Point", "coordinates": [50.509, 26.036]}, "properties": {"name": "Sakhir solar farm", "fuel": "solar", "mw": 72.0, "country": "BHR", "status": "planned"}}, {"type": "Feature", "id": 130, "geometry": {"type": "Point", "coordinates": [50.573, 26.072]}, "properties": {"name": "Southern Governorate solar project I", "fuel": "solar", "mw": 1.0, "country": "BHR", "status": "operating"}}, {"type": "Feature", "id": 131, "geometry": {"type": "Point", "coordinates": [50.61, 26.071]}, "properties": {"name": "Southern Governorate solar project II", "fuel": "solar", "mw": 1.4, "country": "BHR", "status": "operating"}}, {"type": "Feature", "id": 132, "geometry": {"type": "Point", "coordinates": [50.584, 25.954]}, "properties": {"name": "Southern Governorate solar project IV", "fuel": "solar", "mw": 1.8, "country": "BHR", "status": "operating"}}, {"type": "Feature", "id": 133, "geometry": {"type": "Point", "coordinates": [50.513, 26.051]}, "properties": {"name": "University of Bahrain solar project", "fuel": "solar", "mw": 44.0, "country": "BHR", "status": "planned"}}, {"type": "Feature", "id": 134, "geometry": {"type": "Point", "coordinates": [-22.85, 16.144]}, "properties": {"name": "Ch\u00e3 Gon\u00e7alves solar farm", "fuel": "solar", "mw": 10.0, "country": "CPV", "status": "planned"}}, {"type": "Feature", "id": 135, "geometry": {"type": "Point", "coordinates": [-24.347, 14.857]}, "properties": {"name": "Fogo Island solar farm", "fuel": "solar", "mw": 1.3, "country": "CPV", "status": "operating"}}, {"type": "Feature", "id": 136, "geometry": {"type": "Point", "coordinates": [-22.895, 16.598]}, "properties": {"name": "Santa Maria (Cabo Verde) solar farm", "fuel": "solar", "mw": 5.0, "country": "CPV", "status": "operating"}}, {"type": "Feature", "id": 137, "geometry": {"type": "Point", "coordinates": [-23.544, 14.91]}, "properties": {"name": "Santiago (Cabo Verde) solar farm", "fuel": "solar", "mw": 4.4, "country": "CPV", "status": "operating"}}, {"type": "Feature", "id": 138, "geometry": {"type": "Point", "coordinates": [-23.544, 14.91]}, "properties": {"name": "Santiago (Cabo Verde) solar farm", "fuel": "solar", "mw": 5.6, "country": "CPV", "status": "planned"}}, {"type": "Feature", "id": 139, "geometry": {"type": "Point", "coordinates": [-25.111, 17.048]}, "properties": {"name": "Santo Ant\u00e3o Island solar farm", "fuel": "solar", "mw": 1.2, "country": "CPV", "status": "operating"}}, {"type": "Feature", "id": 140, "geometry": {"type": "Point", "coordinates": [-24.929, 16.895]}, "properties": {"name": "S\u00e3o Vicente solar project", "fuel": "solar", "mw": 1.8, "country": "CPV", "status": "operating"}}, {"type": "Feature", "id": 141, "geometry": {"type": "Point", "coordinates": [44.404, -12.279]}, "properties": {"name": "Anjouan solar project", "fuel": "solar", "mw": 2.9, "country": "COM", "status": "operating"}}, {"type": "Feature", "id": 142, "geometry": {"type": "Point", "coordinates": [44.528, -12.259]}, "properties": {"name": "Domoni solar farm", "fuel": "solar", "mw": 2.5, "country": "COM", "status": "operating"}}, {"type": "Feature", "id": 143, "geometry": {"type": "Point", "coordinates": [43.733, -12.282]}, "properties": {"name": "Fomboni solar farm", "fuel": "solar", "mw": 1.5, "country": "COM", "status": "operating"}}, {"type": "Feature", "id": 144, "geometry": {"type": "Point", "coordinates": [43.25, -11.744]}, "properties": {"name": "Iconi solar farm", "fuel": "solar", "mw": 2.0, "country": "COM", "status": "operating"}}, {"type": "Feature", "id": 145, "geometry": {"type": "Point", "coordinates": [43.298, -11.39]}, "properties": {"name": "Mitsamiouli solar farm", "fuel": "solar", "mw": 4.0, "country": "COM", "status": "operating"}}, {"type": "Feature", "id": 146, "geometry": {"type": "Point", "coordinates": [43.261, -11.69]}, "properties": {"name": "Moroni (ADFD) solar farm", "fuel": "solar", "mw": 6.3, "country": "COM", "status": "operating"}}, {"type": "Feature", "id": 147, "geometry": {"type": "Point", "coordinates": [43.257, -11.697]}, "properties": {"name": "Moroni solar farm", "fuel": "solar", "mw": 5.0, "country": "COM", "status": "operating"}}, {"type": "Feature", "id": 148, "geometry": {"type": "Point", "coordinates": [44.275, -12.2]}, "properties": {"name": "Sima solar farm", "fuel": "solar", "mw": 1.0, "country": "COM", "status": "operating"}}, {"type": "Feature", "id": 149, "geometry": {"type": "Point", "coordinates": [-14.962, 11.954]}, "properties": {"name": "AIC Green Energy (Guinea-Bissau) solar farm", "fuel": "solar", "mw": 10.0, "country": "GNB", "status": "planned"}}, {"type": "Feature", "id": 150, "geometry": {"type": "Point", "coordinates": [-14.648, 12.177]}, "properties": {"name": "Bafat\u00e1 Microgrid solar farm", "fuel": "solar", "mw": 3.0, "country": "GNB", "status": "planned"}}, {"type": "Feature", "id": 151, "geometry": {"type": "Point", "coordinates": [-14.656, 12.186]}, "properties": {"name": "Bafat\u00e1 solar farm", "fuel": "solar", "mw": 15.0, "country": "GNB", "status": "planned"}}, {"type": "Feature", "id": 152, "geometry": {"type": "Point", "coordinates": [-15.608, 11.865]}, "properties": {"name": "Bissau solar farm", "fuel": "solar", "mw": 30.0, "country": "GNB", "status": "planned"}}, {"type": "Feature", "id": 153, "geometry": {"type": "Point", "coordinates": [-15.608, 11.865]}, "properties": {"name": "Bissau solar farm", "fuel": "solar", "mw": 8.0, "country": "GNB", "status": "planned"}}, {"type": "Feature", "id": 154, "geometry": {"type": "Point", "coordinates": [-15.481, 11.577]}, "properties": {"name": "Bolama Solar Initiative", "fuel": "solar", "mw": 5.0, "country": "GNB", "status": "planned"}}, {"type": "Feature", "id": 155, "geometry": {"type": "Point", "coordinates": [-16.165, 12.27]}, "properties": {"name": "Cacheu solar farm", "fuel": "solar", "mw": 6.0, "country": "GNB", "status": "planned"}}, {"type": "Feature", "id": 156, "geometry": {"type": "Point", "coordinates": [-15.666, 11.833]}, "properties": {"name": "Helios Solar solar farm", "fuel": "solar", "mw": 10.0, "country": "GNB", "status": "operating"}}, {"type": "Feature", "id": 157, "geometry": {"type": "Point", "coordinates": [-14.979, 11.706]}, "properties": {"name": "Quinara Community solar farm", "fuel": "solar", "mw": 2.0, "country": "GNB", "status": "planned"}}, {"type": "Feature", "id": 158, "geometry": {"type": "Point", "coordinates": [73.526, 1.88]}, "properties": {"name": "Hadhdhunmathi solar project", "fuel": "solar", "mw": 1.9, "country": "MDV", "status": "operating"}}, {"type": "Feature", "id": 159, "geometry": {"type": "Point", "coordinates": [73.501, 4.677]}, "properties": {"name": "Sinamale' Bridge solar farm", "fuel": "solar", "mw": 10.0, "country": "MDV", "status": "planned"}}, {"type": "Feature", "id": 160, "geometry": {"type": "Point", "coordinates": [73.501, 4.677]}, "properties": {"name": "Sinamale' Bridge solar farm", "fuel": "solar", "mw": 15.0, "country": "MDV", "status": "planned"}}, {"type": "Feature", "id": 161, "geometry": {"type": "Point", "coordinates": [73.563, 4.207]}, "properties": {"name": "Solar city floating solar farm", "fuel": "solar", "mw": 100.0, "country": "MDV", "status": "planned"}}, {"type": "Feature", "id": 162, "geometry": {"type": "Point", "coordinates": [57.506, -20.129]}, "properties": {"name": "Aresenal solar farm", "fuel": "solar", "mw": 13.9, "country": "MUS", "status": "operating"}}, {"type": "Feature", "id": 163, "geometry": {"type": "Point", "coordinates": [57.42, -20.26]}, "properties": {"name": "Bambous solar farm", "fuel": "solar", "mw": 15.0, "country": "MUS", "status": "operating"}}, {"type": "Feature", "id": 164, "geometry": {"type": "Point", "coordinates": [57.771, -20.262]}, "properties": {"name": "Helios Beau Champ solar farm", "fuel": "solar", "mw": 10.0, "country": "MUS", "status": "operating"}}, {"type": "Feature", "id": 165, "geometry": {"type": "Point", "coordinates": [57.464, -20.333]}, "properties": {"name": "Henrietta MU solar farm", "fuel": "solar", "mw": 12.9, "country": "MUS", "status": "operating"}}, {"type": "Feature", "id": 166, "geometry": {"type": "Point", "coordinates": [57.551, -20.3]}, "properties": {"name": "La Valette solar farm", "fuel": "solar", "mw": 10.0, "country": "MUS", "status": "operating"}}, {"type": "Feature", "id": 167, "geometry": {"type": "Point", "coordinates": [57.551, -20.3]}, "properties": {"name": "Mauritius (AfDB) solar farm", "fuel": "solar", "mw": 25.0, "country": "MUS", "status": "planned"}}, {"type": "Feature", "id": 168, "geometry": {"type": "Point", "coordinates": [57.551, -20.3]}, "properties": {"name": "Mauritius (AfDB) solar farm", "fuel": "solar", "mw": 25.0, "country": "MUS", "status": "planned"}}, {"type": "Feature", "id": 169, "geometry": {"type": "Point", "coordinates": [57.551, -20.3]}, "properties": {"name": "Mauritius (AfDB) solar farm", "fuel": "solar", "mw": 25.0, "country": "MUS", "status": "planned"}}, {"type": "Feature", "id": 170, "geometry": {"type": "Point", "coordinates": [57.551, -20.3]}, "properties": {"name": "Mauritius (AfDB) solar farm", "fuel": "solar", "mw": 25.0, "country": "MUS", "status": "planned"}}, {"type": "Feature", "id": 171, "geometry": {"type": "Point", "coordinates": [57.486, -20.328]}, "properties": {"name": "Mauritius (CEB 15mw) solar farm", "fuel": "solar", "mw": 15.0, "country": "MUS", "status": "planned"}}, {"type": "Feature", "id": 172, "geometry": {"type": "Point", "coordinates": [57.551, -20.3]}, "properties": {"name": "Mauritius (TCIL) solar farm", "fuel": "solar", "mw": 25.0, "country": "MUS", "status": "planned"}}, {"type": "Feature", "id": 173, "geometry": {"type": "Point", "coordinates": [57.701, -20.163]}, "properties": {"name": "Petite-Retraite solar farm", "fuel": "solar", "mw": 10.0, "country": "MUS", "status": "planned"}}, {"type": "Feature", "id": 174, "geometry": {"type": "Point", "coordinates": [57.695, -20.12]}, "properties": {"name": "Plaines des Roches solar farm", "fuel": "solar", "mw": 10.0, "country": "MUS", "status": "operating"}}, {"type": "Feature", "id": 175, "geometry": {"type": "Point", "coordinates": [57.701, -20.23]}, "properties": {"name": "Queen Victoria & Anahita solar farm", "fuel": "solar", "mw": 25.3, "country": "MUS", "status": "operating"}}, {"type": "Feature", "id": 176, "geometry": {"type": "Point", "coordinates": [57.537, -20.073]}, "properties": {"name": "Solitude solar farm", "fuel": "solar", "mw": 16.0, "country": "MUS", "status": "operating"}}, {"type": "Feature", "id": 177, "geometry": {"type": "Point", "coordinates": [57.786, -20.234]}, "properties": {"name": "Stor'Sun solar farm", "fuel": "solar", "mw": 15.0, "country": "MUS", "status": "planned"}}, {"type": "Feature", "id": 178, "geometry": {"type": "Point", "coordinates": [57.786, -20.234]}, "properties": {"name": "Stor'Sun solar farm", "fuel": "solar", "mw": 15.0, "country": "MUS", "status": "planned"}}, {"type": "Feature", "id": 179, "geometry": {"type": "Point", "coordinates": [57.516, -20.083]}, "properties": {"name": "Stor'Sun solar farm", "fuel": "solar", "mw": 15.0, "country": "MUS", "status": "planned"}}, {"type": "Feature", "id": 180, "geometry": {"type": "Point", "coordinates": [57.447, -20.193]}, "properties": {"name": "Stor'Sun solar farm", "fuel": "solar", "mw": 15.0, "country": "MUS", "status": "planned"}}, {"type": "Feature", "id": 181, "geometry": {"type": "Point", "coordinates": [57.466, -20.359]}, "properties": {"name": "Tamarind Falls floating solar farm", "fuel": "solar", "mw": 30.0, "country": "MUS", "status": "planned"}}, {"type": "Feature", "id": 182, "geometry": {"type": "Point", "coordinates": [7.933, 2.368]}, "properties": {"name": "Dominique Floating CSP solar farm", "fuel": "solar", "mw": 1.5, "country": "STP", "status": "planned"}}, {"type": "Feature", "id": 183, "geometry": {"type": "Point", "coordinates": [7.933, 2.368]}, "properties": {"name": "Dominique Floating CSP solar farm", "fuel": "solar", "mw": 8.5, "country": "STP", "status": "planned"}}, {"type": "Feature", "id": 184, "geometry": {"type": "Point", "coordinates": [6.694, 0.37]}, "properties": {"name": "Santo Amaro solar farm", "fuel": "solar", "mw": 1.2, "country": "STP", "status": "operating"}}, {"type": "Feature", "id": 185, "geometry": {"type": "Point", "coordinates": [6.712, 0.378]}, "properties": {"name": "Sao Tome Airport solar farm", "fuel": "solar", "mw": 1.1, "country": "STP", "status": "planned"}}, {"type": "Feature", "id": 186, "geometry": {"type": "Point", "coordinates": [6.671, 0.374]}, "properties": {"name": "\u00c1gua Casada solar farm", "fuel": "solar", "mw": 11.0, "country": "STP", "status": "operating"}}, {"type": "Feature", "id": 187, "geometry": {"type": "Point", "coordinates": [53.663, -5.692]}, "properties": {"name": "Desroches Island solar farm", "fuel": "solar", "mw": 2.5, "country": "SYC", "status": "operating"}}, {"type": "Feature", "id": 188, "geometry": {"type": "Point", "coordinates": [55.483, -4.655]}, "properties": {"name": "Mah\u00e9 Floating solar farm", "fuel": "solar", "mw": 5.8, "country": "SYC", "status": "construction"}}, {"type": "Feature", "id": 189, "geometry": {"type": "Point", "coordinates": [55.471, -4.627]}, "properties": {"name": "Romainville solar project", "fuel": "solar", "mw": 4.6, "country": "SYC", "status": "operating"}}, {"type": "Feature", "id": 190, "geometry": {"type": "Point", "coordinates": [103.648, 1.329]}, "properties": {"name": "3M solar project", "fuel": "solar", "mw": 2.2, "country": "SGP", "status": "operating"}}, {"type": "Feature", "id": 191, "geometry": {"type": "Point", "coordinates": [103.648, 1.329]}, "properties": {"name": "3M@ Tuas Link solar project", "fuel": "solar", "mw": 2.2, "country": "SGP", "status": "operating"}}, {"type": "Feature", "id": 192, "geometry": {"type": "Point", "coordinates": [103.699, 1.271]}, "properties": {"name": "5MW at NTU Buildings solar project", "fuel": "solar", "mw": 5.0, "country": "SGP", "status": "operating"}}, {"type": "Feature", "id": 193, "geometry": {"type": "Point", "coordinates": [103.786, 1.437]}, "properties": {"name": "ASE solar project", "fuel": "solar", "mw": 1.2, "country": "SGP", "status": "operating"}}, {"type": "Feature", "id": 194, "geometry": {"type": "Point", "coordinates": [103.975, 1.354]}, "properties": {"name": "Agility solar project", "fuel": "solar", "mw": 2.4, "country": "SGP", "status": "operating"}}, {"type": "Feature", "id": 195, "geometry": {"type": "Point", "coordinates": [103.648, 1.329]}, "properties": {"name": "Asia Pacific Breweries Singapore solar project", "fuel": "solar", "mw": 2.2, "country": "SGP", "status": "operating"}}, {"type": "Feature", "id": 196, "geometry": {"type": "Point", "coordinates": [103.648, 1.329]}, "properties": {"name": "Asia Pacific Breweries solar project", "fuel": "solar", "mw": 2.2, "country": "SGP", "status": "operating"}}, {"type": "Feature", "id": 197, "geometry": {"type": "Point", "coordinates": [103.699, 1.271]}, "properties": {"name": "Bertchi solar project", "fuel": "solar", "mw": 1.1, "country": "SGP", "status": "operating"}}, {"type": "Feature", "id": 198, "geometry": {"type": "Point", "coordinates": [103.648, 1.329]}, "properties": {"name": "Bertschi Singapore Pte Ltd solar project", "fuel": "solar", "mw": 1.1, "country": "SGP", "status": "operating"}}, {"type": "Feature", "id": 199, "geometry": {"type": "Point", "coordinates": [103.975, 1.354]}, "properties": {"name": "Bollore Logistics solar project", "fuel": "solar", "mw": 1.0, "country": "SGP", "status": "operating"}}, {"type": "Feature", "id": 200, "geometry": {"type": "Point", "coordinates": [103.83, 1.341]}, "properties": {"name": "Boonlay Way_LYS solar project", "fuel": "solar", "mw": 1.3, "country": "SGP", "status": "operating"}}, {"type": "Feature", "id": 201, "geometry": {"type": "Point", "coordinates": [103.975, 1.354]}, "properties": {"name": "CEC solar project", "fuel": "solar", "mw": 5.3, "country": "SGP", "status": "operating"}}, {"type": "Feature", "id": 202, "geometry": {"type": "Point", "coordinates": [103.83, 1.341]}, "properties": {"name": "CWT Commodity Hub solar project", "fuel": "solar", "mw": 6.3, "country": "SGP", "status": "operating"}}, {"type": "Feature", "id": 203, "geometry": {"type": "Point", "coordinates": [103.699, 1.271]}, "properties": {"name": "Cache solar project", "fuel": "solar", "mw": 6.2, "country": "SGP", "status": "operating"}}, {"type": "Feature", "id": 204, "geometry": {"type": "Point", "coordinates": [103.83, 1.341]}, "properties": {"name": "Calshot Road_LYS solar project", "fuel": "solar", "mw": 1.1, "country": "SGP", "status": "operating"}}, {"type": "Feature", "id": 205, "geometry": {"type": "Point", "coordinates": [103.975, 1.354]}, "properties": {"name": "Changi solar project", "fuel": "solar", "mw": 1.7, "country": "SGP", "status": "operating"}}, {"type": "Feature", "id": 206, "geometry": {"type": "Point", "coordinates": [103.963, 1.338]}, "properties": {"name": "Constellar Venues at Singapore EXPO solar project", "fuel": "solar", "mw": 9.7, "country": "SGP", "status": "operating"}}, {"type": "Feature", "id": 207, "geometry": {"type": "Point", "coordinates": [103.648, 1.329]}, "properties": {"name": "Container Printers solar project", "fuel": "solar", "mw": 1.0, "country": "SGP", "status": "operating"}}, {"type": "Feature", "id": 208, "geometry": {"type": "Point", "coordinates": [103.701, 1.319]}, "properties": {"name": "DB Schenker (SLC & SLC2) solar project", "fuel": "solar", "mw": 1.9, "country": "SGP", "status": "operating"}}, {"type": "Feature", "id": 209, "geometry": {"type": "Point", "coordinates": [103.975, 1.354]}, "properties": {"name": "DB Schenker solar project", "fuel": "solar", "mw": 1.4, "country": "SGP", "status": "operating"}}, {"type": "Feature", "id": 210, "geometry": {"type": "Point", "coordinates": [103.648, 1.329]}, "properties": {"name": "Dril-Quip solar project", "fuel": "solar", "mw": 2.4, "country": "SGP", "status": "operating"}}, {"type": "Feature", "id": 211, "geometry": {"type": "Point", "coordinates": [103.648, 1.329]}, "properties": {"name": "Dyson solar project", "fuel": "solar", "mw": 2.0, "country": "SGP", "status": "operating"}}, {"type": "Feature", "id": 212, "geometry": {"type": "Point", "coordinates": [103.977, 1.375]}, "properties": {"name": "Eagle Services Asia solar project", "fuel": "solar", "mw": 1.1, "country": "SGP", "status": "operating"}}, {"type": "Feature", "id": 213, "geometry": {"type": "Point", "coordinates": [103.83, 1.341]}, "properties": {"name": "Far East Group solar project", "fuel": "solar", "mw": 1.0, "country": "SGP", "status": "operating"}}, {"type": "Feature", "id": 214, "geometry": {"type": "Point", "coordinates": [103.701, 1.319]}, "properties": {"name": "Fortis SGA solar project", "fuel": "solar", "mw": 1.0, "country": "SGP", "status": "operating"}}, {"type": "Feature", "id": 215, "geometry": {"type": "Point", "coordinates": [103.648, 1.329]}, "properties": {"name": "GSK Biologicals solar project", "fuel": "solar", "mw": 1.4, "country": "SGP", "status": "operating"}}, {"type": "Feature", "id": 216, "geometry": {"type": "Point", "coordinates": [103.716, 1.323]}, "properties": {"name": "Greenphyto solar project", "fuel": "solar", "mw": 1.2, "country": "SGP", "status": "operating"}}, {"type": "Feature", "id": 217, "geometry": {"type": "Point", "coordinates": [103.699, 1.271]}, "properties": {"name": "Grundfos solar project", "fuel": "solar", "mw": 1.3, "country": "SGP", "status": "operating"}}, {"type": "Feature", "id": 218, "geometry": {"type": "Point", "coordinates": [103.648, 1.329]}, "properties": {"name": "Gul Ave solar project", "fuel": "solar", "mw": 1.0, "country": "SGP", "status": "operating"}}, {"type": "Feature", "id": 219, "geometry": {"type": "Point", "coordinates": [103.648, 1.329]}, "properties": {"name": "HAL Completions Mfg Pte Ltd - SING3 solar project", "fuel": "solar", "mw": 4.6, "country": "SGP", "status": "operating"}}, {"type": "Feature", "id": 220, "geometry": {"type": "Point", "coordinates": [103.699, 1.271]}, "properties": {"name": "HDB Solar Leasing", "fuel": "solar", "mw": 3.2, "country": "SGP", "status": "operating"}}, {"type": "Feature", "id": 221, "geometry": {"type": "Point", "coordinates": [103.904, 1.415]}, "properties": {"name": "HDB Solar Leasing", "fuel": "solar", "mw": 3.7, "country": "SGP", "status": "operating"}}, {"type": "Feature", "id": 222, "geometry": {"type": "Point", "coordinates": [103.904, 1.415]}, "properties": {"name": "HDB Solar Leasing", "fuel": "solar", "mw": 2.3, "country": "SGP", "status": "operating"}}, {"type": "Feature", "id": 223, "geometry": {"type": "Point", "coordinates": [103.706, 1.339]}, "properties": {"name": "Halliburton Far East - SING2 solar project", "fuel": "solar", "mw": 1.5, "country": "SGP", "status": "operating"}}, {"type": "Feature", "id": 224, "geometry": {"type": "Point", "coordinates": [103.83, 1.341]}, "properties": {"name": "Halliburton SING2 solar project", "fuel": "solar", "mw": 1.5, "country": "SGP", "status": "operating"}}, {"type": "Feature", "id": 225, "geometry": {"type": "Point", "coordinates": [103.83, 1.341]}, "properties": {"name": "Halliburton SING3 solar project", "fuel": "solar", "mw": 4.7, "country": "SGP", "status": "operating"}}, {"type": "Feature", "id": 226, "geometry": {"type": "Point", "coordinates": [103.975, 1.354]}, "properties": {"name": "Hamilton Sundstrand - Changi solar project", "fuel": "solar", "mw": 1.5, "country": "SGP", "status": "operating"}}, {"type": "Feature", "id": 227, "geometry": {"type": "Point", "coordinates": [103.648, 1.329]}, "properties": {"name": "Hyundai solar project", "fuel": "solar", "mw": 1.4, "country": "SGP", "status": "operating"}}, {"type": "Feature", "id": 228, "geometry": {"type": "Point", "coordinates": [103.877, 1.41]}, "properties": {"name": "JEP Precision Engineering solar project", "fuel": "solar", "mw": 1.7, "country": "SGP", "status": "operating"}}, {"type": "Feature", "id": 229, "geometry": {"type": "Point", "coordinates": [103.677, 1.251]}, "properties": {"name": "Jurong Island solar farm", "fuel": "solar", "mw": 118.0, "country": "SGP", "status": "planned"}}, {"type": "Feature", "id": 230, "geometry": {"type": "Point", "coordinates": [103.699, 1.271]}, "properties": {"name": "Jurong Port solar project", "fuel": "solar", "mw": 9.6, "country": "SGP", "status": "operating"}}, {"type": "Feature", "id": 231, "geometry": {"type": "Point", "coordinates": [103.724, 1.288]}, "properties": {"name": "Jurong solar project", "fuel": "solar", "mw": 4.0, "country": "SGP", "status": "operating"}}, {"type": "Feature", "id": 232, "geometry": {"type": "Point", "coordinates": [103.699, 1.271]}, "properties": {"name": "Katoen Natie solar project", "fuel": "solar", "mw": 4.1, "country": "SGP", "status": "operating"}}, {"type": "Feature", "id": 233, "geometry": {"type": "Point", "coordinates": [103.699, 1.271]}, "properties": {"name": "Katoen Natie solar project", "fuel": "solar", "mw": 1.2, "country": "SGP", "status": "operating"}}, {"type": "Feature", "id": 234, "geometry": {"type": "Point", "coordinates": [103.806, 1.465]}, "properties": {"name": "Keystone Cable solar project", "fuel": "solar", "mw": 2.0, "country": "SGP", "status": "operating"}}, {"type": "Feature", "id": 235, "geometry": {"type": "Point", "coordinates": [103.648, 1.329]}, "properties": {"name": "Kim Soon Lee Logistics solar project", "fuel": "solar", "mw": 1.3, "country": "SGP", "status": "operating"}}, {"type": "Feature", "id": 236, "geometry": {"type": "Point", "coordinates": [103.648, 1.329]}, "properties": {"name": "Kimly Innovation Hub solar project", "fuel": "solar", "mw": 1.0, "country": "SGP", "status": "operating"}}, {"type": "Feature", "id": 237, "geometry": {"type": "Point", "coordinates": [103.742, 1.429]}, "properties": {"name": "Kranji Reservoir floating solar farm", "fuel": "solar", "mw": 150.0, "country": "SGP", "status": "planned"}}, {"type": "Feature", "id": 238, "geometry": {"type": "Point", "coordinates": [103.835, 1.441]}, "properties": {"name": "Lumileds solar project", "fuel": "solar", "mw": 1.4, "country": "SGP", "status": "operating"}}, {"type": "Feature", "id": 239, "geometry": {"type": "Point", "coordinates": [103.83, 1.341]}, "properties": {"name": "Mandai Depot solar project", "fuel": "solar", "mw": 2.8, "country": "SGP", "status": "operating"}}, {"type": "Feature", "id": 240, "geometry": {"type": "Point", "coordinates": [103.83, 1.341]}, "properties": {"name": "Mandai MRT Depot solar project", "fuel": "solar", "mw": 2.8, "country": "SGP", "status": "operating"}}, {"type": "Feature", "id": 241, "geometry": {"type": "Point", "coordinates": [103.648, 1.329]}, "properties": {"name": "Murata solar project", "fuel": "solar", "mw": 3.7, "country": "SGP", "status": "operating"}}, {"type": "Feature", "id": 242, "geometry": {"type": "Point", "coordinates": [103.93, 1.324]}, "properties": {"name": "NCS at Bedok South Road solar project", "fuel": "solar", "mw": 1.7, "country": "SGP", "status": "operating"}}, {"type": "Feature", "id": 243, "geometry": {"type": "Point", "coordinates": [103.699, 1.271]}, "properties": {"name": "NTU Solar PV", "fuel": "solar", "mw": 5.2, "country": "SGP", "status": "operating"}}, {"type": "Feature", "id": 244, "geometry": {"type": "Point", "coordinates": [103.93, 1.324]}, "properties": {"name": "Panasonic Refrigeration and Appliances Devices Singapore solar project", "fuel": "solar", "mw": 2.4, "country": "SGP", "status": "operating"}}, {"type": "Feature", "id": 245, "geometry": {"type": "Point", "coordinates": [103.743, 1.315]}, "properties": {"name": "Pandan Reservoir solar farm", "fuel": "solar", "mw": 55.0, "country": "SGP", "status": "planned"}}, {"type": "Feature", "id": 246, "geometry": {"type": "Point", "coordinates": [103.83, 1.341]}, "properties": {"name": "Pioneer Sector Lane_LYS solar project", "fuel": "solar", "mw": 1.0, "country": "SGP", "status": "operating"}}, {"type": "Feature", "id": 247, "geometry": {"type": "Point", "coordinates": [103.648, 1.329]}, "properties": {"name": "Pioneer Sector solar project", "fuel": "solar", "mw": 1.6, "country": "SGP", "status": "operating"}}, {"type": "Feature", "id": 248, "geometry": {"type": "Point", "coordinates": [103.648, 1.329]}, "properties": {"name": "Prime Evolue solar project", "fuel": "solar", "mw": 3.2, "country": "SGP", "status": "operating"}}, {"type": "Feature", "id": 249, "geometry": {"type": "Point", "coordinates": [103.648, 1.329]}, "properties": {"name": "REC Solar", "fuel": "solar", "mw": 2.4, "country": "SGP", "status": "operating"}}, {"type": "Feature", "id": 250, "geometry": {"type": "Point", "coordinates": [103.975, 1.354]}, "properties": {"name": "SATS solar project", "fuel": "solar", "mw": 3.6, "country": "SGP", "status": "operating"}}, {"type": "Feature", "id": 251, "geometry": {"type": "Point", "coordinates": [103.877, 1.41]}, "properties": {"name": "ST Aerospace Engineering solar project", "fuel": "solar", "mw": 2.1, "country": "SGP", "status": "operating"}}, {"type": "Feature", "id": 252, "geometry": {"type": "Point", "coordinates": [103.975, 1.354]}, "properties": {"name": "ST Aerospace Services Co solar project", "fuel": "solar", "mw": 2.1, "country": "SGP", "status": "operating"}}, {"type": "Feature", "id": 253, "geometry": {"type": "Point", "coordinates": [103.975, 1.354]}, "properties": {"name": "ST Aerospace solar project", "fuel": "solar", "mw": 4.1, "country": "SGP", "status": "operating"}}, {"type": "Feature", "id": 254, "geometry": {"type": "Point", "coordinates": [103.762, 1.425]}, "properties": {"name": "Samwoh solar project", "fuel": "solar", "mw": 1.0, "country": "SGP", "status": "operating"}}, {"type": "Feature", "id": 255, "geometry": {"type": "Point", "coordinates": [103.83, 1.341]}, "properties": {"name": "Seletar Aerospace_LYS1 solar project", "fuel": "solar", "mw": 2.3, "country": "SGP", "status": "operating"}}, {"type": "Feature", "id": 256, "geometry": {"type": "Point", "coordinates": [103.975, 1.354]}, "properties": {"name": "Sembcorp Newater solar project", "fuel": "solar", "mw": 1.4, "country": "SGP", "status": "operating"}}, {"type": "Feature", "id": 257, "geometry": {"type": "Point", "coordinates": [103.762, 1.425]}, "properties": {"name": "Sheng Siong Building solar project", "fuel": "solar", "mw": 1.2, "country": "SGP", "status": "operating"}}, {"type": "Feature", "id": 258, "geometry": {"type": "Point", "coordinates": [103.786, 1.437]}, "properties": {"name": "Singapore American School solar project", "fuel": "solar", "mw": 1.0, "country": "SGP", "status": "operating"}}, {"type": "Feature", "id": 259, "geometry": {"type": "Point", "coordinates": [103.781, 1.307]}, "properties": {"name": "Singapore Institute of Technology solar project", "fuel": "solar", "mw": 1.9, "country": "SGP", "status": "operating"}}, {"type": "Feature", "id": 260, "geometry": {"type": "Point", "coordinates": [103.699, 1.271]}, "properties": {"name": "Stamford Tyres solar project", "fuel": "solar", "mw": 1.9, "country": "SGP", "status": "operating"}}, {"type": "Feature", "id": 261, "geometry": {"type": "Point", "coordinates": [103.788, 1.46]}, "properties": {"name": "Straits of Johor solar project", "fuel": "solar", "mw": 5.4, "country": "SGP", "status": "operating"}}, {"type": "Feature", "id": 262, "geometry": {"type": "Point", "coordinates": [103.83, 1.341]}, "properties": {"name": "TOTAL LUB OIL solar project", "fuel": "solar", "mw": 1.2, "country": "SGP", "status": "operating"}}, {"type": "Feature", "id": 263, "geometry": {"type": "Point", "coordinates": [103.802, 1.463]}, "properties": {"name": "TYJ Food Hub Senoko solar project", "fuel": "solar", "mw": 1.2, "country": "SGP", "status": "operating"}}, {"type": "Feature", "id": 264, "geometry": {"type": "Point", "coordinates": [103.701, 1.319]}, "properties": {"name": "Tanah Merah Country Club solar project", "fuel": "solar", "mw": 2.2, "country": "SGP", "status": "operating"}}, {"type": "Feature", "id": 265, "geometry": {"type": "Point", "coordinates": [103.803, 1.462]}, "properties": {"name": "Tat Seng Packaging solar project", "fuel": "solar", "mw": 1.1, "country": "SGP", "status": "operating"}}, {"type": "Feature", "id": 266, "geometry": {"type": "Point", "coordinates": [103.83, 1.341]}, "properties": {"name": "Tee Hai Chem solar project", "fuel": "solar", "mw": 1.1, "country": "SGP", "status": "operating"}}, {"type": "Feature", "id": 267, "geometry": {"type": "Point", "coordinates": [103.639, 1.349]}, "properties": {"name": "Tengeh Reservoir solar farm", "fuel": "solar", "mw": 60.0, "country": "SGP", "status": "operating"}}, {"type": "Feature", "id": 268, "geometry": {"type": "Point", "coordinates": [103.843, 1.379]}, "properties": {"name": "Trans-cab Services solar project", "fuel": "solar", "mw": 1.0, "country": "SGP", "status": "operating"}}, {"type": "Feature", "id": 269, "geometry": {"type": "Point", "coordinates": [103.83, 1.341]}, "properties": {"name": "Tuas Bay Drive_LYS solar project", "fuel": "solar", "mw": 1.0, "country": "SGP", "status": "operating"}}, {"type": "Feature", "id": 270, "geometry": {"type": "Point", "coordinates": [103.83, 1.341]}, "properties": {"name": "Tuas South Avenue3_LYS solar project", "fuel": "solar", "mw": 1.4, "country": "SGP", "status": "operating"}}, {"type": "Feature", "id": 271, "geometry": {"type": "Point", "coordinates": [103.975, 1.354]}, "properties": {"name": "UTC - Goodrich solar project", "fuel": "solar", "mw": 1.0, "country": "SGP", "status": "operating"}}, {"type": "Feature", "id": 272, "geometry": {"type": "Point", "coordinates": [103.93, 1.324]}, "properties": {"name": "UTC - HS Bedok solar project", "fuel": "solar", "mw": 1.1, "country": "SGP", "status": "operating"}}, {"type": "Feature", "id": 273, "geometry": {"type": "Point", "coordinates": [103.877, 1.41]}, "properties": {"name": "UTC - Pratt & Whitney - NGPF Manufacturing Company solar project", "fuel": "solar", "mw": 1.2, "country": "SGP", "status": "operating"}}, {"type": "Feature", "id": 274, "geometry": {"type": "Point", "coordinates": [103.781, 1.316]}, "properties": {"name": "Ulu Pandan Newater Plant solar project", "fuel": "solar", "mw": 1.0, "country": "SGP", "status": "operating"}}, {"type": "Feature", "id": 275, "geometry": {"type": "Point", "coordinates": [103.699, 1.271]}, "properties": {"name": "VentureAve solar project", "fuel": "solar", "mw": 1.0, "country": "SGP", "status": "operating"}}, {"type": "Feature", "id": 276, "geometry": {"type": "Point", "coordinates": [103.649, 1.335]}, "properties": {"name": "Wilmar solar project", "fuel": "solar", "mw": 1.9, "country": "SGP", "status": "operating"}}, {"type": "Feature", "id": 277, "geometry": {"type": "Point", "coordinates": [103.699, 1.271]}, "properties": {"name": "YCH solar project", "fuel": "solar", "mw": 2.8, "country": "SGP", "status": "operating"}}, {"type": "Feature", "id": 278, "geometry": {"type": "Point", "coordinates": [103.701, 1.319]}, "properties": {"name": "YTLPS Solar 1 solar project", "fuel": "solar", "mw": 1.0, "country": "SGP", "status": "operating"}}, {"type": "Feature", "id": 279, "geometry": {"type": "Point", "coordinates": [103.648, 1.329]}, "properties": {"name": "Yamazaki Mazak solar project", "fuel": "solar", "mw": 1.6, "country": "SGP", "status": "operating"}}, {"type": "Feature", "id": 280, "geometry": {"type": "Point", "coordinates": [50.463, 26.039]}, "properties": {"name": "Masdar-Bapco wind farm", "fuel": "wind", "mw": 2000.0, "country": "BHR", "status": "planned"}}, {"type": "Feature", "id": 281, "geometry": {"type": "Point", "coordinates": [-24.322, 16.598]}, "properties": {"name": "Ch\u00e3 Gon\u00e7alves wind farm", "fuel": "wind", "mw": 10.0, "country": "CPV", "status": "planned"}}, {"type": "Feature", "id": 282, "geometry": {"type": "Point", "coordinates": [-23.625, 15.085]}, "properties": {"name": "Santiago wind farm", "fuel": "wind", "mw": 13.0, "country": "CPV", "status": "operating"}}, {"type": "Feature", "id": 283, "geometry": {"type": "Point", "coordinates": [57.261, -20.163]}, "properties": {"name": "Mauritius Offshore wind farm", "fuel": "wind", "mw": 100.0, "country": "MUS", "status": "planned"}}, {"type": "Feature", "id": 284, "geometry": {"type": "Point", "coordinates": [57.495, -20.3]}, "properties": {"name": "Plaine Sophie wind farm", "fuel": "wind", "mw": 30.0, "country": "MUS", "status": "operating"}}, {"type": "Feature", "id": 285, "geometry": {"type": "Point", "coordinates": [-22.812, 16.091]}, "properties": {"name": "Boa Vista (Cabo Verde) wind farm", "fuel": "wind", "mw": 2.6, "country": "CPV", "status": "operating"}}, {"type": "Feature", "id": 286, "geometry": {"type": "Point", "coordinates": [-25.009, 16.869]}, "properties": {"name": "Norte de Baia wind farm", "fuel": "wind", "mw": 5.0, "country": "CPV", "status": "construction"}}, {"type": "Feature", "id": 287, "geometry": {"type": "Point", "coordinates": [-22.928, 16.725]}, "properties": {"name": "Sal wind farm", "fuel": "wind", "mw": 7.7, "country": "CPV", "status": "operating"}}, {"type": "Feature", "id": 288, "geometry": {"type": "Point", "coordinates": [-23.625, 15.085]}, "properties": {"name": "Santiago wind farm", "fuel": "wind", "mw": 9.4, "country": "CPV", "status": "operating"}}, {"type": "Feature", "id": 289, "geometry": {"type": "Point", "coordinates": [-24.977, 16.829]}, "properties": {"name": "S\u00e3o Vicente wind farm", "fuel": "wind", "mw": 6.0, "country": "CPV", "status": "operating"}}, {"type": "Feature", "id": 290, "geometry": {"type": "Point", "coordinates": [57.651, -20.067]}, "properties": {"name": "Plaine Des Roches wind farm", "fuel": "wind", "mw": 9.4, "country": "MUS", "status": "operating"}}, {"type": "Feature", "id": 291, "geometry": {"type": "Point", "coordinates": [55.452, -4.618]}, "properties": {"name": "Port Victoria (Seychelles) wind farm", "fuel": "wind", "mw": 6.0, "country": "SYC", "status": "operating"}}, {"type": "Feature", "id": 292, "geometry": {"type": "Point", "coordinates": [43.363, -11.766]}, "properties": {"name": "Karthala geothermal power plant", "fuel": "geothermal", "mw": 15.0, "country": "COM", "status": "planned"}}, {"type": "Feature", "id": 293, "geometry": {"type": "Point", "coordinates": [57.676, -20.338]}, "properties": {"name": "Champagne hydroelectric plant", "fuel": "hydro", "mw": 30.0, "country": "MUS", "status": "operating"}}, {"type": "Feature", "id": 294, "geometry": {"type": "Point", "coordinates": [57.542, -20.508]}, "properties": {"name": "Saint-Aubin power station", "fuel": "coal", "mw": 35.0, "country": "MUS", "status": "operating"}}, {"type": "Feature", "id": 295, "geometry": {"type": "Point", "coordinates": [57.629, -20.474]}, "properties": {"name": "Savannah power station", "fuel": "coal", "mw": 45.0, "country": "MUS", "status": "operating"}}, {"type": "Feature", "id": 296, "geometry": {"type": "Point", "coordinates": [57.629, -20.474]}, "properties": {"name": "Savannah power station", "fuel": "coal", "mw": 45.0, "country": "MUS", "status": "operating"}}, {"type": "Feature", "id": 297, "geometry": {"type": "Point", "coordinates": [57.599, -20.068]}, "properties": {"name": "Terragen power station", "fuel": "coal", "mw": 35.0, "country": "MUS", "status": "operating"}}, {"type": "Feature", "id": 298, "geometry": {"type": "Point", "coordinates": [57.599, -20.068]}, "properties": {"name": "Terragen power station", "fuel": "coal", "mw": 35.0, "country": "MUS", "status": "operating"}}]}