{"type": "FeatureCollection", "features": [{"type": "Feature", "geometry": {"type": "LineString", "coordinates": [[145.963, -6.241], [146.09, -6.133], [146.233, -6.33], [146.419, -6.384], [146.514, -6.558], [146.661, -6.595]]}, "properties": {"v": 132000, "f": "50", "oid": 759156583}}, {"type": "Feature", "geometry": {"type": "LineString", "coordinates": [[145.886, -5.976], [145.581, -5.768], [145.407, -5.547], [145.566, -5.408], [145.688, -5.39], [145.777, -5.219]]}, "properties": {"v": 132000, "f": "50", "oid": 260233025}}, {"type": "Feature", "geometry": {"type": "LineString", "coordinates": [[145.963, -6.241], [146.047, -6.169], [145.886, -5.976]]}, "properties": {"v": 132000, "f": "50", "oid": 759156584}}, {"type": "Feature", "geometry": {"type": "LineString", "coordinates": [[145.963, -6.242], [145.649, -6.308], [145.405, -6.199], [145.374, -6.127]]}, "properties": {"v": 66000, "f": "50", "oid": 759236461}}, {"type": "Feature", "geometry": {"type": "LineString", "coordinates": [[145.963, -6.242], [145.867, -6.309], [145.649, -6.309], [145.374, -6.128]]}, "properties": {"v": 132000, "f": "50", "oid": 759236462}}, {"type": "Feature", "geometry": {"type": "LineString", "coordinates": [[145.964, -6.242], [145.967, -6.24]]}, "properties": {"v": 66000, "oid": 759156576}}, {"type": "Feature", "geometry": {"type": "LineString", "coordinates": [[145.964, -6.242], [145.967, -6.24]]}, "properties": {"v": 66000, "oid": 759156577}}, {"type": "Feature", "geometry": {"type": "LineString", "coordinates": [[145.963, -6.242], [145.967, -6.24]]}, "properties": {"v": 132000, "f": "50", "oid": 759156580}}, {"type": "Feature", "geometry": {"type": "LineString", "coordinates": [[145.976, -6.25], [145.963, -6.242]]}, "properties": {"v": 132000, "f": "50", "oid": 759156574}}, {"type": "Feature", "geometry": {"type": "LineString", "coordinates": [[147.228, -9.485], [147.202, -9.452]]}, "properties": {"v": 66000, "f": "50", "oid": 1201738020}}, {"type": "Feature", "geometry": {"type": "LineString", "coordinates": [[147.229, -9.402], [147.203, -9.411]]}, "properties": {"v": 66000, "f": "50", "oid": 1201738013}}, {"type": "Feature", "geometry": {"type": "LineString", "coordinates": [[147.204, -9.404], [147.203, -9.404]]}, "properties": {"v": 66000, "f": "50", "oid": 759180348}}, {"type": "Feature", "geometry": {"type": "LineString", "coordinates": [[147.204, -9.405], [147.203, -9.404]]}, "properties": {"v": 66000, "f": "50", "oid": 759180349}}, {"type": "Feature", "geometry": {"type": "LineString", "coordinates": [[147.203, -9.405], [147.204, -9.404]]}, "properties": {"v": 66000, "nm": "Konedobu-Boroka Tx", "f": "50", "oid": 759180354}}, {"type": "Feature", "geometry": {"type": "LineString", "coordinates": [[147.387, -9.429], [147.223, -9.472]]}, "properties": {"v": 66000, "op": "PNG Power Ltd.", "f": "50", "oid": 969650016}}, {"type": "Feature", "geometry": {"type": "LineString", "coordinates": [[147.229, -9.402], [147.341, -9.412]]}, "properties": {"v": 66000, "op": "PNG Power Ltd.", "f": "50", "oid": 1201738012}}, {"type": "Feature", "geometry": {"type": "LineString", "coordinates": [[147.342, -9.411], [147.341, -9.412]]}, "properties": {"v": 66000, "oid": 1201738000}}, {"type": "Feature", "geometry": {"type": "LineString", "coordinates": [[147.341, -9.412], [147.342, -9.411]]}, "properties": {"v": 66000, "oid": 1201737999}}, {"type": "Feature", "geometry": {"type": "LineString", "coordinates": [[147.374, -9.421], [147.341, -9.412]]}, "properties": {"v": 66000, "op": "PNG Power Ltd.", "f": "50", "oid": 1201737990}}, {"type": "Feature", "geometry": {"type": "LineString", "coordinates": [[147.342, -9.411], [147.343, -9.411]]}, "properties": {"v": 66000, "oid": 1201738007}}, {"type": "Feature", "geometry": {"type": "LineString", "coordinates": [[147.342, -9.411], [147.343, -9.411]]}, "properties": {"v": 66000, "oid": 1201738006}}, {"type": "Feature", "geometry": {"type": "LineString", "coordinates": [[147.343, -9.411], [147.348, -9.418]]}, "properties": {"v": 66000, "op": "PNG Power Ltd.", "f": "50", "oid": 1201738004}}, {"type": "Feature", "geometry": {"type": "LineString", "coordinates": [[147.365, -9.418], [147.367, -9.417]]}, "properties": {"v": 66000, "op": "PNG Power Ltd.", "f": "50", "oid": 1201737996}}, {"type": "Feature", "geometry": {"type": "LineString", "coordinates": [[147.367, -9.417], [147.365, -9.418]]}, "properties": {"v": 66000, "op": "PNG Power Ltd.", "f": "50", "oid": 1201737998}}, {"type": "Feature", "geometry": {"type": "LineString", "coordinates": [[147.367, -9.417], [147.389, -9.426]]}, "properties": {"v": 66000, "op": "PNG Power Ltd.", "f": "50", "oid": 1201737997}}, {"type": "Feature", "geometry": {"type": "LineString", "coordinates": [[147.374, -9.421], [147.387, -9.428]]}, "properties": {"v": 66000, "op": "PNG Power Ltd.", "f": "50", "oid": 1201737991}}, {"type": "Feature", "geometry": {"type": "LineString", "coordinates": [[147.39, -9.427], [147.387, -9.429]]}, "properties": {"v": 66000, "op": "PNG Power Ltd.", "f": "50", "oid": 1201737994}}, {"type": "Feature", "geometry": {"type": "LineString", "coordinates": [[147.387, -9.429], [147.39, -9.427]]}, "properties": {"v": 66000, "op": "PNG Power Ltd.", "f": "50", "oid": 1201737992}}, {"type": "Feature", "geometry": {"type": "LineString", "coordinates": [[147.389, -9.427], [147.387, -9.428]]}, "properties": {"v": 66000, "op": "PNG Power Ltd.", "f": "50", "oid": 1201737995}}, {"type": "Feature", "geometry": {"type": "LineString", "coordinates": [[147.387, -9.428], [147.389, -9.427]]}, "properties": {"v": 66000, "op": "PNG Power Ltd.", "f": "50", "oid": 1201737993}}, {"type": "Feature", "geometry": {"type": "LineString", "coordinates": [[147.203, -9.404], [147.145, -9.431]]}, "properties": {"v": 66000, "f": "50", "oid": 759180347}}, {"type": "Feature", "geometry": {"type": "LineString", "coordinates": [[147.171, -9.449], [147.145, -9.431]]}, "properties": {"v": 66000, "nm": "Kanudi-Konedobu Tx", "f": "50", "oid": 494957044}}, {"type": "Feature", "geometry": {"type": "LineString", "coordinates": [[147.182, -9.456], [147.201, -9.452]]}, "properties": {"v": 66000, "nm": "Konedobu-Boroka Tx", "f": "50", "oid": 494983775}}, {"type": "Feature", "geometry": {"type": "LineString", "coordinates": [[147.204, -9.405], [147.193, -9.414]]}, "properties": {"v": 66000, "f": "50", "oid": 759180350}}, {"type": "Feature", "geometry": {"type": "LineString", "coordinates": [[147.201, -9.452], [147.203, -9.405]]}, "properties": {"v": 66000, "f": "50", "oid": 759180366}}, {"type": "Feature", "geometry": {"type": "LineString", "coordinates": [[147.201, -9.452], [147.202, -9.452]]}, "properties": {"v": 66000, "nm": "Konedobu-Boroka Tx", "f": "50", "oid": 759180365}}, {"type": "Feature", "geometry": {"type": "LineString", "coordinates": [[147.201, -9.452], [147.202, -9.452]]}, "properties": {"v": 66000, "nm": "Konedobu-Boroka Tx", "f": "50", "oid": 759180363}}, {"type": "Feature", "geometry": {"type": "LineString", "coordinates": [[147.201, -9.452], [147.202, -9.452]]}, "properties": {"v": 66000, "nm": "Konedobu-Boroka Tx", "f": "50", "oid": 759180364}}, {"type": "Feature", "geometry": {"type": "LineString", "coordinates": [[147.202, -9.452], [147.201, -9.452]]}, "properties": {"v": 66000, "nm": "Konedobu-Boroka Tx", "f": "50", "oid": 759180362}}, {"type": "Feature", "geometry": {"type": "LineString", "coordinates": [[146.661, -6.595], [146.9, -6.605], [146.987, -6.681]]}, "properties": {"v": 132000, "f": "50", "oid": 169440300}}, {"type": "Feature", "geometry": {"type": "LineString", "coordinates": [[146.661, -6.596], [146.661, -6.595]]}, "properties": {"v": 132000, "f": "50", "oid": 399882286}}, {"type": "Feature", "geometry": {"type": "LineString", "coordinates": [[125.192, -8.934], [125.192, -8.935]]}, "properties": {"v": 150000, "oid": 1290620506}}, {"type": "Feature", "geometry": {"type": "LineString", "coordinates": [[125.192, -8.935], [125.192, -8.934]]}, "properties": {"v": 150000, "nm": "Maliana", "oid": 1290620505}}, {"type": "Feature", "geometry": {"type": "LineString", "coordinates": [[125.192, -8.934], [125.244, -8.749], [125.34, -8.656], [125.314, -8.601]]}, "properties": {"v": 150000, "oid": 927169586}}, {"type": "Feature", "geometry": {"type": "LineString", "coordinates": [[125.267, -9.311], [125.267, -9.324]]}, "properties": {"v": 150000, "oid": 1290620494}}, {"type": "Feature", "geometry": {"type": "LineString", "coordinates": [[125.267, -9.311], [125.534, -9.152]]}, "properties": {"v": 150000, "oid": 927801609}}, {"type": "Feature", "geometry": {"type": "LineString", "coordinates": [[125.267, -9.324], [125.267, -9.325]]}, "properties": {"v": 150000, "oid": 1290620495}}, {"type": "Feature", "geometry": {"type": "LineString", "coordinates": [[125.267, -9.325], [125.267, -9.324]]}, "properties": {"v": 150000, "oid": 1290620496}}, {"type": "Feature", "geometry": {"type": "LineString", "coordinates": [[125.314, -8.601], [125.314, -8.6]]}, "properties": {"v": 150000, "oid": 1290620508}}, {"type": "Feature", "geometry": {"type": "LineString", "coordinates": [[125.314, -8.601], [125.613, -8.562]]}, "properties": {"v": 150000, "oid": 927169585}}, {"type": "Feature", "geometry": {"type": "LineString", "coordinates": [[125.534, -9.152], [125.534, -9.153]]}, "properties": {"v": 150000, "oid": 1290620501}}, {"type": "Feature", "geometry": {"type": "LineString", "coordinates": [[125.73, -9.152], [125.682, -9.108], [125.534, -9.152]]}, "properties": {"v": 150000, "oid": 927801607}}, {"type": "Feature", "geometry": {"type": "LineString", "coordinates": [[125.612, -8.561], [125.611, -8.562]]}, "properties": {"v": 150000, "oid": 1290620492}}, {"type": "Feature", "geometry": {"type": "LineString", "coordinates": [[125.611, -8.562], [125.612, -8.561]]}, "properties": {"v": 150000, "oid": 1290620493}}, {"type": "Feature", "geometry": {"type": "LineString", "coordinates": [[125.669, -8.55], [125.612, -8.561]]}, "properties": {"v": 150000, "oid": 927169592}}, {"type": "Feature", "geometry": {"type": "LineString", "coordinates": [[125.612, -8.563], [125.613, -8.562]]}, "properties": {"v": 150000, "oid": 1290620518}}, {"type": "Feature", "geometry": {"type": "LineString", "coordinates": [[125.613, -8.562], [125.612, -8.563]]}, "properties": {"v": 150000, "oid": 1290620519}}, {"type": "Feature", "geometry": {"type": "LineString", "coordinates": [[125.192, -8.935], [125.285, -9.015], [125.194, -9.164], [125.267, -9.311]]}, "properties": {"v": 150000, "oid": 927169594}}, {"type": "Feature", "geometry": {"type": "LineString", "coordinates": [[125.819, -9.126], [125.844, -9.12]]}, "properties": {"v": 150000, "f": "50", "oid": 569858669}}, {"type": "Feature", "geometry": {"type": "LineString", "coordinates": [[125.891, -9.106], [126.042, -8.974], [126.286, -8.919], [126.372, -8.838]]}, "properties": {"v": 150000, "f": "50", "oid": 569858669}}, {"type": "Feature", "geometry": {"type": "LineString", "coordinates": [[126.372, -8.838], [126.46, -8.945], [126.547, -8.782], [126.78, -8.741], [126.992, -8.492]]}, "properties": {"v": 150000, "f": "50", "oid": 927169596}}, {"type": "Feature", "geometry": {"type": "LineString", "coordinates": [[126.372, -8.838], [126.384, -8.574], [126.452, -8.494]]}, "properties": {"v": 150000, "f": "50", "oid": 927169597}}, {"type": "Feature", "geometry": {"type": "LineString", "coordinates": [[126.441, -8.495], [126.382, -8.499]]}, "properties": {"v": 150000, "f": "50", "oid": 927169599}}, {"type": "Feature", "geometry": {"type": "LineString", "coordinates": [[126.238, -8.509], [126.003, -8.538]]}, "properties": {"v": 150000, "f": "50", "oid": 927169599}}, {"type": "Feature", "geometry": {"type": "LineString", "coordinates": [[125.992, -8.527], [126.002, -8.538]]}, "properties": {"v": 150000, "oid": 615791850}}, {"type": "Feature", "geometry": {"type": "LineString", "coordinates": [[126.002, -8.538], [126.003, -8.538]]}, "properties": {"v": 150000, "nm": "Manatuto", "oid": 1290620514}}, {"type": "Feature", "geometry": {"type": "LineString", "coordinates": [[126.003, -8.537], [126.002, -8.538]]}, "properties": {"v": 150000, "oid": 1290620515}}, {"type": "Feature", "geometry": {"type": "LineString", "coordinates": [[126.992, -8.492], [126.816, -8.417], [126.546, -8.487]]}, "properties": {"v": 150000, "f": "50", "oid": 169171042}}, {"type": "Feature", "geometry": {"type": "LineString", "coordinates": [[126.994, -8.491], [126.992, -8.492]]}, "properties": {"v": 150000, "f": "50", "oid": 1290620522}}, {"type": "Feature", "geometry": {"type": "LineString", "coordinates": [[126.994, -8.492], [126.995, -8.492]]}, "properties": {"v": 150000, "f": "50", "oid": 1290620526}}, {"type": "Feature", "geometry": {"type": "LineString", "coordinates": [[126.994, -8.492], [126.994, -8.491]]}, "properties": {"v": 150000, "nm": "Lospalos", "f": "50", "oid": 1290620525}}, {"type": "Feature", "geometry": {"type": "LineString", "coordinates": [[126.994, -8.491], [126.994, -8.492]]}, "properties": {"v": 150000, "f": "50", "oid": 1290620520}}, {"type": "Feature", "geometry": {"type": "LineString", "coordinates": [[145.374, -6.128], [145.221, -6.201], [144.713, -5.879], [144.463, -5.799], [144.285, -5.841]]}, "properties": {"v": 66000, "f": "50", "oid": 759361197}}, {"type": "Feature", "geometry": {"type": "LineString", "coordinates": [[177.51, -18.131], [177.551, -18.17]]}, "properties": {"v": 33000, "nm": "EFL 33kV Transmission Line", "op": "EFL", "oid": 1051170674}}, {"type": "Feature", "geometry": {"type": "LineString", "coordinates": [[177.572, -18.176], [177.727, -18.207]]}, "properties": {"v": 33000, "nm": "EFL 33kV Transmission Line", "op": "EFL", "oid": 1051170674}}, {"type": "Feature", "geometry": {"type": "LineString", "coordinates": [[177.499, -18.15], [177.522, -18.161]]}, "properties": {"v": 110000, "nm": "EFL 11kV Transmission Line", "op": "EFL", "oid": 1056527283}}, {"type": "Feature", "geometry": {"type": "LineString", "coordinates": [[177.592, -18.173], [177.596, -18.174]]}, "properties": {"v": 33000, "nm": "EFL 33kV Transmission Line", "op": "EFL", "oid": 1058429520}}, {"type": "Feature", "geometry": {"type": "LineString", "coordinates": [[177.526, -18.162], [177.528, -18.162]]}, "properties": {"v": 110000, "nm": "EFL 11kV Transmission Line", "op": "EFL", "oid": 1058427276}}, {"type": "Feature", "geometry": {"type": "LineString", "coordinates": [[177.521, -18.16], [177.518, -18.16]]}, "properties": {"v": 110000, "nm": "EFL 11kV Transmission Line", "op": "EFL", "oid": 1058428166}}, {"type": "Feature", "geometry": {"type": "LineString", "coordinates": [[177.521, -18.16], [177.522, -18.158]]}, "properties": {"v": 110000, "nm": "EFL 11kV Transmission Line", "op": "EFL", "oid": 1058427619}}, {"type": "Feature", "geometry": {"type": "LineString", "coordinates": [[177.726, -17.7], [177.984, -17.676], [178.101, -17.736]]}, "properties": {"v": 132000, "nm": "EFL 132kV Transmission Line", "op": "EFL", "oid": 166653844}}, {"type": "Feature", "geometry": {"type": "LineString", "coordinates": [[177.927, -17.715], [177.916, -17.677]]}, "properties": {"v": 132000, "nm": "EFL 132kV Transmission Line", "op": "EFL", "oid": 1018482516}}, {"type": "Feature", "geometry": {"type": "LineString", "coordinates": [[178.101, -17.736], [178.102, -17.741]]}, "properties": {"v": 132000, "oid": 320718127}}, {"type": "Feature", "geometry": {"type": "LineString", "coordinates": [[177.865, -17.456], [178.187, -17.34]]}, "properties": {"v": 33000, "nm": "EFL 33kV Transmission Line", "op": "Energy Fiji Limited", "oid": 1051167333}}, {"type": "Feature", "geometry": {"type": "LineString", "coordinates": [[178.103, -17.741], [178.292, -17.814], [178.424, -18.023]]}, "properties": {"v": 132000, "nm": "EFL 132kV Transmission Line", "oid": 320718117}}, {"type": "Feature", "geometry": {"type": "LineString", "coordinates": [[178.457, -18.104], [178.424, -18.023]]}, "properties": {"v": 132000, "nm": "EFL 132kV Transmission Line", "oid": 166654337}}, {"type": "Feature", "geometry": {"type": "LineString", "coordinates": [[177.5, -18.15], [177.496, -18.153]]}, "properties": {"v": 110000, "nm": "EFL 33kV Transmission Line", "oid": 1049209968}}, {"type": "Feature", "geometry": {"type": "LineString", "coordinates": [[177.494, -18.152], [177.449, -18.139]]}, "properties": {"v": 110000, "nm": "EFL 33kV Transmission Line", "oid": 1049209968}}, {"type": "Feature", "geometry": {"type": "LineString", "coordinates": [[177.436, -18.135], [177.372, -18.066]]}, "properties": {"v": 110000, "nm": "EFL 33kV Transmission Line", "oid": 1049209968}}, {"type": "Feature", "geometry": {"type": "LineString", "coordinates": [[177.513, -18.146], [177.526, -18.145]]}, "properties": {"v": 110000, "nm": "EFL 11kV Transmission Line", "op": "EFL", "oid": 1058428472}}, {"type": "Feature", "geometry": {"type": "LineString", "coordinates": [[177.512, -18.142], [177.511, -18.14]]}, "properties": {"v": 110000, "nm": "EFL 11kV Transmission Line", "op": "EFL", "oid": 1058428722}}, {"type": "Feature", "geometry": {"type": "LineString", "coordinates": [[177.508, -18.14], [177.546, -17.972], [177.714, -17.913]]}, "properties": {"v": 110000, "nm": "EFL 11kV Transmission Line", "op": "EFL", "oid": 1056528033}}, {"type": "Feature", "geometry": {"type": "LineString", "coordinates": [[177.355, -18.054], [177.346, -18.069]]}, "properties": {"v": 33000, "nm": "33kV Transmissoin Line", "op": "EFL", "oid": 1054975547}}, {"type": "Feature", "geometry": {"type": "LineString", "coordinates": [[177.726, -17.7], [177.508, -17.711]]}, "properties": {"v": 132000, "nm": "EFL 132kV Transmission Line", "op": "EFL", "oid": 232116200}}, {"type": "Feature", "geometry": {"type": "LineString", "coordinates": [[177.508, -17.711], [177.461, -17.685]]}, "properties": {"v": 132000, "oid": 232116199}}, {"type": "Feature", "geometry": {"type": "LineString", "coordinates": [[177.461, -17.685], [177.431, -17.682]]}, "properties": {"v": 132000, "nm": "EFL 132kV Transmission Line", "op": "EFL", "oid": 320718116}}, {"type": "Feature", "geometry": {"type": "LineString", "coordinates": [[177.683, -17.548], [177.431, -17.68]]}, "properties": {"v": 33000, "nm": "EFL 33kV Transmission Line", "op": "Energy Fiji", "oid": 232097308}}, {"type": "Feature", "geometry": {"type": "LineString", "coordinates": [[177.43, -17.68], [177.429, -17.651]]}, "properties": {"v": 33000, "nm": "EFL 33kV Transmission Line", "op": "Energy Fiji Limited", "oid": 320718124}}, {"type": "Feature", "geometry": {"type": "LineString", "coordinates": [[177.446, -17.647], [177.438, -17.635]]}, "properties": {"v": 33000, "nm": "EFL 33kv Transmission Line", "op": "Energy Fiji Limited", "oid": 1361266110}}, {"type": "Feature", "geometry": {"type": "LineString", "coordinates": [[177.426, -17.688], [177.456, -17.746]]}, "properties": {"v": 33000, "nm": "EFL 33kV Transmission Line", "op": "Energy Fiji Limited", "oid": 1361277373}}, {"type": "Feature", "geometry": {"type": "LineString", "coordinates": [[177.457, -17.743], [177.431, -17.682]]}, "properties": {"v": 33000, "nm": "EFL 33kV Transmission Line", "op": "Energy Fiji Limited", "oid": 1361279768}}, {"type": "Feature", "geometry": {"type": "LineString", "coordinates": [[146.661, -6.596], [146.617, -7.129], [146.744, -7.333], [146.705, -7.373]]}, "properties": {"v": 0, "oid": 795958867}}, {"type": "Feature", "geometry": {"type": "LineString", "coordinates": [[146.647, -7.421], [146.705, -7.373]]}, "properties": {"v": 0, "oid": 796287870}}, {"type": "Feature", "geometry": {"type": "LineString", "coordinates": [[147.031, -9.33], [147.044, -9.321]]}, "properties": {"v": 0, "oid": 1229556845}}, {"type": "Feature", "geometry": {"type": "LineString", "coordinates": [[147.045, -9.317], [147.149, -9.371]]}, "properties": {"v": 0, "oid": 1229556847}}, {"type": "Feature", "geometry": {"type": "LineString", "coordinates": [[126.814, -8.417], [126.843, -8.43]]}, "properties": {"v": 0, "oid": 169171040}}, {"type": "Feature", "geometry": {"type": "LineString", "coordinates": [[126.759, -8.426], [126.749, -8.423]]}, "properties": {"v": 0, "oid": 399835912}}, {"type": "Feature", "geometry": {"type": "LineString", "coordinates": [[142.771, -5.914], [142.897, -5.863], [142.986, -5.594], [143.107, -5.469]]}, "properties": {"v": 0, "nm": "Hides - Porgera Power Line", "oid": 566389783}}, {"type": "Feature", "geometry": {"type": "LineString", "coordinates": [[-175.349, -21.102], [-175.337, -21.104]]}, "properties": {"v": 0, "oid": 546572988}}, {"type": "Feature", "geometry": {"type": "LineString", "coordinates": [[177.684, -17.548], [177.855, -17.507]]}, "properties": {"v": 0, "nm": "EFL 33kV Transmission Line", "oid": 1049494368}}, {"type": "Feature", "geometry": {"type": "LineString", "coordinates": [[177.855, -17.506], [177.865, -17.456]]}, "properties": {"v": 0, "nm": "EFL 33kV Transmission Line", "oid": 1051167332}}, {"type": "Feature", "geometry": {"type": "LineString", "coordinates": [[178.503, -17.799], [178.517, -17.801]]}, "properties": {"v": 0, "oid": 1054965912}}, {"type": "Feature", "geometry": {"type": "LineString", "coordinates": [[177.499, -18.149], [177.51, -18.131]]}, "properties": {"v": 0, "nm": "EFL 33kV Transmission Line", "oid": 1049209967}}, {"type": "Feature", "geometry": {"type": "LineString", "coordinates": [[177.526, -18.11], [177.516, -18.128]]}, "properties": {"v": 0, "nm": "EFL Underground HV", "l": "underground", "oid": 1049209965}}, {"type": "Feature", "geometry": {"type": "LineString", "coordinates": [[177.528, -18.107], [177.513, -18.097]]}, "properties": {"v": 0, "nm": "Butoni EFL HV Transmission", "oid": 1049209963}}, {"type": "Feature", "geometry": {"type": "LineString", "coordinates": [[177.355, -18.054], [177.372, -18.066]]}, "properties": {"v": 0, "nm": "EFL 33kV Transmission Line", "oid": 319888132}}, {"type": "Feature", "geometry": {"type": "LineString", "coordinates": [[177.355, -18.054], [177.327, -17.912], [177.446, -17.769]]}, "properties": {"v": 0, "nm": "EFL 33kV Transmission Line", "oid": 1049209969}}, {"type": "Feature", "geometry": {"type": "LineString", "coordinates": [[177.476, -17.726], [177.431, -17.68]]}, "properties": {"v": 0, "nm": "EFL 33kV Transmission Line", "oid": 1049489273}}, {"type": "Feature", "geometry": {"type": "LineString", "coordinates": [[177.426, -17.688], [177.431, -17.68]]}, "properties": {"v": 0, "oid": 232097341}}, {"type": "Feature", "geometry": {"type": "LineString", "coordinates": [[177.446, -17.769], [177.476, -17.726]]}, "properties": {"v": 0, "nm": "EFL 33kV Transmission Line", "oid": 1049489272}}]}