{"type": "FeatureCollection", "features": [{"type": "Feature", "geometry": {"type": "Point", "coordinates": [81.661, 18.399]}, "properties": {"name": "CSPDCL", "v": 132000}}, {"type": "Feature", "geometry": {"type": "Point", "coordinates": [74.298, 31.509]}, "properties": {"name": "132kv", "v": 132000}}, {"type": "Feature", "geometry": {"type": "Point", "coordinates": [90.446, 23.676]}, "properties": {"name": "Shympur_Substation,_DPDC", "v": 138000}}, {"type": "Feature", "geometry": {"type": "Point", "coordinates": [80.238, 26.48]}, "properties": {"name": "220 kV Sub-station Panki", "v": 220000}}, {"type": "Feature", "geometry": {"type": "Point", "coordinates": [80.768, 29.295]}, "properties": {"name": "West Seti 400 KV Substation", "v": 400000}}, {"type": "Feature", "geometry": {"type": "Point", "coordinates": [76.407, 10.029]}, "properties": {"name": "", "v": 400000}}, {"type": "Feature", "geometry": {"type": "Point", "coordinates": [76.04, 11.223]}, "properties": {"name": "220 kv powergrid areekode", "v": 220000}}, {"type": "Feature", "geometry": {"type": "Point", "coordinates": [75.756, 11.653]}, "properties": {"name": "110kV Substation", "v": 110000}}, {"type": "Feature", "geometry": {"type": "Point", "coordinates": [78.834, 24.758]}, "properties": {"name": "BijaliGhar", "v": 0}}, {"type": "Feature", "geometry": {"type": "Point", "coordinates": [83.891, 18.309]}, "properties": {"name": "EasternPower Assistant Engineer P.S.C.C. Poles Centre", "v": 0}}, {"type": "Feature", "geometry": {"type": "Point", "coordinates": [78.503, 17.364]}, "properties": {"name": "", "v": 0}}, {"type": "Feature", "geometry": {"type": "Point", "coordinates": [79.326, 18.043]}, "properties": {"name": "", "v": 0}}, {"type": "Feature", "geometry": {"type": "Point", "coordinates": [80.468, 18.278]}, "properties": {"name": "", "v": 0}}, {"type": "Feature", "geometry": {"type": "Point", "coordinates": [79.856, 17.942]}, "properties": {"name": "Electricity Sub Station", "v": 0}}, {"type": "Feature", "geometry": {"type": "Point", "coordinates": [78.392, 17.451]}, "properties": {"name": "", "v": 0}}, {"type": "Feature", "geometry": {"type": "Point", "coordinates": [78.363, 17.489]}, "properties": {"name": "", "v": 0}}, {"type": "Feature", "geometry": {"type": "Point", "coordinates": [78.425, 17.444]}, "properties": {"name": "", "v": 0}}, {"type": "Feature", "geometry": {"type": "Point", "coordinates": [78.499, 17.441]}, "properties": {"name": "Clock Tower Sub Station", "v": 0}}, {"type": "Feature", "geometry": {"type": "Point", "coordinates": [78.288, 17.734]}, "properties": {"name": "132KV/32KV Sub Station Narsapur", "v": 0}}, {"type": "Feature", "geometry": {"type": "Point", "coordinates": [79.81, 17.814]}, "properties": {"name": "", "v": 0}}, {"type": "Feature", "geometry": {"type": "Point", "coordinates": [79.591, 17.987]}, "properties": {"name": "", "v": 0}}, {"type": "Feature", "geometry": {"type": "Point", "coordinates": [78.545, 17.505]}, "properties": {"name": "Yapral Substation", "v": 0}}, {"type": "Feature", "geometry": {"type": "Point", "coordinates": [79.291, 17.512]}, "properties": {"name": "", "v": 0}}, {"type": "Feature", "geometry": {"type": "Point", "coordinates": [78.988, 18.097]}, "properties": {"name": "", "v": 0}}, {"type": "Feature", "geometry": {"type": "Point", "coordinates": [78.804, 18.154]}, "properties": {"name": "", "v": 0}}, {"type": "Feature", "geometry": {"type": "Point", "coordinates": [79.713, 18.021]}, "properties": {"name": "", "v": 0}}, {"type": "Feature", "geometry": {"type": "Point", "coordinates": [79.605, 17.964]}, "properties": {"name": "", "v": 0}}, {"type": "Feature", "geometry": {"type": "Point", "coordinates": [77.967, 17.429]}, "properties": {"name": "", "v": 0}}, {"type": "Feature", "geometry": {"type": "Point", "coordinates": [78.538, 17.331]}, "properties": {"name": "", "v": 0}}, {"type": "Feature", "geometry": {"type": "Point", "coordinates": [78.412, 17.446]}, "properties": {"name": "", "v": 0}}, {"type": "Feature", "geometry": {"type": "Point", "coordinates": [78.297, 17.78]}, "properties": {"name": "33KV/11KV SUBSTATION LINGAPUR", "v": 0}}, {"type": "Feature", "geometry": {"type": "Point", "coordinates": [78.836, 18.107]}, "properties": {"name": "", "v": 0}}, {"type": "Feature", "geometry": {"type": "Point", "coordinates": [82.28, 17.155]}, "properties": {"name": "", "v": 0}}, {"type": "Feature", "geometry": {"type": "Point", "coordinates": [79.419, 18.503]}, "properties": {"name": "", "v": 0}}, {"type": "Feature", "geometry": {"type": "Point", "coordinates": [81.687, 18.39]}, "properties": {"name": "", "v": 0}}, {"type": "Feature", "geometry": {"type": "Point", "coordinates": [77.828, 18.685]}, "properties": {"name": "", "v": 0}}, {"type": "Feature", "geometry": {"type": "Point", "coordinates": [79.368, 18.615]}, "properties": {"name": "", "v": 0}}, {"type": "Feature", "geometry": {"type": "Point", "coordinates": [77.787, 18.674]}, "properties": {"name": "", "v": 0}}, {"type": "Feature", "geometry": {"type": "Point", "coordinates": [78.361, 17.552]}, "properties": {"name": "TSSPDCL SUB STATION BOLLARAM SS3", "v": 0}}, {"type": "Feature", "geometry": {"type": "Point", "coordinates": [79.416, 17.66]}, "properties": {"name": "Tsspdcl palakurthy", "v": 0}}, {"type": "Feature", "geometry": {"type": "Point", "coordinates": [74.691, 34.118]}, "properties": {"name": "Power Receiving Station Lawaypora", "v": 0}}, {"type": "Feature", "geometry": {"type": "Point", "coordinates": [77.07, 28.585]}, "properties": {"name": "", "v": 0}}, {"type": "Feature", "geometry": {"type": "Point", "coordinates": [76.894, 30.412]}, "properties": {"name": "66kV Handresa", "v": 0}}, {"type": "Feature", "geometry": {"type": "Point", "coordinates": [77.028, 28.618]}, "properties": {"name": "", "v": 0}}, {"type": "Feature", "geometry": {"type": "Point", "coordinates": [77.395, 34.232]}, "properties": {"name": "", "v": 0}}, {"type": "Feature", "geometry": {"type": "Point", "coordinates": [73.166, 33.571]}, "properties": {"name": "Naval Anchorage Substation", "v": 0}}, {"type": "Feature", "geometry": {"type": "Point", "coordinates": [74.347, 31.469]}, "properties": {"name": "Pel Electric", "v": 0}}, {"type": "Feature", "geometry": {"type": "Point", "coordinates": [72.926, 24.653]}, "properties": {"name": "", "v": 0}}, {"type": "Feature", "geometry": {"type": "Point", "coordinates": [67.067, 24.949]}, "properties": {"name": "Allied Chemical", "v": 0}}, {"type": "Feature", "geometry": {"type": "Point", "coordinates": [72.98, 19.25]}, "properties": {"name": "", "v": 0}}, {"type": "Feature", "geometry": {"type": "Point", "coordinates": [72.906, 19.069]}, "properties": {"name": "Chhedanagar Sub Station (Reliance Energy)", "v": 0}}, {"type": "Feature", "geometry": {"type": "Point", "coordinates": [74.794, 34.002]}, "properties": {"name": "PDD Power Receiving Station", "v": 0}}, {"type": "Feature", "geometry": {"type": "Point", "coordinates": [74.979, 29.595]}, "properties": {"name": "Bansudhar-Power House", "v": 0}}, {"type": "Feature", "geometry": {"type": "Point", "coordinates": [77.007, 28.616]}, "properties": {"name": "", "v": 0}}, {"type": "Feature", "geometry": {"type": "Point", "coordinates": [74.949, 34.003]}, "properties": {"name": "", "v": 0}}, {"type": "Feature", "geometry": {"type": "Point", "coordinates": [72.315, 34.18]}, "properties": {"name": "", "v": 0}}, {"type": "Feature", "geometry": {"type": "Point", "coordinates": [70.436, 34.435]}, "properties": {"name": "", "v": 0}}, {"type": "Feature", "geometry": {"type": "Point", "coordinates": [69.355, 34.541]}, "properties": {"name": "", "v": 0}}, {"type": "Feature", "geometry": {"type": "Point", "coordinates": [76.225, 20.685]}, "properties": {"name": "132/33 kV Motala", "v": 0}}, {"type": "Feature", "geometry": {"type": "Point", "coordinates": [77.0, 28.614]}, "properties": {"name": "", "v": 0}}, {"type": "Feature", "geometry": {"type": "Point", "coordinates": [77.072, 28.588]}, "properties": {"name": "", "v": 0}}, {"type": "Feature", "geometry": {"type": "Point", "coordinates": [77.007, 29.24]}, "properties": {"name": "", "v": 0}}, {"type": "Feature", "geometry": {"type": "Point", "coordinates": [77.186, 32.275]}, "properties": {"name": "", "v": 0}}, {"type": "Feature", "geometry": {"type": "Point", "coordinates": [74.426, 32.383]}, "properties": {"name": "Umar Butt Chowk", "v": 0}}, {"type": "Feature", "geometry": {"type": "Point", "coordinates": [75.033, 27.803]}, "properties": {"name": "substation 1", "v": 0}}, {"type": "Feature", "geometry": {"type": "Point", "coordinates": [73.049, 24.795]}, "properties": {"name": "", "v": 0}}, {"type": "Feature", "geometry": {"type": "Point", "coordinates": [72.414, 32.929]}, "properties": {"name": "Substation Talagang", "v": 0}}, {"type": "Feature", "geometry": {"type": "Point", "coordinates": [67.343, 24.871]}, "properties": {"name": "", "v": 0}}, {"type": "Feature", "geometry": {"type": "Point", "coordinates": [67.139, 24.879]}, "properties": {"name": "PolChem Traders - Pioneers of Magnesium Oxide - PolyChemystic", "v": 0}}, {"type": "Feature", "geometry": {"type": "Point", "coordinates": [67.086, 24.894]}, "properties": {"name": "", "v": 0}}, {"type": "Feature", "geometry": {"type": "Point", "coordinates": [66.983, 24.867]}, "properties": {"name": "Electric", "v": 0}}, {"type": "Feature", "geometry": {"type": "Point", "coordinates": [65.71, 31.629]}, "properties": {"name": "", "v": 0}}, {"type": "Feature", "geometry": {"type": "Point", "coordinates": [65.425, 31.581]}, "properties": {"name": "", "v": 0}}, {"type": "Feature", "geometry": {"type": "Point", "coordinates": [65.116, 32.323]}, "properties": {"name": "", "v": 0}}, {"type": "Feature", "geometry": {"type": "Point", "coordinates": [64.591, 31.827]}, "properties": {"name": "", "v": 0}}, {"type": "Feature", "geometry": {"type": "Point", "coordinates": [72.98, 19.252]}, "properties": {"name": "", "v": 0}}, {"type": "Feature", "geometry": {"type": "Point", "coordinates": [69.341, 22.106]}, "properties": {"name": "", "v": 0}}, {"type": "Feature", "geometry": {"type": "Point", "coordinates": [77.072, 28.59]}, "properties": {"name": "", "v": 0}}, {"type": "Feature", "geometry": {"type": "Point", "coordinates": [77.17, 28.589]}, "properties": {"name": "Auxiliary Substation Room", "v": 0}}, {"type": "Feature", "geometry": {"type": "Point", "coordinates": [77.183, 28.639]}, "properties": {"name": "", "v": 0}}, {"type": "Feature", "geometry": {"type": "Point", "coordinates": [77.204, 28.685]}, "properties": {"name": "", "v": 0}}, {"type": "Feature", "geometry": {"type": "Point", "coordinates": [77.215, 28.692]}, "properties": {"name": "", "v": 0}}, {"type": "Feature", "geometry": {"type": "Point", "coordinates": [77.215, 28.688]}, "properties": {"name": "", "v": 0}}, {"type": "Feature", "geometry": {"type": "Point", "coordinates": [77.215, 28.688]}, "properties": {"name": "", "v": 0}}, {"type": "Feature", "geometry": {"type": "Point", "coordinates": [77.224, 28.657]}, "properties": {"name": "", "v": 0}}, {"type": "Feature", "geometry": {"type": "Point", "coordinates": [77.224, 28.657]}, "properties": {"name": "", "v": 0}}, {"type": "Feature", "geometry": {"type": "Point", "coordinates": [77.225, 28.657]}, "properties": {"name": "", "v": 0}}, {"type": "Feature", "geometry": {"type": "Point", "coordinates": [77.225, 28.657]}, "properties": {"name": "", "v": 0}}, {"type": "Feature", "geometry": {"type": "Point", "coordinates": [77.225, 28.657]}, "properties": {"name": "", "v": 0}}, {"type": "Feature", "geometry": {"type": "Point", "coordinates": [77.225, 28.657]}, "properties": {"name": "", "v": 0}}, {"type": "Feature", "geometry": {"type": "Point", "coordinates": [77.226, 28.657]}, "properties": {"name": "", "v": 0}}, {"type": "Feature", "geometry": {"type": "Point", "coordinates": [77.226, 28.657]}, "properties": {"name": "", "v": 0}}, {"type": "Feature", "geometry": {"type": "Point", "coordinates": [77.226, 28.657]}, "properties": {"name": "", "v": 0}}, {"type": "Feature", "geometry": {"type": "Point", "coordinates": [77.227, 28.656]}, "properties": {"name": "", "v": 0}}, {"type": "Feature", "geometry": {"type": "Point", "coordinates": [77.227, 28.656]}, "properties": {"name": "", "v": 0}}, {"type": "Feature", "geometry": {"type": "Point", "coordinates": [77.228, 28.656]}, "properties": {"name": "", "v": 0}}, {"type": "Feature", "geometry": {"type": "Point", "coordinates": [77.23, 28.656]}, "properties": {"name": "", "v": 0}}, {"type": "Feature", "geometry": {"type": "Point", "coordinates": [77.23, 28.656]}, "properties": {"name": "", "v": 0}}, {"type": "Feature", "geometry": {"type": "Point", "coordinates": [77.231, 28.656]}, "properties": {"name": "", "v": 0}}, {"type": "Feature", "geometry": {"type": "Point", "coordinates": [77.246, 28.568]}, "properties": {"name": "", "v": 0}}, {"type": "Feature", "geometry": {"type": "Point", "coordinates": [77.246, 28.568]}, "properties": {"name": "", "v": 0}}, {"type": "Feature", "geometry": {"type": "Point", "coordinates": [77.317, 28.65]}, "properties": {"name": "Anand Vihar Terminal Electric Substation", "v": 0}}, {"type": "Feature", "geometry": {"type": "Point", "coordinates": [77.319, 28.641]}, "properties": {"name": "", "v": 0}}, {"type": "Feature", "geometry": {"type": "Point", "coordinates": [77.378, 28.676]}, "properties": {"name": "", "v": 0}}, {"type": "Feature", "geometry": {"type": "Point", "coordinates": [77.38, 28.675]}, "properties": {"name": "", "v": 0}}, {"type": "Feature", "geometry": {"type": "Point", "coordinates": [77.38, 28.676]}, "properties": {"name": "", "v": 0}}, {"type": "Feature", "geometry": {"type": "Point", "coordinates": [79.098, 28.1]}, "properties": {"name": "", "v": 0}}, {"type": "Feature", "geometry": {"type": "Point", "coordinates": [79.465, 29.21]}, "properties": {"name": "", "v": 0}}, {"type": "Feature", "geometry": {"type": "Point", "coordinates": [77.228, 28.656]}, "properties": {"name": "", "v": 0}}, {"type": "Feature", "geometry": {"type": "Point", "coordinates": [77.23, 28.656]}, "properties": {"name": "", "v": 0}}, {"type": "Feature", "geometry": {"type": "Point", "coordinates": [77.212, 28.684]}, "properties": {"name": "", "v": 0}}, {"type": "Feature", "geometry": {"type": "Point", "coordinates": [77.209, 28.689]}, "properties": {"name": "", "v": 0}}, {"type": "Feature", "geometry": {"type": "Point", "coordinates": [77.323, 28.603]}, "properties": {"name": "", "v": 0}}, {"type": "Feature", "geometry": {"type": "Point", "coordinates": [78.267, 21.478]}, "properties": {"name": "", "v": 0}}, {"type": "Feature", "geometry": {"type": "Point", "coordinates": [79.52, 18.745]}, "properties": {"name": "Electrical Substation", "v": 0}}, {"type": "Feature", "geometry": {"type": "Point", "coordinates": [80.69, 20.092]}, "properties": {"name": "CSPDCL Kapsi", "v": 0}}, {"type": "Feature", "geometry": {"type": "Point", "coordinates": [84.926, 22.228]}, "properties": {"name": "", "v": 0}}, {"type": "Feature", "geometry": {"type": "Point", "coordinates": [86.19, 22.808]}, "properties": {"name": "", "v": 0}}, {"type": "Feature", "geometry": {"type": "Point", "coordinates": [86.215, 22.765]}, "properties": {"name": "Loco Power Station", "v": 0}}, {"type": "Feature", "geometry": {"type": "Point", "coordinates": [86.932, 21.497]}, "properties": {"name": "33/11KV Sub-Station(Under IPDS) Kali Mandir", "v": 0}}, {"type": "Feature", "geometry": {"type": "Point", "coordinates": [88.413, 22.945]}, "properties": {"name": "GANGA ACTION PLANT", "v": 0}}, {"type": "Feature", "geometry": {"type": "Point", "coordinates": [88.45, 22.58]}, "properties": {"name": "HIDCO Sub Station", "v": 0}}, {"type": "Feature", "geometry": {"type": "Point", "coordinates": [88.626, 24.365]}, "properties": {"name": "", "v": 0}}, {"type": "Feature", "geometry": {"type": "Point", "coordinates": [88.659, 23.78]}, "properties": {"name": "\u09ae\u09c7\u09b9\u09c7\u09b0\u09aa\u09c1\u09b0 \u09aa\u09b2\u09cd\u09b2\u09c0 \u09ac\u09bf\u09a6\u09cd\u09af\u09c1\u09ce \u09b8\u09ae\u09bf\u09a4\u09bf", "v": 0}}, {"type": "Feature", "geometry": {"type": "Point", "coordinates": [88.661, 22.947]}, "properties": {"name": "Nagarukhra 33/11 kv", "v": 0}}, {"type": "Feature", "geometry": {"type": "Point", "coordinates": [89.219, 24.37]}, "properties": {"name": "", "v": 0}}, {"type": "Feature", "geometry": {"type": "Point", "coordinates": [89.846, 24.383]}, "properties": {"name": "", "v": 0}}, {"type": "Feature", "geometry": {"type": "Point", "coordinates": [91.789, 22.335]}, "properties": {"name": "PC POOL", "v": 0}}, {"type": "Feature", "geometry": {"type": "Point", "coordinates": [91.971, 22.464]}, "properties": {"name": "CUET Sub-station", "v": 0}}, {"type": "Feature", "geometry": {"type": "Point", "coordinates": [91.125, 23.165]}, "properties": {"name": "\u0995\u09c1\u09ae\u09bf\u09b2\u09cd\u09b2\u09be \u09aa\u09ac\u09bf\u09b8-\u09ea (\u09ae\u09a8\u09cb\u09b9\u09b0\u0997\u099e\u09cd\u099c-\u09e8, \u0996\u09bf\u09b2\u09be)", "v": 0}}, {"type": "Feature", "geometry": {"type": "Point", "coordinates": [90.497, 23.549]}, "properties": {"name": "Munshiganj Palli Biddyut Samity", "v": 0}}, {"type": "Feature", "geometry": {"type": "Point", "coordinates": [90.386, 23.727]}, "properties": {"name": "Azimpur Power Substation", "v": 0}}, {"type": "Feature", "geometry": {"type": "Point", "coordinates": [90.99, 23.725]}, "properties": {"name": "", "v": 0}}, {"type": "Feature", "geometry": {"type": "Point", "coordinates": [91.183, 22.838]}, "properties": {"name": "Kabirhat power sub-station", "v": 0}}, {"type": "Feature", "geometry": {"type": "Point", "coordinates": [90.275, 23.948]}, "properties": {"name": "New DEPZ Power Substation", "v": 0}}, {"type": "Feature", "geometry": {"type": "Point", "coordinates": [90.273, 23.947]}, "properties": {"name": "DEPZ Substation", "v": 0}}, {"type": "Feature", "geometry": {"type": "Point", "coordinates": [90.417, 24.037]}, "properties": {"name": "BOF Substation", "v": 0}}, {"type": "Feature", "geometry": {"type": "Point", "coordinates": [90.415, 23.846]}, "properties": {"name": "PDB Power Station", "v": 0}}, {"type": "Feature", "geometry": {"type": "Point", "coordinates": [77.795, 20.937]}, "properties": {"name": "33kV Wadali Substation", "v": 0}}, {"type": "Feature", "geometry": {"type": "Point", "coordinates": [85.04, 25.558]}, "properties": {"name": "", "v": 0}}, {"type": "Feature", "geometry": {"type": "Point", "coordinates": [85.041, 25.561]}, "properties": {"name": "", "v": 0}}, {"type": "Feature", "geometry": {"type": "Point", "coordinates": [85.045, 25.56]}, "properties": {"name": "", "v": 0}}, {"type": "Feature", "geometry": {"type": "Point", "coordinates": [85.309, 27.656]}, "properties": {"name": "", "v": 0}}, {"type": "Feature", "geometry": {"type": "Point", "coordinates": [85.322, 27.679]}, "properties": {"name": "", "v": 0}}, {"type": "Feature", "geometry": {"type": "Point", "coordinates": [85.345, 27.717]}, "properties": {"name": "", "v": 0}}, {"type": "Feature", "geometry": {"type": "Point", "coordinates": [87.769, 27.148]}, "properties": {"name": "Phidim Substation", "v": 0}}, {"type": "Feature", "geometry": {"type": "Point", "coordinates": [88.984, 25.442]}, "properties": {"name": "", "v": 0}}, {"type": "Feature", "geometry": {"type": "Point", "coordinates": [88.994, 25.368]}, "properties": {"name": "", "v": 0}}, {"type": "Feature", "geometry": {"type": "Point", "coordinates": [89.416, 27.428]}, "properties": {"name": "Sub station", "v": 0}}, {"type": "Feature", "geometry": {"type": "Point", "coordinates": [89.636, 27.477]}, "properties": {"name": "Electric Distribution Box", "v": 0}}, {"type": "Feature", "geometry": {"type": "Point", "coordinates": [89.637, 27.467]}, "properties": {"name": "", "v": 0}}, {"type": "Feature", "geometry": {"type": "Point", "coordinates": [90.554, 27.367]}, "properties": {"name": "Yuendrocholing BPC Substation", "v": 0}}, {"type": "Feature", "geometry": {"type": "Point", "coordinates": [80.238, 26.481]}, "properties": {"name": "Electrical Substation", "v": 0}}, {"type": "Feature", "geometry": {"type": "Point", "coordinates": [80.649, 29.682]}, "properties": {"name": "\u091a\u092e\u0947\u0932\u093f\u092f\u093e \u0939\u093e\u0907\u0921\u094d\u0930\u094b\u092a\u093e\u0935\u0930 (\u0969\u0966 \u092e\u0947.\u0935\u093e.)", "v": 0}}, {"type": "Feature", "geometry": {"type": "Point", "coordinates": [81.748, 25.449]}, "properties": {"name": "", "v": 0}}, {"type": "Feature", "geometry": {"type": "Point", "coordinates": [82.301, 28.133]}, "properties": {"name": "", "v": 0}}, {"type": "Feature", "geometry": {"type": "Point", "coordinates": [82.975, 25.301]}, "properties": {"name": "", "v": 0}}, {"type": "Feature", "geometry": {"type": "Point", "coordinates": [83.092, 27.679]}, "properties": {"name": "Motipur", "v": 0}}, {"type": "Feature", "geometry": {"type": "Point", "coordinates": [83.275, 27.703]}, "properties": {"name": "Bidhut Sub station", "v": 0}}, {"type": "Feature", "geometry": {"type": "Point", "coordinates": [83.339, 27.686]}, "properties": {"name": "Electricity Office", "v": 0}}, {"type": "Feature", "geometry": {"type": "Point", "coordinates": [83.51, 27.585]}, "properties": {"name": "\u092d\u0930\u094c\u0932\u093f\u092f\u093e \u0938\u092c-\u0938\u094d\u091f\u0947\u0936\u0928 \u0928\u092f\u093e\u0901\u092e\u093f\u0932 \u0935\u093f\u0924\u0930\u0923 \u0915\u0947\u0928\u094d\u0926\u094d\u0930", "v": 0}}, {"type": "Feature", "geometry": {"type": "Point", "coordinates": [83.984, 28.159]}, "properties": {"name": "Nepal Electricity Authority Pokhara Branch", "v": 0}}, {"type": "Feature", "geometry": {"type": "Point", "coordinates": [84.081, 28.027]}, "properties": {"name": "NEA Bidhut Office", "v": 0}}, {"type": "Feature", "geometry": {"type": "Point", "coordinates": [84.337, 28.539]}, "properties": {"name": "", "v": 0}}, {"type": "Feature", "geometry": {"type": "Point", "coordinates": [84.456, 26.333]}, "properties": {"name": "", "v": 0}}, {"type": "Feature", "geometry": {"type": "Point", "coordinates": [84.456, 26.315]}, "properties": {"name": "", "v": 0}}, {"type": "Feature", "geometry": {"type": "Point", "coordinates": [84.531, 28.069]}, "properties": {"name": "", "v": 0}}, {"type": "Feature", "geometry": {"type": "Point", "coordinates": [84.532, 28.271]}, "properties": {"name": "Super Dordi Transformer", "v": 0}}, {"type": "Feature", "geometry": {"type": "Point", "coordinates": [84.633, 28.003]}, "properties": {"name": "", "v": 0}}, {"type": "Feature", "geometry": {"type": "Point", "coordinates": [84.459, 26.311]}, "properties": {"name": "", "v": 0}}, {"type": "Feature", "geometry": {"type": "Point", "coordinates": [67.649, 36.738]}, "properties": {"name": "", "v": 0}}, {"type": "Feature", "geometry": {"type": "Point", "coordinates": [70.827, 38.455]}, "properties": {"name": "", "v": 0}}, {"type": "Feature", "geometry": {"type": "Point", "coordinates": [70.825, 38.467]}, "properties": {"name": "", "v": 0}}, {"type": "Feature", "geometry": {"type": "Point", "coordinates": [71.796, 36.001]}, "properties": {"name": "", "v": 0}}, {"type": "Feature", "geometry": {"type": "Point", "coordinates": [71.81, 35.903]}, "properties": {"name": "", "v": 0}}, {"type": "Feature", "geometry": {"type": "Point", "coordinates": [71.938, 35.938]}, "properties": {"name": "Powre Station", "v": 0}}, {"type": "Feature", "geometry": {"type": "Point", "coordinates": [71.962, 35.959]}, "properties": {"name": "Powre Station", "v": 0}}, {"type": "Feature", "geometry": {"type": "Point", "coordinates": [72.208, 36.393]}, "properties": {"name": "", "v": 0}}, {"type": "Feature", "geometry": {"type": "Point", "coordinates": [72.363, 36.263]}, "properties": {"name": "Power Station", "v": 0}}, {"type": "Feature", "geometry": {"type": "Point", "coordinates": [72.507, 36.244]}, "properties": {"name": "Power Station", "v": 0}}, {"type": "Feature", "geometry": {"type": "Point", "coordinates": [72.872, 34.917]}, "properties": {"name": "", "v": 0}}, {"type": "Feature", "geometry": {"type": "Point", "coordinates": [72.435, 36.483]}, "properties": {"name": "Power Station", "v": 0}}, {"type": "Feature", "geometry": {"type": "Point", "coordinates": [72.42, 36.471]}, "properties": {"name": "Power Station", "v": 0}}, {"type": "Feature", "geometry": {"type": "Point", "coordinates": [72.65, 36.405]}, "properties": {"name": "Power Station", "v": 0}}, {"type": "Feature", "geometry": {"type": "Point", "coordinates": [72.435, 36.481]}, "properties": {"name": "Power Station", "v": 0}}, {"type": "Feature", "geometry": {"type": "Point", "coordinates": [71.319, 37.911]}, "properties": {"name": "", "v": 0}}, {"type": "Feature", "geometry": {"type": "Point", "coordinates": [71.385, 37.913]}, "properties": {"name": "", "v": 0}}, {"type": "Feature", "geometry": {"type": "Point", "coordinates": [71.386, 37.918]}, "properties": {"name": "", "v": 0}}, {"type": "Feature", "geometry": {"type": "Point", "coordinates": [71.418, 37.922]}, "properties": {"name": "", "v": 0}}, {"type": "Feature", "geometry": {"type": "Point", "coordinates": [71.418, 37.923]}, "properties": {"name": "", "v": 0}}, {"type": "Feature", "geometry": {"type": "Point", "coordinates": [71.308, 37.924]}, "properties": {"name": "", "v": 0}}, {"type": "Feature", "geometry": {"type": "Point", "coordinates": [71.431, 37.925]}, "properties": {"name": "", "v": 0}}, {"type": "Feature", "geometry": {"type": "Point", "coordinates": [71.426, 37.926]}, "properties": {"name": "", "v": 0}}, {"type": "Feature", "geometry": {"type": "Point", "coordinates": [71.433, 37.927]}, "properties": {"name": "", "v": 0}}, {"type": "Feature", "geometry": {"type": "Point", "coordinates": [71.429, 37.928]}, "properties": {"name": "", "v": 0}}, {"type": "Feature", "geometry": {"type": "Point", "coordinates": [71.256, 37.928]}, "properties": {"name": "", "v": 0}}, {"type": "Feature", "geometry": {"type": "Point", "coordinates": [71.436, 37.928]}, "properties": {"name": "", "v": 0}}, {"type": "Feature", "geometry": {"type": "Point", "coordinates": [71.442, 37.933]}, "properties": {"name": "", "v": 0}}, {"type": "Feature", "geometry": {"type": "Point", "coordinates": [71.448, 37.935]}, "properties": {"name": "", "v": 0}}, {"type": "Feature", "geometry": {"type": "Point", "coordinates": [71.455, 37.936]}, "properties": {"name": "", "v": 0}}, {"type": "Feature", "geometry": {"type": "Point", "coordinates": [71.456, 37.937]}, "properties": {"name": "", "v": 0}}, {"type": "Feature", "geometry": {"type": "Point", "coordinates": [71.459, 37.937]}, "properties": {"name": "", "v": 0}}, {"type": "Feature", "geometry": {"type": "Point", "coordinates": [71.452, 37.937]}, "properties": {"name": "", "v": 0}}, {"type": "Feature", "geometry": {"type": "Point", "coordinates": [71.276, 37.96]}, "properties": {"name": "", "v": 0}}, {"type": "Feature", "geometry": {"type": "Point", "coordinates": [71.325, 36.091]}, "properties": {"name": "Power Station", "v": 0}}, {"type": "Feature", "geometry": {"type": "Point", "coordinates": [71.627, 36.005]}, "properties": {"name": "Power Hause", "v": 0}}, {"type": "Feature", "geometry": {"type": "Point", "coordinates": [71.265, 37.951]}, "properties": {"name": "\u0417\u0435\u0440\u0438\u0441\u0442\u0433\u043e\u04b3\u0438 35/10\u043a\u0412-\u0438 \"\u0412\u043e\u0437\u043d\u0430\u0432\u0434\"", "v": 0}}, {"type": "Feature", "geometry": {"type": "Point", "coordinates": [80.696, 6.145]}, "properties": {"name": "", "v": 0}}, {"type": "Feature", "geometry": {"type": "Point", "coordinates": [79.875, 6.845]}, "properties": {"name": "", "v": 0}}, {"type": "Feature", "geometry": {"type": "Point", "coordinates": [79.878, 6.846]}, "properties": {"name": "", "v": 0}}, {"type": "Feature", "geometry": {"type": "Point", "coordinates": [80.064, 6.711]}, "properties": {"name": "Horana", "v": 0}}, {"type": "Feature", "geometry": {"type": "Point", "coordinates": [80.075, 6.721]}, "properties": {"name": "HR007", "v": 0}}, {"type": "Feature", "geometry": {"type": "Point", "coordinates": [79.864, 6.895]}, "properties": {"name": "", "v": 0}}, {"type": "Feature", "geometry": {"type": "Point", "coordinates": [79.872, 6.889]}, "properties": {"name": "", "v": 0}}, {"type": "Feature", "geometry": {"type": "Point", "coordinates": [79.916, 6.864]}, "properties": {"name": "Jaya Road Electric Substation", "v": 0}}, {"type": "Feature", "geometry": {"type": "Point", "coordinates": [77.44, 8.182]}, "properties": {"name": "110/11 KV Meenakshipuram SS", "v": 0}}, {"type": "Feature", "geometry": {"type": "Point", "coordinates": [77.416, 8.328]}, "properties": {"name": "", "v": 0}}, {"type": "Feature", "geometry": {"type": "Point", "coordinates": [77.667, 8.739]}, "properties": {"name": "TNEB Substation", "v": 0}}, {"type": "Feature", "geometry": {"type": "Point", "coordinates": [76.882, 8.779]}, "properties": {"name": "", "v": 0}}, {"type": "Feature", "geometry": {"type": "Point", "coordinates": [76.945, 8.825]}, "properties": {"name": "", "v": 0}}, {"type": "Feature", "geometry": {"type": "Point", "coordinates": [76.91, 8.938]}, "properties": {"name": "", "v": 0}}, {"type": "Feature", "geometry": {"type": "Point", "coordinates": [76.61, 8.947]}, "properties": {"name": "", "v": 0}}, {"type": "Feature", "geometry": {"type": "Point", "coordinates": [76.779, 8.999]}, "properties": {"name": "KSEB 110 KV Substation", "v": 0}}, {"type": "Feature", "geometry": {"type": "Point", "coordinates": [76.724, 9.039]}, "properties": {"name": "", "v": 0}}, {"type": "Feature", "geometry": {"type": "Point", "coordinates": [76.769, 9.145]}, "properties": {"name": "", "v": 0}}, {"type": "Feature", "geometry": {"type": "Point", "coordinates": [76.578, 9.175]}, "properties": {"name": "", "v": 0}}, {"type": "Feature", "geometry": {"type": "Point", "coordinates": [78.689, 10.832]}, "properties": {"name": "", "v": 0}}, {"type": "Feature", "geometry": {"type": "Point", "coordinates": [78.693, 10.787]}, "properties": {"name": "", "v": 0}}, {"type": "Feature", "geometry": {"type": "Point", "coordinates": [78.99, 14.996]}, "properties": {"name": "Substation Power", "v": 0}}, {"type": "Feature", "geometry": {"type": "Point", "coordinates": [79.075, 14.323]}, "properties": {"name": "Electrical Sub Station", "v": 0}}, {"type": "Feature", "geometry": {"type": "Point", "coordinates": [79.212, 14.322]}, "properties": {"name": "", "v": 0}}, {"type": "Feature", "geometry": {"type": "Point", "coordinates": [79.541, 14.683]}, "properties": {"name": "Karatampadu sub station", "v": 0}}, {"type": "Feature", "geometry": {"type": "Point", "coordinates": [79.589, 13.692]}, "properties": {"name": "", "v": 0}}, {"type": "Feature", "geometry": {"type": "Point", "coordinates": [79.932, 14.13]}, "properties": {"name": "33/11 kv Substation Thippguntapalem", "v": 0}}, {"type": "Feature", "geometry": {"type": "Point", "coordinates": [80.067, 14.684]}, "properties": {"name": "APTRANSCO 132/33KV Sub-Station, Allur", "v": 0}}, {"type": "Feature", "geometry": {"type": "Point", "coordinates": [80.143, 14.432]}, "properties": {"name": "33KV/11KV Sub Station", "v": 0}}, {"type": "Feature", "geometry": {"type": "Point", "coordinates": [80.15, 13.298]}, "properties": {"name": "Panjetty substation", "v": 0}}, {"type": "Feature", "geometry": {"type": "Point", "coordinates": [80.201, 13.059]}, "properties": {"name": "", "v": 0}}, {"type": "Feature", "geometry": {"type": "Point", "coordinates": [80.249, 13.006]}, "properties": {"name": "", "v": 0}}, {"type": "Feature", "geometry": {"type": "Point", "coordinates": [80.256, 13.0]}, "properties": {"name": "", "v": 0}}, {"type": "Feature", "geometry": {"type": "Point", "coordinates": [80.466, 8.773]}, "properties": {"name": "", "v": 0}}, {"type": "Feature", "geometry": {"type": "Point", "coordinates": [78.99, 14.996]}, "properties": {"name": "Substation", "v": 0}}, {"type": "Feature", "geometry": {"type": "Point", "coordinates": [79.94, 15.208]}, "properties": {"name": "220/132kv substation kandukur", "v": 0}}, {"type": "Feature", "geometry": {"type": "Point", "coordinates": [79.828, 15.805]}, "properties": {"name": "Sub station", "v": 0}}, {"type": "Feature", "geometry": {"type": "Point", "coordinates": [79.099, 16.679]}, "properties": {"name": "Power substation", "v": 0}}, {"type": "Feature", "geometry": {"type": "Point", "coordinates": [79.721, 16.415]}, "properties": {"name": "132/33 Kv Substation", "v": 0}}, {"type": "Feature", "geometry": {"type": "Point", "coordinates": [80.608, 16.243]}, "properties": {"name": "Angalakuduru Substation", "v": 0}}, {"type": "Feature", "geometry": {"type": "Point", "coordinates": [78.528, 12.273]}, "properties": {"name": "", "v": 0}}, {"type": "Feature", "geometry": {"type": "Point", "coordinates": [76.016, 10.594]}, "properties": {"name": "KSEB Substation", "v": 0}}, {"type": "Feature", "geometry": {"type": "Point", "coordinates": [76.028, 10.556]}, "properties": {"name": "Kseb 33kv containerised substation  Blangad", "v": 0}}, {"type": "Feature", "geometry": {"type": "Point", "coordinates": [76.059, 10.6]}, "properties": {"name": "110KV Substation", "v": 0}}, {"type": "Feature", "geometry": {"type": "Point", "coordinates": [76.152, 10.271]}, "properties": {"name": "", "v": 0}}, {"type": "Feature", "geometry": {"type": "Point", "coordinates": [76.159, 10.425]}, "properties": {"name": "", "v": 0}}, {"type": "Feature", "geometry": {"type": "Point", "coordinates": [76.205, 10.441]}, "properties": {"name": "", "v": 0}}, {"type": "Feature", "geometry": {"type": "Point", "coordinates": [76.212, 10.227]}, "properties": {"name": "Kseb office", "v": 0}}, {"type": "Feature", "geometry": {"type": "Point", "coordinates": [76.214, 10.535]}, "properties": {"name": "", "v": 0}}, {"type": "Feature", "geometry": {"type": "Point", "coordinates": [76.222, 10.485]}, "properties": {"name": "", "v": 0}}, {"type": "Feature", "geometry": {"type": "Point", "coordinates": [76.27, 9.856]}, "properties": {"name": "", "v": 0}}, {"type": "Feature", "geometry": {"type": "Point", "coordinates": [76.291, 9.956]}, "properties": {"name": "Kerala State Electricity Board 66Kv Substation", "v": 0}}, {"type": "Feature", "geometry": {"type": "Point", "coordinates": [76.345, 10.014]}, "properties": {"name": "11KV substation ( VSNL)", "v": 0}}, {"type": "Feature", "geometry": {"type": "Point", "coordinates": [76.345, 10.015]}, "properties": {"name": "power house", "v": 0}}, {"type": "Feature", "geometry": {"type": "Point", "coordinates": [76.37, 10.183]}, "properties": {"name": "Kerala State Electricity Board Central Store", "v": 0}}, {"type": "Feature", "geometry": {"type": "Point", "coordinates": [76.413, 9.762]}, "properties": {"name": "", "v": 0}}, {"type": "Feature", "geometry": {"type": "Point", "coordinates": [76.431, 10.774]}, "properties": {"name": "Kerala State Electricity Board", "v": 0}}, {"type": "Feature", "geometry": {"type": "Point", "coordinates": [76.454, 9.977]}, "properties": {"name": "", "v": 0}}, {"type": "Feature", "geometry": {"type": "Point", "coordinates": [76.482, 9.757]}, "properties": {"name": "", "v": 0}}, {"type": "Feature", "geometry": {"type": "Point", "coordinates": [76.518, 10.114]}, "properties": {"name": "", "v": 0}}, {"type": "Feature", "geometry": {"type": "Point", "coordinates": [76.525, 9.632]}, "properties": {"name": "KSEB Sub Division Office", "v": 0}}, {"type": "Feature", "geometry": {"type": "Point", "coordinates": [76.544, 9.407]}, "properties": {"name": "", "v": 0}}, {"type": "Feature", "geometry": {"type": "Point", "coordinates": [76.556, 9.689]}, "properties": {"name": "", "v": 0}}, {"type": "Feature", "geometry": {"type": "Point", "coordinates": [76.556, 10.083]}, "properties": {"name": "Substation Odakkali", "v": 0}}, {"type": "Feature", "geometry": {"type": "Point", "coordinates": [76.575, 9.409]}, "properties": {"name": "66 kv substation, Chumathra", "v": 0}}, {"type": "Feature", "geometry": {"type": "Point", "coordinates": [76.575, 9.409]}, "properties": {"name": "66 kv substation, Chumathra", "v": 0}}, {"type": "Feature", "geometry": {"type": "Point", "coordinates": [76.584, 9.385]}, "properties": {"name": "KSEB 110kv Substation, Thiruvalla", "v": 0}}, {"type": "Feature", "geometry": {"type": "Point", "coordinates": [76.611, 9.699]}, "properties": {"name": "KSEB 33KV Substation Kidangoor", "v": 0}}, {"type": "Feature", "geometry": {"type": "Point", "coordinates": [76.612, 9.851]}, "properties": {"name": "", "v": 0}}, {"type": "Feature", "geometry": {"type": "Point", "coordinates": [76.615, 10.054]}, "properties": {"name": "", "v": 0}}, {"type": "Feature", "geometry": {"type": "Point", "coordinates": [76.654, 9.966]}, "properties": {"name": "", "v": 0}}, {"type": "Feature", "geometry": {"type": "Point", "coordinates": [76.657, 9.367]}, "properties": {"name": "", "v": 0}}, {"type": "Feature", "geometry": {"type": "Point", "coordinates": [76.708, 10.683]}, "properties": {"name": "K.S.E.B", "v": 0}}, {"type": "Feature", "geometry": {"type": "Point", "coordinates": [76.723, 9.659]}, "properties": {"name": "", "v": 0}}, {"type": "Feature", "geometry": {"type": "Point", "coordinates": [76.208, 10.515]}, "properties": {"name": "Substation", "v": 0}}, {"type": "Feature", "geometry": {"type": "Point", "coordinates": [76.563, 10.799]}, "properties": {"name": "KSEB", "v": 0}}, {"type": "Feature", "geometry": {"type": "Point", "coordinates": [76.987, 11.014]}, "properties": {"name": "", "v": 0}}, {"type": "Feature", "geometry": {"type": "Point", "coordinates": [77.152, 11.028]}, "properties": {"name": "TNEB office", "v": 0}}, {"type": "Feature", "geometry": {"type": "Point", "coordinates": [75.946, 11.048]}, "properties": {"name": "", "v": 0}}, {"type": "Feature", "geometry": {"type": "Point", "coordinates": [75.809, 11.207]}, "properties": {"name": "KSEB Sub-Station, Nallalam", "v": 0}}, {"type": "Feature", "geometry": {"type": "Point", "coordinates": [75.854, 11.269]}, "properties": {"name": "", "v": 0}}, {"type": "Feature", "geometry": {"type": "Point", "coordinates": [75.489, 11.812]}, "properties": {"name": "110KV KSEB Sub Station", "v": 0}}, {"type": "Feature", "geometry": {"type": "Point", "coordinates": [76.005, 11.271]}, "properties": {"name": "KSEB Office,Pannikode", "v": 0}}, {"type": "Feature", "geometry": {"type": "Point", "coordinates": [76.255, 11.674]}, "properties": {"name": "KSEB substation", "v": 0}}, {"type": "Feature", "geometry": {"type": "Point", "coordinates": [78.232, 11.67]}, "properties": {"name": "Ayodhiyapattanam EB Office", "v": 0}}, {"type": "Feature", "geometry": {"type": "Point", "coordinates": [77.613, 12.893]}, "properties": {"name": "", "v": 0}}, {"type": "Feature", "geometry": {"type": "Point", "coordinates": [77.621, 12.899]}, "properties": {"name": "", "v": 0}}, {"type": "Feature", "geometry": {"type": "Point", "coordinates": [77.575, 13.012]}, "properties": {"name": "", "v": 0}}, {"type": "Feature", "geometry": {"type": "Point", "coordinates": [78.23, 15.304]}, "properties": {"name": "Sub-Station", "v": 0}}, {"type": "Feature", "geometry": {"type": "Point", "coordinates": [77.996, 16.765]}, "properties": {"name": "", "v": 0}}, {"type": "Feature", "geometry": {"type": "Point", "coordinates": [76.817, 10.738]}, "properties": {"name": "Kerala State Electricity Board, Nattukal", "v": 0}}, {"type": "Feature", "geometry": {"type": "Point", "coordinates": [77.328, 16.412]}, "properties": {"name": "", "v": 0}}, {"type": "Feature", "geometry": {"type": "Point", "coordinates": [77.645, 12.981]}, "properties": {"name": "", "v": 0}}, {"type": "Feature", "geometry": {"type": "Point", "coordinates": [78.016, 16.752]}, "properties": {"name": "", "v": 0}}, {"type": "Feature", "geometry": {"type": "Point", "coordinates": [76.471, 10.999]}, "properties": {"name": "KSEB mannarkad substation", "v": 0}}, {"type": "Feature", "geometry": {"type": "Point", "coordinates": [76.342, 11.016]}, "properties": {"name": "KSEB Section Office, Alanallur", "v": 0}}, {"type": "Feature", "geometry": {"type": "Point", "coordinates": [75.87, 11.04]}, "properties": {"name": "Parappanangadi Substation", "v": 0}}, {"type": "Feature", "geometry": {"type": "Point", "coordinates": [76.333, 11.119]}, "properties": {"name": "", "v": 0}}, {"type": "Feature", "geometry": {"type": "Point", "coordinates": [75.817, 11.231]}, "properties": {"name": "", "v": 0}}, {"type": "Feature", "geometry": {"type": "Point", "coordinates": [75.805, 11.237]}, "properties": {"name": "Kerala State Electricity Board", "v": 0}}, {"type": "Feature", "geometry": {"type": "Point", "coordinates": [76.047, 11.247]}, "properties": {"name": "", "v": 0}}, {"type": "Feature", "geometry": {"type": "Point", "coordinates": [75.759, 11.311]}, "properties": {"name": "KSEB Office", "v": 0}}, {"type": "Feature", "geometry": {"type": "Point", "coordinates": [75.934, 11.32]}, "properties": {"name": "", "v": 0}}, {"type": "Feature", "geometry": {"type": "Point", "coordinates": [75.216, 12.13]}, "properties": {"name": "KSEB Office Vellur", "v": 0}}, {"type": "Feature", "geometry": {"type": "Point", "coordinates": [75.189, 12.267]}, "properties": {"name": "", "v": 0}}, {"type": "Feature", "geometry": {"type": "Point", "coordinates": [75.096, 12.311]}, "properties": {"name": "KSEB Kanjangad", "v": 0}}, {"type": "Feature", "geometry": {"type": "Point", "coordinates": [75.379, 11.986]}, "properties": {"name": "KSEB Ex.Engineer;s Office", "v": 0}}, {"type": "Feature", "geometry": {"type": "Point", "coordinates": [75.456, 12.199]}, "properties": {"name": "", "v": 0}}, {"type": "Feature", "geometry": {"type": "Point", "coordinates": [76.064, 11.635]}, "properties": {"name": "Substation KSEB", "v": 0}}, {"type": "Feature", "geometry": {"type": "Point", "coordinates": [76.266, 11.664]}, "properties": {"name": "KSEB Substation", "v": 0}}, {"type": "Feature", "geometry": {"type": "Point", "coordinates": [77.562, 12.887]}, "properties": {"name": "", "v": 0}}, {"type": "Feature", "geometry": {"type": "Point", "coordinates": [77.62, 12.9]}, "properties": {"name": "", "v": 0}}, {"type": "Feature", "geometry": {"type": "Point", "coordinates": [77.624, 12.936]}, "properties": {"name": "", "v": 0}}, {"type": "Feature", "geometry": {"type": "Point", "coordinates": [77.695, 12.941]}, "properties": {"name": "", "v": 0}}, {"type": "Feature", "geometry": {"type": "Point", "coordinates": [77.595, 13.096]}, "properties": {"name": "", "v": 0}}, {"type": "Feature", "geometry": {"type": "Point", "coordinates": [77.549, 13.23]}, "properties": {"name": "Substation", "v": 0}}, {"type": "Feature", "geometry": {"type": "Point", "coordinates": [74.746, 14.323]}, "properties": {"name": "", "v": 0}}, {"type": "Feature", "geometry": {"type": "Point", "coordinates": [77.327, 16.414]}, "properties": {"name": "", "v": 0}}, {"type": "Feature", "geometry": {"type": "Point", "coordinates": [76.759, 10.774]}, "properties": {"name": "POWERGRID 400 KV SubStation Elappully Palakkad", "v": 0}}, {"type": "Feature", "geometry": {"type": "Point", "coordinates": [75.988, 10.852]}, "properties": {"name": "", "v": 0}}, {"type": "Feature", "geometry": {"type": "Point", "coordinates": [77.322, 11.065]}, "properties": {"name": "", "v": 0}}]}