{"type": "FeatureCollection", "features": [{"type": "Feature", "geometry": {"type": "Point", "coordinates": [-6.286, 53.356]}, "properties": {"name": "Grangegorman 110kV Substation", "v": 110000}}, {"type": "Feature", "geometry": {"type": "Point", "coordinates": [-2.029, 48.617]}, "properties": {"name": "Poste \u00e9lectrique de Rance (Usine mar\u00e9motrice)", "v": 225000}}, {"type": "Feature", "geometry": {"type": "Point", "coordinates": [-0.348, 39.456]}, "properties": {"name": "ST Alameda", "v": 220000}}, {"type": "Feature", "geometry": {"type": "Point", "coordinates": [-1.248, 41.519]}, "properties": {"name": "SET FV Calatayud I", "v": 132000}}, {"type": "Feature", "geometry": {"type": "Point", "coordinates": [1.078, 49.447]}, "properties": {"name": "Poste \u00e9lectrique de l\u2019H\u00f4tel Dieu", "v": 225000}}, {"type": "Feature", "geometry": {"type": "Point", "coordinates": [8.356, 46.29]}, "properties": {"name": "Cadarese", "v": 132000}}, {"type": "Feature", "geometry": {"type": "Point", "coordinates": [9.116, 46.237]}, "properties": {"name": "Sottostazione Sassello", "v": 110000}}, {"type": "Feature", "geometry": {"type": "Point", "coordinates": [10.151, 46.213]}, "properties": {"name": "", "v": 132000}}, {"type": "Feature", "geometry": {"type": "Point", "coordinates": [10.914, 46.623]}, "properties": {"name": "Castelbello TR4", "v": 132000}}, {"type": "Feature", "geometry": {"type": "Point", "coordinates": [25.789, 45.852]}, "properties": {"name": "", "v": 110000}}, {"type": "Feature", "geometry": {"type": "Point", "coordinates": [5.103, 43.673]}, "properties": {"name": "Projet Roquerousse 400 kV", "v": 400000}}, {"type": "Feature", "geometry": {"type": "Point", "coordinates": [20.412, 44.818]}, "properties": {"name": "\u0411\u0435\u043e\u0433\u0440\u0430\u0434 41", "v": 110000}}, {"type": "Feature", "geometry": {"type": "Point", "coordinates": [20.468, 44.803]}, "properties": {"name": "\u0411\u0435\u043e\u0433\u0440\u0430\u0434 15", "v": 110000}}, {"type": "Feature", "geometry": {"type": "Point", "coordinates": [1.579, 47.719]}, "properties": {"name": "", "v": 400000}}, {"type": "Feature", "geometry": {"type": "Point", "coordinates": [7.895, 47.313]}, "properties": {"name": "Unterwerk Rothrist", "v": 110000}}, {"type": "Feature", "geometry": {"type": "Point", "coordinates": [2.231, 48.65]}, "properties": {"name": "", "v": 225000}}, {"type": "Feature", "geometry": {"type": "Point", "coordinates": [3.393, 50.175]}, "properties": {"name": "", "v": 225000}}, {"type": "Feature", "geometry": {"type": "Point", "coordinates": [8.532, 47.387]}, "properties": {"name": "Unterwerk Letten", "v": 150000}}, {"type": "Feature", "geometry": {"type": "Point", "coordinates": [8.512, 47.389]}, "properties": {"name": "Unterwerk Herdern", "v": 150000}}, {"type": "Feature", "geometry": {"type": "Point", "coordinates": [13.047, 46.992]}, "properties": {"name": "", "v": 110000}}, {"type": "Feature", "geometry": {"type": "Point", "coordinates": [12.693, 50.253]}, "properties": {"name": "", "v": 110000}}, {"type": "Feature", "geometry": {"type": "Point", "coordinates": [14.299, 48.781]}, "properties": {"name": "", "v": 110000}}, {"type": "Feature", "geometry": {"type": "Point", "coordinates": [13.343, 46.895]}, "properties": {"name": "", "v": 220000}}, {"type": "Feature", "geometry": {"type": "Point", "coordinates": [13.353, 47.066]}, "properties": {"name": "", "v": 110000}}, {"type": "Feature", "geometry": {"type": "Point", "coordinates": [14.309, 48.282]}, "properties": {"name": "Umspannwerk Oberfelstra\u00dfe", "v": 110000}}, {"type": "Feature", "geometry": {"type": "Point", "coordinates": [15.6, 49.426]}, "properties": {"name": "Kronospan", "v": 110000}}, {"type": "Feature", "geometry": {"type": "Point", "coordinates": [16.615, 49.176]}, "properties": {"name": "Horn\u00ed Her\u0161pice", "v": 110000}}, {"type": "Feature", "geometry": {"type": "Point", "coordinates": [16.614, 49.199]}, "properties": {"name": "P\u0159\u00edkop", "v": 110000}}, {"type": "Feature", "geometry": {"type": "Point", "coordinates": [17.141, 48.158]}, "properties": {"name": "", "v": 420000}}, {"type": "Feature", "geometry": {"type": "Point", "coordinates": [17.171, 48.172]}, "properties": {"name": "", "v": 420000}}, {"type": "Feature", "geometry": {"type": "Point", "coordinates": [17.356, 48.684]}, "properties": {"name": "Rozvod\u0148a pp Tov\u00e1rensk\u00e1", "v": 110000}}, {"type": "Feature", "geometry": {"type": "Point", "coordinates": [8.833, 47.233]}, "properties": {"name": "Unterwerk Jona", "v": 110000}}, {"type": "Feature", "geometry": {"type": "Point", "coordinates": [11.495, 47.121]}, "properties": {"name": "Unterwerk Navis (BBT)", "v": 110000}}, {"type": "Feature", "geometry": {"type": "Point", "coordinates": [8.71, 49.413]}, "properties": {"name": "Umspannanlage Altstadt", "v": 110000}}, {"type": "Feature", "geometry": {"type": "Point", "coordinates": [10.874, 47.247]}, "properties": {"name": "Unterwerk \u00d6tztal", "v": 110000}}, {"type": "Feature", "geometry": {"type": "Point", "coordinates": [16.236, 48.2]}, "properties": {"name": "Unterwerk Auhof", "v": 110000}}, {"type": "Feature", "geometry": {"type": "Point", "coordinates": [10.475, 47.621]}, "properties": {"name": "Reichenbach Siedlung 2", "v": 150000}}, {"type": "Feature", "geometry": {"type": "Point", "coordinates": [12.567, 47.262]}, "properties": {"name": "", "v": 110000}}, {"type": "Feature", "geometry": {"type": "Point", "coordinates": [15.583, 46.54]}, "properties": {"name": "Hrastje I", "v": 200000}}, {"type": "Feature", "geometry": {"type": "Point", "coordinates": [15.305, 46.814]}, "properties": {"name": "", "v": 110000}}, {"type": "Feature", "geometry": {"type": "Point", "coordinates": [14.858, 46.724]}, "properties": {"name": "", "v": 110000}}, {"type": "Feature", "geometry": {"type": "Point", "coordinates": [15.225, 46.542]}, "properties": {"name": "Hudi kot Trpotek", "v": 200000}}, {"type": "Feature", "geometry": {"type": "Point", "coordinates": [18.237, 49.849]}, "properties": {"name": "MCHZ", "v": 110000}}, {"type": "Feature", "geometry": {"type": "Point", "coordinates": [9.269, 47.381]}, "properties": {"name": "Unterwerk Herisau", "v": 110000}}, {"type": "Feature", "geometry": {"type": "Point", "coordinates": [7.279, 44.044]}, "properties": {"name": "", "v": 150000}}, {"type": "Feature", "geometry": {"type": "Point", "coordinates": [7.675, 45.073]}, "properties": {"name": "CP Arbarello", "v": 220000}}, {"type": "Feature", "geometry": {"type": "Point", "coordinates": [7.655, 45.062]}, "properties": {"name": "Politecnico", "v": 220000}}, {"type": "Feature", "geometry": {"type": "Point", "coordinates": [17.849, 44.609]}, "properties": {"name": "TS Tesli\u0107", "v": 110000}}, {"type": "Feature", "geometry": {"type": "Point", "coordinates": [37.52, 41.015]}, "properties": {"name": "", "v": 345000}}, {"type": "Feature", "geometry": {"type": "Point", "coordinates": [28.786, 41.008]}, "properties": {"name": "Sultanmurat G\u0130S Transformat\u00f6r Merkezi", "v": 154000}}, {"type": "Feature", "geometry": {"type": "Point", "coordinates": [28.965, 40.233]}, "properties": {"name": "", "v": 380000}}, {"type": "Feature", "geometry": {"type": "Point", "coordinates": [28.965, 40.234]}, "properties": {"name": "", "v": 380000}}, {"type": "Feature", "geometry": {"type": "Point", "coordinates": [28.965, 40.234]}, "properties": {"name": "", "v": 380000}}, {"type": "Feature", "geometry": {"type": "Point", "coordinates": [28.965, 40.234]}, "properties": {"name": "", "v": 380000}}, {"type": "Feature", "geometry": {"type": "Point", "coordinates": [28.965, 40.233]}, "properties": {"name": "Bursa Snayi 380kV TM", "v": 380000}}, {"type": "Feature", "geometry": {"type": "Point", "coordinates": [28.965, 40.234]}, "properties": {"name": "", "v": 380000}}, {"type": "Feature", "geometry": {"type": "Point", "coordinates": [28.965, 40.234]}, "properties": {"name": "", "v": 380000}}, {"type": "Feature", "geometry": {"type": "Point", "coordinates": [28.965, 40.234]}, "properties": {"name": "", "v": 380000}}, {"type": "Feature", "geometry": {"type": "Point", "coordinates": [28.966, 40.233]}, "properties": {"name": "", "v": 380000}}, {"type": "Feature", "geometry": {"type": "Point", "coordinates": [32.871, 39.41]}, "properties": {"name": "", "v": 154000}}, {"type": "Feature", "geometry": {"type": "Point", "coordinates": [32.871, 39.41]}, "properties": {"name": "", "v": 154000}}, {"type": "Feature", "geometry": {"type": "Point", "coordinates": [27.819, 41.274]}, "properties": {"name": "Avrupa Serbest B\u00f6gesi Trafo Merkezi", "v": 154000}}, {"type": "Feature", "geometry": {"type": "Point", "coordinates": [39.296, 40.548]}, "properties": {"name": "Derya 2 HES Trafo Merkezi", "v": 154000}}, {"type": "Feature", "geometry": {"type": "Point", "coordinates": [10.72, 59.913]}, "properties": {"name": "Solli trafostasjon", "v": 132000}}, {"type": "Feature", "geometry": {"type": "Point", "coordinates": [10.735, 59.921]}, "properties": {"name": "Pilestredet trafostasjon", "v": 132000}}, {"type": "Feature", "geometry": {"type": "Point", "coordinates": [10.715, 59.923]}, "properties": {"name": "Briskeby trafostasjon", "v": 132000}}, {"type": "Feature", "geometry": {"type": "Point", "coordinates": [10.669, 59.935]}, "properties": {"name": "Smestad trafostasjon", "v": 300000}}, {"type": "Feature", "geometry": {"type": "Point", "coordinates": [10.736, 59.91]}, "properties": {"name": "Pipervika trafostasjon", "v": 132000}}, {"type": "Feature", "geometry": {"type": "Point", "coordinates": [8.978, 50.354]}, "properties": {"name": "Kl\u00f6ckner-Pentapack", "v": 150000}}, {"type": "Feature", "geometry": {"type": "Point", "coordinates": [8.98, 50.354]}, "properties": {"name": "Fa. Dr\u00fcck-Br\u00fchl", "v": 150000}}, {"type": "Feature", "geometry": {"type": "Point", "coordinates": [5.322, 60.4]}, "properties": {"name": "Koengen trafostasjon", "v": 132000}}, {"type": "Feature", "geometry": {"type": "Point", "coordinates": [5.33, 60.39]}, "properties": {"name": "Str\u00f8mgaten trafostasjon", "v": 132000}}, {"type": "Feature", "geometry": {"type": "Point", "coordinates": [8.969, 60.705]}, "properties": {"name": "Hemsil 2 trafostasjon", "v": 300000}}, {"type": "Feature", "geometry": {"type": "Point", "coordinates": [6.589, 61.067]}, "properties": {"name": "Hove kraftverk", "v": 300000}}, {"type": "Feature", "geometry": {"type": "Point", "coordinates": [10.586, 60.297]}, "properties": {"name": "Lunner omformer", "v": 132000}}, {"type": "Feature", "geometry": {"type": "Point", "coordinates": [8.638, 60.803]}, "properties": {"name": "", "v": 300000}}, {"type": "Feature", "geometry": {"type": "Point", "coordinates": [7.123, 62.851]}, "properties": {"name": "Omya Hustadmarmor", "v": 132000}}, {"type": "Feature", "geometry": {"type": "Point", "coordinates": [22.238, 60.44]}, "properties": {"name": "Pakkari", "v": 110000}}, {"type": "Feature", "geometry": {"type": "Point", "coordinates": [14.379, 61.302]}, "properties": {"name": "", "v": 130000}}, {"type": "Feature", "geometry": {"type": "Point", "coordinates": [16.931, 62.541]}, "properties": {"name": "", "v": 400000}}, {"type": "Feature", "geometry": {"type": "Point", "coordinates": [11.19, 63.129]}, "properties": {"name": "Stokkfjellet vindpark", "v": 132000}}, {"type": "Feature", "geometry": {"type": "Point", "coordinates": [25.913, 56.511]}, "properties": {"name": "Gaujas koks", "v": 110000}}, {"type": "Feature", "geometry": {"type": "Point", "coordinates": [24.134, 56.946]}, "properties": {"name": "Centr\u0101l\u0101", "v": 110000}}, {"type": "Feature", "geometry": {"type": "Point", "coordinates": [24.175, 56.926]}, "properties": {"name": "\u0136engarags", "v": 110000}}, {"type": "Feature", "geometry": {"type": "Point", "coordinates": [24.003, 56.908]}, "properties": {"name": "St\u012bpnieki", "v": 110000}}, {"type": "Feature", "geometry": {"type": "Point", "coordinates": [24.004, 56.94]}, "properties": {"name": "Zolit\u016bde", "v": 110000}}, {"type": "Feature", "geometry": {"type": "Point", "coordinates": [21.006, 52.236]}, "properties": {"name": "Stacja Elektroenergetyczna 110/15kV RPZ Centrum", "v": 110000}}, {"type": "Feature", "geometry": {"type": "Point", "coordinates": [21.571, 57.397]}, "properties": {"name": "Venta", "v": 110000}}, {"type": "Feature", "geometry": {"type": "Point", "coordinates": [16.906, 52.407]}, "properties": {"name": "Stacja elektroenergetyczna 110/15kV \"Je\u017cyce\"", "v": 110000}}, {"type": "Feature", "geometry": {"type": "Point", "coordinates": [6.699, 58.66]}, "properties": {"name": "Fins\u00e5 kraftverk", "v": 132000}}, {"type": "Feature", "geometry": {"type": "Point", "coordinates": [6.89, 58.278]}, "properties": {"name": "Eramet Norway \u00d8ye", "v": 110000}}, {"type": "Feature", "geometry": {"type": "Point", "coordinates": [4.398, 50.829]}, "properties": {"name": "Dhanis", "v": 150000}}, {"type": "Feature", "geometry": {"type": "Point", "coordinates": [6.255, 51.301]}, "properties": {"name": "Station Breyell", "v": 110000}}, {"type": "Feature", "geometry": {"type": "Point", "coordinates": [15.211, 50.03]}, "properties": {"name": "Kol\u00edn v\u00fdchod", "v": 110000}}, {"type": "Feature", "geometry": {"type": "Point", "coordinates": [4.988, 51.16]}, "properties": {"name": "", "v": 150000}}, {"type": "Feature", "geometry": {"type": "Point", "coordinates": [6.794, 52.246]}, "properties": {"name": "110 kV Salinco", "v": 110000}}, {"type": "Feature", "geometry": {"type": "Point", "coordinates": [6.785, 52.234]}, "properties": {"name": "110 kV AVI", "v": 110000}}, {"type": "Feature", "geometry": {"type": "Point", "coordinates": [24.109, 56.954]}, "properties": {"name": "Bastejkalns", "v": 110000}}, {"type": "Feature", "geometry": {"type": "Point", "coordinates": [24.229, 56.99]}, "properties": {"name": "Juglas parks", "v": 110000}}, {"type": "Feature", "geometry": {"type": "Point", "coordinates": [24.13, 56.958]}, "properties": {"name": "Mat\u012bss", "v": 110000}}, {"type": "Feature", "geometry": {"type": "Point", "coordinates": [12.658, 55.632]}, "properties": {"name": "Kastrup koblingsstation", "v": 132000}}, {"type": "Feature", "geometry": {"type": "Point", "coordinates": [12.658, 55.632]}, "properties": {"name": "K\u00f8benhavns lufthavn Fordelingsstation", "v": 132000}}, {"type": "Feature", "geometry": {"type": "Point", "coordinates": [18.085, 47.784]}, "properties": {"name": "TS-SOPRO", "v": 220000}}, {"type": "Feature", "geometry": {"type": "Point", "coordinates": [18.084, 47.785]}, "properties": {"name": "TS-SULLO", "v": 220000}}, {"type": "Feature", "geometry": {"type": "Point", "coordinates": [8.888, 47.562]}, "properties": {"name": "Unterwerk Frauenfeld West", "v": 110000}}, {"type": "Feature", "geometry": {"type": "Point", "coordinates": [8.074, 47.395]}, "properties": {"name": "Unterwerk Neubuchs", "v": 110000}}, {"type": "Feature", "geometry": {"type": "Point", "coordinates": [10.718, 53.865]}, "properties": {"name": "Umspannwerk Marli", "v": 110000}}, {"type": "Feature", "geometry": {"type": "Point", "coordinates": [10.681, 53.855]}, "properties": {"name": "Schaltanlage L\u00fcbeck S\u00fcd", "v": 110000}}, {"type": "Feature", "geometry": {"type": "Point", "coordinates": [13.264, 52.536]}, "properties": {"name": "Umspannwerk Siemens Dynamowerk", "v": 110000}}, {"type": "Feature", "geometry": {"type": "Point", "coordinates": [13.259, 52.957]}, "properties": {"name": "", "v": 110000}}, {"type": "Feature", "geometry": {"type": "Point", "coordinates": [13.288, 52.451]}, "properties": {"name": "Umspannwerk FU Thielallee", "v": 110000}}, {"type": "Feature", "geometry": {"type": "Point", "coordinates": [13.317, 52.44]}, "properties": {"name": "Umspannwerk Klinikum Steglitz", "v": 110000}}, {"type": "Feature", "geometry": {"type": "Point", "coordinates": [13.318, 52.437]}, "properties": {"name": "Umspannwerk FU-Krahmerstra\u00dfe", "v": 110000}}, {"type": "Feature", "geometry": {"type": "Point", "coordinates": [13.364, 52.54]}, "properties": {"name": "Umspannwerk Bayer", "v": 110000}}, {"type": "Feature", "geometry": {"type": "Point", "coordinates": [13.433, 52.541]}, "properties": {"name": "Umspannwerk Prenzlauer Berg", "v": 110000}}, {"type": "Feature", "geometry": {"type": "Point", "coordinates": [13.46, 52.435]}, "properties": {"name": "Umspannwerk Krankenhaus Neuk\u00f6lln", "v": 110000}}, {"type": "Feature", "geometry": {"type": "Point", "coordinates": [13.326, 52.514]}, "properties": {"name": "Umspannwerk TU Nord", "v": 110000}}, {"type": "Feature", "geometry": {"type": "Point", "coordinates": [9.714, 52.352]}, "properties": {"name": "", "v": 110000}}, {"type": "Feature", "geometry": {"type": "Point", "coordinates": [9.782, 52.403]}, "properties": {"name": "", "v": 110000}}, {"type": "Feature", "geometry": {"type": "Point", "coordinates": [2.577, 49.01]}, "properties": {"name": "", "v": 225000}}, {"type": "Feature", "geometry": {"type": "Point", "coordinates": [11.329, 50.692]}, "properties": {"name": "", "v": 200000}}, {"type": "Feature", "geometry": {"type": "Point", "coordinates": [15.272, 48.218]}, "properties": {"name": "Unterwerk Bergern", "v": 110000}}, {"type": "Feature", "geometry": {"type": "Point", "coordinates": [6.402, 51.245]}, "properties": {"name": "Station Viersen", "v": 110000}}, {"type": "Feature", "geometry": {"type": "Point", "coordinates": [9.155, 52.831]}, "properties": {"name": "Umspannwerk Mehringen", "v": 110000}}, {"type": "Feature", "geometry": {"type": "Point", "coordinates": [13.511, 52.531]}, "properties": {"name": "Umspannwerk Arendsweg", "v": 110000}}, {"type": "Feature", "geometry": {"type": "Point", "coordinates": [10.041, 53.566]}, "properties": {"name": "Umspannwerk Eilbek", "v": 110000}}, {"type": "Feature", "geometry": {"type": "Point", "coordinates": [8.235, 50.082]}, "properties": {"name": "SW-Umspannwerk Helenenstra\u00dfe", "v": 110000}}, {"type": "Feature", "geometry": {"type": "Point", "coordinates": [8.517, 51.397]}, "properties": {"name": "UW Olsberg-Antfeld", "v": 110000}}, {"type": "Feature", "geometry": {"type": "Point", "coordinates": [11.787, 61.205]}, "properties": {"name": "Raskiftet trafostasjon", "v": 132000}}, {"type": "Feature", "geometry": {"type": "Point", "coordinates": [22.259, 60.444]}, "properties": {"name": "Myllyahde", "v": 110000}}]}