{"type": "FeatureCollection", "features": [{"type": "Feature", "geometry": {"type": "LineString", "coordinates": [[26.753, -11.026], [26.985, -11.074], [27.251, -11.288], [27.432, -11.548], [27.416, -11.649]]}, "properties": {"v": 220000, "nm": "220kV PANDA - Karavia", "op": "SNEL", "c": 1, "f": "50", "oid": 260886056}}, {"type": "Feature", "geometry": {"type": "LineString", "coordinates": [[27.416, -11.648], [27.432, -11.547], [27.249, -11.284], [26.986, -11.072], [26.753, -11.026]]}, "properties": {"v": 220000, "nm": "220kV PANDA - Karavia", "op": "SNEL", "c": 1, "f": "50", "oid": 384251397}}, {"type": "Feature", "geometry": {"type": "LineString", "coordinates": [[27.416, -11.647], [27.433, -11.547], [27.25, -11.286], [26.972, -11.061], [26.753, -11.026]]}, "properties": {"v": 220000, "nm": "220kV PANDA - Karavia", "op": "SNEL", "c": 1, "f": "50", "oid": 194187707}}, {"type": "Feature", "geometry": {"type": "LineString", "coordinates": [[26.772, -11.001], [26.944, -11.029], [27.014, -11.172], [27.288, -11.325]]}, "properties": {"v": 120000, "nm": "120kV DLM - Shilatembo", "c": 1, "f": "50", "oid": 1194328785}}, {"type": "Feature", "geometry": {"type": "LineString", "coordinates": [[27.018, -11.199], [27.12, -11.254]]}, "properties": {"v": 120000, "nm": "120kV Excellent Mineral - Shilatembo", "c": 1, "f": "50", "oid": 1112007417}}, {"type": "Feature", "geometry": {"type": "LineString", "coordinates": [[26.752, -11.026], [26.592, -10.892]]}, "properties": {"v": 220000, "nm": "220kV NRC - PANDA", "oid": 904749904}}, {"type": "Feature", "geometry": {"type": "LineString", "coordinates": [[26.752, -11.026], [26.592, -10.892]]}, "properties": {"v": 220000, "nm": "220kV Fungurume - PANDA", "c": 1, "f": "50", "oid": 904749908}}, {"type": "Feature", "geometry": {"type": "LineString", "coordinates": [[26.748, -11.011], [26.688, -10.988]]}, "properties": {"v": 120000, "oid": 1148920978}}, {"type": "Feature", "geometry": {"type": "LineString", "coordinates": [[26.745, -11.018], [26.593, -10.892], [26.538, -10.701], [26.334, -10.619]]}, "properties": {"v": 220000, "nm": "220kV Fungurume - PANDA", "op": "SNEL", "c": 1, "f": "50", "oid": 661829456}}, {"type": "Feature", "geometry": {"type": "LineString", "coordinates": [[26.747, -11.015], [26.598, -10.881]]}, "properties": {"v": 120000, "f": "50", "oid": 406590445}}, {"type": "Feature", "geometry": {"type": "LineString", "coordinates": [[26.749, -11.011], [26.608, -10.901]]}, "properties": {"v": 120000, "f": "50", "oid": 194146910}}, {"type": "Feature", "geometry": {"type": "LineString", "coordinates": [[26.654, -10.958], [26.655, -10.957]]}, "properties": {"v": 120000, "oid": 1111988708}}, {"type": "Feature", "geometry": {"type": "LineString", "coordinates": [[26.652, -10.956], [26.653, -10.955]]}, "properties": {"v": 120000, "oid": 1111988710}}, {"type": "Feature", "geometry": {"type": "LineString", "coordinates": [[26.61, -10.909], [26.546, -10.955]]}, "properties": {"v": 120000, "oid": 1037794612}}, {"type": "Feature", "geometry": {"type": "LineString", "coordinates": [[26.582, -10.874], [26.621, -10.89]]}, "properties": {"v": 120000, "f": "50", "oid": 661833676}}, {"type": "Feature", "geometry": {"type": "LineString", "coordinates": [[26.583, -10.879], [26.592, -10.892]]}, "properties": {"v": 220000, "nm": "220kV Fungurume/NRC - PANDA", "c": 2, "f": "50", "oid": 904749905}}, {"type": "Feature", "geometry": {"type": "LineString", "coordinates": [[26.586, -10.878], [26.598, -10.881]]}, "properties": {"v": 120000, "f": "50", "oid": 1194326809}}, {"type": "Feature", "geometry": {"type": "LineString", "coordinates": [[26.583, -10.879], [26.539, -10.701], [26.333, -10.619]]}, "properties": {"v": 220000, "nm": "220kV Fungurume - PANDA", "c": 1, "f": "50", "oid": 661659100}}, {"type": "Feature", "geometry": {"type": "LineString", "coordinates": [[26.578, -10.871], [26.583, -10.876]]}, "properties": {"v": 120000, "nm": "120kV NRC - Kambove", "f": "50", "oid": 904749903}}, {"type": "Feature", "geometry": {"type": "LineString", "coordinates": [[26.578, -10.871], [26.464, -10.774]]}, "properties": {"v": 120000, "oid": 1149199069}}, {"type": "Feature", "geometry": {"type": "LineString", "coordinates": [[26.614, -10.867], [26.578, -10.871]]}, "properties": {"v": 120000, "oid": 1111983146}}, {"type": "Feature", "geometry": {"type": "LineString", "coordinates": [[26.579, -10.87], [26.538, -10.702], [26.324, -10.58]]}, "properties": {"v": 220000, "nm": "220kV Fungurume - NRC", "c": 1, "oid": 388314642}}, {"type": "Feature", "geometry": {"type": "LineString", "coordinates": [[25.364, -10.693], [25.343, -10.773], [25.418, -10.758]]}, "properties": {"v": 220000, "nm": "220kV NRO - Commus", "c": 1, "f": "50", "oid": 1321599723}}, {"type": "Feature", "geometry": {"type": "LineString", "coordinates": [[26.464, -10.774], [26.422, -10.752]]}, "properties": {"v": 120000, "oid": 33663392}}, {"type": "Feature", "geometry": {"type": "LineString", "coordinates": [[26.308, -10.759], [26.393, -10.734]]}, "properties": {"v": 120000, "oid": 1149185499}}, {"type": "Feature", "geometry": {"type": "LineString", "coordinates": [[26.393, -10.734], [26.422, -10.752]]}, "properties": {"v": 120000, "oid": 1148292066}}, {"type": "Feature", "geometry": {"type": "LineString", "coordinates": [[25.423, -10.752], [25.448, -10.729]]}, "properties": {"v": 120000, "nm": "Commus - Zijin", "c": 2, "f": "50", "oid": 594144132}}, {"type": "Feature", "geometry": {"type": "LineString", "coordinates": [[26.334, -10.619], [25.454, -10.659]]}, "properties": {"v": 220000, "nm": "220kV SCK - Fungurume", "op": "SNEL", "c": 1, "f": "50", "oid": 224102225}}, {"type": "Feature", "geometry": {"type": "LineString", "coordinates": [[26.324, -10.58], [26.232, -10.654], [25.599, -10.676]]}, "properties": {"v": 220000, "nm": "220kV RL - Fungurume", "op": "SNEL", "c": 1, "f": "50", "oid": 224120266}}, {"type": "Feature", "geometry": {"type": "LineString", "coordinates": [[26.564, -10.87], [26.578, -10.871]]}, "properties": {"v": 120000, "nm": "120kV COMIKA - NRC", "oid": 1111983144}}, {"type": "Feature", "geometry": {"type": "LineString", "coordinates": [[26.579, -10.87], [26.583, -10.879]]}, "properties": {"v": 220000, "nm": "220kV NRC - PANDA", "c": 1, "f": "50", "oid": 1194326810}}, {"type": "Feature", "geometry": {"type": "LineString", "coordinates": [[27.243, -10.744], [26.929, -10.729], [26.749, -11.011]]}, "properties": {"v": 120000, "nm": "120kV Mwadingusha - Shituru (RC)", "f": "50", "oid": 388166524}}, {"type": "Feature", "geometry": {"type": "LineString", "coordinates": [[26.749, -11.012], [26.784, -11.011]]}, "properties": {"v": 220000, "nm": "220kV RC - SMCO", "op": "SNEL", "c": 1, "f": "50", "oid": 388314637}}, {"type": "Feature", "geometry": {"type": "LineString", "coordinates": [[26.971, -11.06], [26.893, -11.0], [26.751, -11.011]]}, "properties": {"v": 120000, "oid": 388314640}}, {"type": "Feature", "geometry": {"type": "LineString", "coordinates": [[26.772, -11.001], [26.75, -11.011]]}, "properties": {"v": 120000, "nm": "120kV RC - DLM", "c": 1, "f": "50", "oid": 1194328786}}, {"type": "Feature", "geometry": {"type": "LineString", "coordinates": [[26.749, -11.012], [26.745, -11.018]]}, "properties": {"v": 220000, "nm": "220kV RC - PANDA", "op": "SNEL", "c": 1, "f": "50", "oid": 194146909}}, {"type": "Feature", "geometry": {"type": "LineString", "coordinates": [[26.751, -11.026], [26.746, -11.018]]}, "properties": {"v": 220000, "nm": "220kV Fungurume/RC - PANDA", "op": "SNEL", "c": 2, "f": "50", "oid": 194146917}}, {"type": "Feature", "geometry": {"type": "LineString", "coordinates": [[26.752, -11.026], [26.751, -11.026]]}, "properties": {"v": 220000, "nm": "220kV Fungurume - PANDA", "op": "SNEL", "c": 1, "f": "50", "oid": 1194326808}}, {"type": "Feature", "geometry": {"type": "LineString", "coordinates": [[26.751, -11.026], [26.752, -11.025]]}, "properties": {"v": 220000, "nm": "220kV RC - PANDA", "op": "SNEL", "c": 1, "f": "50", "oid": 1194326807}}, {"type": "Feature", "geometry": {"type": "LineString", "coordinates": [[26.745, -11.018], [26.746, -11.018]]}, "properties": {"v": 220000, "nm": "220kV RC - PANDA", "op": "SNEL", "c": 1, "f": "50", "oid": 661829443}}, {"type": "Feature", "geometry": {"type": "LineString", "coordinates": [[26.745, -11.018], [26.746, -11.018]]}, "properties": {"v": 220000, "nm": "220kV Fungurume - PANDA", "op": "SNEL", "c": 1, "f": "50", "oid": 661829444}}, {"type": "Feature", "geometry": {"type": "LineString", "coordinates": [[27.803, -12.256], [27.821, -12.267]]}, "properties": {"v": 220000, "nm": "220kV Kasumbalesa - CEC/Michelo", "c": 1, "f": "50", "oid": 553834056}}, {"type": "Feature", "geometry": {"type": "LineString", "coordinates": [[27.417, -11.649], [27.402, -11.818], [27.501, -12.03], [27.808, -12.198], [27.821, -12.267]]}, "properties": {"v": 220000, "nm": "220kV Karavia - CEC/Michelo/Luano", "c": 2, "f": "50", "oid": 311370254}}, {"type": "Feature", "geometry": {"type": "LineString", "coordinates": [[27.802, -12.258], [27.728, -12.273]]}, "properties": {"v": 120000, "nm": "220kV Kasumbalesa - Musoshi", "oid": 1147387495}}, {"type": "Feature", "geometry": {"type": "LineString", "coordinates": [[27.803, -12.257], [27.798, -12.205], [27.966, -12.247]]}, "properties": {"v": 120000, "nm": "120kV Kasumbalesa - Kisenda", "f": "50", "oid": 350979787}}, {"type": "Feature", "geometry": {"type": "LineString", "coordinates": [[27.803, -12.256], [27.758, -12.168], [27.474, -12.005], [27.401, -11.818], [27.416, -11.649]]}, "properties": {"v": 220000, "nm": "220kV Karavia - Kasumbalesa", "f": "50", "oid": 304973266}}, {"type": "Feature", "geometry": {"type": "LineString", "coordinates": [[27.426, -11.685], [27.241, -11.765]]}, "properties": {"v": 120000, "nm": "120kV RS - Kipushi1", "f": "50", "oid": 1112245523}}, {"type": "Feature", "geometry": {"type": "LineString", "coordinates": [[27.3, -11.748], [27.241, -11.765]]}, "properties": {"v": 50000, "nm": "50kV RS - Kipushi", "f": "50", "oid": 1197674244}}, {"type": "Feature", "geometry": {"type": "LineString", "coordinates": [[27.416, -11.648], [27.464, -11.672], [27.241, -11.765]]}, "properties": {"v": 120000, "nm": "120kV RS - Kipushi2", "f": "50", "oid": 661870247}}, {"type": "Feature", "geometry": {"type": "LineString", "coordinates": [[27.3, -11.748], [27.298, -11.715]]}, "properties": {"v": 50000, "nm": "50kV RS - Inilu", "oid": 1112122740}}, {"type": "Feature", "geometry": {"type": "LineString", "coordinates": [[27.472, -11.678], [27.3, -11.748]]}, "properties": {"v": 50000, "nm": "50kV RS - Inilu/Kipushi", "f": "50", "oid": 1197674243}}, {"type": "Feature", "geometry": {"type": "LineString", "coordinates": [[27.426, -11.685], [27.463, -11.709]]}, "properties": {"v": 120000, "nm": "120kV RS - Katuba", "f": "50", "oid": 1197674242}}, {"type": "Feature", "geometry": {"type": "LineString", "coordinates": [[27.415, -11.697], [27.411, -11.69]]}, "properties": {"v": 120000, "nm": "120kV RS - Somika", "oid": 1112056213}}, {"type": "Feature", "geometry": {"type": "LineString", "coordinates": [[27.426, -11.685], [27.471, -11.676]]}, "properties": {"v": 120000, "nm": "120kV RS - Kipushi1/Katuba", "f": "50", "oid": 1197674211}}, {"type": "Feature", "geometry": {"type": "LineString", "coordinates": [[27.469, -11.681], [27.471, -11.678]]}, "properties": {"v": 220000, "nm": "220kV RS - STL", "f": "50", "oid": 194187711}}, {"type": "Feature", "geometry": {"type": "LineString", "coordinates": [[27.416, -11.648], [27.47, -11.677]]}, "properties": {"v": 220000, "nm": "220kV Karavia - RS1", "c": 1, "f": "50", "oid": 179312796}}, {"type": "Feature", "geometry": {"type": "LineString", "coordinates": [[27.416, -11.648], [27.471, -11.677]]}, "properties": {"v": 220000, "nm": "220kV Karavia - RS2", "c": 1, "f": "50", "oid": 179312797}}, {"type": "Feature", "geometry": {"type": "LineString", "coordinates": [[27.243, -10.744], [27.284, -10.718]]}, "properties": {"v": 120000, "nm": "120kV Koni - Mwadingusha", "op": "SNEL", "c": 1, "f": "50", "oid": 388166526}}, {"type": "Feature", "geometry": {"type": "LineString", "coordinates": [[27.016, -11.166], [27.02, -11.167]]}, "properties": {"v": 120000, "oid": 1112009210}}, {"type": "Feature", "geometry": {"type": "LineString", "coordinates": [[27.108, -11.244], [27.103, -11.248]]}, "properties": {"v": 120000, "nm": "120kV DLM - Kipoi", "c": 1, "f": "50", "oid": 1112010832}}, {"type": "Feature", "geometry": {"type": "LineString", "coordinates": [[26.13, -10.643], [26.324, -10.62]]}, "properties": {"v": 120000, "oid": 224102223}}, {"type": "Feature", "geometry": {"type": "LineString", "coordinates": [[26.324, -10.62], [26.333, -10.62]]}, "properties": {"v": 120000, "f": "50", "oid": 661829445}}, {"type": "Feature", "geometry": {"type": "LineString", "coordinates": [[26.333, -10.62], [26.333, -10.618]]}, "properties": {"v": 120000, "f": "50", "oid": 661829451}}, {"type": "Feature", "geometry": {"type": "LineString", "coordinates": [[26.334, -10.62], [26.333, -10.618]]}, "properties": {"v": 120000, "f": "50", "oid": 661829453}}, {"type": "Feature", "geometry": {"type": "LineString", "coordinates": [[26.334, -10.619], [26.334, -10.618]]}, "properties": {"v": 220000, "f": "50", "oid": 661829455}}, {"type": "Feature", "geometry": {"type": "LineString", "coordinates": [[26.334, -10.619], [26.334, -10.618]]}, "properties": {"v": 220000, "f": "50", "oid": 661829454}}, {"type": "Feature", "geometry": {"type": "LineString", "coordinates": [[26.324, -10.581], [26.333, -10.619]]}, "properties": {"v": 220000, "f": "50", "oid": 408678791}}, {"type": "Feature", "geometry": {"type": "LineString", "coordinates": [[26.324, -10.581], [26.334, -10.618]]}, "properties": {"v": 220000, "f": "50", "oid": 408678798}}, {"type": "Feature", "geometry": {"type": "LineString", "coordinates": [[26.324, -10.583], [26.333, -10.618]]}, "properties": {"v": 120000, "f": "50", "oid": 408678796}}, {"type": "Feature", "geometry": {"type": "LineString", "coordinates": [[26.324, -10.582], [26.324, -10.583]]}, "properties": {"v": 120000, "oid": 661829446}}, {"type": "Feature", "geometry": {"type": "LineString", "coordinates": [[26.324, -10.581], [26.324, -10.583]]}, "properties": {"v": 120000, "oid": 661829447}}, {"type": "Feature", "geometry": {"type": "LineString", "coordinates": [[26.198, -10.572], [26.324, -10.58]]}, "properties": {"v": 220000, "nm": "220kV Fungurume - TFM Katebala", "op": "SNEL", "c": 2, "f": "50", "oid": 450423646}}, {"type": "Feature", "geometry": {"type": "LineString", "coordinates": [[28.929, -5.044], [28.883, -5.249], [29.195, -5.909]]}, "properties": {"v": 132000, "f": "50", "oid": 351963855}}, {"type": "Feature", "geometry": {"type": "LineString", "coordinates": [[28.875, -2.509], [28.878, -2.514]]}, "properties": {"v": 70000, "op": "Rwanda Energy Group (REG)", "f": "50", "oid": 665444225}}, {"type": "Feature", "geometry": {"type": "LineString", "coordinates": [[29.16, -1.623], [29.264, -1.627]]}, "properties": {"v": 220000, "op": "Rwanda Energy Group (REG)", "f": "50", "oid": 697615684}}, {"type": "Feature", "geometry": {"type": "LineString", "coordinates": [[27.287, -11.325], [27.243, -10.745]]}, "properties": {"v": 120000, "nm": "120kV Mwadingusha - Shilatembo", "f": "50", "oid": 194187704}}, {"type": "Feature", "geometry": {"type": "LineString", "coordinates": [[27.471, -11.676], [27.464, -11.595]]}, "properties": {"v": 120000, "f": "50", "oid": 1112250272}}, {"type": "Feature", "geometry": {"type": "LineString", "coordinates": [[27.416, -11.65], [27.416, -11.647]]}, "properties": {"v": 220000, "oid": 260885431}}, {"type": "Feature", "geometry": {"type": "LineString", "coordinates": [[27.416, -11.647], [27.416, -11.65]]}, "properties": {"v": 220000, "oid": 260885430}}, {"type": "Feature", "geometry": {"type": "LineString", "coordinates": [[27.417, -11.649], [27.416, -11.649]]}, "properties": {"v": 220000, "oid": 1194300851}}, {"type": "Feature", "geometry": {"type": "LineString", "coordinates": [[27.416, -11.649], [27.417, -11.649]]}, "properties": {"v": 220000, "oid": 179312799}}, {"type": "Feature", "geometry": {"type": "LineString", "coordinates": [[27.414, -11.641], [27.416, -11.647]]}, "properties": {"v": 120000, "f": "50", "oid": 661870230}}, {"type": "Feature", "geometry": {"type": "LineString", "coordinates": [[27.416, -11.634], [27.414, -11.641]]}, "properties": {"v": 120000, "f": "50", "oid": 661870232}}, {"type": "Feature", "geometry": {"type": "LineString", "coordinates": [[27.416, -11.634], [27.414, -11.641]]}, "properties": {"v": 120000, "f": "50", "oid": 661870231}}, {"type": "Feature", "geometry": {"type": "LineString", "coordinates": [[27.414, -11.637], [27.477, -11.592]]}, "properties": {"v": 120000, "oid": 52171528}}, {"type": "Feature", "geometry": {"type": "LineString", "coordinates": [[27.441, -11.603], [27.416, -11.634]]}, "properties": {"v": 120000, "f": "50", "oid": 661870236}}, {"type": "Feature", "geometry": {"type": "LineString", "coordinates": [[27.504, -11.63], [27.287, -11.325]]}, "properties": {"v": 120000, "nm": "120kV Shilatembo - RS", "f": "50", "oid": 661870245}}, {"type": "Feature", "geometry": {"type": "LineString", "coordinates": [[27.492, -11.6], [27.552, -11.614]]}, "properties": {"v": 120000, "oid": 1112028030}}, {"type": "Feature", "geometry": {"type": "LineString", "coordinates": [[27.444, -11.601], [27.441, -11.603]]}, "properties": {"v": 120000, "f": "50", "oid": 661870237}}, {"type": "Feature", "geometry": {"type": "LineString", "coordinates": [[27.459, -11.597], [27.441, -11.603]]}, "properties": {"v": 120000, "f": "50", "oid": 661870238}}, {"type": "Feature", "geometry": {"type": "LineString", "coordinates": [[27.489, -11.594], [27.491, -11.599]]}, "properties": {"v": 120000, "f": "50", "oid": 661870235}}, {"type": "Feature", "geometry": {"type": "LineString", "coordinates": [[27.406, -11.51], [27.291, -11.598]]}, "properties": {"v": 120000, "oid": 1149148998}}, {"type": "Feature", "geometry": {"type": "LineString", "coordinates": [[27.468, -11.595], [27.459, -11.597]]}, "properties": {"v": 120000, "f": "50", "oid": 661870239}}, {"type": "Feature", "geometry": {"type": "LineString", "coordinates": [[27.468, -11.595], [27.459, -11.597]]}, "properties": {"v": 120000, "f": "50", "oid": 661870240}}, {"type": "Feature", "geometry": {"type": "LineString", "coordinates": [[27.464, -11.595], [27.489, -11.597]]}, "properties": {"v": 120000, "f": "50", "oid": 661870246}}, {"type": "Feature", "geometry": {"type": "LineString", "coordinates": [[27.489, -11.594], [27.484, -11.592]]}, "properties": {"v": 120000, "f": "50", "oid": 661870242}}, {"type": "Feature", "geometry": {"type": "LineString", "coordinates": [[27.408, -11.51], [27.406, -11.51]]}, "properties": {"v": 120000, "oid": 1149148997}}, {"type": "Feature", "geometry": {"type": "LineString", "coordinates": [[27.408, -11.51], [27.406, -11.51]]}, "properties": {"v": 120000, "oid": 1149148996}}, {"type": "Feature", "geometry": {"type": "LineString", "coordinates": [[27.378, -11.463], [27.376, -11.464]]}, "properties": {"v": 120000, "oid": 1112012803}}, {"type": "Feature", "geometry": {"type": "LineString", "coordinates": [[27.363, -11.441], [27.363, -11.443]]}, "properties": {"v": 120000, "oid": 1112012800}}, {"type": "Feature", "geometry": {"type": "LineString", "coordinates": [[27.484, -11.592], [27.468, -11.595]]}, "properties": {"v": 120000, "f": "50", "oid": 661870241}}, {"type": "Feature", "geometry": {"type": "LineString", "coordinates": [[27.489, -11.594], [27.484, -11.592]]}, "properties": {"v": 120000, "f": "50", "oid": 661870243}}, {"type": "Feature", "geometry": {"type": "LineString", "coordinates": [[27.487, -11.592], [27.487, -11.582]]}, "properties": {"v": 120000, "f": "50", "oid": 661870244}}, {"type": "Feature", "geometry": {"type": "LineString", "coordinates": [[27.48, -11.591], [27.477, -11.592]]}, "properties": {"v": 120000, "oid": 1112250271}}, {"type": "Feature", "geometry": {"type": "LineString", "coordinates": [[27.491, -11.599], [27.492, -11.6]]}, "properties": {"v": 120000, "f": "50", "oid": 661870234}}, {"type": "Feature", "geometry": {"type": "LineString", "coordinates": [[27.491, -11.599], [27.491, -11.6]]}, "properties": {"v": 120000, "f": "50", "oid": 661870233}}, {"type": "Feature", "geometry": {"type": "LineString", "coordinates": [[27.425, -11.535], [27.429, -11.521]]}, "properties": {"v": 120000, "oid": 1112031716}}, {"type": "Feature", "geometry": {"type": "LineString", "coordinates": [[27.429, -11.515], [27.43, -11.52]]}, "properties": {"v": 120000, "oid": 1112031717}}, {"type": "Feature", "geometry": {"type": "LineString", "coordinates": [[9.566, 0.401], [9.487, 0.398]]}, "properties": {"v": 90000, "f": "50", "oid": 695777568}}, {"type": "Feature", "geometry": {"type": "LineString", "coordinates": [[9.608, 0.387], [9.573, 0.394]]}, "properties": {"v": 90000, "oid": 695777571}}, {"type": "Feature", "geometry": {"type": "LineString", "coordinates": [[10.279, 0.452], [10.052, 0.302], [9.886, 0.402], [9.479, 0.399]]}, "properties": {"v": 225000, "f": "50", "oid": 654012506}}, {"type": "Feature", "geometry": {"type": "LineString", "coordinates": [[9.566, 0.401], [9.775, 0.39]]}, "properties": {"v": 90000, "f": "50", "oid": 662995951}}, {"type": "Feature", "geometry": {"type": "LineString", "coordinates": [[9.608, 0.387], [9.61, 0.387]]}, "properties": {"v": 90000, "f": "50", "oid": 695777572}}, {"type": "Feature", "geometry": {"type": "LineString", "coordinates": [[18.034, 4.88], [18.197, 4.682], [18.447, 4.563], [18.517, 4.462]]}, "properties": {"v": 110000, "f": "50", "oid": 665129667}}, {"type": "Feature", "geometry": {"type": "LineString", "coordinates": [[9.701, 4.667], [9.77, 4.829], [9.928, 4.956]]}, "properties": {"v": 90000, "f": "50", "oid": 694793913}}, {"type": "Feature", "geometry": {"type": "LineString", "coordinates": [[18.515, 4.464], [18.552, 4.415]]}, "properties": {"v": 110000, "f": "50", "oid": 1262660754}}, {"type": "Feature", "geometry": {"type": "LineString", "coordinates": [[18.517, 4.462], [18.526, 4.457]]}, "properties": {"v": 110000, "f": "50", "oid": 1262660755}}, {"type": "Feature", "geometry": {"type": "LineString", "coordinates": [[10.147, 3.798], [10.867, 3.89]]}, "properties": {"v": 90000, "op": "EDC", "f": "50", "oid": 663247240}}, {"type": "Feature", "geometry": {"type": "LineString", "coordinates": [[10.462, 4.08], [10.159, 3.968], [9.783, 4.072]]}, "properties": {"v": 225000, "f": "50", "oid": 663019337}}, {"type": "Feature", "geometry": {"type": "LineString", "coordinates": [[9.975, 3.027], [10.132, 3.447], [10.108, 3.816]]}, "properties": {"v": 225000, "f": "50", "oid": 663222704}}, {"type": "Feature", "geometry": {"type": "LineString", "coordinates": [[10.108, 3.816], [10.387, 4.086], [10.462, 4.08]]}, "properties": {"v": 225000, "f": "50", "oid": 695629389}}, {"type": "Feature", "geometry": {"type": "LineString", "coordinates": [[10.46, 4.08], [10.387, 4.086], [10.11, 3.827]]}, "properties": {"v": 225000, "f": "50", "oid": 663222689}}, {"type": "Feature", "geometry": {"type": "LineString", "coordinates": [[10.11, 3.827], [10.115, 3.93], [9.837, 4.096], [9.785, 4.074]]}, "properties": {"v": 225000, "f": "50", "oid": 663222677}}, {"type": "Feature", "geometry": {"type": "LineString", "coordinates": [[9.584, 4.124], [9.569, 4.478], [9.701, 4.661]]}, "properties": {"v": 90000, "f": "50", "oid": 338366336}}, {"type": "Feature", "geometry": {"type": "LineString", "coordinates": [[11.713, 4.374], [11.556, 4.165], [11.513, 3.988]]}, "properties": {"v": 225000, "c": 2, "oid": 1153494913}}, {"type": "Feature", "geometry": {"type": "LineString", "coordinates": [[11.467, 3.882], [11.492, 3.956], [11.561, 3.903]]}, "properties": {"v": 90000, "op": "EDC", "oid": 221972356}}, {"type": "Feature", "geometry": {"type": "LineString", "coordinates": [[11.467, 3.882], [11.477, 3.763]]}, "properties": {"v": 90000, "op": "EDC", "oid": 663018909}}, {"type": "Feature", "geometry": {"type": "LineString", "coordinates": [[11.477, 3.763], [11.491, 3.784]]}, "properties": {"v": 90000, "op": "EDC", "oid": 221972355}}, {"type": "Feature", "geometry": {"type": "LineString", "coordinates": [[11.492, 3.784], [11.478, 3.764]]}, "properties": {"v": 225000, "oid": 1329737740}}, {"type": "Feature", "geometry": {"type": "LineString", "coordinates": [[11.467, 3.882], [11.485, 3.869]]}, "properties": {"v": 90000, "op": "EDC", "oid": 221972354}}, {"type": "Feature", "geometry": {"type": "LineString", "coordinates": [[9.82, 3.963], [9.823, 3.933]]}, "properties": {"v": 90000, "nm": "Ligne 90kV Mamgombe", "op": "SONATREL", "oid": 320679321}}, {"type": "Feature", "geometry": {"type": "LineString", "coordinates": [[10.11, 3.827], [10.108, 3.816]]}, "properties": {"v": 225000, "f": "50", "oid": 695629390}}, {"type": "Feature", "geometry": {"type": "LineString", "coordinates": [[10.462, 4.08], [10.46, 4.08]]}, "properties": {"v": 225000, "f": "50", "oid": 320679320}}, {"type": "Feature", "geometry": {"type": "LineString", "coordinates": [[10.462, 4.08], [10.46, 4.08]]}, "properties": {"v": 225000, "f": "50", "oid": 320679319}}, {"type": "Feature", "geometry": {"type": "LineString", "coordinates": [[10.462, 4.08], [10.463, 4.08]]}, "properties": {"v": 225000, "f": "50", "oid": 663019354}}, {"type": "Feature", "geometry": {"type": "LineString", "coordinates": [[10.462, 4.08], [10.463, 4.08]]}, "properties": {"v": 225000, "f": "50", "oid": 663019357}}, {"type": "Feature", "geometry": {"type": "LineString", "coordinates": [[11.466, 3.882], [11.145, 3.799], [10.785, 3.898], [10.37, 3.815], [10.155, 3.881], [10.108, 3.816]]}, "properties": {"v": 225000, "op": "EDC", "f": "50", "oid": 695629391}}, {"type": "Feature", "geometry": {"type": "LineString", "coordinates": [[9.797, 1.358], [9.776, 1.283], [9.848, 1.18], [9.734, 1.108]]}, "properties": {"v": 110000, "nm": "1x 110kV", "f": "50", "oid": 644322991}}, {"type": "Feature", "geometry": {"type": "LineString", "coordinates": [[9.748, 1.826], [9.823, 1.814], [9.821, 1.861]]}, "properties": {"v": 110000, "f": "50", "oid": 643133507}}, {"type": "Feature", "geometry": {"type": "LineString", "coordinates": [[9.821, 1.86], [9.849, 1.816], [9.767, 1.729], [9.837, 1.551]]}, "properties": {"v": 220000, "oid": 1164498425}}, {"type": "Feature", "geometry": {"type": "LineString", "coordinates": [[10.192, 0.348], [10.052, 0.302], [9.886, 0.402], [9.775, 0.39]]}, "properties": {"v": 90000, "f": "50", "oid": 662995955}}, {"type": "Feature", "geometry": {"type": "LineString", "coordinates": [[9.821, 1.861], [9.897, 1.868], [9.926, 2.092], [9.803, 2.218]]}, "properties": {"v": 110000, "f": "50", "oid": 662895653}}, {"type": "Feature", "geometry": {"type": "LineString", "coordinates": [[9.8, 2.33], [9.818, 2.336]]}, "properties": {"v": 110000, "f": "50", "oid": 662895653}}, {"type": "Feature", "geometry": {"type": "LineString", "coordinates": [[9.818, 2.336], [9.819, 2.336]]}, "properties": {"v": 110000, "f": "50", "oid": 1176576548}}, {"type": "Feature", "geometry": {"type": "LineString", "coordinates": [[9.822, 1.86], [9.821, 1.86]]}, "properties": {"v": 220000, "c": 1, "f": "50", "oid": 1374090979}}, {"type": "Feature", "geometry": {"type": "LineString", "coordinates": [[9.821, 1.86], [9.822, 1.86]]}, "properties": {"v": 220000, "c": 1, "f": "50", "oid": 1374090980}}, {"type": "Feature", "geometry": {"type": "LineString", "coordinates": [[10.249, 1.86], [9.822, 1.86]]}, "properties": {"v": 220000, "c": 2, "f": "50", "oid": 643133502}}, {"type": "Feature", "geometry": {"type": "LineString", "coordinates": [[10.473, 2.009], [10.249, 1.86]]}, "properties": {"v": 220000, "f": "50", "oid": 643081233}}, {"type": "Feature", "geometry": {"type": "LineString", "coordinates": [[10.249, 1.86], [10.365, 1.566], [10.578, 1.644]]}, "properties": {"v": 220000, "f": "50", "oid": 642931888}}, {"type": "Feature", "geometry": {"type": "LineString", "coordinates": [[10.258, 1.851], [10.472, 2.01]]}, "properties": {"v": 110000, "f": "50", "oid": 642937152}}, {"type": "Feature", "geometry": {"type": "LineString", "coordinates": [[10.564, 1.444], [10.466, 1.571], [10.578, 1.644]]}, "properties": {"v": 110000, "nm": "1x 110kV", "f": "50", "oid": 642931880}}, {"type": "Feature", "geometry": {"type": "LineString", "coordinates": [[10.279, 0.442], [10.278, 0.452]]}, "properties": {"v": 90000, "oid": 1386948978}}, {"type": "Feature", "geometry": {"type": "LineString", "coordinates": [[10.279, 0.452], [10.309, 0.562], [10.407, 0.621]]}, "properties": {"v": 225000, "f": "50", "oid": 378277854}}, {"type": "Feature", "geometry": {"type": "LineString", "coordinates": [[9.617, 1.567], [9.763, 1.469], [9.81, 1.503], [9.825, 1.653], [9.766, 1.729], [9.821, 1.861]]}, "properties": {"v": 110000, "f": "50", "oid": 644322983}}, {"type": "Feature", "geometry": {"type": "LineString", "coordinates": [[13.074, -5.732], [12.969, -5.445]]}, "properties": {"v": 220000, "nm": "220kV Lunga-Vasa - Moenge", "op": "SNEL", "c": 1, "f": "50", "oid": 708207756}}, {"type": "Feature", "geometry": {"type": "LineString", "coordinates": [[11.919, -4.732], [11.927, -4.841]]}, "properties": {"v": 220000, "f": "50", "oid": 261815512}}, {"type": "Feature", "geometry": {"type": "LineString", "coordinates": [[11.896, -4.751], [11.923, -4.833]]}, "properties": {"v": 220000, "f": "50", "oid": 325722852}}, {"type": "Feature", "geometry": {"type": "LineString", "coordinates": [[11.896, -4.75], [11.907, -4.728]]}, "properties": {"v": 220000, "f": "50", "oid": 261816568}}, {"type": "Feature", "geometry": {"type": "LineString", "coordinates": [[11.919, -4.732], [11.918, -4.731]]}, "properties": {"v": 220000, "f": "50", "oid": 261815501}}, {"type": "Feature", "geometry": {"type": "LineString", "coordinates": [[11.918, -4.731], [11.919, -4.732]]}, "properties": {"v": 220000, "f": "50", "oid": 261815493}}, {"type": "Feature", "geometry": {"type": "LineString", "coordinates": [[11.917, -4.731], [11.918, -4.732]]}, "properties": {"v": 220000, "f": "50", "oid": 261815506}}, {"type": "Feature", "geometry": {"type": "LineString", "coordinates": [[11.918, -4.732], [11.917, -4.731]]}, "properties": {"v": 220000, "f": "50", "oid": 261815481}}, {"type": "Feature", "geometry": {"type": "LineString", "coordinates": [[11.917, -4.731], [11.907, -4.728]]}, "properties": {"v": 220000, "f": "50", "oid": 261815517}}, {"type": "Feature", "geometry": {"type": "LineString", "coordinates": [[11.907, -4.728], [12.088, -4.531]]}, "properties": {"v": 220000, "f": "50", "oid": 662222337}}, {"type": "Feature", "geometry": {"type": "LineString", "coordinates": [[13.303, -1.667], [13.241, -1.571]]}, "properties": {"v": 63000, "oid": 662947348}}, {"type": "Feature", "geometry": {"type": "LineString", "coordinates": [[13.425, -1.66], [13.303, -1.667]]}, "properties": {"v": 63000, "f": "50", "oid": 510535878}}, {"type": "Feature", "geometry": {"type": "LineString", "coordinates": [[13.421, -1.653], [13.425, -1.66]]}, "properties": {"v": 63000, "f": "50", "oid": 695780335}}, {"type": "Feature", "geometry": {"type": "LineString", "coordinates": [[13.425, -1.661], [13.545, -1.763]]}, "properties": {"v": 63000, "oid": 662947354}}, {"type": "Feature", "geometry": {"type": "LineString", "coordinates": [[13.542, -1.753], [13.545, -1.764]]}, "properties": {"v": 115000, "f": "50", "oid": 695780333}}, {"type": "Feature", "geometry": {"type": "LineString", "coordinates": [[13.542, -1.753], [13.615, -1.73], [13.573, -1.644]]}, "properties": {"v": 115000, "f": "50", "oid": 662947363}}, {"type": "Feature", "geometry": {"type": "LineString", "coordinates": [[13.545, -1.763], [13.615, -1.73], [13.573, -1.644]]}, "properties": {"v": 63000, "f": "50", "oid": 509847715}}, {"type": "Feature", "geometry": {"type": "LineString", "coordinates": [[15.683, -2.456], [15.359, -2.344], [14.97, -2.421], [14.782, -2.524]]}, "properties": {"v": 110000, "f": "50", "oid": 469231581}}, {"type": "Feature", "geometry": {"type": "LineString", "coordinates": [[14.849, -4.358], [14.793, -4.35]]}, "properties": {"v": 220000, "oid": 584714431}}, {"type": "Feature", "geometry": {"type": "LineString", "coordinates": [[15.226, -4.225], [15.002, -4.363], [14.849, -4.358]]}, "properties": {"v": 220000, "f": "50", "oid": 303185830}}, {"type": "Feature", "geometry": {"type": "LineString", "coordinates": [[15.226, -4.226], [15.188, -4.328]]}, "properties": {"v": 220000, "f": "50", "oid": 303185829}}, {"type": "Feature", "geometry": {"type": "LineString", "coordinates": [[15.34, -4.468], [15.455, -4.456], [15.606, -4.309], [15.626, -4.182], [15.533, -4.092]]}, "properties": {"v": 220000, "nm": "220kV Kimwenza - Maluku", "op": "SNEL", "c": 2, "f": "50", "oid": 1233236771}}, {"type": "Feature", "geometry": {"type": "LineString", "coordinates": [[15.362, -1.017], [15.399, -0.943], [15.634, -0.898], [15.747, -0.93], [16.008, -1.174]]}, "properties": {"v": 110000, "f": "50", "oid": 662634523}}, {"type": "Feature", "geometry": {"type": "LineString", "coordinates": [[15.534, -4.091], [16.013, -4.285], [16.429, -4.072], [16.556, -3.854]]}, "properties": {"v": 220000, "nm": "220kV Maluku - Bandundu", "op": "SNEL", "oid": 286737300}}, {"type": "Feature", "geometry": {"type": "LineString", "coordinates": [[15.683, -2.457], [15.673, -2.508], [15.777, -2.545], [15.918, -2.734], [15.988, -2.732], [16.039, -2.938]]}, "properties": {"v": 220000, "f": "50", "oid": 662444398}}, {"type": "Feature", "geometry": {"type": "LineString", "coordinates": [[15.683, -2.457], [15.919, -2.733], [15.989, -2.731], [16.039, -2.938]]}, "properties": {"v": 220000, "f": "50", "oid": 662444397}}, {"type": "Feature", "geometry": {"type": "LineString", "coordinates": [[15.892, -1.866], [15.814, -2.331], [15.684, -2.458]]}, "properties": {"v": 220000, "f": "50", "oid": 662444402}}, {"type": "Feature", "geometry": {"type": "LineString", "coordinates": [[15.876, -0.489], [15.923, -0.657], [15.748, -0.93], [16.008, -1.174]]}, "properties": {"v": 110000, "f": "50", "oid": 662651302}}, {"type": "Feature", "geometry": {"type": "LineString", "coordinates": [[17.376, -3.294], [17.26, -3.355], [17.153, -3.66], [16.631, -3.772]]}, "properties": {"v": 220000, "f": "50", "oid": 661251449}}, {"type": "Feature", "geometry": {"type": "LineString", "coordinates": [[13.047, -5.791], [13.074, -5.732]]}, "properties": {"v": 220000, "c": 1, "f": "50", "oid": 717536729}}, {"type": "Feature", "geometry": {"type": "LineString", "coordinates": [[13.074, -5.732], [13.289, -5.508]]}, "properties": {"v": 220000, "c": 1, "f": "50", "oid": 865689670}}, {"type": "Feature", "geometry": {"type": "LineString", "coordinates": [[13.289, -4.174], [13.077, -4.116]]}, "properties": {"v": 220000, "f": "50", "oid": 384205485}}, {"type": "Feature", "geometry": {"type": "LineString", "coordinates": [[14.35, -4.246], [14.254, -4.225], [14.024, -4.319], [13.882, -4.299], [13.775, -4.203], [13.289, -4.174]]}, "properties": {"v": 220000, "f": "50", "oid": 384205486}}, {"type": "Feature", "geometry": {"type": "LineString", "coordinates": [[13.289, -4.173], [13.411, -4.167]]}, "properties": {"v": 110000, "f": "50", "oid": 694348416}}, {"type": "Feature", "geometry": {"type": "LineString", "coordinates": [[13.623, -5.522], [13.928, -5.669], [14.143, -5.64]]}, "properties": {"v": 400000, "f": "50", "oid": 746346550}}, {"type": "Feature", "geometry": {"type": "LineString", "coordinates": [[13.612, -5.526], [13.668, -5.572], [15.295, -4.712]]}, "properties": {"v": 500000, "nm": "Inga–Shaba HVDC", "f": "0", "oid": 626214770}}, {"type": "Feature", "geometry": {"type": "LineString", "coordinates": [[13.612, -5.525], [13.668, -5.571], [15.295, -4.712]]}, "properties": {"v": 500000, "nm": "Inga–Shaba HVDC", "f": "0", "oid": 778351020}}, {"type": "Feature", "geometry": {"type": "LineString", "coordinates": [[14.253, -5.62], [14.04, -5.694], [13.808, -5.683], [13.625, -5.525]]}, "properties": {"v": 220000, "nm": "220kV Inga - Kwilu", "c": 2, "f": "50", "oid": 230568961}}, {"type": "Feature", "geometry": {"type": "LineString", "coordinates": [[13.77, -3.903], [13.855, -4.027], [13.847, -4.144]]}, "properties": {"v": 110000, "f": "50", "oid": 662509403}}, {"type": "Feature", "geometry": {"type": "LineString", "coordinates": [[13.77, -3.903], [13.86, -4.117], [14.043, -4.219]]}, "properties": {"v": 110000, "f": "50", "oid": 662509408}}, {"type": "Feature", "geometry": {"type": "LineString", "coordinates": [[13.847, -4.144], [13.772, -4.196]]}, "properties": {"v": 110000, "f": "50", "oid": 694348418}}, {"type": "Feature", "geometry": {"type": "LineString", "coordinates": [[13.847, -4.144], [13.853, -4.145]]}, "properties": {"v": 110000, "f": "50", "oid": 694348419}}, {"type": "Feature", "geometry": {"type": "LineString", "coordinates": [[14.043, -4.219], [14.148, -4.29]]}, "properties": {"v": 110000, "f": "50", "oid": 721553229}}, {"type": "Feature", "geometry": {"type": "LineString", "coordinates": [[14.148, -4.29], [14.254, -4.225], [14.35, -4.246]]}, "properties": {"v": 110000, "f": "50", "oid": 662504793}}, {"type": "Feature", "geometry": {"type": "LineString", "coordinates": [[14.172, -5.631], [14.487, -5.504], [15.032, -5.09], [15.221, -4.638], [15.192, -4.52], [15.339, -4.468]]}, "properties": {"v": 400000, "nm": "400kV Inga - Kimwenza", "f": "50", "oid": 792915456}}, {"type": "Feature", "geometry": {"type": "LineString", "coordinates": [[15.34, -4.469], [15.258, -4.548], [15.194, -4.852], [15.051, -5.133], [14.618, -5.47], [14.254, -5.62]]}, "properties": {"v": 220000, "nm": "220kV Kwilu - Kimwenza", "c": 2, "f": "50", "oid": 384190117}}, {"type": "Feature", "geometry": {"type": "LineString", "coordinates": [[14.351, -4.247], [14.793, -4.35]]}, "properties": {"v": 220000, "f": "50", "oid": 662610931}}, {"type": "Feature", "geometry": {"type": "LineString", "coordinates": [[13.688, 9.061], [13.511, 9.124], [13.366, 9.313]]}, "properties": {"v": 110000, "f": "50", "oid": 330510065}}, {"type": "Feature", "geometry": {"type": "LineString", "coordinates": [[13.366, 9.313], [13.511, 9.124], [13.688, 9.061]]}, "properties": {"v": 110000, "f": "50", "oid": 330510066}}, {"type": "Feature", "geometry": {"type": "LineString", "coordinates": [[13.942, 9.913], [13.737, 9.518], [13.368, 9.313]]}, "properties": {"v": 90000, "f": "50", "oid": 664894426}}, {"type": "Feature", "geometry": {"type": "LineString", "coordinates": [[13.688, 9.061], [13.54, 8.98], [13.501, 8.831], [13.533, 8.522], [13.731, 8.474], [13.736, 8.417], [13.557, 7.99], [13.604, 7.908], [13.522, 7.759], [13.564, 7.33]]}, "properties": {"v": 110000, "f": "50", "oid": 332290654}}, {"type": "Feature", "geometry": {"type": "LineString", "coordinates": [[13.688, 9.061], [13.687, 9.061]]}, "properties": {"v": 110000, "f": "50", "oid": 664829077}}, {"type": "Feature", "geometry": {"type": "LineString", "coordinates": [[13.687, 9.061], [13.688, 9.061]]}, "properties": {"v": 110000, "f": "50", "oid": 664829076}}, {"type": "Feature", "geometry": {"type": "LineString", "coordinates": [[14.338, 10.626], [14.237, 10.548], [14.248, 10.356], [14.137, 10.071], [13.942, 9.913]]}, "properties": {"v": 90000, "f": "50", "oid": 204080856}}, {"type": "Feature", "geometry": {"type": "LineString", "coordinates": [[15.892, -1.866], [15.941, -1.77], [15.882, -1.665], [15.94, -1.46], [15.911, -1.311], [16.007, -1.174]]}, "properties": {"v": 220000, "f": "50", "oid": 315125422}}, {"type": "Feature", "geometry": {"type": "LineString", "coordinates": [[10.716, 1.828], [10.473, 2.01]]}, "properties": {"v": 220000, "f": "50", "oid": 640988977}}, {"type": "Feature", "geometry": {"type": "LineString", "coordinates": [[11.309, 2.162], [10.63, 2.148], [10.473, 2.01]]}, "properties": {"v": 220000, "nm": "1x 220kV", "f": "50", "oid": 642937157}}, {"type": "Feature", "geometry": {"type": "LineString", "coordinates": [[10.564, 1.444], [10.571, 1.137], [10.66, 1.035]]}, "properties": {"v": 110000, "nm": "1x 110kV", "f": "50", "oid": 662753404}}, {"type": "Feature", "geometry": {"type": "LineString", "coordinates": [[10.578, 1.644], [10.574, 1.666]]}, "properties": {"v": 220000, "f": "50", "oid": 642932781}}, {"type": "Feature", "geometry": {"type": "LineString", "coordinates": [[10.574, 1.667], [10.612, 1.773], [10.716, 1.828]]}, "properties": {"v": 220000, "f": "50", "oid": 495553951}}, {"type": "Feature", "geometry": {"type": "LineString", "coordinates": [[10.83, 1.648], [10.954, 1.624], [11.028, 1.704]]}, "properties": {"v": 110000, "nm": "1x 110kV", "f": "50", "oid": 640980457}}, {"type": "Feature", "geometry": {"type": "LineString", "coordinates": [[10.831, 1.649], [10.836, 1.707]]}, "properties": {"v": 220000, "nm": "1x 220kV", "f": "50", "oid": 640980462}}, {"type": "Feature", "geometry": {"type": "LineString", "coordinates": [[11.287, 1.646], [11.024, 1.723], [10.954, 1.625], [10.831, 1.648]]}, "properties": {"v": 220000, "nm": "1x 220kV", "f": "50", "oid": 640980454}}, {"type": "Feature", "geometry": {"type": "LineString", "coordinates": [[11.093, 1.871], [11.288, 1.646]]}, "properties": {"v": 110000, "nm": "1x 110 kV", "f": "50", "oid": 662862976}}, {"type": "Feature", "geometry": {"type": "LineString", "coordinates": [[11.309, 2.162], [11.332, 1.987], [11.258, 1.924], [11.243, 1.768], [11.287, 1.646]]}, "properties": {"v": 220000, "nm": "1x 220 kV", "f": "50", "oid": 640947887}}, {"type": "Feature", "geometry": {"type": "LineString", "coordinates": [[11.492, 3.785], [11.649, 3.784], [11.838, 3.89], [12.58, 3.9], [12.854, 3.991], [13.178, 4.003]]}, "properties": {"v": 225000, "oid": 1208830171}}, {"type": "Feature", "geometry": {"type": "LineString", "coordinates": [[12.067, -4.518], [12.067, -4.519]]}, "properties": {"v": 220000, "f": "50", "oid": 662222335}}, {"type": "Feature", "geometry": {"type": "LineString", "coordinates": [[12.067, -4.519], [12.088, -4.531]]}, "properties": {"v": 220000, "f": "50", "oid": 325722858}}, {"type": "Feature", "geometry": {"type": "LineString", "coordinates": [[12.088, -4.531], [12.543, -4.479], [12.68, -4.366], [12.732, -4.209], [13.007, -4.182], [13.076, -4.116]]}, "properties": {"v": 220000, "f": "50", "oid": 325722838}}, {"type": "Feature", "geometry": {"type": "LineString", "coordinates": [[13.077, -4.114], [12.983, -4.185], [12.677, -4.189]]}, "properties": {"v": 110000, "f": "50", "oid": 694433611}}, {"type": "Feature", "geometry": {"type": "LineString", "coordinates": [[11.354, -2.262], [11.459, -2.238]]}, "properties": {"v": 90000, "f": "50", "oid": 662997576}}, {"type": "Feature", "geometry": {"type": "LineString", "coordinates": [[11.229, 1.501], [11.311, 1.465]]}, "properties": {"v": 110000, "nm": "1x 110kV", "f": "50", "oid": 641328419}}, {"type": "Feature", "geometry": {"type": "LineString", "coordinates": [[11.312, 1.465], [11.272, 1.304]]}, "properties": {"v": 110000, "oid": 641328437}}, {"type": "Feature", "geometry": {"type": "LineString", "coordinates": [[11.477, 3.763], [11.53, 3.674], [11.511, 3.354], [11.395, 3.243], [11.223, 3.265]]}, "properties": {"v": 90000, "op": "EDC", "oid": 221972358}}, {"type": "Feature", "geometry": {"type": "LineString", "coordinates": [[10.836, 1.707], [10.716, 1.828]]}, "properties": {"v": 220000, "f": "50", "oid": 697049514}}, {"type": "Feature", "geometry": {"type": "LineString", "coordinates": [[10.83, 1.648], [10.748, 1.832]]}, "properties": {"v": 220000, "f": "50", "oid": 643155302}}, {"type": "Feature", "geometry": {"type": "LineString", "coordinates": [[11.144, 2.864], [11.144, 2.865]]}, "properties": {"v": 225000, "c": 1, "oid": 1387312843}}, {"type": "Feature", "geometry": {"type": "LineString", "coordinates": [[11.144, 2.864], [11.144, 2.865]]}, "properties": {"v": 225000, "c": 1, "oid": 1387312842}}, {"type": "Feature", "geometry": {"type": "LineString", "coordinates": [[10.351, 2.372], [10.438, 2.453], [10.613, 2.371], [10.995, 2.55], [11.144, 2.864]]}, "properties": {"v": 225000, "c": 2, "f": "50", "oid": 695456157}}, {"type": "Feature", "geometry": {"type": "LineString", "coordinates": [[11.144, 2.866], [11.411, 2.932], [11.407, 3.233], [11.542, 3.381], [11.478, 3.764]]}, "properties": {"v": 225000, "f": "50", "oid": 870781508}}, {"type": "Feature", "geometry": {"type": "LineString", "coordinates": [[11.467, 3.877], [11.145, 3.799], [10.87, 3.889]]}, "properties": {"v": 90000, "op": "EDC", "f": "50", "oid": 276833231}}, {"type": "Feature", "geometry": {"type": "LineString", "coordinates": [[23.186, -10.702], [23.342, -10.676], [23.473, -10.392], [23.863, -10.475], [24.097, -10.404], [24.511, -10.584], [24.726, -10.573]]}, "properties": {"v": 120000, "nm": "120kV RO - Kisenge", "f": "50", "oid": 224129619}}, {"type": "Feature", "geometry": {"type": "LineString", "coordinates": [[25.248, -10.667], [24.726, -10.573]]}, "properties": {"v": 120000, "nm": "120kV RO - Kisenge", "f": "50", "oid": 735085294}}, {"type": "Feature", "geometry": {"type": "LineString", "coordinates": [[24.875, -8.745], [24.875, -8.746]]}, "properties": {"v": 500000, "nm": "Inga–Shaba HVDC (substation Kamina)", "f": "0", "oid": 778351010}}, {"type": "Feature", "geometry": {"type": "LineString", "coordinates": [[24.875, -8.746], [24.986, -8.878], [25.331, -10.22]]}, "properties": {"v": 500000, "nm": "Inga–Shaba HVDC", "f": "0", "oid": 778351009}}, {"type": "Feature", "geometry": {"type": "LineString", "coordinates": [[24.875, -8.745], [24.987, -8.878], [25.331, -10.22]]}, "properties": {"v": 500000, "nm": "Inga–Shaba HVDC", "f": "0", "oid": 778351007}}, {"type": "Feature", "geometry": {"type": "LineString", "coordinates": [[25.175, -10.909], [25.186, -10.89]]}, "properties": {"v": 33000, "oid": 1111842180}}, {"type": "Feature", "geometry": {"type": "LineString", "coordinates": [[25.186, -10.89], [25.175, -10.908]]}, "properties": {"v": 33000, "oid": 1111842179}}, {"type": "Feature", "geometry": {"type": "LineString", "coordinates": [[25.241, -10.811], [25.186, -10.882]]}, "properties": {"v": 120000, "nm": "120kV Kansoko - Kakula (KCS)", "op": "KAMOA Copper SA", "c": 2, "f": "50", "oid": 689060300}}, {"type": "Feature", "geometry": {"type": "LineString", "coordinates": [[25.248, -10.667], [25.24, -10.812]]}, "properties": {"v": 120000, "nm": "120kV Kansoko - T-Off", "oid": 689060299}}, {"type": "Feature", "geometry": {"type": "LineString", "coordinates": [[25.24, -10.812], [25.242, -10.819]]}, "properties": {"v": 33000, "op": "Kamoa", "c": 1, "f": "50", "oid": 1321599718}}, {"type": "Feature", "geometry": {"type": "LineString", "coordinates": [[25.242, -10.819], [25.24, -10.812]]}, "properties": {"v": 33000, "op": "Kamoa", "c": 1, "f": "50", "oid": 1321599719}}, {"type": "Feature", "geometry": {"type": "LineString", "coordinates": [[25.364, -10.693], [25.301, -10.717], [25.318, -10.859], [25.242, -11.019]]}, "properties": {"v": 220000, "nm": "220kV NRO - Kalongwe", "c": 1, "f": "50", "oid": 1321599725}}, {"type": "Feature", "geometry": {"type": "LineString", "coordinates": [[25.252, -10.815], [25.247, -10.829]]}, "properties": {"v": 33000, "c": 1, "f": "50", "oid": 1321599585}}, {"type": "Feature", "geometry": {"type": "LineString", "coordinates": [[25.247, -10.828], [25.252, -10.816]]}, "properties": {"v": 33000, "c": 1, "f": "50", "oid": 1321599586}}, {"type": "Feature", "geometry": {"type": "LineString", "coordinates": [[25.453, -10.664], [25.248, -10.667]]}, "properties": {"v": 120000, "nm": "120kV RO - Kisenge", "f": "50", "oid": 49132242}}, {"type": "Feature", "geometry": {"type": "LineString", "coordinates": [[25.331, -10.22], [25.337, -10.316]]}, "properties": {"v": 500000, "nm": "Inga–Shaba HVDC", "f": "0", "oid": 1193428916}}, {"type": "Feature", "geometry": {"type": "LineString", "coordinates": [[25.338, -10.316], [25.331, -10.22]]}, "properties": {"v": 500000, "nm": "Inga–Shaba HVDC", "f": "0", "oid": 1193428917}}, {"type": "Feature", "geometry": {"type": "LineString", "coordinates": [[25.337, -10.316], [25.32, -10.557], [25.452, -10.656]]}, "properties": {"v": 500000, "nm": "Inga–Shaba HVDC", "f": "0", "oid": 1193428921}}, {"type": "Feature", "geometry": {"type": "LineString", "coordinates": [[25.338, -10.316], [25.32, -10.557], [25.453, -10.656]]}, "properties": {"v": 500000, "nm": "Inga–Shaba HVDC", "f": "0", "oid": 1193428920}}, {"type": "Feature", "geometry": {"type": "LineString", "coordinates": [[25.247, -10.81], [25.253, -10.802]]}, "properties": {"v": 33000, "c": 1, "f": "50", "oid": 1321576830}}, {"type": "Feature", "geometry": {"type": "LineString", "coordinates": [[25.246, -10.812], [25.251, -10.814]]}, "properties": {"v": 33000, "c": 1, "f": "50", "oid": 1321599683}}, {"type": "Feature", "geometry": {"type": "LineString", "coordinates": [[25.247, -10.81], [25.253, -10.802]]}, "properties": {"v": 33000, "c": 1, "f": "50", "oid": 1321576829}}, {"type": "Feature", "geometry": {"type": "LineString", "coordinates": [[25.246, -10.811], [25.251, -10.814]]}, "properties": {"v": 33000, "c": 1, "f": "50", "oid": 1321599684}}, {"type": "Feature", "geometry": {"type": "LineString", "coordinates": [[25.364, -10.694], [25.243, -10.813]]}, "properties": {"v": 220000, "nm": "220kV NRO - Kansoko", "op": "SNEL", "c": 2, "f": "50", "oid": 689060301}}, {"type": "Feature", "geometry": {"type": "LineString", "coordinates": [[25.242, -10.813], [25.189, -10.882]]}, "properties": {"v": 220000, "nm": "220kV Kansoko - Kakula", "op": "SNEL", "c": 2, "f": "50", "oid": 1301364357}}, {"type": "Feature", "geometry": {"type": "LineString", "coordinates": [[25.234, -10.827], [25.242, -10.819]]}, "properties": {"v": 33000, "op": "Kamoa", "c": 1, "f": "50", "oid": 1321599720}}, {"type": "Feature", "geometry": {"type": "LineString", "coordinates": [[22.448, -5.991], [23.409, -7.082], [24.561, -8.163], [24.685, -8.517], [24.875, -8.745]]}, "properties": {"v": 500000, "nm": "Inga–Shaba HVDC", "f": "0", "oid": 461638193}}, {"type": "Feature", "geometry": {"type": "LineString", "coordinates": [[22.448, -5.991], [23.41, -7.082], [24.562, -8.163], [24.685, -8.517], [24.875, -8.745]]}, "properties": {"v": 500000, "nm": "Inga–Shaba HVDC", "f": "0", "oid": 224147292}}, {"type": "Feature", "geometry": {"type": "LineString", "coordinates": [[18.785, -5.111], [20.286, -5.928], [21.668, -6.132], [22.287, -6.008], [22.36, -5.94], [22.448, -5.991]]}, "properties": {"v": 500000, "nm": "Inga–Shaba HVDC", "f": "0", "oid": 49423895}}, {"type": "Feature", "geometry": {"type": "LineString", "coordinates": [[18.786, -5.111], [20.286, -5.927], [21.668, -6.132], [22.287, -6.007], [22.36, -5.939], [22.448, -5.991]]}, "properties": {"v": 500000, "nm": "Inga–Shaba HVDC", "f": "0", "oid": 460419487}}, {"type": "Feature", "geometry": {"type": "LineString", "coordinates": [[17.704, -4.771], [18.064, -4.814], [18.482, -5.053], [18.785, -5.111]]}, "properties": {"v": 500000, "nm": "Inga–Shaba HVDC", "f": "0", "oid": 979570586}}, {"type": "Feature", "geometry": {"type": "LineString", "coordinates": [[18.785, -5.111], [18.786, -5.111]]}, "properties": {"v": 500000, "nm": "Inga–Shaba HVDC (substation Kikwit)", "f": "0", "oid": 778351027}}, {"type": "Feature", "geometry": {"type": "LineString", "coordinates": [[15.295, -4.712], [15.751, -4.532], [16.651, -4.721], [18.064, -4.814], [18.478, -5.051], [18.785, -5.111]]}, "properties": {"v": 500000, "nm": "Inga–Shaba HVDC", "f": "0", "oid": 979570584}}, {"type": "Feature", "geometry": {"type": "LineString", "coordinates": [[14.957, -4.843], [14.906, -4.783]]}, "properties": {"v": 70000, "f": "50", "oid": 1028706649}}, {"type": "Feature", "geometry": {"type": "LineString", "coordinates": [[14.868, -4.78], [14.906, -4.783]]}, "properties": {"v": 70000, "f": "50", "oid": 1233244315}}, {"type": "Feature", "geometry": {"type": "LineString", "coordinates": [[14.903, -4.781], [14.906, -4.783]]}, "properties": {"v": 70000, "f": "50", "oid": 1233246032}}, {"type": "Feature", "geometry": {"type": "LineString", "coordinates": [[14.906, -4.783], [14.903, -4.781]]}, "properties": {"v": 70000, "f": "50", "oid": 1233246033}}, {"type": "Feature", "geometry": {"type": "LineString", "coordinates": [[14.906, -4.783], [14.903, -4.781]]}, "properties": {"v": 70000, "f": "50", "oid": 1233241783}}, {"type": "Feature", "geometry": {"type": "LineString", "coordinates": [[15.295, -4.712], [15.713, -4.53], [16.651, -4.721], [17.704, -4.771]]}, "properties": {"v": 500000, "nm": "Inga–Shaba HVDC", "f": "0", "oid": 979570587}}, {"type": "Feature", "geometry": {"type": "LineString", "coordinates": [[13.542, -1.752], [13.281, -1.501]]}, "properties": {"v": 225000, "f": "50", "oid": 662947352}}, {"type": "Feature", "geometry": {"type": "LineString", "coordinates": [[13.624, -5.524], [13.454, -5.591]]}, "properties": {"v": 132000, "f": "50", "oid": 662476841}}, {"type": "Feature", "geometry": {"type": "LineString", "coordinates": [[14.254, -5.62], [14.415, -5.568]]}, "properties": {"v": 70000, "nm": "220kV Kwilu - Zongo I", "c": 2, "f": "50", "oid": 409268457}}, {"type": "Feature", "geometry": {"type": "LineString", "coordinates": [[13.454, -5.591], [13.303, -5.492]]}, "properties": {"v": 132000, "f": "50", "oid": 661218767}}, {"type": "Feature", "geometry": {"type": "LineString", "coordinates": [[14.143, -5.64], [14.172, -5.631]]}, "properties": {"v": 400000, "f": "50", "oid": 1209435921}}, {"type": "Feature", "geometry": {"type": "LineString", "coordinates": [[13.623, -5.523], [13.61, -5.524]]}, "properties": {"v": 400000, "oid": 179862613}}, {"type": "Feature", "geometry": {"type": "LineString", "coordinates": [[13.61, -5.524], [13.622, -5.523]]}, "properties": {"v": 400000, "oid": 179862611}}, {"type": "Feature", "geometry": {"type": "LineString", "coordinates": [[13.625, -5.525], [13.625, -5.524]]}, "properties": {"v": 220000, "f": "50", "oid": 661218770}}, {"type": "Feature", "geometry": {"type": "LineString", "coordinates": [[13.446, -5.831], [13.454, -5.591]]}, "properties": {"v": 132000, "f": "50", "oid": 653388945}}, {"type": "Feature", "geometry": {"type": "LineString", "coordinates": [[25.396, -10.676], [25.397, -10.675]]}, "properties": {"v": 120000, "f": "50", "oid": 660580847}}, {"type": "Feature", "geometry": {"type": "LineString", "coordinates": [[25.397, -10.675], [25.396, -10.676]]}, "properties": {"v": 120000, "f": "50", "oid": 660580844}}, {"type": "Feature", "geometry": {"type": "LineString", "coordinates": [[25.4, -10.677], [25.397, -10.675]]}, "properties": {"v": 120000, "f": "50", "oid": 660580849}}, {"type": "Feature", "geometry": {"type": "LineString", "coordinates": [[25.453, -10.665], [25.4, -10.677]]}, "properties": {"v": 120000, "f": "50", "oid": 660579657}}, {"type": "Feature", "geometry": {"type": "LineString", "coordinates": [[25.425, -10.642], [25.453, -10.664]]}, "properties": {"v": 120000, "nm": "120kV RO - Metalkol", "c": 1, "f": "50", "oid": 660581229}}, {"type": "Feature", "geometry": {"type": "LineString", "coordinates": [[25.465, -10.661], [25.446, -10.502]]}, "properties": {"v": 120000, "nm": "120kV Nzilo - RO", "op": "SNEL", "c": 1, "f": "50", "oid": 661684100}}, {"type": "Feature", "geometry": {"type": "LineString", "coordinates": [[25.465, -10.662], [25.446, -10.502]]}, "properties": {"v": 120000, "op": "SNEL", "c": 2, "f": "50", "oid": 1197816126}}, {"type": "Feature", "geometry": {"type": "LineString", "coordinates": [[25.451, -10.663], [25.454, -10.659]]}, "properties": {"v": 220000, "nm": "220kV SCK - Nseke", "op": "SNEL", "c": 1, "f": "50", "oid": 1193641284}}, {"type": "Feature", "geometry": {"type": "LineString", "coordinates": [[25.454, -10.659], [25.451, -10.663]]}, "properties": {"v": 220000, "nm": "220kV SCK - Nseke", "op": "SNEL", "c": 2, "f": "50", "oid": 1193641278}}, {"type": "Feature", "geometry": {"type": "LineString", "coordinates": [[25.453, -10.715], [25.454, -10.715]]}, "properties": {"v": 120000, "oid": 1148134119}}, {"type": "Feature", "geometry": {"type": "LineString", "coordinates": [[25.454, -10.663], [25.465, -10.648]]}, "properties": {"v": 120000, "f": "50", "oid": 661524344}}, {"type": "Feature", "geometry": {"type": "LineString", "coordinates": [[25.454, -10.664], [25.465, -10.661]]}, "properties": {"v": 120000, "nm": "120kV Nzilo - RO", "op": "SNEL", "c": 1, "f": "50", "oid": 1198213029}}, {"type": "Feature", "geometry": {"type": "LineString", "coordinates": [[25.465, -10.661], [25.454, -10.664]]}, "properties": {"v": 120000, "nm": "120kV RO - Commus", "f": "50", "oid": 1198213030}}, {"type": "Feature", "geometry": {"type": "LineString", "coordinates": [[25.463, -10.662], [25.454, -10.664]]}, "properties": {"v": 120000, "op": "SNEL", "c": 1, "f": "50", "oid": 1193583041}}, {"type": "Feature", "geometry": {"type": "LineString", "coordinates": [[25.463, -10.663], [25.454, -10.664]]}, "properties": {"v": 120000, "op": "SNEL", "c": 1, "f": "50", "oid": 1193583040}}, {"type": "Feature", "geometry": {"type": "LineString", "coordinates": [[25.454, -10.664], [25.463, -10.663]]}, "properties": {"v": 120000, "nm": "Sans titre - Trajet", "op": "SNEL", "c": 1, "f": "50", "oid": 1193633994}}, {"type": "Feature", "geometry": {"type": "LineString", "coordinates": [[25.454, -10.665], [25.464, -10.662]]}, "properties": {"v": 120000, "nm": "Sans titre - Trajet", "op": "SNEL", "c": 1, "f": "50", "oid": 1193633993}}, {"type": "Feature", "geometry": {"type": "LineString", "coordinates": [[25.454, -10.665], [25.463, -10.663]]}, "properties": {"v": 120000, "nm": "Sans titre - Trajet", "op": "SNEL", "c": 1, "f": "50", "oid": 1193641285}}, {"type": "Feature", "geometry": {"type": "LineString", "coordinates": [[25.455, -10.662], [25.455, -10.659]]}, "properties": {"v": 220000, "nm": "220kV SCK - NRO", "op": "SNEL", "c": 1, "f": "50", "oid": 1193641282}}, {"type": "Feature", "geometry": {"type": "LineString", "coordinates": [[25.455, -10.659], [25.454, -10.659]]}, "properties": {"v": 220000, "nm": "220kV SCK - Fungurume", "op": "SNEL", "c": 1, "f": "50", "oid": 661524355}}, {"type": "Feature", "geometry": {"type": "LineString", "coordinates": [[25.455, -10.659], [25.454, -10.659]]}, "properties": {"v": 220000, "nm": "220kV SCK - Fungurume", "op": "SNEL", "c": 1, "f": "50", "oid": 661524358}}, {"type": "Feature", "geometry": {"type": "LineString", "coordinates": [[25.455, -10.659], [25.455, -10.662]]}, "properties": {"v": 220000, "nm": "220kV SCK - NRO", "op": "SNEL", "c": 1, "f": "50", "oid": 1193641281}}, {"type": "Feature", "geometry": {"type": "LineString", "coordinates": [[25.599, -10.676], [25.455, -10.659]]}, "properties": {"v": 220000, "nm": "220kV SCK - RL", "op": "SNEL", "c": 1, "f": "50", "oid": 1194032942}}, {"type": "Feature", "geometry": {"type": "LineString", "coordinates": [[25.472, -10.643], [25.456, -10.663]]}, "properties": {"v": 120000, "nm": "120kV RO - Samukinda", "op": "SNEL", "c": 2, "f": "50", "oid": 1147822002}}, {"type": "Feature", "geometry": {"type": "LineString", "coordinates": [[25.473, -10.642], [25.48, -10.637]]}, "properties": {"v": 120000, "f": "50", "oid": 1147823468}}, {"type": "Feature", "geometry": {"type": "LineString", "coordinates": [[25.474, -10.624], [25.475, -10.625]]}, "properties": {"v": 120000, "f": "50", "oid": 1194032990}}, {"type": "Feature", "geometry": {"type": "LineString", "coordinates": [[25.7, -10.827], [25.592, -10.788]]}, "properties": {"v": 120000, "nm": "120kV RL - Carrilu", "op": "SNEL", "c": 1, "f": "50", "oid": 1148258148}}, {"type": "Feature", "geometry": {"type": "LineString", "coordinates": [[25.599, -10.676], [25.699, -10.826]]}, "properties": {"v": 220000, "nm": "220kV SCK - RL - Fungurume", "op": "SNEL", "c": 2, "f": "50", "oid": 1148217902}}, {"type": "Feature", "geometry": {"type": "LineString", "coordinates": [[25.698, -10.828], [25.699, -10.827]]}, "properties": {"v": 220000, "nm": "220kV RL - LCS2", "op": "SNEL", "c": 1, "f": "50", "oid": 1148258145}}, {"type": "Feature", "geometry": {"type": "LineString", "coordinates": [[25.698, -10.828], [25.699, -10.827]]}, "properties": {"v": 220000, "nm": "220kV RL - LCS1", "op": "SNEL", "c": 1, "f": "50", "oid": 1148258146}}, {"type": "Feature", "geometry": {"type": "LineString", "coordinates": [[25.7, -10.827], [25.778, -10.801]]}, "properties": {"v": 120000, "nm": "120kV RL - Deziwa", "op": "SNEL", "c": 1, "f": "50", "oid": 1148264831}}, {"type": "Feature", "geometry": {"type": "LineString", "coordinates": [[25.455, -8.888], [25.694, -9.157], [25.781, -9.452]]}, "properties": {"v": 120000, "nm": "120kV Luena - Kibula", "f": "50", "oid": 323276504}}, {"type": "Feature", "geometry": {"type": "LineString", "coordinates": [[25.81, -10.634], [25.465, -10.662]]}, "properties": {"v": 120000, "nm": "120kV RO - Kyavie", "op": "SNEL", "c": 2, "f": "50", "oid": 224120261}}, {"type": "Feature", "geometry": {"type": "LineString", "coordinates": [[25.448, -10.729], [25.465, -10.661]]}, "properties": {"v": 120000, "nm": "120kV RO - Commus", "f": "50", "oid": 1195179029}}, {"type": "Feature", "geometry": {"type": "LineString", "coordinates": [[25.781, -9.453], [25.849, -9.696], [25.964, -9.808], [25.955, -9.918]]}, "properties": {"v": 120000, "nm": "120kV Lubudi - Luena", "f": "50", "oid": 33601908}}, {"type": "Feature", "geometry": {"type": "LineString", "coordinates": [[25.794, -10.8], [25.81, -10.635]]}, "properties": {"v": 120000, "nm": "120kV Kyavie - MUMI2", "op": "SNEL", "c": 2, "f": "50", "oid": 1194098985}}, {"type": "Feature", "geometry": {"type": "LineString", "coordinates": [[25.816, -10.799], [25.795, -10.8]]}, "properties": {"v": 120000, "nm": "120kV MUMI1 - MUMI2", "op": "SNEL", "c": 2, "f": "50", "oid": 1194098982}}, {"type": "Feature", "geometry": {"type": "LineString", "coordinates": [[25.81, -10.635], [25.816, -10.8]]}, "properties": {"v": 120000, "nm": "120kV Kyavie - MUMI1", "op": "SNEL", "c": 2, "f": "50", "oid": 1194098984}}, {"type": "Feature", "geometry": {"type": "LineString", "coordinates": [[26.073, -10.392], [26.046, -10.222], [25.913, -10.055], [25.955, -9.919]]}, "properties": {"v": 120000, "nm": "120kV Dilongo - Lubudi", "f": "50", "oid": 33668240}}, {"type": "Feature", "geometry": {"type": "LineString", "coordinates": [[25.923, -10.774], [25.937, -10.689]]}, "properties": {"v": 120000, "nm": "120kV Kisanfu - MKM", "c": 1, "f": "50", "oid": 661608063}}, {"type": "Feature", "geometry": {"type": "LineString", "coordinates": [[25.937, -10.689], [25.929, -10.784]]}, "properties": {"v": 120000, "nm": "120kV Kisanfu - KIMIN", "c": 1, "f": "50", "oid": 1194115294}}, {"type": "Feature", "geometry": {"type": "LineString", "coordinates": [[26.13, -10.643], [25.957, -10.655]]}, "properties": {"v": 120000, "f": "50", "oid": 224110903}}, {"type": "Feature", "geometry": {"type": "LineString", "coordinates": [[26.115, -10.607], [26.018, -10.527], [26.073, -10.392]]}, "properties": {"v": 120000, "nm": "120kV Tenke - Dilongo", "f": "50", "oid": 661608061}}, {"type": "Feature", "geometry": {"type": "LineString", "coordinates": [[25.937, -10.689], [25.957, -10.655]]}, "properties": {"v": 120000, "nm": "120kV T-Off - Kisanfu", "f": "50", "oid": 224116038}}, {"type": "Feature", "geometry": {"type": "LineString", "coordinates": [[25.81, -10.634], [25.957, -10.655]]}, "properties": {"v": 120000, "nm": "120kV Kyavie - Fungurume", "op": "SNEL", "c": 1, "f": "50", "oid": 224116040}}, {"type": "Feature", "geometry": {"type": "LineString", "coordinates": [[25.991, -10.655], [25.987, -10.643]]}, "properties": {"v": 120000, "oid": 1111973884}}, {"type": "Feature", "geometry": {"type": "LineString", "coordinates": [[25.992, -10.652], [25.992, -10.655]]}, "properties": {"v": 120000, "oid": 1111973886}}, {"type": "Feature", "geometry": {"type": "LineString", "coordinates": [[25.987, -10.643], [25.987, -10.644]]}, "properties": {"v": 120000, "oid": 1111973885}}, {"type": "Feature", "geometry": {"type": "LineString", "coordinates": [[26.116, -10.607], [26.13, -10.643]]}, "properties": {"v": 120000, "f": "50", "oid": 217978747}}, {"type": "Feature", "geometry": {"type": "LineString", "coordinates": [[26.13, -10.643], [26.116, -10.607]]}, "properties": {"v": 120000, "f": "50", "oid": 217978749}}, {"type": "Feature", "geometry": {"type": "LineString", "coordinates": [[14.906, -4.782], [14.903, -4.781]]}, "properties": {"v": 70000, "f": "50", "oid": 1233241784}}, {"type": "Feature", "geometry": {"type": "LineString", "coordinates": [[14.906, -4.782], [14.903, -4.781]]}, "properties": {"v": 70000, "f": "50", "oid": 1233241785}}, {"type": "Feature", "geometry": {"type": "LineString", "coordinates": [[15.29, -4.381], [15.281, -4.347]]}, "properties": {"v": 220000, "f": "50", "oid": 694315963}}, {"type": "Feature", "geometry": {"type": "LineString", "coordinates": [[15.281, -4.347], [15.28, -4.346]]}, "properties": {"v": 220000, "f": "50", "oid": 694315961}}, {"type": "Feature", "geometry": {"type": "LineString", "coordinates": [[15.281, -4.347], [15.28, -4.346]]}, "properties": {"v": 220000, "f": "50", "oid": 694315960}}, {"type": "Feature", "geometry": {"type": "LineString", "coordinates": [[15.424, -4.459], [15.417, -4.453]]}, "properties": {"v": 220000, "nm": "220kV Kimwenza - Kimbanseke", "op": "SNEL", "c": 2, "f": "50", "oid": 1233236772}}, {"type": "Feature", "geometry": {"type": "LineString", "coordinates": [[15.226, -4.226], [15.226, -4.225]]}, "properties": {"v": 220000, "f": "50", "oid": 303185828}}, {"type": "Feature", "geometry": {"type": "LineString", "coordinates": [[15.226, -4.225], [15.233, -4.156], [15.321, -4.134]]}, "properties": {"v": 220000, "f": "50", "oid": 281513138}}, {"type": "Feature", "geometry": {"type": "LineString", "coordinates": [[15.321, -4.134], [15.518, -3.664], [15.671, -3.012], [15.516, -2.74], [15.683, -2.457]]}, "properties": {"v": 220000, "f": "50", "oid": 662444399}}, {"type": "Feature", "geometry": {"type": "LineString", "coordinates": [[15.355, -4.363], [15.325, -4.332]]}, "properties": {"v": 220000, "f": "50", "oid": 661218763}}, {"type": "Feature", "geometry": {"type": "LineString", "coordinates": [[15.34, -4.468], [15.355, -4.364]]}, "properties": {"v": 220000, "c": 2, "f": "50", "oid": 282407165}}, {"type": "Feature", "geometry": {"type": "LineString", "coordinates": [[15.679, 1.094], [15.784, 1.192], [15.955, 1.566], [16.045, 1.596]]}, "properties": {"v": 110000, "oid": 662465053}}, {"type": "Feature", "geometry": {"type": "LineString", "coordinates": [[15.188, -4.329], [15.28, -4.346]]}, "properties": {"v": 220000, "f": "50", "oid": 281513134}}, {"type": "Feature", "geometry": {"type": "LineString", "coordinates": [[15.198, -4.343], [15.194, -4.349]]}, "properties": {"v": 220000, "oid": 1383796882}}, {"type": "Feature", "geometry": {"type": "LineString", "coordinates": [[15.198, -4.343], [15.194, -4.348]]}, "properties": {"v": 220000, "oid": 1383796883}}, {"type": "Feature", "geometry": {"type": "LineString", "coordinates": [[14.907, -4.783], [15.035, -4.748], [15.244, -4.458]]}, "properties": {"v": 220000, "c": 1, "f": "50", "oid": 1028776989}}, {"type": "Feature", "geometry": {"type": "LineString", "coordinates": [[15.29, -4.381], [15.339, -4.467]]}, "properties": {"v": 220000, "c": 2, "f": "50", "oid": 282407164}}, {"type": "Feature", "geometry": {"type": "LineString", "coordinates": [[25.367, -10.719], [25.41, -10.126]]}, "properties": {"v": 220000, "nm": "220kV Busanga - Sicomines", "op": "SNEL", "c": 2, "f": "50", "oid": 827141252}}, {"type": "Feature", "geometry": {"type": "LineString", "coordinates": [[25.451, -10.663], [25.372, -10.631], [25.353, -10.54], [25.404, -10.305]]}, "properties": {"v": 220000, "nm": "220kV SCK - Nseke", "op": "SNEL", "c": 2, "f": "50", "oid": 33599911}}, {"type": "Feature", "geometry": {"type": "LineString", "coordinates": [[25.405, -10.305], [25.356, -10.395], [25.446, -10.501]]}, "properties": {"v": 120000, "nm": "120kV Nzilo - Nseke", "c": 1, "f": "50", "oid": 33661080}}, {"type": "Feature", "geometry": {"type": "LineString", "coordinates": [[25.365, -10.692], [25.38, -10.634], [25.455, -10.662]]}, "properties": {"v": 220000, "nm": "220kV SCK - NRO", "op": "SNEL", "c": 2, "f": "50", "oid": 661524371}}, {"type": "Feature", "geometry": {"type": "LineString", "coordinates": [[25.368, -10.719], [25.364, -10.694]]}, "properties": {"v": 220000, "nm": "220kV NRO - Sicomines", "op": "SNEL", "c": 2, "f": "50", "oid": 1177405771}}, {"type": "Feature", "geometry": {"type": "LineString", "coordinates": [[25.364, -10.694], [25.364, -10.693]]}, "properties": {"v": 220000, "nm": "220kV NRO - Kakula", "op": "SNEL", "c": 1, "f": "50", "oid": 1177405768}}, {"type": "Feature", "geometry": {"type": "LineString", "coordinates": [[25.364, -10.693], [25.364, -10.694]]}, "properties": {"v": 220000, "nm": "220kV NRO - Kakula", "op": "SNEL", "c": 1, "f": "50", "oid": 1193304797}}, {"type": "Feature", "geometry": {"type": "LineString", "coordinates": [[25.364, -10.694], [25.364, -10.693]]}, "properties": {"v": 220000, "nm": "220kV NRO - Sicomines", "op": "SNEL", "c": 1, "f": "50", "oid": 1177405769}}, {"type": "Feature", "geometry": {"type": "LineString", "coordinates": [[25.364, -10.694], [25.364, -10.693]]}, "properties": {"v": 220000, "nm": "220kV NRO - Sicomines", "op": "SNEL", "c": 1, "f": "50", "oid": 1193304798}}, {"type": "Feature", "geometry": {"type": "LineString", "coordinates": [[25.396, -10.698], [25.388, -10.724]]}, "properties": {"v": 120000, "f": "50", "oid": 661678463}}, {"type": "Feature", "geometry": {"type": "LineString", "coordinates": [[25.391, -10.709], [25.388, -10.724]]}, "properties": {"v": 120000, "oid": 661678835}}, {"type": "Feature", "geometry": {"type": "LineString", "coordinates": [[25.396, -10.698], [25.453, -10.664]]}, "properties": {"v": 120000, "f": "50", "oid": 661524363}}, {"type": "Feature", "geometry": {"type": "LineString", "coordinates": [[25.4, -10.677], [25.396, -10.698]]}, "properties": {"v": 120000, "f": "50", "oid": 660580840}}, {"type": "Feature", "geometry": {"type": "LineString", "coordinates": [[25.453, -10.664], [25.372, -10.631], [25.353, -10.54], [25.405, -10.305]]}, "properties": {"v": 120000, "nm": "120kV Nseke - RO", "c": 1, "f": "50", "oid": 224132604}}, {"type": "Feature", "geometry": {"type": "LineString", "coordinates": [[25.454, -10.663], [25.454, -10.659]]}, "properties": {"v": 120000, "nm": "120kV RO - SCK", "op": "SNEL", "c": 2, "f": "50", "oid": 1193641283}}, {"type": "Feature", "geometry": {"type": "LineString", "coordinates": [[25.393, -10.683], [25.453, -10.664]]}, "properties": {"v": 120000, "f": "50", "oid": 218072926}}, {"type": "Feature", "geometry": {"type": "LineString", "coordinates": [[15.101, 12.414], [15.044, 12.396], [15.05, 12.213]]}, "properties": {"v": 66000, "f": "50", "oid": 288799111}}, {"type": "Feature", "geometry": {"type": "LineString", "coordinates": [[15.05, 12.213], [15.052, 12.212]]}, "properties": {"v": 66000, "f": "50", "oid": 665135497}}, {"type": "Feature", "geometry": {"type": "LineString", "coordinates": [[15.052, 12.212], [15.051, 12.212]]}, "properties": {"v": 66000, "f": "50", "oid": 665135498}}, {"type": "Feature", "geometry": {"type": "LineString", "coordinates": [[15.051, 12.211], [14.995, 12.136]]}, "properties": {"v": 90000, "f": "50", "oid": 665135496}}, {"type": "Feature", "geometry": {"type": "LineString", "coordinates": [[15.15, 12.062], [15.127, 12.087]]}, "properties": {"v": 90000, "f": "50", "oid": 665135493}}, {"type": "Feature", "geometry": {"type": "LineString", "coordinates": [[11.478, 3.764], [11.4, 3.868]]}, "properties": {"v": 225000, "c": 2, "oid": 1208830170}}, {"type": "Feature", "geometry": {"type": "LineString", "coordinates": [[27.425, -11.704], [27.405, -11.713]]}, "properties": {"v": 0, "oid": 1315340814}}, {"type": "Feature", "geometry": {"type": "LineString", "coordinates": [[27.446, -11.695], [27.454, -11.69]]}, "properties": {"v": 0, "oid": 1315340813}}, {"type": "Feature", "geometry": {"type": "LineString", "coordinates": [[29.195, -5.909], [29.215, -5.867]]}, "properties": {"v": 0, "oid": 195843273}}, {"type": "Feature", "geometry": {"type": "LineString", "coordinates": [[28.876, -2.514], [28.885, -2.588]]}, "properties": {"v": 0, "oid": 304854321}}, {"type": "Feature", "geometry": {"type": "LineString", "coordinates": [[29.16, -1.624], [29.221, -1.676]]}, "properties": {"v": 0, "c": 1, "oid": 1315128086}}, {"type": "Feature", "geometry": {"type": "LineString", "coordinates": [[29.224, -0.058], [29.181, -0.064]]}, "properties": {"v": 0, "oid": 792548371}}, {"type": "Feature", "geometry": {"type": "LineString", "coordinates": [[29.101, -1.594], [29.125, -1.605]]}, "properties": {"v": 0, "oid": 1315128085}}, {"type": "Feature", "geometry": {"type": "LineString", "coordinates": [[29.076, -1.644], [29.103, -1.596], [29.16, -1.623]]}, "properties": {"v": 0, "c": 1, "oid": 1064077743}}, {"type": "Feature", "geometry": {"type": "LineString", "coordinates": [[27.463, -11.662], [27.451, -11.658]]}, "properties": {"v": 0, "oid": 52360329}}, {"type": "Feature", "geometry": {"type": "LineString", "coordinates": [[27.291, -11.598], [27.265, -11.596]]}, "properties": {"v": 0, "oid": 1149148999}}, {"type": "Feature", "geometry": {"type": "LineString", "coordinates": [[29.262, -1.583], [29.32, -1.518]]}, "properties": {"v": 0, "oid": 1058350142}}, {"type": "Feature", "geometry": {"type": "LineString", "coordinates": [[29.498, 3.189], [29.559, 3.157]]}, "properties": {"v": 0, "oid": 830038191}}, {"type": "Feature", "geometry": {"type": "LineString", "coordinates": [[29.488, 3.309], [29.535, 3.278]]}, "properties": {"v": 0, "oid": 830038198}}, {"type": "Feature", "geometry": {"type": "LineString", "coordinates": [[29.559, 3.157], [29.535, 3.278]]}, "properties": {"v": 0, "oid": 621340140}}, {"type": "Feature", "geometry": {"type": "LineString", "coordinates": [[29.559, 3.157], [29.581, 3.086]]}, "properties": {"v": 0, "oid": 830038192}}, {"type": "Feature", "geometry": {"type": "LineString", "coordinates": [[29.592, 3.119], [29.575, 3.136]]}, "properties": {"v": 0, "oid": 830045227}}, {"type": "Feature", "geometry": {"type": "LineString", "coordinates": [[29.379, -1.291], [29.367, -1.312]]}, "properties": {"v": 0, "oid": 1353696641}}, {"type": "Feature", "geometry": {"type": "LineString", "coordinates": [[29.387, -1.281], [29.398, -1.273]]}, "properties": {"v": 0, "oid": 1383800496}}, {"type": "Feature", "geometry": {"type": "LineString", "coordinates": [[30.163, 1.563], [30.18, 1.565]]}, "properties": {"v": 0, "oid": 1315128082}}, {"type": "Feature", "geometry": {"type": "LineString", "coordinates": [[30.226, 1.571], [30.248, 1.576]]}, "properties": {"v": 0, "oid": 1315128083}}, {"type": "Feature", "geometry": {"type": "LineString", "coordinates": [[6.696, 0.237], [6.644, 0.253]]}, "properties": {"v": 0, "oid": 191638341}}, {"type": "Feature", "geometry": {"type": "LineString", "coordinates": [[9.552, 0.401], [9.721, 0.374]]}, "properties": {"v": 0, "oid": 695777569}}, {"type": "Feature", "geometry": {"type": "LineString", "coordinates": [[18.515, 4.464], [18.447, 4.563], [18.208, 4.676]]}, "properties": {"v": 0, "oid": 1262660756}}, {"type": "Feature", "geometry": {"type": "LineString", "coordinates": [[18.002, 4.919], [18.033, 4.88]]}, "properties": {"v": 0, "oid": 665129685}}, {"type": "Feature", "geometry": {"type": "LineString", "coordinates": [[18.552, 4.415], [18.526, 4.457]]}, "properties": {"v": 0, "oid": 1262660753}}, {"type": "Feature", "geometry": {"type": "LineString", "coordinates": [[8.755, 3.391], [8.604, 3.456], [8.627, 3.617]]}, "properties": {"v": 0, "oid": 734153951}}, {"type": "Feature", "geometry": {"type": "LineString", "coordinates": [[8.673, 3.704], [8.693, 3.716]]}, "properties": {"v": 0, "oid": 734153951}}, {"type": "Feature", "geometry": {"type": "LineString", "coordinates": [[9.608, 4.265], [9.585, 4.512], [9.775, 4.832], [9.926, 4.942]]}, "properties": {"v": 0, "f": "50", "oid": 338366335}}, {"type": "Feature", "geometry": {"type": "LineString", "coordinates": [[12.419, 3.26], [12.146, 3.156]]}, "properties": {"v": 0, "oid": 449361662}}, {"type": "Feature", "geometry": {"type": "LineString", "coordinates": [[11.883, 3.906], [11.882, 4.087]]}, "properties": {"v": 0, "oid": 667012663}}, {"type": "Feature", "geometry": {"type": "LineString", "coordinates": [[10.887, 3.884], [10.95, 3.852]]}, "properties": {"v": 0, "oid": 695359711}}, {"type": "Feature", "geometry": {"type": "LineString", "coordinates": [[11.187, 3.604], [11.241, 3.59]]}, "properties": {"v": 0, "oid": 1009108311}}, {"type": "Feature", "geometry": {"type": "LineString", "coordinates": [[10.97, 3.851], [10.991, 3.83]]}, "properties": {"v": 0, "oid": 695359712}}, {"type": "Feature", "geometry": {"type": "LineString", "coordinates": [[10.768, 3.229], [10.738, 3.235]]}, "properties": {"v": 0, "oid": 311823269}}, {"type": "Feature", "geometry": {"type": "LineString", "coordinates": [[11.168, 2.877], [11.143, 2.866]]}, "properties": {"v": 0, "oid": 1018788848}}, {"type": "Feature", "geometry": {"type": "LineString", "coordinates": [[9.612, 4.235], [9.608, 4.265]]}, "properties": {"v": 0, "f": "50", "oid": 694793911}}, {"type": "Feature", "geometry": {"type": "LineString", "coordinates": [[9.821, 1.86], [9.952, 1.882]]}, "properties": {"v": 0, "oid": 643133504}}, {"type": "Feature", "geometry": {"type": "LineString", "coordinates": [[10.327, 1.383], [10.286, 1.344]]}, "properties": {"v": 0, "oid": 943610830}}, {"type": "Feature", "geometry": {"type": "LineString", "coordinates": [[10.327, 1.383], [10.374, 1.392]]}, "properties": {"v": 0, "oid": 943610822}}, {"type": "Feature", "geometry": {"type": "LineString", "coordinates": [[10.351, 1.935], [10.472, 2.01]]}, "properties": {"v": 0, "oid": 643081232}}, {"type": "Feature", "geometry": {"type": "LineString", "coordinates": [[10.374, 1.392], [10.424, 1.428]]}, "properties": {"v": 0, "oid": 943610823}}, {"type": "Feature", "geometry": {"type": "LineString", "coordinates": [[10.424, 1.428], [10.446, 1.439]]}, "properties": {"v": 0, "oid": 943610824}}, {"type": "Feature", "geometry": {"type": "LineString", "coordinates": [[10.446, 1.439], [10.459, 1.445]]}, "properties": {"v": 0, "oid": 943610825}}, {"type": "Feature", "geometry": {"type": "LineString", "coordinates": [[10.466, 1.571], [10.453, 1.583]]}, "properties": {"v": 0, "oid": 662877687}}, {"type": "Feature", "geometry": {"type": "LineString", "coordinates": [[10.459, 1.445], [10.471, 1.453]]}, "properties": {"v": 0, "oid": 943610826}}, {"type": "Feature", "geometry": {"type": "LineString", "coordinates": [[10.466, 1.571], [10.51, 1.472]]}, "properties": {"v": 0, "oid": 642931881}}, {"type": "Feature", "geometry": {"type": "LineString", "coordinates": [[10.471, 1.453], [10.531, 1.444]]}, "properties": {"v": 0, "oid": 943610828}}, {"type": "Feature", "geometry": {"type": "LineString", "coordinates": [[10.531, 1.444], [10.563, 1.444]]}, "properties": {"v": 0, "oid": 943610829}}, {"type": "Feature", "geometry": {"type": "LineString", "coordinates": [[9.781, 1.456], [9.797, 1.358]]}, "properties": {"v": 0, "oid": 644322990}}, {"type": "Feature", "geometry": {"type": "LineString", "coordinates": [[9.778, 1.476], [9.781, 1.456]]}, "properties": {"v": 0, "oid": 644322989}}, {"type": "Feature", "geometry": {"type": "LineString", "coordinates": [[11.907, -4.728], [11.927, -4.742]]}, "properties": {"v": 0, "oid": 325722856}}, {"type": "Feature", "geometry": {"type": "LineString", "coordinates": [[12.713, -0.815], [12.692, -0.848]]}, "properties": {"v": 0, "oid": 698059356}}, {"type": "Feature", "geometry": {"type": "LineString", "coordinates": [[15.188, -4.328], [15.207, -4.311]]}, "properties": {"v": 0, "op": "Société Nationale d’Electricité (SNE)", "oid": 1260733811}}, {"type": "Feature", "geometry": {"type": "LineString", "coordinates": [[15.208, -4.311], [15.223, -4.297]]}, "properties": {"v": 0, "op": "Société Nationale d’Electricité (SNE)", "oid": 1260733813}}, {"type": "Feature", "geometry": {"type": "LineString", "coordinates": [[14.351, -4.247], [14.7, -4.336]]}, "properties": {"v": 0, "f": "50", "oid": 662610939}}, {"type": "Feature", "geometry": {"type": "LineString", "coordinates": [[14.723, -4.333], [14.71, -4.335]]}, "properties": {"v": 0, "oid": 662610929}}, {"type": "Feature", "geometry": {"type": "LineString", "coordinates": [[14.086, 6.932], [14.002, 7.035], [13.773, 7.089]]}, "properties": {"v": 0, "oid": 543519526}}, {"type": "Feature", "geometry": {"type": "LineString", "coordinates": [[16.546, 8.515], [16.793, 8.531]]}, "properties": {"v": 0, "oid": 175109023}}, {"type": "Feature", "geometry": {"type": "LineString", "coordinates": [[16.632, 7.928], [16.64, 7.907]]}, "properties": {"v": 0, "oid": 189509827}}, {"type": "Feature", "geometry": {"type": "LineString", "coordinates": [[16.644, 7.939], [16.633, 7.93]]}, "properties": {"v": 0, "oid": 189508052}}, {"type": "Feature", "geometry": {"type": "LineString", "coordinates": [[16.637, 7.912], [16.644, 7.919]]}, "properties": {"v": 0, "oid": 189538519}}, {"type": "Feature", "geometry": {"type": "LineString", "coordinates": [[16.666, 8.517], [16.691, 8.498]]}, "properties": {"v": 0, "oid": 198349156}}, {"type": "Feature", "geometry": {"type": "LineString", "coordinates": [[16.686, 8.507], [16.674, 8.5]]}, "properties": {"v": 0, "oid": 198349155}}, {"type": "Feature", "geometry": {"type": "LineString", "coordinates": [[16.705, 10.288], [16.727, 10.277]]}, "properties": {"v": 0, "oid": 629014362}}, {"type": "Feature", "geometry": {"type": "LineString", "coordinates": [[16.707, 10.296], [16.721, 10.296]]}, "properties": {"v": 0, "oid": 629014359}}, {"type": "Feature", "geometry": {"type": "LineString", "coordinates": [[16.731, 10.314], [16.709, 10.323]]}, "properties": {"v": 0, "oid": 629014355}}, {"type": "Feature", "geometry": {"type": "LineString", "coordinates": [[16.721, 10.296], [16.732, 10.32]]}, "properties": {"v": 0, "oid": 629014358}}, {"type": "Feature", "geometry": {"type": "LineString", "coordinates": [[16.721, 10.296], [16.732, 10.288]]}, "properties": {"v": 0, "oid": 629014357}}, {"type": "Feature", "geometry": {"type": "LineString", "coordinates": [[16.726, 10.272], [16.732, 10.285]]}, "properties": {"v": 0, "oid": 629014363}}, {"type": "Feature", "geometry": {"type": "LineString", "coordinates": [[16.732, 10.286], [16.874, 10.247]]}, "properties": {"v": 0, "oid": 629014456}}, {"type": "Feature", "geometry": {"type": "LineString", "coordinates": [[16.843, 10.188], [16.732, 10.285]]}, "properties": {"v": 0, "oid": 629014458}}, {"type": "Feature", "geometry": {"type": "LineString", "coordinates": [[16.763, 10.265], [16.774, 10.282]]}, "properties": {"v": 0, "oid": 629014457}}, {"type": "Feature", "geometry": {"type": "LineString", "coordinates": [[16.793, 8.531], [16.77, 8.505]]}, "properties": {"v": 0, "oid": 197946959}}, {"type": "Feature", "geometry": {"type": "LineString", "coordinates": [[16.781, 8.526], [16.8, 8.554]]}, "properties": {"v": 0, "oid": 176875418}}, {"type": "Feature", "geometry": {"type": "LineString", "coordinates": [[16.807, 10.257], [16.797, 10.249]]}, "properties": {"v": 0, "oid": 629014455}}, {"type": "Feature", "geometry": {"type": "LineString", "coordinates": [[16.799, 10.244], [16.857, 10.237]]}, "properties": {"v": 0, "oid": 629014454}}, {"type": "Feature", "geometry": {"type": "LineString", "coordinates": [[16.8, 8.554], [16.808, 8.567]]}, "properties": {"v": 0, "oid": 175104172}}, {"type": "Feature", "geometry": {"type": "LineString", "coordinates": [[10.51, 1.472], [10.563, 1.444]]}, "properties": {"v": 0, "oid": 642931873}}, {"type": "Feature", "geometry": {"type": "LineString", "coordinates": [[10.638, 1.9], [10.722, 1.84]]}, "properties": {"v": 0, "oid": 662735808}}, {"type": "Feature", "geometry": {"type": "LineString", "coordinates": [[10.746, 1.832], [10.731, 1.842]]}, "properties": {"v": 0, "oid": 1374088933}}, {"type": "Feature", "geometry": {"type": "LineString", "coordinates": [[11.311, 1.462], [11.279, 1.38], [10.955, 1.302]]}, "properties": {"v": 0, "oid": 1373351595}}, {"type": "Feature", "geometry": {"type": "LineString", "coordinates": [[11.108, 1.595], [11.105, 1.578]]}, "properties": {"v": 0, "oid": 655084937}}, {"type": "Feature", "geometry": {"type": "LineString", "coordinates": [[11.311, 1.466], [11.232, 1.5]]}, "properties": {"v": 0, "oid": 1176581013}}, {"type": "Feature", "geometry": {"type": "LineString", "coordinates": [[11.577, 0.855], [11.551, 0.824]]}, "properties": {"v": 0, "f": "50", "oid": 665132671}}, {"type": "Feature", "geometry": {"type": "LineString", "coordinates": [[11.589, 1.595], [11.633, 1.373]]}, "properties": {"v": 0, "f": "50", "oid": 597746484}}, {"type": "Feature", "geometry": {"type": "LineString", "coordinates": [[11.631, 0.965], [11.588, 0.863]]}, "properties": {"v": 0, "f": "50", "oid": 665132670}}, {"type": "Feature", "geometry": {"type": "LineString", "coordinates": [[11.635, 1.367], [11.676, 1.324]]}, "properties": {"v": 0, "f": "50", "oid": 665132673}}, {"type": "Feature", "geometry": {"type": "LineString", "coordinates": [[11.53, 3.854], [11.566, 3.856]]}, "properties": {"v": 0, "op": "EDC", "oid": 221972359}}, {"type": "Feature", "geometry": {"type": "LineString", "coordinates": [[11.259, 3.595], [11.279, 3.591]]}, "properties": {"v": 0, "oid": 1009108313}}, {"type": "Feature", "geometry": {"type": "LineString", "coordinates": [[11.456, 3.785], [11.477, 3.794]]}, "properties": {"v": 0, "op": "EDC", "oid": 270877731}}, {"type": "Feature", "geometry": {"type": "LineString", "coordinates": [[25.192, -10.896], [25.175, -10.909]]}, "properties": {"v": 0, "oid": 1111842183}}, {"type": "Feature", "geometry": {"type": "LineString", "coordinates": [[25.192, -8.638], [25.276, -8.042]]}, "properties": {"v": 0, "oid": 1236336151}}, {"type": "Feature", "geometry": {"type": "LineString", "coordinates": [[23.766, -6.086], [23.622, -6.15]]}, "properties": {"v": 0, "oid": 1300067627}}, {"type": "Feature", "geometry": {"type": "LineString", "coordinates": [[14.943, -4.898], [14.987, -5.157]]}, "properties": {"v": 0, "oid": 1229676081}}, {"type": "Feature", "geometry": {"type": "LineString", "coordinates": [[14.945, -4.914], [14.906, -4.783]]}, "properties": {"v": 0, "oid": 1028706650}}, {"type": "Feature", "geometry": {"type": "LineString", "coordinates": [[14.889, -4.785], [14.883, -4.777]]}, "properties": {"v": 0, "oid": 1233246034}}, {"type": "Feature", "geometry": {"type": "LineString", "coordinates": [[14.892, -4.771], [14.888, -4.783]]}, "properties": {"v": 0, "oid": 1233242652}}, {"type": "Feature", "geometry": {"type": "LineString", "coordinates": [[18.809, -5.062], [18.802, -5.088]]}, "properties": {"v": 0, "oid": 1383800497}}, {"type": "Feature", "geometry": {"type": "LineString", "coordinates": [[13.615, -5.528], [13.663, -5.563], [13.737, -5.448], [13.656, -5.335]]}, "properties": {"v": 0, "nm": "HVDC Inga-Shaba - electrode line", "f": "0", "oid": 260975008}}, {"type": "Feature", "geometry": {"type": "LineString", "coordinates": [[14.522, -5.499], [14.522, -5.509]]}, "properties": {"v": 0, "oid": 384203239}}, {"type": "Feature", "geometry": {"type": "LineString", "coordinates": [[13.656, -5.335], [13.737, -5.448], [13.663, -5.562], [13.615, -5.528]]}, "properties": {"v": 0, "nm": "HVDC Inga-Shaba - electrode line", "f": "0", "oid": 260975011}}, {"type": "Feature", "geometry": {"type": "LineString", "coordinates": [[25.452, -10.656], [25.539, -10.607]]}, "properties": {"v": 0, "f": "0", "oid": 163662879}}, {"type": "Feature", "geometry": {"type": "LineString", "coordinates": [[25.453, -10.656], [25.539, -10.607]]}, "properties": {"v": 0, "f": "0", "oid": 368793006}}, {"type": "Feature", "geometry": {"type": "LineString", "coordinates": [[25.454, -10.664], [25.465, -10.662]]}, "properties": {"v": 0, "oid": 661683840}}, {"type": "Feature", "geometry": {"type": "LineString", "coordinates": [[25.904, -9.963], [25.96, -9.944]]}, "properties": {"v": 0, "oid": 388331448}}, {"type": "Feature", "geometry": {"type": "LineString", "coordinates": [[25.894, -10.006], [25.96, -9.944]]}, "properties": {"v": 0, "oid": 388331449}}, {"type": "Feature", "geometry": {"type": "LineString", "coordinates": [[26.116, -2.417], [26.134, -2.596]]}, "properties": {"v": 0, "oid": 33660633}}, {"type": "Feature", "geometry": {"type": "LineString", "coordinates": [[26.114, -2.403], [26.116, -2.417]]}, "properties": {"v": 0, "oid": 49989434}}, {"type": "Feature", "geometry": {"type": "LineString", "coordinates": [[15.309, -4.303], [15.32, -4.301]]}, "properties": {"v": 0, "nm": "300 METERS ON DOTS", "oid": 965650485}}, {"type": "Feature", "geometry": {"type": "LineString", "coordinates": [[15.193, -4.349], [15.079, -4.585], [14.868, -4.779]]}, "properties": {"v": 0, "oid": 1383796881}}, {"type": "Feature", "geometry": {"type": "LineString", "coordinates": [[16.52, -4.431], [16.429, -4.073]]}, "properties": {"v": 0, "oid": 1371356234}}, {"type": "Feature", "geometry": {"type": "LineString", "coordinates": [[14.913, 12.375], [15.091, 12.418]]}, "properties": {"v": 0, "oid": 198988186}}, {"type": "Feature", "geometry": {"type": "LineString", "coordinates": [[12.137, 3.898], [12.182, 3.881]]}, "properties": {"v": 0, "oid": 1329740621}}]}