{"type":"FeatureCollection","features":[{"type":"Feature","geometry":{"type":"Point","coordinates":[12.969,-5.445]},"properties":{"name":"Poste électrique de Moenge","v":132000}},{"type":"Feature","geometry":{"type":"Point","coordinates":[9.789,28.641]},"properties":{"name":"","v":0}},{"type":"Feature","geometry":{"type":"Point","coordinates":[14.011,31.733]},"properties":{"name":"","v":0}},{"type":"Feature","geometry":{"type":"Point","coordinates":[12.25,31.929]},"properties":{"name":"محطة كهرباء","v":0}},{"type":"Feature","geometry":{"type":"Point","coordinates":[12.851,32.158]},"properties":{"name":"محطة تحويل 30 ك ف الرابطة","v":0}},{"type":"Feature","geometry":{"type":"Point","coordinates":[13.041,32.257]},"properties":{"name":"محطة تحويل أبوغيلان 30 ك ف","v":0}},{"type":"Feature","geometry":{"type":"Point","coordinates":[12.377,32.781]},"properties":{"name":"محطة تحويل جهد 30 ك ف السكة","v":0}},{"type":"Feature","geometry":{"type":"Point","coordinates":[13.187,32.871]},"properties":{"name":"11KVA","v":0}},{"type":"Feature","geometry":{"type":"Point","coordinates":[13.994,31.741]},"properties":{"name":"11KVA","v":0}},{"type":"Feature","geometry":{"type":"Point","coordinates":[15.74,30.095]},"properties":{"name":"","v":0}},{"type":"Feature","geometry":{"type":"Point","coordinates":[14.038,31.77]},"properties":{"name":"11KVA","v":0}},{"type":"Feature","geometry":{"type":"Point","coordinates":[14.022,31.754]},"properties":{"name":"11KVA","v":0}},{"type":"Feature","geometry":{"type":"Point","coordinates":[20.25,32.083]},"properties":{"name":"","v":0}},{"type":"Feature","geometry":{"type":"Point","coordinates":[20.013,31.949]},"properties":{"name":"","v":0}},{"type":"Feature","geometry":{"type":"Point","coordinates":[30.46,31.038]},"properties":{"name":"","v":0}},{"type":"Feature","geometry":{"type":"Point","coordinates":[31.216,30.067]},"properties":{"name":"","v":0}},{"type":"Feature","geometry":{"type":"Point","coordinates":[27.479,-11.629]},"properties":{"name":"","v":0}},{"type":"Feature","geometry":{"type":"Point","coordinates":[27.544,-11.634]},"properties":{"name":"","v":0}},{"type":"Feature","geometry":{"type":"Point","coordinates":[15.253,-4.36]},"properties":{"name":"Station SNEL Ngaliema","v":0}},{"type":"Feature","geometry":{"type":"Point","coordinates":[15.264,-4.352]},"properties":{"name":"Cabine SNEL","v":0}},{"type":"Feature","geometry":{"type":"Point","coordinates":[15.265,-4.349]},"properties":{"name":"Cabine SNEL","v":0}},{"type":"Feature","geometry":{"type":"Point","coordinates":[15.277,-4.445]},"properties":{"name":"","v":0}},{"type":"Feature","geometry":{"type":"Point","coordinates":[15.344,-4.338]},"properties":{"name":"SNEL","v":0}},{"type":"Feature","geometry":{"type":"Point","coordinates":[15.355,-4.348]},"properties":{"name":"","v":0}},{"type":"Feature","geometry":{"type":"Point","coordinates":[15.358,-4.352]},"properties":{"name":"Maternité","v":0}},{"type":"Feature","geometry":{"type":"Point","coordinates":[17.374,-3.308]},"properties":{"name":"Centre Basse Tension SNEL","v":0}},{"type":"Feature","geometry":{"type":"Point","coordinates":[17.376,-3.294]},"properties":{"name":"Haute Tension Sadelmi","v":0}},{"type":"Feature","geometry":{"type":"Point","coordinates":[16.52,-4.431]},"properties":{"name":"","v":0}},{"type":"Feature","geometry":{"type":"Point","coordinates":[28.849,-2.513]},"properties":{"name":"","v":0}},{"type":"Feature","geometry":{"type":"Point","coordinates":[30.08,0.172]},"properties":{"name":"Umeme warehouse","v":0}},{"type":"Feature","geometry":{"type":"Point","coordinates":[30.645,-2.493]},"properties":{"name":"","v":0}},{"type":"Feature","geometry":{"type":"Point","coordinates":[31.706,-1.547]},"properties":{"name":"","v":0}},{"type":"Feature","geometry":{"type":"Point","coordinates":[31.81,-1.332]},"properties":{"name":"","v":0}},{"type":"Feature","geometry":{"type":"Point","coordinates":[31.811,-1.345]},"properties":{"name":"","v":0}},{"type":"Feature","geometry":{"type":"Point","coordinates":[31.814,-1.343]},"properties":{"name":"","v":0}},{"type":"Feature","geometry":{"type":"Point","coordinates":[31.815,-1.346]},"properties":{"name":"","v":0}},{"type":"Feature","geometry":{"type":"Point","coordinates":[31.817,-1.337]},"properties":{"name":"","v":0}},{"type":"Feature","geometry":{"type":"Point","coordinates":[32.445,0.027]},"properties":{"name":"","v":0}},{"type":"Feature","geometry":{"type":"Point","coordinates":[32.476,0.068]},"properties":{"name":"Entebbe Substation","v":0}},{"type":"Feature","geometry":{"type":"Point","coordinates":[35.971,-0.54]},"properties":{"name":"","v":0}},{"type":"Feature","geometry":{"type":"Point","coordinates":[36.685,-1.293]},"properties":{"name":"","v":0}},{"type":"Feature","geometry":{"type":"Point","coordinates":[36.723,-1.266]},"properties":{"name":"Kabete Power Plant","v":0}},{"type":"Feature","geometry":{"type":"Point","coordinates":[36.774,-1.311]},"properties":{"name":"","v":0}},{"type":"Feature","geometry":{"type":"Point","coordinates":[36.775,-1.308]},"properties":{"name":"","v":0}},{"type":"Feature","geometry":{"type":"Point","coordinates":[36.776,-1.31]},"properties":{"name":"","v":0}},{"type":"Feature","geometry":{"type":"Point","coordinates":[36.78,-1.313]},"properties":{"name":"","v":0}},{"type":"Feature","geometry":{"type":"Point","coordinates":[36.781,-1.314]},"properties":{"name":"","v":0}},{"type":"Feature","geometry":{"type":"Point","coordinates":[36.786,-1.312]},"properties":{"name":"","v":0}},{"type":"Feature","geometry":{"type":"Point","coordinates":[36.79,-1.313]},"properties":{"name":"","v":0}},{"type":"Feature","geometry":{"type":"Point","coordinates":[36.79,-1.311]},"properties":{"name":"","v":0}},{"type":"Feature","geometry":{"type":"Point","coordinates":[36.792,-1.315]},"properties":{"name":"Transformer","v":0}},{"type":"Feature","geometry":{"type":"Point","coordinates":[36.792,-1.312]},"properties":{"name":"Transformer","v":0}},{"type":"Feature","geometry":{"type":"Point","coordinates":[36.795,-1.311]},"properties":{"name":"","v":0}},{"type":"Feature","geometry":{"type":"Point","coordinates":[36.832,-1.302]},"properties":{"name":"","v":0}},{"type":"Feature","geometry":{"type":"Point","coordinates":[36.891,-1.25]},"properties":{"name":"","v":0}},{"type":"Feature","geometry":{"type":"Point","coordinates":[37.222,-3.214]},"properties":{"name":"","v":0}},{"type":"Feature","geometry":{"type":"Point","coordinates":[37.659,-6.82]},"properties":{"name":"Heavy Plant Workshop","v":0}},{"type":"Feature","geometry":{"type":"Point","coordinates":[39.272,-6.817]},"properties":{"name":"Samira Gas","v":0}},{"type":"Feature","geometry":{"type":"Point","coordinates":[39.284,-6.745]},"properties":{"name":"","v":0}},{"type":"Feature","geometry":{"type":"Point","coordinates":[32.543,0.154]},"properties":{"name":"","v":0}},{"type":"Feature","geometry":{"type":"Point","coordinates":[32.607,0.3]},"properties":{"name":"","v":0}},{"type":"Feature","geometry":{"type":"Point","coordinates":[32.602,0.303]},"properties":{"name":"","v":0}},{"type":"Feature","geometry":{"type":"Point","coordinates":[32.566,0.338]},"properties":{"name":"","v":0}},{"type":"Feature","geometry":{"type":"Point","coordinates":[32.569,0.337]},"properties":{"name":"","v":0}},{"type":"Feature","geometry":{"type":"Point","coordinates":[32.626,0.286]},"properties":{"name":"","v":0}},{"type":"Feature","geometry":{"type":"Point","coordinates":[32.609,0.299]},"properties":{"name":"","v":0}},{"type":"Feature","geometry":{"type":"Point","coordinates":[32.616,0.303]},"properties":{"name":"","v":0}},{"type":"Feature","geometry":{"type":"Point","coordinates":[32.614,0.305]},"properties":{"name":"","v":0}},{"type":"Feature","geometry":{"type":"Point","coordinates":[32.61,0.311]},"properties":{"name":"","v":0}},{"type":"Feature","geometry":{"type":"Point","coordinates":[33.223,0.456]},"properties":{"name":"","v":0}},{"type":"Feature","geometry":{"type":"Point","coordinates":[31.336,1.481]},"properties":{"name":"Uganda electricity transmission company Ltd","v":0}},{"type":"Feature","geometry":{"type":"Point","coordinates":[34.751,0.284]},"properties":{"name":"Kenya Power","v":0}},{"type":"Feature","geometry":{"type":"Point","coordinates":[34.178,1.051]},"properties":{"name":"Bugema Electricity Sub Station","v":0}},{"type":"Feature","geometry":{"type":"Point","coordinates":[40.604,2.408]},"properties":{"name":"Kutulo Power Sub Station","v":0}},{"type":"Feature","geometry":{"type":"Point","coordinates":[37.613,-1.769]},"properties":{"name":"","v":0}},{"type":"Feature","geometry":{"type":"Point","coordinates":[32.505,10.529]},"properties":{"name":"","v":0}},{"type":"Feature","geometry":{"type":"Point","coordinates":[38.74,9.001]},"properties":{"name":"","v":0}},{"type":"Feature","geometry":{"type":"Point","coordinates":[38.742,9.006]},"properties":{"name":"","v":0}},{"type":"Feature","geometry":{"type":"Point","coordinates":[38.744,9.008]},"properties":{"name":"","v":0}},{"type":"Feature","geometry":{"type":"Point","coordinates":[32.498,15.602]},"properties":{"name":"Sunot","v":0}},{"type":"Feature","geometry":{"type":"Point","coordinates":[13.233,-8.838]},"properties":{"name":"","v":0}},{"type":"Feature","geometry":{"type":"Point","coordinates":[13.258,-8.886]},"properties":{"name":"Empressa Nacional de Destribuição de Energia (ENDE) Golf","v":0}},{"type":"Feature","geometry":{"type":"Point","coordinates":[13.269,-8.823]},"properties":{"name":"","v":0}},{"type":"Feature","geometry":{"type":"Point","coordinates":[13.294,-8.859]},"properties":{"name":"","v":0}},{"type":"Feature","geometry":{"type":"Point","coordinates":[19.091,-34.219]},"properties":{"name":"","v":0}},{"type":"Feature","geometry":{"type":"Point","coordinates":[18.401,-34.123]},"properties":{"name":"","v":0}},{"type":"Feature","geometry":{"type":"Point","coordinates":[18.828,-34.101]},"properties":{"name":"Lichtenstein Substation","v":0}},{"type":"Feature","geometry":{"type":"Point","coordinates":[18.529,-34.055]},"properties":{"name":"","v":0}},{"type":"Feature","geometry":{"type":"Point","coordinates":[18.595,-34.032]},"properties":{"name":"","v":0}},{"type":"Feature","geometry":{"type":"Point","coordinates":[18.841,-33.968]},"properties":{"name":"","v":0}},{"type":"Feature","geometry":{"type":"Point","coordinates":[18.426,-33.942]},"properties":{"name":"Disa Park 144","v":0}},{"type":"Feature","geometry":{"type":"Point","coordinates":[18.542,-33.877]},"properties":{"name":"","v":0}},{"type":"Feature","geometry":{"type":"Point","coordinates":[18.698,-33.848]},"properties":{"name":"","v":0}},{"type":"Feature","geometry":{"type":"Point","coordinates":[18.478,-33.818]},"properties":{"name":"","v":0}},{"type":"Feature","geometry":{"type":"Point","coordinates":[18.509,-33.798]},"properties":{"name":"","v":0}},{"type":"Feature","geometry":{"type":"Point","coordinates":[18.482,-33.793]},"properties":{"name":"","v":0}},{"type":"Feature","geometry":{"type":"Point","coordinates":[18.484,-33.79]},"properties":{"name":"","v":0}},{"type":"Feature","geometry":{"type":"Point","coordinates":[19.421,-33.663]},"properties":{"name":"","v":0}},{"type":"Feature","geometry":{"type":"Point","coordinates":[19.446,-33.646]},"properties":{"name":"","v":0}},{"type":"Feature","geometry":{"type":"Point","coordinates":[20.45,-34.017]},"properties":{"name":"Swelengrebel Sub","v":0}},{"type":"Feature","geometry":{"type":"Point","coordinates":[18.859,-33.929]},"properties":{"name":"MS Muller","v":0}},{"type":"Feature","geometry":{"type":"Point","coordinates":[43.669,-23.353]},"properties":{"name":"","v":0}},{"type":"Feature","geometry":{"type":"Point","coordinates":[47.537,-18.92]},"properties":{"name":"tranon-jiro","v":0}},{"type":"Feature","geometry":{"type":"Point","coordinates":[30.206,-17.353]},"properties":{"name":"","v":0}},{"type":"Feature","geometry":{"type":"Point","coordinates":[35.021,-20.987]},"properties":{"name":"","v":0}},{"type":"Feature","geometry":{"type":"Point","coordinates":[30.177,-17.385]},"properties":{"name":"","v":0}},{"type":"Feature","geometry":{"type":"Point","coordinates":[30.2,-17.359]},"properties":{"name":"","v":0}},{"type":"Feature","geometry":{"type":"Point","coordinates":[30.201,-17.357]},"properties":{"name":"","v":0}},{"type":"Feature","geometry":{"type":"Point","coordinates":[30.185,-17.373]},"properties":{"name":"","v":0}},{"type":"Feature","geometry":{"type":"Point","coordinates":[15.434,-21.339]},"properties":{"name":"","v":0}},{"type":"Feature","geometry":{"type":"Point","coordinates":[15.607,-21.994]},"properties":{"name":"","v":0}},{"type":"Feature","geometry":{"type":"Point","coordinates":[15.758,-21.45]},"properties":{"name":"","v":0}},{"type":"Feature","geometry":{"type":"Point","coordinates":[15.925,-19.184]},"properties":{"name":"","v":0}},{"type":"Feature","geometry":{"type":"Point","coordinates":[16.087,-20.549]},"properties":{"name":"","v":0}},{"type":"Feature","geometry":{"type":"Point","coordinates":[16.107,-21.004]},"properties":{"name":"","v":0}},{"type":"Feature","geometry":{"type":"Point","coordinates":[16.189,-20.683]},"properties":{"name":"","v":0}},{"type":"Feature","geometry":{"type":"Point","coordinates":[16.194,-20.877]},"properties":{"name":"","v":0}},{"type":"Feature","geometry":{"type":"Point","coordinates":[16.207,-20.843]},"properties":{"name":"","v":0}},{"type":"Feature","geometry":{"type":"Point","coordinates":[16.449,-20.317]},"properties":{"name":"","v":0}},{"type":"Feature","geometry":{"type":"Point","coordinates":[16.494,-20.443]},"properties":{"name":"","v":0}},{"type":"Feature","geometry":{"type":"Point","coordinates":[16.729,-27.931]},"properties":{"name":"","v":0}},{"type":"Feature","geometry":{"type":"Point","coordinates":[16.759,-27.961]},"properties":{"name":"","v":0}},{"type":"Feature","geometry":{"type":"Point","coordinates":[16.877,-28.097]},"properties":{"name":"","v":0}},{"type":"Feature","geometry":{"type":"Point","coordinates":[16.945,-18.812]},"properties":{"name":"","v":0}},{"type":"Feature","geometry":{"type":"Point","coordinates":[17.16,-26.508]},"properties":{"name":"","v":0}},{"type":"Feature","geometry":{"type":"Point","coordinates":[17.409,-25.666]},"properties":{"name":"","v":0}},{"type":"Feature","geometry":{"type":"Point","coordinates":[17.424,-21.565]},"properties":{"name":"","v":0}},{"type":"Feature","geometry":{"type":"Point","coordinates":[17.428,-20.602]},"properties":{"name":"","v":0}},{"type":"Feature","geometry":{"type":"Point","coordinates":[17.493,-20.678]},"properties":{"name":"","v":0}},{"type":"Feature","geometry":{"type":"Point","coordinates":[17.569,-20.698]},"properties":{"name":"","v":0}},{"type":"Feature","geometry":{"type":"Point","coordinates":[17.655,-20.717]},"properties":{"name":"","v":0}},{"type":"Feature","geometry":{"type":"Point","coordinates":[17.781,-25.995]},"properties":{"name":"","v":0}},{"type":"Feature","geometry":{"type":"Point","coordinates":[17.783,-25.994]},"properties":{"name":"","v":0}},{"type":"Feature","geometry":{"type":"Point","coordinates":[17.943,-26.915]},"properties":{"name":"","v":0}},{"type":"Feature","geometry":{"type":"Point","coordinates":[18.161,-20.138]},"properties":{"name":"","v":0}},{"type":"Feature","geometry":{"type":"Point","coordinates":[18.161,-26.144]},"properties":{"name":"","v":0}},{"type":"Feature","geometry":{"type":"Point","coordinates":[18.187,-20.113]},"properties":{"name":"","v":0}},{"type":"Feature","geometry":{"type":"Point","coordinates":[18.216,-20.398]},"properties":{"name":"","v":0}},{"type":"Feature","geometry":{"type":"Point","coordinates":[18.504,-27.557]},"properties":{"name":"","v":0}},{"type":"Feature","geometry":{"type":"Point","coordinates":[19.646,-26.793]},"properties":{"name":"","v":0}},{"type":"Feature","geometry":{"type":"Point","coordinates":[19.832,-28.129]},"properties":{"name":"","v":0}},{"type":"Feature","geometry":{"type":"Point","coordinates":[18.755,-28.014]},"properties":{"name":"","v":0}},{"type":"Feature","geometry":{"type":"Point","coordinates":[13.486,-14.923]},"properties":{"name":"Agência da ENDE-Lage","v":0}},{"type":"Feature","geometry":{"type":"Point","coordinates":[14.847,-19.633]},"properties":{"name":"","v":0}},{"type":"Feature","geometry":{"type":"Point","coordinates":[14.848,-19.632]},"properties":{"name":"","v":0}},{"type":"Feature","geometry":{"type":"Point","coordinates":[14.888,-21.227]},"properties":{"name":"","v":0}},{"type":"Feature","geometry":{"type":"Point","coordinates":[14.893,-20.443]},"properties":{"name":"","v":0}},{"type":"Feature","geometry":{"type":"Point","coordinates":[15.009,-20.214]},"properties":{"name":"","v":0}},{"type":"Feature","geometry":{"type":"Point","coordinates":[15.059,-17.882]},"properties":{"name":"","v":0}},{"type":"Feature","geometry":{"type":"Point","coordinates":[15.086,-20.358]},"properties":{"name":"","v":0}},{"type":"Feature","geometry":{"type":"Point","coordinates":[15.147,-17.981]},"properties":{"name":"","v":0}},{"type":"Feature","geometry":{"type":"Point","coordinates":[14.526,-22.944]},"properties":{"name":"","v":0}},{"type":"Feature","geometry":{"type":"Point","coordinates":[22.053,-33.28]},"properties":{"name":"","v":0}},{"type":"Feature","geometry":{"type":"Point","coordinates":[22.05,-33.267]},"properties":{"name":"","v":0}},{"type":"Feature","geometry":{"type":"Point","coordinates":[22.044,-33.258]},"properties":{"name":"","v":0}},{"type":"Feature","geometry":{"type":"Point","coordinates":[22.044,-33.257]},"properties":{"name":"","v":0}},{"type":"Feature","geometry":{"type":"Point","coordinates":[22.042,-33.253]},"properties":{"name":"","v":0}},{"type":"Feature","geometry":{"type":"Point","coordinates":[22.038,-33.248]},"properties":{"name":"","v":0}},{"type":"Feature","geometry":{"type":"Point","coordinates":[22.037,-33.246]},"properties":{"name":"","v":0}},{"type":"Feature","geometry":{"type":"Point","coordinates":[22.031,-33.242]},"properties":{"name":"","v":0}},{"type":"Feature","geometry":{"type":"Point","coordinates":[22.03,-33.234]},"properties":{"name":"","v":0}},{"type":"Feature","geometry":{"type":"Point","coordinates":[22.034,-33.23]},"properties":{"name":"","v":0}},{"type":"Feature","geometry":{"type":"Point","coordinates":[22.028,-33.228]},"properties":{"name":"","v":0}},{"type":"Feature","geometry":{"type":"Point","coordinates":[22.033,-33.227]},"properties":{"name":"","v":0}},{"type":"Feature","geometry":{"type":"Point","coordinates":[22.028,-33.224]},"properties":{"name":"","v":0}},{"type":"Feature","geometry":{"type":"Point","coordinates":[22.034,-33.223]},"properties":{"name":"","v":0}},{"type":"Feature","geometry":{"type":"Point","coordinates":[22.027,-33.221]},"properties":{"name":"","v":0}},{"type":"Feature","geometry":{"type":"Point","coordinates":[22.023,-33.219]},"properties":{"name":"","v":0}},{"type":"Feature","geometry":{"type":"Point","coordinates":[22.031,-33.218]},"properties":{"name":"","v":0}},{"type":"Feature","geometry":{"type":"Point","coordinates":[22.022,-33.218]},"properties":{"name":"","v":0}},{"type":"Feature","geometry":{"type":"Point","coordinates":[22.026,-33.217]},"properties":{"name":"","v":0}},{"type":"Feature","geometry":{"type":"Point","coordinates":[22.035,-33.216]},"properties":{"name":"","v":0}},{"type":"Feature","geometry":{"type":"Point","coordinates":[22.029,-33.215]},"properties":{"name":"","v":0}},{"type":"Feature","geometry":{"type":"Point","coordinates":[22.032,-33.215]},"properties":{"name":"","v":0}},{"type":"Feature","geometry":{"type":"Point","coordinates":[22.023,-33.214]},"properties":{"name":"","v":0}},{"type":"Feature","geometry":{"type":"Point","coordinates":[22.031,-33.213]},"properties":{"name":"","v":0}},{"type":"Feature","geometry":{"type":"Point","coordinates":[22.045,-33.213]},"properties":{"name":"","v":0}},{"type":"Feature","geometry":{"type":"Point","coordinates":[22.024,-33.21]},"properties":{"name":"","v":0}},{"type":"Feature","geometry":{"type":"Point","coordinates":[22.021,-33.21]},"properties":{"name":"","v":0}},{"type":"Feature","geometry":{"type":"Point","coordinates":[22.025,-33.209]},"properties":{"name":"","v":0}},{"type":"Feature","geometry":{"type":"Point","coordinates":[22.024,-33.206]},"properties":{"name":"","v":0}},{"type":"Feature","geometry":{"type":"Point","coordinates":[22.02,-33.205]},"properties":{"name":"","v":0}},{"type":"Feature","geometry":{"type":"Point","coordinates":[22.022,-33.205]},"properties":{"name":"","v":0}},{"type":"Feature","geometry":{"type":"Point","coordinates":[22.02,-33.204]},"properties":{"name":"","v":0}},{"type":"Feature","geometry":{"type":"Point","coordinates":[19.881,-28.378]},"properties":{"name":"","v":0}},{"type":"Feature","geometry":{"type":"Point","coordinates":[32.182,-28.443]},"properties":{"name":"Corner Substation","v":0}},{"type":"Feature","geometry":{"type":"Point","coordinates":[22.03,-33.198]},"properties":{"name":"","v":0}},{"type":"Feature","geometry":{"type":"Point","coordinates":[27.481,-29.314]},"properties":{"name":"SW06 Lancers Inn","v":0}},{"type":"Feature","geometry":{"type":"Point","coordinates":[27.478,-29.316]},"properties":{"name":"Pioneer Mall","v":0}},{"type":"Feature","geometry":{"type":"Point","coordinates":[27.471,-29.339]},"properties":{"name":"Thetsane","v":0}},{"type":"Feature","geometry":{"type":"Point","coordinates":[32.063,-28.737]},"properties":{"name":"","v":0}},{"type":"Feature","geometry":{"type":"Point","coordinates":[20.946,-18.003]},"properties":{"name":"","v":0}},{"type":"Feature","geometry":{"type":"Point","coordinates":[21.397,-18.018]},"properties":{"name":"","v":0}},{"type":"Feature","geometry":{"type":"Point","coordinates":[24.225,-17.504]},"properties":{"name":"","v":0}},{"type":"Feature","geometry":{"type":"Point","coordinates":[24.527,-17.728]},"properties":{"name":"","v":0}},{"type":"Feature","geometry":{"type":"Point","coordinates":[24.708,-17.915]},"properties":{"name":"","v":0}},{"type":"Feature","geometry":{"type":"Point","coordinates":[25.644,-25.851]},"properties":{"name":"","v":0}},{"type":"Feature","geometry":{"type":"Point","coordinates":[26.862,-28.087]},"properties":{"name":"Harmony Mill","v":0}},{"type":"Feature","geometry":{"type":"Point","coordinates":[28.025,-26.163]},"properties":{"name":"","v":0}},{"type":"Feature","geometry":{"type":"Point","coordinates":[28.116,-26.265]},"properties":{"name":"","v":0}},{"type":"Feature","geometry":{"type":"Point","coordinates":[28.129,-26.164]},"properties":{"name":"","v":0}},{"type":"Feature","geometry":{"type":"Point","coordinates":[28.148,-26.109]},"properties":{"name":"","v":0}},{"type":"Feature","geometry":{"type":"Point","coordinates":[28.175,-25.884]},"properties":{"name":"","v":0}},{"type":"Feature","geometry":{"type":"Point","coordinates":[28.247,-26.285]},"properties":{"name":"Unknown","v":0}},{"type":"Feature","geometry":{"type":"Point","coordinates":[29.253,-24.102]},"properties":{"name":"","v":0}},{"type":"Feature","geometry":{"type":"Point","coordinates":[31.525,-25.493]},"properties":{"name":"","v":0}},{"type":"Feature","geometry":{"type":"Point","coordinates":[32.616,-25.908]},"properties":{"name":"","v":0}},{"type":"Feature","geometry":{"type":"Point","coordinates":[25.04,-27.964]},"properties":{"name":"","v":0}},{"type":"Feature","geometry":{"type":"Point","coordinates":[23.427,-27.456]},"properties":{"name":"","v":0}},{"type":"Feature","geometry":{"type":"Point","coordinates":[23.43,-27.453]},"properties":{"name":"","v":0}},{"type":"Feature","geometry":{"type":"Point","coordinates":[28.406,-25.712]},"properties":{"name":"","v":0}}]}