{"type": "FeatureCollection", "features": [{"type": "Feature", "id": 0, "geometry": {"type": "Point", "coordinates": [-65.27, -19.039]}, "properties": {"name": "Aranjuez Power Plant Bolivia", "fuel": "gas", "mw": 36.7, "country": "BOL", "status": "operating"}}, {"type": "Feature", "id": 1, "geometry": {"type": "Point", "coordinates": [-68.141, -16.192]}, "properties": {"name": "Botijlaca Hydroelectric Power Plant Bolivia", "fuel": "hydro", "mw": 10.6, "country": "BOL", "status": "operating"}}, {"type": "Feature", "id": 2, "geometry": {"type": "Point", "coordinates": [-64.541, -17.242]}, "properties": {"name": "Bulo Bulo OCGT Power Plant Bolivia", "fuel": "gas", "mw": 90.0, "country": "BOL", "status": "operating"}}, {"type": "Feature", "id": 3, "geometry": {"type": "Point", "coordinates": [-67.994, -16.046]}, "properties": {"name": "Cahua Hydroelectric Power Plant Bolivia", "fuel": "hydro", "mw": 30.0, "country": "BOL", "status": "operating"}}, {"type": "Feature", "id": 4, "geometry": {"type": "Point", "coordinates": [-64.528, -17.212]}, "properties": {"name": "Carrasco OCGT Power Plant Bolivia", "fuel": "gas", "mw": 152.6, "country": "BOL", "status": "operating"}}, {"type": "Feature", "id": 5, "geometry": {"type": "Point", "coordinates": [-67.772, -16.412]}, "properties": {"name": "Chojlla Hydroelectric Power Plant Bolivia", "fuel": "hydro", "mw": 38.4, "country": "BOL", "status": "operating"}}, {"type": "Feature", "id": 6, "geometry": {"type": "Point", "coordinates": [-68.067, -16.105]}, "properties": {"name": "Chururaqui Hydroelectric Power Plant Bolivia", "fuel": "hydro", "mw": 34.0, "country": "BOL", "status": "operating"}}, {"type": "Feature", "id": 7, "geometry": {"type": "Point", "coordinates": [-68.815, -11.025]}, "properties": {"name": "Cobija", "fuel": "solar", "mw": 5.0, "country": "BOL", "status": "operating"}}, {"type": "Feature", "id": 8, "geometry": {"type": "Point", "coordinates": [-65.876, -17.212]}, "properties": {"name": "Corani Hydroelectric Power Plant Bolivia", "fuel": "hydro", "mw": 54.0, "country": "BOL", "status": "operating"}}, {"type": "Feature", "id": 9, "geometry": {"type": "Point", "coordinates": [-68.116, -16.142]}, "properties": {"name": "Cutichucho Hydroelectric Power Plant Bolivia", "fuel": "hydro", "mw": 24.0, "country": "BOL", "status": "operating"}}, {"type": "Feature", "id": 10, "geometry": {"type": "Point", "coordinates": [-68.181, -16.565]}, "properties": {"name": "El Alto (El Kenko) Power Plant Bolivia", "fuel": "gas", "mw": 80.4, "country": "BOL", "status": "operating"}}, {"type": "Feature", "id": 11, "geometry": {"type": "Point", "coordinates": [-64.171, -21.52]}, "properties": {"name": "Entre Rios Power Plant Bolivia", "fuel": "gas", "mw": 120.0, "country": "BOL", "status": "operating"}}, {"type": "Feature", "id": 12, "geometry": {"type": "Point", "coordinates": [-63.152, -17.788]}, "properties": {"name": "Guaracachi CCGT Power Plant Bolivia", "fuel": "gas", "mw": 350.0, "country": "BOL", "status": "operating"}}, {"type": "Feature", "id": 13, "geometry": {"type": "Point", "coordinates": [-68.034, -16.078]}, "properties": {"name": "Harca Hydroelectric Power Plant Bolivia", "fuel": "hydro", "mw": 30.0, "country": "BOL", "status": "operating"}}, {"type": "Feature", "id": 14, "geometry": {"type": "Point", "coordinates": [-67.957, -16.042]}, "properties": {"name": "Huaji Hydroelectric Power Plant Bolivia", "fuel": "hydro", "mw": 34.0, "country": "BOL", "status": "operating"}}, {"type": "Feature", "id": 15, "geometry": {"type": "Point", "coordinates": [-65.722, -19.551]}, "properties": {"name": "Karachipampa Power Plant Bolivia", "fuel": "gas", "mw": 14.4, "country": "BOL", "status": "operating"}}, {"type": "Feature", "id": 16, "geometry": {"type": "Point", "coordinates": [-68.09, -16.124]}, "properties": {"name": "Sainani Hydroelectric Power Plant Bolivia", "fuel": "hydro", "mw": 11.0, "country": "BOL", "status": "operating"}}, {"type": "Feature", "id": 17, "geometry": {"type": "Point", "coordinates": [-63.14, -17.755]}, "properties": {"name": "Santa Cruz Power Plant Bolivia", "fuel": "gas", "mw": 42.3, "country": "BOL", "status": "operating"}}, {"type": "Feature", "id": 18, "geometry": {"type": "Point", "coordinates": [-65.823, -17.192]}, "properties": {"name": "Santa Isabel Hydroelectric Power Plant Bolivia", "fuel": "hydro", "mw": 93.4, "country": "BOL", "status": "operating"}}, {"type": "Feature", "id": 19, "geometry": {"type": "Point", "coordinates": [-68.109, -16.132]}, "properties": {"name": "Santa Rosa Hydroelectric Power Plant Bolivia", "fuel": "hydro", "mw": 18.0, "country": "BOL", "status": "operating"}}, {"type": "Feature", "id": 20, "geometry": {"type": "Point", "coordinates": [-68.124, -16.207]}, "properties": {"name": "Tiquimani Hydroelectric Power Plant Bolivia", "fuel": "hydro", "mw": 9.6, "country": "BOL", "status": "operating"}}, {"type": "Feature", "id": 21, "geometry": {"type": "Point", "coordinates": [-67.65, -20.75]}, "properties": {"name": "Uyuni Colcha K", "fuel": "solar", "mw": 50.0, "country": "BOL", "status": "operating"}}, {"type": "Feature", "id": 22, "geometry": {"type": "Point", "coordinates": [-66.117, -17.43]}, "properties": {"name": "Valle Hermoso Power Plant Bolivia", "fuel": "gas", "mw": 167.0, "country": "BOL", "status": "operating"}}, {"type": "Feature", "id": 23, "geometry": {"type": "Point", "coordinates": [-67.737, -16.389]}, "properties": {"name": "Yanacachi Norte Hydroelectric Power Plant Bolivia", "fuel": "hydro", "mw": 51.1, "country": "BOL", "status": "operating"}}, {"type": "Feature", "id": 24, "geometry": {"type": "Point", "coordinates": [-65.23, -21.83]}, "properties": {"name": "Yunchara", "fuel": "solar", "mw": 5.6, "country": "BOL", "status": "operating"}}, {"type": "Feature", "id": 25, "geometry": {"type": "Point", "coordinates": [-68.123, -16.272]}, "properties": {"name": "Zongo Hydroelectric Power Plant Bolivia", "fuel": "hydro", "mw": 11.0, "country": "BOL", "status": "operating"}}, {"type": "Feature", "id": 26, "geometry": {"type": "Point", "coordinates": [-74.773, 7.792]}, "properties": {"name": "Calderas", "fuel": "hydro", "mw": 26.0, "country": "COL", "status": "operating"}}, {"type": "Feature", "id": 27, "geometry": {"type": "Point", "coordinates": [-75.448, 6.377]}, "properties": {"name": "Cantral La Tasajera", "fuel": "hydro", "mw": 306.0, "country": "COL", "status": "operating"}}, {"type": "Feature", "id": 28, "geometry": {"type": "Point", "coordinates": [-75.511, 10.355]}, "properties": {"name": "Cartagena", "fuel": "oil", "mw": 188.0, "country": "COL", "status": "operating"}}, {"type": "Feature", "id": 29, "geometry": {"type": "Point", "coordinates": [-75.241, 6.814]}, "properties": {"name": "Central Guadalupe III", "fuel": "hydro", "mw": 270.0, "country": "COL", "status": "operating"}}, {"type": "Feature", "id": 30, "geometry": {"type": "Point", "coordinates": [-75.166, 6.32]}, "properties": {"name": "Central Guatap\u00e9", "fuel": "hydro", "mw": 560.0, "country": "COL", "status": "operating"}}, {"type": "Feature", "id": 31, "geometry": {"type": "Point", "coordinates": [-73.297, 4.901]}, "properties": {"name": "Chivor", "fuel": "hydro", "mw": 1000.0, "country": "COL", "status": "operating"}}, {"type": "Feature", "id": 32, "geometry": {"type": "Point", "coordinates": [-73.765, 9.69]}, "properties": {"name": "El Paso", "fuel": "solar", "mw": 86.2, "country": "COL", "status": "operating"}}, {"type": "Feature", "id": 33, "geometry": {"type": "Point", "coordinates": [-73.483, 4.725]}, "properties": {"name": "Gavio", "fuel": "hydro", "mw": 1200.0, "country": "COL", "status": "operating"}}, {"type": "Feature", "id": 34, "geometry": {"type": "Point", "coordinates": [-75.595, 7.991]}, "properties": {"name": "Gecelca power station", "fuel": "coal", "mw": 164.0, "country": "COL", "status": "operating"}}, {"type": "Feature", "id": 35, "geometry": {"type": "Point", "coordinates": [-75.026, 6.294]}, "properties": {"name": "Jaguas", "fuel": "hydro", "mw": 170.0, "country": "COL", "status": "operating"}}, {"type": "Feature", "id": 36, "geometry": {"type": "Point", "coordinates": [-74.561, 6.234]}, "properties": {"name": "La Sierra", "fuel": "gas", "mw": 460.0, "country": "COL", "status": "operating"}}, {"type": "Feature", "id": 37, "geometry": {"type": "Point", "coordinates": [-74.887, 5.561]}, "properties": {"name": "Miel I", "fuel": "hydro", "mw": 396.0, "country": "COL", "status": "operating"}}, {"type": "Feature", "id": 38, "geometry": {"type": "Point", "coordinates": [-75.14, 6.939]}, "properties": {"name": "Porce III", "fuel": "hydro", "mw": 660.0, "country": "COL", "status": "operating"}}, {"type": "Feature", "id": 39, "geometry": {"type": "Point", "coordinates": [-74.841, 6.211]}, "properties": {"name": "San Carlos", "fuel": "hydro", "mw": 1246.0, "country": "COL", "status": "operating"}}, {"type": "Feature", "id": 40, "geometry": {"type": "Point", "coordinates": [-73.406, 7.1]}, "properties": {"name": "Sogamoso", "fuel": "hydro", "mw": 820.0, "country": "COL", "status": "operating"}}, {"type": "Feature", "id": 41, "geometry": {"type": "Point", "coordinates": [-74.764, 10.937]}, "properties": {"name": "Termobarranquilla", "fuel": "gas", "mw": 918.0, "country": "COL", "status": "operating"}}, {"type": "Feature", "id": 42, "geometry": {"type": "Point", "coordinates": [-74.391, 6.466]}, "properties": {"name": "Termocentro", "fuel": "gas", "mw": 300.0, "country": "COL", "status": "operating"}}, {"type": "Feature", "id": 43, "geometry": {"type": "Point", "coordinates": [-74.811, 11.025]}, "properties": {"name": "Termoflores", "fuel": "gas", "mw": 670.0, "country": "COL", "status": "operating"}}, {"type": "Feature", "id": 44, "geometry": {"type": "Point", "coordinates": [-73.416, 11.262]}, "properties": {"name": "Termoguajira power station", "fuel": "coal", "mw": 330.0, "country": "COL", "status": "operating"}}, {"type": "Feature", "id": 45, "geometry": {"type": "Point", "coordinates": [-73.147, 5.768]}, "properties": {"name": "Termopaipa power station", "fuel": "coal", "mw": 346.0, "country": "COL", "status": "operating"}}, {"type": "Feature", "id": 46, "geometry": {"type": "Point", "coordinates": [-72.633, 7.847]}, "properties": {"name": "Termotasajero power station", "fuel": "coal", "mw": 323.0, "country": "COL", "status": "operating"}}, {"type": "Feature", "id": 47, "geometry": {"type": "Point", "coordinates": [-76.453, 3.565]}, "properties": {"name": "Termovalle", "fuel": "gas", "mw": 205.0, "country": "COL", "status": "operating"}}, {"type": "Feature", "id": 48, "geometry": {"type": "Point", "coordinates": [-73.947, 4.971]}, "properties": {"name": "Termozipa Corral power station", "fuel": "coal", "mw": 230.0, "country": "COL", "status": "operating"}}, {"type": "Feature", "id": 49, "geometry": {"type": "Point", "coordinates": [-75.282, 6.724]}, "properties": {"name": "Troneras Central", "fuel": "hydro", "mw": 40.0, "country": "COL", "status": "operating"}}, {"type": "Feature", "id": 50, "geometry": {"type": "Point", "coordinates": [-76.498, 3.553]}, "properties": {"name": "Yumbo", "fuel": "solar", "mw": 9.8, "country": "COL", "status": "operating"}}, {"type": "Feature", "id": 51, "geometry": {"type": "Point", "coordinates": [-78.483, -1.9]}, "properties": {"name": "Alao", "fuel": "hydro", "mw": 10.0, "country": "ECU", "status": "operating"}}, {"type": "Feature", "id": 52, "geometry": {"type": "Point", "coordinates": [-79.9, -2.167]}, "properties": {"name": "Alvaro Tinajero", "fuel": "gas", "mw": 95.0, "country": "ECU", "status": "operating"}}, {"type": "Feature", "id": 53, "geometry": {"type": "Point", "coordinates": [-78.767, -1.717]}, "properties": {"name": "Calope", "fuel": "hydro", "mw": 18.0, "country": "ECU", "status": "operating"}}, {"type": "Feature", "id": 54, "geometry": {"type": "Point", "coordinates": [-79.35, -3.983]}, "properties": {"name": "Catamayo", "fuel": "oil", "mw": 19.7, "country": "ECU", "status": "operating"}}, {"type": "Feature", "id": 55, "geometry": {"type": "Point", "coordinates": [-79.91, -2.252]}, "properties": {"name": "Central Termica Trinitaria", "fuel": "oil", "mw": 133.0, "country": "ECU", "status": "operating"}}, {"type": "Feature", "id": 56, "geometry": {"type": "Point", "coordinates": [-77.617, -0.144]}, "properties": {"name": "Coca Coda Sinclair", "fuel": "hydro", "mw": 1500.0, "country": "ECU", "status": "operating"}}, {"type": "Feature", "id": 57, "geometry": {"type": "Point", "coordinates": [-78.237, 0.032]}, "properties": {"name": "Condor", "fuel": "solar", "mw": 30.0, "country": "ECU", "status": "operating"}}, {"type": "Feature", "id": 58, "geometry": {"type": "Point", "coordinates": [-80.067, -2.233]}, "properties": {"name": "Electroquil", "fuel": "gas", "mw": 181.0, "country": "ECU", "status": "operating"}}, {"type": "Feature", "id": 59, "geometry": {"type": "Point", "coordinates": [-79.688, 0.927]}, "properties": {"name": "Esmeraldas", "fuel": "oil", "mw": 132.5, "country": "ECU", "status": "operating"}}, {"type": "Feature", "id": 60, "geometry": {"type": "Point", "coordinates": [-79.691, 0.935]}, "properties": {"name": "Esmeraldas II", "fuel": "oil", "mw": 96.0, "country": "ECU", "status": "operating"}}, {"type": "Feature", "id": 61, "geometry": {"type": "Point", "coordinates": [-79.954, -2.196]}, "properties": {"name": "Gonzalo Zevallos", "fuel": "gas", "mw": 146.0, "country": "ECU", "status": "operating"}}, {"type": "Feature", "id": 62, "geometry": {"type": "Point", "coordinates": [-78.525, -0.23]}, "properties": {"name": "Gualberto Hernandez", "fuel": "oil", "mw": 34.3, "country": "ECU", "status": "operating"}}, {"type": "Feature", "id": 63, "geometry": {"type": "Point", "coordinates": [-78.45, -0.25]}, "properties": {"name": "Guangopolo", "fuel": "hydro", "mw": 20.9, "country": "ECU", "status": "operating"}}, {"type": "Feature", "id": 64, "geometry": {"type": "Point", "coordinates": [-78.912, 0.215]}, "properties": {"name": "Manduriacu", "fuel": "hydro", "mw": 65.0, "country": "ECU", "status": "operating"}}, {"type": "Feature", "id": 65, "geometry": {"type": "Point", "coordinates": [-78.15, 0.033]}, "properties": {"name": "Miraflores", "fuel": "oil", "mw": 52.3, "country": "ECU", "status": "operating"}}, {"type": "Feature", "id": 66, "geometry": {"type": "Point", "coordinates": [-78.227, -2.595]}, "properties": {"name": "Paute", "fuel": "hydro", "mw": 1100.0, "country": "ECU", "status": "operating"}}, {"type": "Feature", "id": 67, "geometry": {"type": "Point", "coordinates": [-78.55, -0.367]}, "properties": {"name": "Santa Rosa", "fuel": "gas", "mw": 51.3, "country": "ECU", "status": "operating"}}, {"type": "Feature", "id": 68, "geometry": {"type": "Point", "coordinates": [-79.0, -2.783]}, "properties": {"name": "Saucay", "fuel": "hydro", "mw": 24.0, "country": "ECU", "status": "operating"}}, {"type": "Feature", "id": 69, "geometry": {"type": "Point", "coordinates": [-79.0, -2.817]}, "properties": {"name": "Saymirin", "fuel": "hydro", "mw": 14.4, "country": "ECU", "status": "operating"}}, {"type": "Feature", "id": 70, "geometry": {"type": "Point", "coordinates": [-79.433, -1.583]}, "properties": {"name": "Sibimbe", "fuel": "hydro", "mw": 15.0, "country": "ECU", "status": "operating"}}, {"type": "Feature", "id": 71, "geometry": {"type": "Point", "coordinates": [-78.234, 0.015]}, "properties": {"name": "Solar Connection", "fuel": "solar", "mw": 20.0, "country": "ECU", "status": "operating"}}, {"type": "Feature", "id": 72, "geometry": {"type": "Point", "coordinates": [-78.567, -2.594]}, "properties": {"name": "Sopladora II", "fuel": "hydro", "mw": 487.0, "country": "ECU", "status": "operating"}}, {"type": "Feature", "id": 73, "geometry": {"type": "Point", "coordinates": [-75.493, -9.029]}, "properties": {"name": "Aguayt\u00cda", "fuel": "gas", "mw": 203.0, "country": "PER", "status": "operating"}}, {"type": "Feature", "id": 74, "geometry": {"type": "Point", "coordinates": [-74.787, -12.464]}, "properties": {"name": "Antunez de Mayolo (Mantaro)", "fuel": "hydro", "mw": 798.0, "country": "PER", "status": "operating"}}, {"type": "Feature", "id": 75, "geometry": {"type": "Point", "coordinates": [-77.853, -8.813]}, "properties": {"name": "Ca\u00d1on del Pato", "fuel": "hydro", "mw": 247.0, "country": "PER", "status": "operating"}}, {"type": "Feature", "id": 76, "geometry": {"type": "Point", "coordinates": [-71.347, -16.246]}, "properties": {"name": "Charcani V", "fuel": "hydro", "mw": 145.0, "country": "PER", "status": "operating"}}, {"type": "Feature", "id": 77, "geometry": {"type": "Point", "coordinates": [-76.729, -12.497]}, "properties": {"name": "Chilca 1", "fuel": "gas", "mw": 734.1, "country": "PER", "status": "operating"}}, {"type": "Feature", "id": 78, "geometry": {"type": "Point", "coordinates": [-75.301, -11.325]}, "properties": {"name": "Chimay", "fuel": "hydro", "mw": 143.0, "country": "PER", "status": "operating"}}, {"type": "Feature", "id": 79, "geometry": {"type": "Point", "coordinates": [-75.977, -12.837]}, "properties": {"name": "El Platanal", "fuel": "hydro", "mw": 220.0, "country": "PER", "status": "operating"}}, {"type": "Feature", "id": 80, "geometry": {"type": "Point", "coordinates": [-76.736, -12.544]}, "properties": {"name": "Fenix", "fuel": "gas", "mw": 578.8, "country": "PER", "status": "operating"}}, {"type": "Feature", "id": 81, "geometry": {"type": "Point", "coordinates": [-76.308, -11.781]}, "properties": {"name": "Huanchor", "fuel": "hydro", "mw": 20.0, "country": "PER", "status": "operating"}}, {"type": "Feature", "id": 82, "geometry": {"type": "Point", "coordinates": [-76.625, -11.811]}, "properties": {"name": "Huinco", "fuel": "hydro", "mw": 258.0, "country": "PER", "status": "operating"}}, {"type": "Feature", "id": 83, "geometry": {"type": "Point", "coordinates": [-71.19, -17.776]}, "properties": {"name": "Ilo 1", "fuel": "coal", "mw": 132.0, "country": "PER", "status": "operating"}}, {"type": "Feature", "id": 84, "geometry": {"type": "Point", "coordinates": [-71.186, -17.778]}, "properties": {"name": "Ilo 2", "fuel": "gas", "mw": 135.0, "country": "PER", "status": "operating"}}, {"type": "Feature", "id": 85, "geometry": {"type": "Point", "coordinates": [-76.73, -12.498]}, "properties": {"name": "Kallpa", "fuel": "gas", "mw": 952.3, "country": "PER", "status": "operating"}}, {"type": "Feature", "id": 86, "geometry": {"type": "Point", "coordinates": [-72.564, -13.174]}, "properties": {"name": "Macchu Picchu", "fuel": "hydro", "mw": 189.0, "country": "PER", "status": "operating"}}, {"type": "Feature", "id": 87, "geometry": {"type": "Point", "coordinates": [-72.222, -16.436]}, "properties": {"name": "Majes", "fuel": "solar", "mw": 20.0, "country": "PER", "status": "operating"}}, {"type": "Feature", "id": 88, "geometry": {"type": "Point", "coordinates": [-75.08, -15.409]}, "properties": {"name": "Marcona", "fuel": "wind", "mw": 32.0, "country": "PER", "status": "operating"}}, {"type": "Feature", "id": 89, "geometry": {"type": "Point", "coordinates": [-76.456, -11.886]}, "properties": {"name": "Matucana", "fuel": "hydro", "mw": 120.0, "country": "PER", "status": "operating"}}, {"type": "Feature", "id": 90, "geometry": {"type": "Point", "coordinates": [-71.03, -17.539]}, "properties": {"name": "Moquegua", "fuel": "solar", "mw": 16.0, "country": "PER", "status": "operating"}}, {"type": "Feature", "id": 91, "geometry": {"type": "Point", "coordinates": [-71.03, -17.544]}, "properties": {"name": "Panamericana", "fuel": "solar", "mw": 20.0, "country": "PER", "status": "operating"}}, {"type": "Feature", "id": 92, "geometry": {"type": "Point", "coordinates": [-75.969, -13.716]}, "properties": {"name": "Pisco", "fuel": "gas", "mw": 75.0, "country": "PER", "status": "operating"}}, {"type": "Feature", "id": 93, "geometry": {"type": "Point", "coordinates": [-80.52, -4.68]}, "properties": {"name": "Poechos", "fuel": "hydro", "mw": 26.4, "country": "PER", "status": "operating"}}, {"type": "Feature", "id": 94, "geometry": {"type": "Point", "coordinates": [-77.543, -8.444]}, "properties": {"name": "Quitaracsa", "fuel": "hydro", "mw": 115.0, "country": "PER", "status": "operating"}}, {"type": "Feature", "id": 95, "geometry": {"type": "Point", "coordinates": [-71.818, -16.576]}, "properties": {"name": "Reparticion", "fuel": "solar", "mw": 20.0, "country": "PER", "status": "operating"}}, {"type": "Feature", "id": 96, "geometry": {"type": "Point", "coordinates": [-71.187, -17.777]}, "properties": {"name": "Reserva Fria Ilo", "fuel": "gas", "mw": 569.0, "country": "PER", "status": "operating"}}, {"type": "Feature", "id": 97, "geometry": {"type": "Point", "coordinates": [-74.643, -12.348]}, "properties": {"name": "Restitucion", "fuel": "hydro", "mw": 210.0, "country": "PER", "status": "operating"}}, {"type": "Feature", "id": 98, "geometry": {"type": "Point", "coordinates": [-71.01, -17.19]}, "properties": {"name": "Rubi", "fuel": "solar", "mw": 144.5, "country": "PER", "status": "operating"}}, {"type": "Feature", "id": 99, "geometry": {"type": "Point", "coordinates": [-70.453, -13.722]}, "properties": {"name": "San Gaban II", "fuel": "hydro", "mw": 114.0, "country": "PER", "status": "operating"}}, {"type": "Feature", "id": 100, "geometry": {"type": "Point", "coordinates": [-77.012, -12.04]}, "properties": {"name": "Santa Rosa", "fuel": "gas", "mw": 491.0, "country": "PER", "status": "operating"}}, {"type": "Feature", "id": 101, "geometry": {"type": "Point", "coordinates": [-70.336, -17.994]}, "properties": {"name": "Tacna", "fuel": "solar", "mw": 20.0, "country": "PER", "status": "operating"}}, {"type": "Feature", "id": 102, "geometry": {"type": "Point", "coordinates": [-81.203, -4.566]}, "properties": {"name": "Talara", "fuel": "wind", "mw": 30.0, "country": "PER", "status": "operating"}}, {"type": "Feature", "id": 103, "geometry": {"type": "Point", "coordinates": [-77.118, -11.936]}, "properties": {"name": "Ventanilla", "fuel": "gas", "mw": 524.0, "country": "PER", "status": "operating"}}, {"type": "Feature", "id": 104, "geometry": {"type": "Point", "coordinates": [-75.645, -10.723]}, "properties": {"name": "Yunc\u00c1n", "fuel": "hydro", "mw": 130.0, "country": "PER", "status": "operating"}}, {"type": "Feature", "id": 105, "geometry": {"type": "Point", "coordinates": [-64.61, 10.221]}, "properties": {"name": "Alberto Lovera", "fuel": "gas", "mw": 300.0, "country": "VEN", "status": "operating"}}, {"type": "Feature", "id": 106, "geometry": {"type": "Point", "coordinates": [-64.496, 9.37]}, "properties": {"name": "Alfredo Salazar (Anaco)", "fuel": "gas", "mw": 300.0, "country": "VEN", "status": "operating"}}, {"type": "Feature", "id": 107, "geometry": {"type": "Point", "coordinates": [-62.668, 8.304]}, "properties": {"name": "Antonio Jose de Sucre (Macagua)", "fuel": "hydro", "mw": 2930.0, "country": "VEN", "status": "operating"}}, {"type": "Feature", "id": 108, "geometry": {"type": "Point", "coordinates": [-71.649, 10.503]}, "properties": {"name": "Bajo Grande", "fuel": "gas", "mw": 90.0, "country": "VEN", "status": "operating"}}, {"type": "Feature", "id": 109, "geometry": {"type": "Point", "coordinates": [-67.079, 10.592]}, "properties": {"name": "Barcazas Josefa Rufina y Margarita", "fuel": "gas", "mw": 340.0, "country": "VEN", "status": "operating"}}, {"type": "Feature", "id": 110, "geometry": {"type": "Point", "coordinates": [-72.52, 8.745]}, "properties": {"name": "Casigua", "fuel": "gas", "mw": 83.0, "country": "VEN", "status": "operating"}}, {"type": "Feature", "id": 111, "geometry": {"type": "Point", "coordinates": [-67.953, 10.188]}, "properties": {"name": "Castillito Gas Power Plant Venezuela", "fuel": "gas", "mw": 85.0, "country": "VEN", "status": "operating"}}, {"type": "Feature", "id": 112, "geometry": {"type": "Point", "coordinates": [-66.681, 10.29]}, "properties": {"name": "El Sitio", "fuel": "gas", "mw": 360.0, "country": "VEN", "status": "operating"}}, {"type": "Feature", "id": 113, "geometry": {"type": "Point", "coordinates": [-69.323, 10.074]}, "properties": {"name": "Enelbar", "fuel": "gas", "mw": 130.0, "country": "VEN", "status": "operating"}}, {"type": "Feature", "id": 114, "geometry": {"type": "Point", "coordinates": [-71.467, 7.747]}, "properties": {"name": "Fabricio Ojeda (La Vueltosa) Hydroelectric Power Plant Venezuela", "fuel": "hydro", "mw": 514.0, "country": "VEN", "status": "operating"}}, {"type": "Feature", "id": 115, "geometry": {"type": "Point", "coordinates": [-62.8, 8.16]}, "properties": {"name": "Fransisco de Miranda (Caruachi)", "fuel": "hydro", "mw": 2196.0, "country": "VEN", "status": "operating"}}, {"type": "Feature", "id": 116, "geometry": {"type": "Point", "coordinates": [-64.596, 10.235]}, "properties": {"name": "Guanta", "fuel": "gas", "mw": 174.0, "country": "VEN", "status": "operating"}}, {"type": "Feature", "id": 117, "geometry": {"type": "Point", "coordinates": [-66.557, 10.489]}, "properties": {"name": "Guarenas", "fuel": "gas", "mw": 156.0, "country": "VEN", "status": "operating"}}, {"type": "Feature", "id": 118, "geometry": {"type": "Point", "coordinates": [-70.514, 8.825]}, "properties": {"name": "Jose Antonio Paez (Planta Paez)", "fuel": "hydro", "mw": 240.0, "country": "VEN", "status": "operating"}}, {"type": "Feature", "id": 119, "geometry": {"type": "Point", "coordinates": [-70.172, 11.75]}, "properties": {"name": "Josefa Camejo", "fuel": "gas", "mw": 450.0, "country": "VEN", "status": "operating"}}, {"type": "Feature", "id": 120, "geometry": {"type": "Point", "coordinates": [-71.635, 10.489]}, "properties": {"name": "Josefa Joaquina Sanchez", "fuel": "gas", "mw": 1586.0, "country": "VEN", "status": "operating"}}, {"type": "Feature", "id": 121, "geometry": {"type": "Point", "coordinates": [-70.207, 8.623]}, "properties": {"name": "Juan Antonio Rodriguez (Pena Larga)", "fuel": "hydro", "mw": 80.0, "country": "VEN", "status": "operating"}}, {"type": "Feature", "id": 122, "geometry": {"type": "Point", "coordinates": [-64.033, 10.879]}, "properties": {"name": "Juan Buatista Arismendi", "fuel": "gas", "mw": 115.0, "country": "VEN", "status": "operating"}}, {"type": "Feature", "id": 123, "geometry": {"type": "Point", "coordinates": [-66.792, 10.256]}, "properties": {"name": "La raisa", "fuel": "gas", "mw": 310.0, "country": "VEN", "status": "operating"}}, {"type": "Feature", "id": 124, "geometry": {"type": "Point", "coordinates": [-71.715, 7.854]}, "properties": {"name": "Leanardo Ruiz Pineda (San Agaton)", "fuel": "hydro", "mw": 300.0, "country": "VEN", "status": "operating"}}, {"type": "Feature", "id": 125, "geometry": {"type": "Point", "coordinates": [-63.89, 10.939]}, "properties": {"name": "Luisa Caraceres de Arismendi", "fuel": "gas", "mw": 367.0, "country": "VEN", "status": "operating"}}, {"type": "Feature", "id": 126, "geometry": {"type": "Point", "coordinates": [-63.032, 7.9]}, "properties": {"name": "Manuel Piar (Tocoma) Hydroelectric Power Plant Venezuela", "fuel": "hydro", "mw": 2530.0, "country": "VEN", "status": "operating"}}, {"type": "Feature", "id": 127, "geometry": {"type": "Point", "coordinates": [-70.099, 8.836]}, "properties": {"name": "Masparro", "fuel": "hydro", "mw": 25.0, "country": "VEN", "status": "operating"}}, {"type": "Feature", "id": 128, "geometry": {"type": "Point", "coordinates": [-67.946, 10.177]}, "properties": {"name": "Pedro Camejo", "fuel": "gas", "mw": 300.0, "country": "VEN", "status": "operating"}}, {"type": "Feature", "id": 129, "geometry": {"type": "Point", "coordinates": [-70.2, 11.696]}, "properties": {"name": "Planta Camejo", "fuel": "gas", "mw": 61.0, "country": "VEN", "status": "operating"}}, {"type": "Feature", "id": 130, "geometry": {"type": "Point", "coordinates": [-68.155, 10.495]}, "properties": {"name": "Planta Centro", "fuel": "gas", "mw": 2000.0, "country": "VEN", "status": "operating"}}, {"type": "Feature", "id": 131, "geometry": {"type": "Point", "coordinates": [-69.673, 11.405]}, "properties": {"name": "Planta Coro", "fuel": "gas", "mw": 101.0, "country": "VEN", "status": "operating"}}, {"type": "Feature", "id": 132, "geometry": {"type": "Point", "coordinates": [-72.244, 8.22]}, "properties": {"name": "Planta Tachira", "fuel": "gas", "mw": 247.0, "country": "VEN", "status": "operating"}}, {"type": "Feature", "id": 133, "geometry": {"type": "Point", "coordinates": [-68.008, 10.162]}, "properties": {"name": "Planta del Este", "fuel": "gas", "mw": 141.0, "country": "VEN", "status": "operating"}}, {"type": "Feature", "id": 134, "geometry": {"type": "Point", "coordinates": [-70.2, 11.696]}, "properties": {"name": "Punto Fijo", "fuel": "gas", "mw": 199.0, "country": "VEN", "status": "operating"}}, {"type": "Feature", "id": 135, "geometry": {"type": "Point", "coordinates": [-71.641, 10.632]}, "properties": {"name": "Rafael Urdaneta", "fuel": "gas", "mw": 224.0, "country": "VEN", "status": "operating"}}, {"type": "Feature", "id": 136, "geometry": {"type": "Point", "coordinates": [-71.614, 10.598]}, "properties": {"name": "Ramon Laguna", "fuel": "gas", "mw": 660.0, "country": "VEN", "status": "operating"}}, {"type": "Feature", "id": 137, "geometry": {"type": "Point", "coordinates": [-67.081, 10.588]}, "properties": {"name": "Ricardo Zuloaga (Tacoa) Thermal Power Plant Venezuela", "fuel": "gas", "mw": 1720.0, "country": "VEN", "status": "operating"}}, {"type": "Feature", "id": 138, "geometry": {"type": "Point", "coordinates": [-67.472, 7.888]}, "properties": {"name": "San Fernando", "fuel": "gas", "mw": 90.0, "country": "VEN", "status": "operating"}}, {"type": "Feature", "id": 139, "geometry": {"type": "Point", "coordinates": [-71.066, 9.786]}, "properties": {"name": "San Lorenzo", "fuel": "gas", "mw": 40.0, "country": "VEN", "status": "operating"}}, {"type": "Feature", "id": 140, "geometry": {"type": "Point", "coordinates": [-71.914, 8.995]}, "properties": {"name": "Santa Barbara", "fuel": "gas", "mw": 20.0, "country": "VEN", "status": "operating"}}, {"type": "Feature", "id": 141, "geometry": {"type": "Point", "coordinates": [-62.998, 7.766]}, "properties": {"name": "Simon Bolivar (Guri)", "fuel": "hydro", "mw": 8851.0, "country": "VEN", "status": "operating"}}, {"type": "Feature", "id": 142, "geometry": {"type": "Point", "coordinates": [-70.105, 8.607]}, "properties": {"name": "Termobarrancas II", "fuel": "gas", "mw": 161.0, "country": "VEN", "status": "operating"}}, {"type": "Feature", "id": 143, "geometry": {"type": "Point", "coordinates": [-68.149, 10.484]}, "properties": {"name": "Termocarabobo", "fuel": "gas", "mw": 380.0, "country": "VEN", "status": "operating"}}, {"type": "Feature", "id": 144, "geometry": {"type": "Point", "coordinates": [-71.635, 10.488]}, "properties": {"name": "Termozulia", "fuel": "gas", "mw": 1300.0, "country": "VEN", "status": "operating"}}, {"type": "Feature", "id": 145, "geometry": {"type": "Point", "coordinates": [-71.635, 10.488]}, "properties": {"name": "Termozulia II", "fuel": "gas", "mw": 450.0, "country": "VEN", "status": "operating"}}, {"type": "Feature", "id": 146, "geometry": {"type": "Point", "coordinates": [-71.633, 10.486]}, "properties": {"name": "Termozulia III", "fuel": "gas", "mw": 450.0, "country": "VEN", "status": "operating"}}, {"type": "Feature", "id": 147, "geometry": {"type": "Point", "coordinates": [-67.459, 10.186]}, "properties": {"name": "Turboven", "fuel": "gas", "mw": 40.0, "country": "VEN", "status": "operating"}}]}