{"type": "FeatureCollection", "features": [{"type": "Feature", "geometry": {"type": "Point", "coordinates": [12.969, -5.445]}, "properties": {"name": "Poste \u00e9lectrique de Moenge", "v": 132000}}, {"type": "Feature", "geometry": {"type": "Point", "coordinates": [9.789, 28.641]}, "properties": {"name": "", "v": 0}}, {"type": "Feature", "geometry": {"type": "Point", "coordinates": [14.011, 31.733]}, "properties": {"name": "", "v": 0}}, {"type": "Feature", "geometry": {"type": "Point", "coordinates": [14.011, 31.733]}, "properties": {"name": "", "v": 0}}, {"type": "Feature", "geometry": {"type": "Point", "coordinates": [12.25, 31.929]}, "properties": {"name": "\u0645\u062d\u0637\u0629 \u0643\u0647\u0631\u0628\u0627\u0621", "v": 0}}, {"type": "Feature", "geometry": {"type": "Point", "coordinates": [12.851, 32.158]}, "properties": {"name": "\u0645\u062d\u0637\u0629 \u062a\u062d\u0648\u064a\u0644 30 \u0643 \u0641 \u0627\u0644\u0631\u0627\u0628\u0637\u0629", "v": 0}}, {"type": "Feature", "geometry": {"type": "Point", "coordinates": [13.041, 32.257]}, "properties": {"name": "\u0645\u062d\u0637\u0629 \u062a\u062d\u0648\u064a\u0644 \u0623\u0628\u0648\u063a\u064a\u0644\u0627\u0646 30 \u0643 \u0641", "v": 0}}, {"type": "Feature", "geometry": {"type": "Point", "coordinates": [12.377, 32.781]}, "properties": {"name": "\u0645\u062d\u0637\u0629 \u062a\u062d\u0648\u064a\u0644 \u062c\u0647\u062f 30 \u0643 \u0641 \u0627\u0644\u0633\u0643\u0629", "v": 0}}, {"type": "Feature", "geometry": {"type": "Point", "coordinates": [13.187, 32.871]}, "properties": {"name": "11KVA", "v": 0}}, {"type": "Feature", "geometry": {"type": "Point", "coordinates": [13.994, 31.741]}, "properties": {"name": "11KVA", "v": 0}}, {"type": "Feature", "geometry": {"type": "Point", "coordinates": [15.74, 30.095]}, "properties": {"name": "", "v": 0}}, {"type": "Feature", "geometry": {"type": "Point", "coordinates": [14.038, 31.77]}, "properties": {"name": "11KVA", "v": 0}}, {"type": "Feature", "geometry": {"type": "Point", "coordinates": [14.022, 31.754]}, "properties": {"name": "11KVA", "v": 0}}, {"type": "Feature", "geometry": {"type": "Point", "coordinates": [20.25, 32.083]}, "properties": {"name": "", "v": 0}}, {"type": "Feature", "geometry": {"type": "Point", "coordinates": [20.013, 31.949]}, "properties": {"name": "", "v": 0}}, {"type": "Feature", "geometry": {"type": "Point", "coordinates": [30.46, 31.038]}, "properties": {"name": "", "v": 0}}, {"type": "Feature", "geometry": {"type": "Point", "coordinates": [31.216, 30.067]}, "properties": {"name": "", "v": 0}}, {"type": "Feature", "geometry": {"type": "Point", "coordinates": [27.479, -11.629]}, "properties": {"name": "", "v": 0}}, {"type": "Feature", "geometry": {"type": "Point", "coordinates": [27.544, -11.634]}, "properties": {"name": "", "v": 0}}, {"type": "Feature", "geometry": {"type": "Point", "coordinates": [15.253, -4.36]}, "properties": {"name": "Station SNEL Ngaliema", "v": 0}}, {"type": "Feature", "geometry": {"type": "Point", "coordinates": [15.264, -4.352]}, "properties": {"name": "Cabine SNEL", "v": 0}}, {"type": "Feature", "geometry": {"type": "Point", "coordinates": [15.265, -4.349]}, "properties": {"name": "Cabine SNEL", "v": 0}}, {"type": "Feature", "geometry": {"type": "Point", "coordinates": [15.277, -4.445]}, "properties": {"name": "", "v": 0}}, {"type": "Feature", "geometry": {"type": "Point", "coordinates": [15.344, -4.338]}, "properties": {"name": "SNEL", "v": 0}}, {"type": "Feature", "geometry": {"type": "Point", "coordinates": [15.355, -4.348]}, "properties": {"name": "", "v": 0}}, {"type": "Feature", "geometry": {"type": "Point", "coordinates": [15.358, -4.352]}, "properties": {"name": "Maternit\u00e9", "v": 0}}, {"type": "Feature", "geometry": {"type": "Point", "coordinates": [17.374, -3.308]}, "properties": {"name": "Centre Basse Tension SNEL", "v": 0}}, {"type": "Feature", "geometry": {"type": "Point", "coordinates": [17.376, -3.294]}, "properties": {"name": "Haute Tension Sadelmi", "v": 0}}, {"type": "Feature", "geometry": {"type": "Point", "coordinates": [16.52, -4.431]}, "properties": {"name": "", "v": 0}}, {"type": "Feature", "geometry": {"type": "Point", "coordinates": [28.849, -2.513]}, "properties": {"name": "", "v": 0}}, {"type": "Feature", "geometry": {"type": "Point", "coordinates": [30.08, 0.172]}, "properties": {"name": "Umeme warehouse", "v": 0}}, {"type": "Feature", "geometry": {"type": "Point", "coordinates": [30.645, -2.493]}, "properties": {"name": "", "v": 0}}, {"type": "Feature", "geometry": {"type": "Point", "coordinates": [31.706, -1.547]}, "properties": {"name": "", "v": 0}}, {"type": "Feature", "geometry": {"type": "Point", "coordinates": [31.81, -1.332]}, "properties": {"name": "", "v": 0}}, {"type": "Feature", "geometry": {"type": "Point", "coordinates": [31.811, -1.345]}, "properties": {"name": "", "v": 0}}, {"type": "Feature", "geometry": {"type": "Point", "coordinates": [31.814, -1.343]}, "properties": {"name": "", "v": 0}}, {"type": "Feature", "geometry": {"type": "Point", "coordinates": [31.815, -1.346]}, "properties": {"name": "", "v": 0}}, {"type": "Feature", "geometry": {"type": "Point", "coordinates": [31.817, -1.337]}, "properties": {"name": "", "v": 0}}, {"type": "Feature", "geometry": {"type": "Point", "coordinates": [32.445, 0.027]}, "properties": {"name": "", "v": 0}}, {"type": "Feature", "geometry": {"type": "Point", "coordinates": [32.476, 0.068]}, "properties": {"name": "Entebbe Substation", "v": 0}}, {"type": "Feature", "geometry": {"type": "Point", "coordinates": [35.971, -0.54]}, "properties": {"name": "", "v": 0}}, {"type": "Feature", "geometry": {"type": "Point", "coordinates": [36.685, -1.293]}, "properties": {"name": "", "v": 0}}, {"type": "Feature", "geometry": {"type": "Point", "coordinates": [36.723, -1.266]}, "properties": {"name": "Kabete Power Plant", "v": 0}}, {"type": "Feature", "geometry": {"type": "Point", "coordinates": [36.774, -1.311]}, "properties": {"name": "", "v": 0}}, {"type": "Feature", "geometry": {"type": "Point", "coordinates": [36.775, -1.308]}, "properties": {"name": "", "v": 0}}, {"type": "Feature", "geometry": {"type": "Point", "coordinates": [36.776, -1.31]}, "properties": {"name": "", "v": 0}}, {"type": "Feature", "geometry": {"type": "Point", "coordinates": [36.78, -1.313]}, "properties": {"name": "", "v": 0}}, {"type": "Feature", "geometry": {"type": "Point", "coordinates": [36.781, -1.314]}, "properties": {"name": "", "v": 0}}, {"type": "Feature", "geometry": {"type": "Point", "coordinates": [36.786, -1.312]}, "properties": {"name": "", "v": 0}}, {"type": "Feature", "geometry": {"type": "Point", "coordinates": [36.79, -1.313]}, "properties": {"name": "", "v": 0}}, {"type": "Feature", "geometry": {"type": "Point", "coordinates": [36.79, -1.311]}, "properties": {"name": "", "v": 0}}, {"type": "Feature", "geometry": {"type": "Point", "coordinates": [36.792, -1.315]}, "properties": {"name": "Transformer", "v": 0}}, {"type": "Feature", "geometry": {"type": "Point", "coordinates": [36.792, -1.312]}, "properties": {"name": "Transformer", "v": 0}}, {"type": "Feature", "geometry": {"type": "Point", "coordinates": [36.795, -1.311]}, "properties": {"name": "", "v": 0}}, {"type": "Feature", "geometry": {"type": "Point", "coordinates": [36.832, -1.302]}, "properties": {"name": "", "v": 0}}, {"type": "Feature", "geometry": {"type": "Point", "coordinates": [36.891, -1.25]}, "properties": {"name": "", "v": 0}}, {"type": "Feature", "geometry": {"type": "Point", "coordinates": [37.222, -3.214]}, "properties": {"name": "", "v": 0}}, {"type": "Feature", "geometry": {"type": "Point", "coordinates": [37.659, -6.82]}, "properties": {"name": "Heavy Plant Workshop", "v": 0}}, {"type": "Feature", "geometry": {"type": "Point", "coordinates": [39.272, -6.817]}, "properties": {"name": "Samira Gas", "v": 0}}, {"type": "Feature", "geometry": {"type": "Point", "coordinates": [39.284, -6.745]}, "properties": {"name": "", "v": 0}}, {"type": "Feature", "geometry": {"type": "Point", "coordinates": [32.543, 0.154]}, "properties": {"name": "", "v": 0}}, {"type": "Feature", "geometry": {"type": "Point", "coordinates": [32.607, 0.3]}, "properties": {"name": "", "v": 0}}, {"type": "Feature", "geometry": {"type": "Point", "coordinates": [32.602, 0.303]}, "properties": {"name": "", "v": 0}}, {"type": "Feature", "geometry": {"type": "Point", "coordinates": [32.566, 0.338]}, "properties": {"name": "", "v": 0}}, {"type": "Feature", "geometry": {"type": "Point", "coordinates": [32.569, 0.337]}, "properties": {"name": "", "v": 0}}, {"type": "Feature", "geometry": {"type": "Point", "coordinates": [32.626, 0.286]}, "properties": {"name": "", "v": 0}}, {"type": "Feature", "geometry": {"type": "Point", "coordinates": [32.609, 0.299]}, "properties": {"name": "", "v": 0}}, {"type": "Feature", "geometry": {"type": "Point", "coordinates": [32.616, 0.303]}, "properties": {"name": "", "v": 0}}, {"type": "Feature", "geometry": {"type": "Point", "coordinates": [32.614, 0.305]}, "properties": {"name": "", "v": 0}}, {"type": "Feature", "geometry": {"type": "Point", "coordinates": [32.61, 0.311]}, "properties": {"name": "", "v": 0}}, {"type": "Feature", "geometry": {"type": "Point", "coordinates": [33.223, 0.456]}, "properties": {"name": "", "v": 0}}, {"type": "Feature", "geometry": {"type": "Point", "coordinates": [31.336, 1.481]}, "properties": {"name": "Uganda electricity transmission company Ltd", "v": 0}}, {"type": "Feature", "geometry": {"type": "Point", "coordinates": [34.751, 0.284]}, "properties": {"name": "Kenya Power", "v": 0}}, {"type": "Feature", "geometry": {"type": "Point", "coordinates": [34.178, 1.051]}, "properties": {"name": "Bugema Electricity Sub Station", "v": 0}}, {"type": "Feature", "geometry": {"type": "Point", "coordinates": [40.604, 2.408]}, "properties": {"name": "Kutulo Power Sub Station", "v": 0}}, {"type": "Feature", "geometry": {"type": "Point", "coordinates": [37.613, -1.769]}, "properties": {"name": "", "v": 0}}, {"type": "Feature", "geometry": {"type": "Point", "coordinates": [32.505, 10.529]}, "properties": {"name": "", "v": 0}}, {"type": "Feature", "geometry": {"type": "Point", "coordinates": [38.74, 9.001]}, "properties": {"name": "", "v": 0}}, {"type": "Feature", "geometry": {"type": "Point", "coordinates": [38.742, 9.006]}, "properties": {"name": "", "v": 0}}, {"type": "Feature", "geometry": {"type": "Point", "coordinates": [38.744, 9.008]}, "properties": {"name": "", "v": 0}}, {"type": "Feature", "geometry": {"type": "Point", "coordinates": [32.498, 15.602]}, "properties": {"name": "Sunot", "v": 0}}]}