{"type": "FeatureCollection", "features": [{"type": "Feature", "id": 0, "geometry": {"type": "Point", "coordinates": [29.019, -1.757]}, "properties": {"name": "Makelele Biogas power station", "fuel": "biomass", "mw": 60.0, "country": "COD", "status": "planned"}}, {"type": "Feature", "id": 1, "geometry": {"type": "Point", "coordinates": [11.505, 3.799]}, "properties": {"name": "Ahala power station", "fuel": "gas", "mw": 60.0, "country": "CMR", "status": "operating"}}, {"type": "Feature", "id": 2, "geometry": {"type": "Point", "coordinates": [9.572, 4.137]}, "properties": {"name": "Bekoko power station", "fuel": "gas", "mw": 350.0, "country": "CMR", "status": "planned"}}, {"type": "Feature", "id": 3, "geometry": {"type": "Point", "coordinates": [9.818, 3.967]}, "properties": {"name": "Dibabmba power station", "fuel": "gas", "mw": 88.0, "country": "CMR", "status": "operating"}}, {"type": "Feature", "id": 4, "geometry": {"type": "Point", "coordinates": [9.62, 4.072]}, "properties": {"name": "Douala power station", "fuel": "gas", "mw": 150.0, "country": "CMR", "status": "planned"}}, {"type": "Feature", "id": 5, "geometry": {"type": "Point", "coordinates": [9.975, 3.034]}, "properties": {"name": "Kribi power station", "fuel": "gas", "mw": 216.0, "country": "CMR", "status": "operating"}}, {"type": "Feature", "id": 6, "geometry": {"type": "Point", "coordinates": [9.124, 4.008]}, "properties": {"name": "Limb\u00e9 power station", "fuel": "gas", "mw": 85.0, "country": "CMR", "status": "planned"}}, {"type": "Feature", "id": 7, "geometry": {"type": "Point", "coordinates": [9.124, 4.008]}, "properties": {"name": "Limb\u00e9 power station", "fuel": "gas", "mw": 265.0, "country": "CMR", "status": "planned"}}, {"type": "Feature", "id": 8, "geometry": {"type": "Point", "coordinates": [18.554, 4.39]}, "properties": {"name": "Bangui Thermal power station", "fuel": "gas", "mw": 50.0, "country": "CAF", "status": "operating"}}, {"type": "Feature", "id": 9, "geometry": {"type": "Point", "coordinates": [14.996, 12.135]}, "properties": {"name": "Farcha power station", "fuel": "gas", "mw": 60.0, "country": "TCD", "status": "operating"}}, {"type": "Feature", "id": 10, "geometry": {"type": "Point", "coordinates": [14.996, 12.135]}, "properties": {"name": "Farcha power station", "fuel": "gas", "mw": 90.0, "country": "TCD", "status": "planned"}}, {"type": "Feature", "id": 11, "geometry": {"type": "Point", "coordinates": [12.365, -5.928]}, "properties": {"name": "Kinkasi power station", "fuel": "gas", "mw": 100.0, "country": "COD", "status": "planned"}}, {"type": "Feature", "id": 12, "geometry": {"type": "Point", "coordinates": [29.228, -1.674]}, "properties": {"name": "Symbion Lake Kivu power station", "fuel": "gas", "mw": 140.0, "country": "COD", "status": "planned"}}, {"type": "Feature", "id": 13, "geometry": {"type": "Point", "coordinates": [9.521, 0.314]}, "properties": {"name": "Alenakiri power plant", "fuel": "gas", "mw": 120.0, "country": "GAB", "status": "operating"}}, {"type": "Feature", "id": 14, "geometry": {"type": "Point", "coordinates": [8.765, -0.724]}, "properties": {"name": "Cap Lopez power plant", "fuel": "gas", "mw": 120.0, "country": "GAB", "status": "operating"}}, {"type": "Feature", "id": 15, "geometry": {"type": "Point", "coordinates": [9.509, 0.291]}, "properties": {"name": "Orinko power plant", "fuel": "gas", "mw": 125.0, "country": "GAB", "status": "construction"}}, {"type": "Feature", "id": 16, "geometry": {"type": "Point", "coordinates": [9.509, 0.291]}, "properties": {"name": "Owendo Gas-to-Power power plant", "fuel": "gas", "mw": 151.0, "country": "GAB", "status": "operating"}}, {"type": "Feature", "id": 17, "geometry": {"type": "Point", "coordinates": [8.765, -0.724]}, "properties": {"name": "Port Gentil power plant", "fuel": "gas", "mw": 105.0, "country": "GAB", "status": "operating"}}, {"type": "Feature", "id": 18, "geometry": {"type": "Point", "coordinates": [14.996, 12.135]}, "properties": {"name": "Farcha power station", "fuel": "gas", "mw": 7.0, "country": "TCD", "status": "operating"}}, {"type": "Feature", "id": 19, "geometry": {"type": "Point", "coordinates": [15.066, 12.113]}, "properties": {"name": "N'Djamena power station", "fuel": "gas", "mw": 22.0, "country": "TCD", "status": "operating"}}, {"type": "Feature", "id": 20, "geometry": {"type": "Point", "coordinates": [10.679, -3.461]}, "properties": {"name": "Mayumba power plant", "fuel": "gas", "mw": 21.0, "country": "GAB", "status": "planned"}}, {"type": "Feature", "id": 21, "geometry": {"type": "Point", "coordinates": [9.715, 4.016]}, "properties": {"name": "Douala Ii Wouri solar project", "fuel": "solar", "mw": 1.1, "country": "CMR", "status": "operating"}}, {"type": "Feature", "id": 22, "geometry": {"type": "Point", "coordinates": [13.362, 9.327]}, "properties": {"name": "Garoua solar farm", "fuel": "solar", "mw": 30.0, "country": "CMR", "status": "operating"}}, {"type": "Feature", "id": 23, "geometry": {"type": "Point", "coordinates": [13.923, 9.88]}, "properties": {"name": "Guider solar farm", "fuel": "solar", "mw": 17.9, "country": "CMR", "status": "operating"}}, {"type": "Feature", "id": 24, "geometry": {"type": "Point", "coordinates": [13.923, 9.88]}, "properties": {"name": "Guider solar farm", "fuel": "solar", "mw": 8.8, "country": "CMR", "status": "construction"}}, {"type": "Feature", "id": 25, "geometry": {"type": "Point", "coordinates": [12.774, 4.936]}, "properties": {"name": "Infinity Power (Cameroon) solar farms", "fuel": "solar", "mw": 1000.0, "country": "CMR", "status": "planned"}}, {"type": "Feature", "id": 26, "geometry": {"type": "Point", "coordinates": [14.347, 10.645]}, "properties": {"name": "Maroua solar farm", "fuel": "solar", "mw": 17.9, "country": "CMR", "status": "operating"}}, {"type": "Feature", "id": 27, "geometry": {"type": "Point", "coordinates": [14.347, 10.645]}, "properties": {"name": "Maroua solar farm", "fuel": "solar", "mw": 19.8, "country": "CMR", "status": "construction"}}, {"type": "Feature", "id": 28, "geometry": {"type": "Point", "coordinates": [13.582, 7.326]}, "properties": {"name": "Ngaound\u00e9r\u00e9 solar farm", "fuel": "solar", "mw": 20.0, "country": "CMR", "status": "planned"}}, {"type": "Feature", "id": 29, "geometry": {"type": "Point", "coordinates": [11.518, 3.848]}, "properties": {"name": "Yaound\u00e9 solar farm", "fuel": "solar", "mw": 10.0, "country": "CMR", "status": "operating"}}, {"type": "Feature", "id": 30, "geometry": {"type": "Point", "coordinates": [18.467, 4.517]}, "properties": {"name": "Enerca Danzi solar farm", "fuel": "solar", "mw": 25.0, "country": "CAF", "status": "operating"}}, {"type": "Feature", "id": 31, "geometry": {"type": "Point", "coordinates": [18.467, 4.517]}, "properties": {"name": "Enerca Danzi solar farm", "fuel": "solar", "mw": 15.0, "country": "CAF", "status": "planned"}}, {"type": "Feature", "id": 32, "geometry": {"type": "Point", "coordinates": [17.986, 3.867]}, "properties": {"name": "Mbaiki solar farm", "fuel": "solar", "mw": 8.0, "country": "CAF", "status": "operating"}}, {"type": "Feature", "id": 33, "geometry": {"type": "Point", "coordinates": [18.489, 4.379]}, "properties": {"name": "Saka\u00ef  (Bimbo town) Solar Power Plant", "fuel": "solar", "mw": 15.0, "country": "CAF", "status": "operating"}}, {"type": "Feature", "id": 34, "geometry": {"type": "Point", "coordinates": [21.079, 7.275]}, "properties": {"name": "Saka\u00ef (GSU) solar project", "fuel": "solar", "mw": 50.0, "country": "CAF", "status": "construction"}}, {"type": "Feature", "id": 35, "geometry": {"type": "Point", "coordinates": [20.759, 13.798]}, "properties": {"name": "Ab\u00e9ch\u00e9 solar project", "fuel": "solar", "mw": 10.7, "country": "TCD", "status": "operating"}}, {"type": "Feature", "id": 36, "geometry": {"type": "Point", "coordinates": [18.37, 13.217]}, "properties": {"name": "Ati solar project", "fuel": "solar", "mw": 2.3, "country": "TCD", "status": "operating"}}, {"type": "Feature", "id": 37, "geometry": {"type": "Point", "coordinates": [16.852, 8.676]}, "properties": {"name": "Centrale Solaire de Kom\u00e9 solar farm", "fuel": "solar", "mw": 300.0, "country": "TCD", "status": "planned"}}, {"type": "Feature", "id": 38, "geometry": {"type": "Point", "coordinates": [15.203, 12.055]}, "properties": {"name": "Gassi (RESPITE) solar farm", "fuel": "solar", "mw": 30.0, "country": "TCD", "status": "planned"}}, {"type": "Feature", "id": 39, "geometry": {"type": "Point", "coordinates": [18.718, 12.182]}, "properties": {"name": "Gu\u00e9ra solar project", "fuel": "solar", "mw": 1.8, "country": "TCD", "status": "operating"}}, {"type": "Feature", "id": 40, "geometry": {"type": "Point", "coordinates": [22.259, 15.137]}, "properties": {"name": "Iriba solar project", "fuel": "solar", "mw": 2.1, "country": "TCD", "status": "operating"}}, {"type": "Feature", "id": 41, "geometry": {"type": "Point", "coordinates": [15.185, 12.014]}, "properties": {"name": "Klessoum solar farm", "fuel": "solar", "mw": 35.0, "country": "TCD", "status": "operating"}}, {"type": "Feature", "id": 42, "geometry": {"type": "Point", "coordinates": [15.143, 12.086]}, "properties": {"name": "N'Djamena (Qair) solar farm", "fuel": "solar", "mw": 15.0, "country": "TCD", "status": "construction"}}, {"type": "Feature", "id": 43, "geometry": {"type": "Point", "coordinates": [15.052, 12.229]}, "properties": {"name": "N'Djamena (Qair) solar farm", "fuel": "solar", "mw": 15.0, "country": "TCD", "status": "construction"}}, {"type": "Feature", "id": 44, "geometry": {"type": "Point", "coordinates": [15.033, 12.129]}, "properties": {"name": "N'Djamena Airport solar farm", "fuel": "solar", "mw": 30.0, "country": "TCD", "status": "construction"}}, {"type": "Feature", "id": 45, "geometry": {"type": "Point", "coordinates": [15.178, 12.06]}, "properties": {"name": "N'Djamena solar project", "fuel": "solar", "mw": 14.7, "country": "TCD", "status": "operating"}}, {"type": "Feature", "id": 46, "geometry": {"type": "Point", "coordinates": [15.073, 12.117]}, "properties": {"name": "Noor Chad solar farm", "fuel": "solar", "mw": 50.0, "country": "TCD", "status": "operating"}}, {"type": "Feature", "id": 47, "geometry": {"type": "Point", "coordinates": [15.086, 12.123]}, "properties": {"name": "N\u2019Djamena (Axian) solar farm", "fuel": "solar", "mw": 100.0, "country": "TCD", "status": "planned"}}, {"type": "Feature", "id": 48, "geometry": {"type": "Point", "coordinates": [22.802, 15.049]}, "properties": {"name": "Wadi Fira solar project", "fuel": "solar", "mw": 3.6, "country": "TCD", "status": "operating"}}, {"type": "Feature", "id": 49, "geometry": {"type": "Point", "coordinates": [23.564, -2.623]}, "properties": {"name": "Amea Power solar farm (DR Congo)", "fuel": "solar", "mw": 100.0, "country": "COD", "status": "planned"}}, {"type": "Feature", "id": 50, "geometry": {"type": "Point", "coordinates": [25.21, -10.88]}, "properties": {"name": "CrossBoundary Energy solar farm", "fuel": "solar", "mw": 233.0, "country": "COD", "status": "planned"}}, {"type": "Feature", "id": 51, "geometry": {"type": "Point", "coordinates": [21.99, -0.539]}, "properties": {"name": "DR Congo (SkyPower) solar project", "fuel": "solar", "mw": 200.0, "country": "COD", "status": "planned"}}, {"type": "Feature", "id": 52, "geometry": {"type": "Point", "coordinates": [21.99, -0.539]}, "properties": {"name": "DR Congo (SkyPower) solar project", "fuel": "solar", "mw": 800.0, "country": "COD", "status": "planned"}}, {"type": "Feature", "id": 53, "geometry": {"type": "Point", "coordinates": [27.461, -11.807]}, "properties": {"name": "Fipango solar farm", "fuel": "solar", "mw": 300.0, "country": "COD", "status": "planned"}}, {"type": "Feature", "id": 54, "geometry": {"type": "Point", "coordinates": [27.461, -11.807]}, "properties": {"name": "Fipango solar farm", "fuel": "solar", "mw": 200.0, "country": "COD", "status": "construction"}}, {"type": "Feature", "id": 55, "geometry": {"type": "Point", "coordinates": [26.301, -10.615]}, "properties": {"name": "Fungurume solar farm", "fuel": "solar", "mw": 48.0, "country": "COD", "status": "construction"}}, {"type": "Feature", "id": 56, "geometry": {"type": "Point", "coordinates": [22.895, -2.235]}, "properties": {"name": "Igni\u00e9 (DR Congo) solar farm", "fuel": "solar", "mw": 65.0, "country": "COD", "status": "planned"}}, {"type": "Feature", "id": 57, "geometry": {"type": "Point", "coordinates": [29.589, 3.126]}, "properties": {"name": "Kibali Gold Mine solar farm", "fuel": "solar", "mw": 16.0, "country": "COD", "status": "operating"}}, {"type": "Feature", "id": 58, "geometry": {"type": "Point", "coordinates": [27.286, -11.613]}, "properties": {"name": "Kipushi solar project", "fuel": "solar", "mw": 3.4, "country": "COD", "status": "operating"}}, {"type": "Feature", "id": 59, "geometry": {"type": "Point", "coordinates": [25.47, -10.622]}, "properties": {"name": "Kolwezi (EAP) solar farm", "fuel": "solar", "mw": 133.0, "country": "COD", "status": "planned"}}, {"type": "Feature", "id": 60, "geometry": {"type": "Point", "coordinates": [26.239, -8.113]}, "properties": {"name": "Likasi solar farm", "fuel": "solar", "mw": 133.0, "country": "COD", "status": "planned"}}, {"type": "Feature", "id": 61, "geometry": {"type": "Point", "coordinates": [26.362, -10.549]}, "properties": {"name": "Lubudi solar project", "fuel": "solar", "mw": 3.5, "country": "COD", "status": "operating"}}, {"type": "Feature", "id": 62, "geometry": {"type": "Point", "coordinates": [29.211, -1.641]}, "properties": {"name": "Nuru solar farm", "fuel": "solar", "mw": 5.0, "country": "COD", "status": "planned"}}, {"type": "Feature", "id": 63, "geometry": {"type": "Point", "coordinates": [29.211, -1.641]}, "properties": {"name": "Nuru solar farm", "fuel": "solar", "mw": 5.0, "country": "COD", "status": "planned"}}, {"type": "Feature", "id": 64, "geometry": {"type": "Point", "coordinates": [29.211, -1.641]}, "properties": {"name": "Nuru solar farm", "fuel": "solar", "mw": 5.0, "country": "COD", "status": "planned"}}, {"type": "Feature", "id": 65, "geometry": {"type": "Point", "coordinates": [23.673, -6.219]}, "properties": {"name": "Tshilenge solar project", "fuel": "solar", "mw": 7.7, "country": "COD", "status": "operating"}}, {"type": "Feature", "id": 66, "geometry": {"type": "Point", "coordinates": [29.6, 3.202]}, "properties": {"name": "Upper Uele solar project", "fuel": "solar", "mw": 1.8, "country": "COD", "status": "operating"}}, {"type": "Feature", "id": 67, "geometry": {"type": "Point", "coordinates": [9.531, 0.229]}, "properties": {"name": "Ay\u00e9m\u00e9 Plaine solar farm", "fuel": "solar", "mw": 11.0, "country": "GAB", "status": "operating"}}, {"type": "Feature", "id": 68, "geometry": {"type": "Point", "coordinates": [9.531, 0.229]}, "properties": {"name": "Ay\u00e9m\u00e9 Plaine solar farm", "fuel": "solar", "mw": 19.0, "country": "GAB", "status": "planned"}}, {"type": "Feature", "id": 69, "geometry": {"type": "Point", "coordinates": [9.531, 0.229]}, "properties": {"name": "Libreville solar farm", "fuel": "solar", "mw": 50.0, "country": "GAB", "status": "planned"}}, {"type": "Feature", "id": 70, "geometry": {"type": "Point", "coordinates": [10.09, 5.654]}, "properties": {"name": "Bamboutos Mountains wind farm", "fuel": "wind", "mw": 40.0, "country": "CMR", "status": "planned"}}, {"type": "Feature", "id": 71, "geometry": {"type": "Point", "coordinates": [12.36, 4.892]}, "properties": {"name": "Cameroon wind farm", "fuel": "wind", "mw": 100.0, "country": "CMR", "status": "operating"}}, {"type": "Feature", "id": 72, "geometry": {"type": "Point", "coordinates": [12.444, 5.045]}, "properties": {"name": "Infinity Power (Cameroon) wind farms", "fuel": "wind", "mw": 1000.0, "country": "CMR", "status": "planned"}}, {"type": "Feature", "id": 73, "geometry": {"type": "Point", "coordinates": [13.88, 7.497]}, "properties": {"name": "Bini \u00e0 Warak hydroelectric plant", "fuel": "hydro", "mw": 75.0, "country": "CMR", "status": "planned"}}, {"type": "Feature", "id": 74, "geometry": {"type": "Point", "coordinates": [15.601, 1.951]}, "properties": {"name": "Chollet hydroelectric plant", "fuel": "hydro", "mw": 600.0, "country": "CMR", "status": "planned"}}, {"type": "Feature", "id": 75, "geometry": {"type": "Point", "coordinates": [10.128, 3.813]}, "properties": {"name": "Edea hydroelectric plant", "fuel": "hydro", "mw": 276.0, "country": "CMR", "status": "operating"}}, {"type": "Feature", "id": 76, "geometry": {"type": "Point", "coordinates": [10.63, 4.073]}, "properties": {"name": "Grand Eweng hydroelectric plant", "fuel": "hydro", "mw": 1800.0, "country": "CMR", "status": "planned"}}, {"type": "Feature", "id": 77, "geometry": {"type": "Point", "coordinates": [9.953, 6.826]}, "properties": {"name": "Kpep hydroelectric plant", "fuel": "hydro", "mw": 283.0, "country": "CMR", "status": "planned"}}, {"type": "Feature", "id": 78, "geometry": {"type": "Point", "coordinates": [13.687, 9.061]}, "properties": {"name": "Lagdo hydroelectric plant", "fuel": "hydro", "mw": 72.0, "country": "CMR", "status": "operating"}}, {"type": "Feature", "id": 79, "geometry": {"type": "Point", "coordinates": [13.502, 5.382]}, "properties": {"name": "Lom Pangar hydroelectric plant", "fuel": "hydro", "mw": 30.0, "country": "CMR", "status": "operating"}}, {"type": "Feature", "id": 80, "geometry": {"type": "Point", "coordinates": [10.399, 2.396]}, "properties": {"name": "Memve'ele hydroelectric plant", "fuel": "hydro", "mw": 211.0, "country": "CMR", "status": "operating"}}, {"type": "Feature", "id": 81, "geometry": {"type": "Point", "coordinates": [10.043, 6.275]}, "properties": {"name": "Menchum hydroelectric plant", "fuel": "hydro", "mw": 72.0, "country": "CMR", "status": "planned"}}, {"type": "Feature", "id": 82, "geometry": {"type": "Point", "coordinates": [11.615, 4.354]}, "properties": {"name": "Nachtigal hydroelectric plant", "fuel": "hydro", "mw": 420.0, "country": "CMR", "status": "operating"}}, {"type": "Feature", "id": 83, "geometry": {"type": "Point", "coordinates": [10.464, 4.079]}, "properties": {"name": "Song Loulou hydroelectric plant", "fuel": "hydro", "mw": 396.0, "country": "CMR", "status": "operating"}}, {"type": "Feature", "id": 84, "geometry": {"type": "Point", "coordinates": [15.574, 3.978]}, "properties": {"name": "Dimoli hydroelectric plant", "fuel": "hydro", "mw": 180.0, "country": "CAF", "status": "planned"}}, {"type": "Feature", "id": 85, "geometry": {"type": "Point", "coordinates": [18.815, 4.576]}, "properties": {"name": "Palambo hydroelectric plant", "fuel": "hydro", "mw": 30.0, "country": "CAF", "status": "planned"}}, {"type": "Feature", "id": 86, "geometry": {"type": "Point", "coordinates": [25.393, -10.09]}, "properties": {"name": "Busanga hydroelectric plant", "fuel": "hydro", "mw": 240.0, "country": "COD", "status": "operating"}}, {"type": "Feature", "id": 87, "geometry": {"type": "Point", "coordinates": [13.622, -5.516]}, "properties": {"name": "Inga I hydroelectric plant", "fuel": "hydro", "mw": 351.0, "country": "COD", "status": "operating"}}, {"type": "Feature", "id": 88, "geometry": {"type": "Point", "coordinates": [13.621, -5.527]}, "properties": {"name": "Inga II hydroelectric plant", "fuel": "hydro", "mw": 1424.0, "country": "COD", "status": "operating"}}, {"type": "Feature", "id": 89, "geometry": {"type": "Point", "coordinates": [13.548, -5.549]}, "properties": {"name": "Inga III hydroelectric plant", "fuel": "hydro", "mw": 4800.0, "country": "COD", "status": "planned"}}, {"type": "Feature", "id": 90, "geometry": {"type": "Point", "coordinates": [22.447, -6.358]}, "properties": {"name": "Katende hydroelectric plant", "fuel": "hydro", "mw": 64.0, "country": "COD", "status": "operating"}}, {"type": "Feature", "id": 91, "geometry": {"type": "Point", "coordinates": [27.284, -10.718]}, "properties": {"name": "Koni hydroelectric plant", "fuel": "hydro", "mw": 42.0, "country": "COD", "status": "operating"}}, {"type": "Feature", "id": 92, "geometry": {"type": "Point", "coordinates": [28.659, -10.627]}, "properties": {"name": "Mambilima I hydroelectric plant", "fuel": "hydro", "mw": 126.0, "country": "COD", "status": "planned"}}, {"type": "Feature", "id": 93, "geometry": {"type": "Point", "coordinates": [28.695, -10.66]}, "properties": {"name": "Mambilima II hydroelectric plant", "fuel": "hydro", "mw": 202.0, "country": "COD", "status": "planned"}}, {"type": "Feature", "id": 94, "geometry": {"type": "Point", "coordinates": [28.093, -7.649]}, "properties": {"name": "Mpiana-Mwanga hydroelectric plant", "fuel": "hydro", "mw": 40.0, "country": "COD", "status": "operating"}}, {"type": "Feature", "id": 95, "geometry": {"type": "Point", "coordinates": [29.199, -12.375]}, "properties": {"name": "Mumbotuta CX hydroelectric plant", "fuel": "hydro", "mw": 300.0, "country": "COD", "status": "planned"}}, {"type": "Feature", "id": 96, "geometry": {"type": "Point", "coordinates": [27.245, -10.745]}, "properties": {"name": "Mwadingusha hydroelectric plant", "fuel": "hydro", "mw": 78.0, "country": "COD", "status": "operating"}}, {"type": "Feature", "id": 97, "geometry": {"type": "Point", "coordinates": [25.406, -10.305]}, "properties": {"name": "N'Seke hydroelectric plant", "fuel": "hydro", "mw": 260.0, "country": "COD", "status": "operating"}}, {"type": "Feature", "id": 98, "geometry": {"type": "Point", "coordinates": [25.463, -10.5]}, "properties": {"name": "N'Zilo 1 hydroelectric plant", "fuel": "hydro", "mw": 108.0, "country": "COD", "status": "operating"}}, {"type": "Feature", "id": 99, "geometry": {"type": "Point", "coordinates": [25.463, -10.5]}, "properties": {"name": "N'Zilo 2 hydroelectric plant", "fuel": "hydro", "mw": 200.0, "country": "COD", "status": "planned"}}, {"type": "Feature", "id": 100, "geometry": {"type": "Point", "coordinates": [28.875, -2.509]}, "properties": {"name": "Ruzizi I hydroelectric plant", "fuel": "hydro", "mw": 30.0, "country": "COD", "status": "operating"}}, {"type": "Feature", "id": 101, "geometry": {"type": "Point", "coordinates": [28.902, -2.633]}, "properties": {"name": "Ruzizi II hydroelectric plant", "fuel": "hydro", "mw": 36.0, "country": "COD", "status": "operating"}}, {"type": "Feature", "id": 102, "geometry": {"type": "Point", "coordinates": [28.941, -2.687]}, "properties": {"name": "Ruzizi III hydroelectric plant", "fuel": "hydro", "mw": 206.0, "country": "COD", "status": "planned"}}, {"type": "Feature", "id": 103, "geometry": {"type": "Point", "coordinates": [28.898, -2.592]}, "properties": {"name": "Ruzizi IV hydroelectric plant", "fuel": "hydro", "mw": 288.0, "country": "COD", "status": "planned"}}, {"type": "Feature", "id": 104, "geometry": {"type": "Point", "coordinates": [26.937, -9.388]}, "properties": {"name": "Sombwe hydroelectric plant", "fuel": "hydro", "mw": 150.0, "country": "COD", "status": "construction"}}, {"type": "Feature", "id": 105, "geometry": {"type": "Point", "coordinates": [14.902, -4.782]}, "properties": {"name": "Zongo I hydroelectric plant", "fuel": "hydro", "mw": 75.0, "country": "COD", "status": "operating"}}, {"type": "Feature", "id": 106, "geometry": {"type": "Point", "coordinates": [14.906, -4.783]}, "properties": {"name": "Zongo II hydroelectric plant", "fuel": "hydro", "mw": 150.0, "country": "COD", "status": "operating"}}, {"type": "Feature", "id": 107, "geometry": {"type": "Point", "coordinates": [11.934, -0.088]}, "properties": {"name": "Boou\u00e9 hydroelectric plant", "fuel": "hydro", "mw": 411.0, "country": "GAB", "status": "planned"}}, {"type": "Feature", "id": 108, "geometry": {"type": "Point", "coordinates": [13.552, -1.773]}, "properties": {"name": "Grand Poubara hydroelectric plant", "fuel": "hydro", "mw": 160.0, "country": "GAB", "status": "operating"}}, {"type": "Feature", "id": 109, "geometry": {"type": "Point", "coordinates": [10.245, 0.386]}, "properties": {"name": "Kingu\u00e9l\u00e9 Aval hydroelectric plant", "fuel": "hydro", "mw": 35.0, "country": "GAB", "status": "construction"}}, {"type": "Feature", "id": 110, "geometry": {"type": "Point", "coordinates": [10.281, 0.455]}, "properties": {"name": "Kinguele hydroelectric plant", "fuel": "hydro", "mw": 58.0, "country": "GAB", "status": "operating"}}, {"type": "Feature", "id": 111, "geometry": {"type": "Point", "coordinates": [10.148, 0.18]}, "properties": {"name": "Ngoulmendjim hydroelectric plant", "fuel": "hydro", "mw": 82.0, "country": "GAB", "status": "planned"}}, {"type": "Feature", "id": 112, "geometry": {"type": "Point", "coordinates": [13.541, -1.752]}, "properties": {"name": "Petit Poubara hydroelectric plant", "fuel": "hydro", "mw": 38.0, "country": "GAB", "status": "operating"}}, {"type": "Feature", "id": 113, "geometry": {"type": "Point", "coordinates": [10.407, 0.621]}, "properties": {"name": "Tchimbele hydroelectric plant", "fuel": "hydro", "mw": 68.0, "country": "GAB", "status": "operating"}}, {"type": "Feature", "id": 114, "geometry": {"type": "Point", "coordinates": [12.197, -0.138]}, "properties": {"name": "Ts\u00e9ngue-Leledi hydroelectric plant", "fuel": "hydro", "mw": 300.0, "country": "GAB", "status": "planned"}}]}