{"type":"FeatureCollection","features":[{"type":"Feature","id":1689,"geometry":{"type":"Point","coordinates":[13.752,37.968]},"properties":{"name":"Centrale termoelettrica \"Ettore Maiorana\"","fuel":"gas","mw":1340.0,"country":"ITA","status":"operating"}},{"type":"Feature","id":2409,"geometry":{"type":"Point","coordinates":[-4.993,51.684]},"properties":{"name":"Pembroke Power Station","fuel":"gas","mw":2199.0,"country":"GBR","status":"operating"}},{"type":"Feature","id":2596,"geometry":{"type":"Point","coordinates":[-3.084,53.233]},"properties":{"name":"Connahs Quay Power Station","fuel":"gas","mw":1380.0,"country":"GBR","status":"operating"}},{"type":"Feature","id":2758,"geometry":{"type":"Point","coordinates":[-3.144,51.203]},"properties":{"name":"Hinkley Point C Nuclear Power Station","fuel":"nuclear","mw":3260.0,"country":"","status":"operating"}},{"type":"Feature","id":2859,"geometry":{"type":"Point","coordinates":[-2.67,51.539]},"properties":{"name":"Seabank Power Station","fuel":"gas","mw":1145.0,"country":"GBR","status":"operating"}},{"type":"Feature","id":2931,"geometry":{"type":"Point","coordinates":[-4.084,53.129]},"properties":{"name":"Dinorwig Power Station","fuel":"hydro","mw":1800.0,"country":"GBR","status":"operating"}},{"type":"Feature","id":3848,"geometry":{"type":"Point","coordinates":[6.178,49.949]},"properties":{"name":"Centrale de Vianden","fuel":"hydro","mw":1290.0,"country":"LUX","status":"operating"}},{"type":"Feature","id":4537,"geometry":{"type":"Point","coordinates":[7.341,51.632]},"properties":{"name":"Kraftwerk Datteln 4","fuel":"coal","mw":1100.0,"country":"DEU","status":"operating"}},{"type":"Feature","id":4762,"geometry":{"type":"Point","coordinates":[-8.953,39.011]},"properties":{"name":"Central Termoel\u00e9ctrica do Ribatejo","fuel":"gas","mw":1176.0,"country":"","status":"operating"}},{"type":"Feature","id":7272,"geometry":{"type":"Point","coordinates":[-0.945,37.57]},"properties":{"name":"Engie Energ\u00eda Cartagena","fuel":"gas","mw":1200.0,"country":"","status":"operating"}},{"type":"Feature","id":7273,"geometry":{"type":"Point","coordinates":[-0.939,37.573]},"properties":{"name":"Central de ciclo combinado de Cartagena","fuel":"gas","mw":1249.0,"country":"","status":"operating"}},{"type":"Feature","id":7661,"geometry":{"type":"Point","coordinates":[-6.884,37.184]},"properties":{"name":"Central t\u00e9rmica de Palos de la Frontera","fuel":"gas","mw":1200.0,"country":"ESP","status":"operating"}},{"type":"Feature","id":7894,"geometry":{"type":"Point","coordinates":[-8.545,37.882]},"properties":{"name":"Central Solar Fotovoltaica Fernando Pessoa","fuel":"solar","mw":1200.0,"country":"PRT","status":"operating"}},{"type":"Feature","id":7937,"geometry":{"type":"Point","coordinates":[-0.233,39.642]},"properties":{"name":"Central t\u00e9rmica de Sagunto","fuel":"gas","mw":1233.0,"country":"","status":"operating"}},{"type":"Feature","id":8564,"geometry":{"type":"Point","coordinates":[-5.816,36.672]},"properties":{"name":"Central t\u00e9rmica de Arcos","fuel":"gas","mw":1585.0,"country":"ESP","status":"operating"}},{"type":"Feature","id":8701,"geometry":{"type":"Point","coordinates":[0.848,44.106]},"properties":{"name":"Centrale Nucl\u00e9aire de Golfech","fuel":"nuclear","mw":2620.0,"country":"FRA","status":"operating"}},{"type":"Feature","id":8917,"geometry":{"type":"Point","coordinates":[-0.689,45.255]},"properties":{"name":"Centrale nucl\u00e9aire du Blayais","fuel":"nuclear","mw":3804.0,"country":"FRA","status":"operating"}},{"type":"Feature","id":9072,"geometry":{"type":"Point","coordinates":[2.876,47.508]},"properties":{"name":"Centrale nucl\u00e9aire de Belleville","fuel":"nuclear","mw":2620.0,"country":"FRA","status":"operating"}},{"type":"Feature","id":9245,"geometry":{"type":"Point","coordinates":[-1.882,47.278]},"properties":{"name":"Centrale Thermique de Cordemais","fuel":"coal","mw":1200.0,"country":"FRA","status":"operating"}},{"type":"Feature","id":9300,"geometry":{"type":"Point","coordinates":[1.579,47.721]},"properties":{"name":"Centrale nucl\u00e9aire de Saint-Laurent des Eaux","fuel":"nuclear","mw":1800.0,"country":"FRA","status":"operating"}},{"type":"Feature","id":9572,"geometry":{"type":"Point","coordinates":[0.653,46.454]},"properties":{"name":"Centrale nucl\u00e9aire de Civaux","fuel":"nuclear","mw":2900.0,"country":"FRA","status":"operating"}},{"type":"Feature","id":9812,"geometry":{"type":"Point","coordinates":[0.17,47.229]},"properties":{"name":"Centrale nucl\u00e9aire de Chinon","fuel":"nuclear","mw":3820.0,"country":"FRA","status":"operating"}},{"type":"Feature","id":10234,"geometry":{"type":"Point","coordinates":[2.517,47.733]},"properties":{"name":"Centrale nucl\u00e9aire de Dampierre","fuel":"nuclear","mw":3560.0,"country":"FRA","status":"operating"}},{"type":"Feature","id":10265,"geometry":{"type":"Point","coordinates":[-2.409,55.968]},"properties":{"name":"Torness Nuclear Power Station","fuel":"nuclear","mw":1364.0,"country":"GBR","status":"operating"}},{"type":"Feature","id":10266,"geometry":{"type":"Point","coordinates":[-1.79,57.478]},"properties":{"name":"Peterhead Power Station","fuel":"gas","mw":2177.0,"country":"GBR","status":"operating"}},{"type":"Feature","id":10605,"geometry":{"type":"Point","coordinates":[-1.181,54.635]},"properties":{"name":"Hartlepool Nuclear Power Station","fuel":"nuclear","mw":1180.0,"country":"","status":"operating"}},{"type":"Feature","id":10774,"geometry":{"type":"Point","coordinates":[7.141,60.507]},"properties":{"name":"Sima kraftverk","fuel":"hydro","mw":1120.0,"country":"NOR","status":"operating"}},{"type":"Feature","id":11078,"geometry":{"type":"Point","coordinates":[7.305,52.482]},"properties":{"name":"Erdgaskraftwerk Emsland","fuel":"gas","mw":1826.0,"country":"DEU","status":"operating"}},{"type":"Feature","id":11569,"geometry":{"type":"Point","coordinates":[6.659,59.527]},"properties":{"name":"Kvilldal kraftverk","fuel":"hydro","mw":1240.0,"country":"NOR","status":"operating"}},{"type":"Feature","id":11645,"geometry":{"type":"Point","coordinates":[8.495,49.445]},"properties":{"name":"Gro\u00dfkraftwerk Mannheim","fuel":"coal","mw":1958.0,"country":"DEU","status":"operating"}},{"type":"Feature","id":11738,"geometry":{"type":"Point","coordinates":[8.306,49.013]},"properties":{"name":"Rheinhafen-Dampfkraftwerk","fuel":"coal","mw":1704.0,"country":"DEU","status":"operating"}},{"type":"Feature","id":11907,"geometry":{"type":"Point","coordinates":[-1.88,49.538]},"properties":{"name":"Centre nucl\u00e9aire de production d'\u00e9lectricit\u00e9 de Flamanville","fuel":"nuclear","mw":4290.0,"country":"","status":"operating"}},{"type":"Feature","id":12296,"geometry":{"type":"Point","coordinates":[-1.269,51.625]},"properties":{"name":"Didcot B Power Station","fuel":"gas","mw":1550.0,"country":"GBR","status":"operating"}},{"type":"Feature","id":12509,"geometry":{"type":"Point","coordinates":[-0.998,53.738]},"properties":{"name":"Drax Power Station","fuel":"biomass","mw":3960.0,"country":"GBR","status":"operating"}},{"type":"Feature","id":12535,"geometry":{"type":"Point","coordinates":[1.218,49.975]},"properties":{"name":"Centre nucl\u00e9aire de production d'\u00e9lectricit\u00e9 de Penly","fuel":"nuclear","mw":2660.0,"country":"FRA","status":"operating"}},{"type":"Feature","id":12540,"geometry":{"type":"Point","coordinates":[1.221,49.978]},"properties":{"name":"Construction des R\u00e9acteurs Nucl\u00e9aires Penly 3 et 4","fuel":"nuclear","mw":3300.0,"country":"FRA","status":"operating"}},{"type":"Feature","id":12565,"geometry":{"type":"Point","coordinates":[0.635,49.858]},"properties":{"name":"Centrale nucl\u00e9aire de Paluel","fuel":"nuclear","mw":5320.0,"country":"","status":"operating"}},{"type":"Feature","id":12842,"geometry":{"type":"Point","coordinates":[0.707,51.443]},"properties":{"name":"Grain CHP","fuel":"gas","mw":1517.0,"country":"","status":"operating"}},{"type":"Feature","id":12898,"geometry":{"type":"Point","coordinates":[-0.243,53.734]},"properties":{"name":"Saltend Power Station","fuel":"gas","mw":1200.0,"country":"GBR","status":"operating"}},{"type":"Feature","id":12900,"geometry":{"type":"Point","coordinates":[-0.236,53.638]},"properties":{"name":"Immingham Power Station","fuel":"gas","mw":1180.0,"country":"GBR","status":"operating"}},{"type":"Feature","id":13347,"geometry":{"type":"Point","coordinates":[-0.145,53.601]},"properties":{"name":"South Humber Bank Power Station","fuel":"gas","mw":1365.0,"country":"GBR","status":"operating"}},{"type":"Feature","id":13448,"geometry":{"type":"Point","coordinates":[-0.86,53.073]},"properties":{"name":"Staythorpe C Power Station","fuel":"gas","mw":1772.0,"country":"GBR","status":"operating"}},{"type":"Feature","id":13454,"geometry":{"type":"Point","coordinates":[-0.797,53.364]},"properties":{"name":"West Burton B Power Station","fuel":"gas","mw":1332.0,"country":"GBR","status":"operating"}},{"type":"Feature","id":13604,"geometry":{"type":"Point","coordinates":[7.391,44.228]},"properties":{"name":"Centrale idroelettrica Luigi Einaudi","fuel":"hydro","mw":1200.0,"country":"ITA","status":"operating"}},{"type":"Feature","id":13689,"geometry":{"type":"Point","coordinates":[7.339,46.102]},"properties":{"name":"Centrale de Bieudron","fuel":"hydro","mw":1200.0,"country":"CHE","status":"operating"}},{"type":"Feature","id":14002,"geometry":{"type":"Point","coordinates":[7.9,45.186]},"properties":{"name":"Centrale Termoelettrica di Chivasso","fuel":"gas","mw":1179.0,"country":"ITA","status":"operating"}},{"type":"Feature","id":14242,"geometry":{"type":"Point","coordinates":[8.183,47.601]},"properties":{"name":"Kernkraftwerk Leibstadt","fuel":"nuclear","mw":1220.0,"country":"DEU","status":"operating"}},{"type":"Feature","id":15377,"geometry":{"type":"Point","coordinates":[2.138,51.015]},"properties":{"name":"Centrale nucl\u00e9aire de Gravelines","fuel":"nuclear","mw":5460.0,"country":"","status":"operating"}},{"type":"Feature","id":15519,"geometry":{"type":"Point","coordinates":[1.619,52.215]},"properties":{"name":"Sizewell B Nuclear Power Station","fuel":"nuclear","mw":1195.0,"country":"GBR","status":"operating"}},{"type":"Feature","id":15785,"geometry":{"type":"Point","coordinates":[4.731,44.331]},"properties":{"name":"Centrale nucl\u00e9aire du Tricastin","fuel":"nuclear","mw":3660.0,"country":"FRA","status":"operating"}},{"type":"Feature","id":15801,"geometry":{"type":"Point","coordinates":[4.754,44.633]},"properties":{"name":"Centrale nucl\u00e9aire de Cruas","fuel":"nuclear","mw":3660.0,"country":"FRA","status":"operating"}},{"type":"Feature","id":15953,"geometry":{"type":"Point","coordinates":[4.754,45.408]},"properties":{"name":"Centrale nucl\u00e9aire de Saint-Alban","fuel":"nuclear","mw":2670.0,"country":"FRA","status":"operating"}},{"type":"Feature","id":15968,"geometry":{"type":"Point","coordinates":[6.095,45.183]},"properties":{"name":"Grand-Maison STEP","fuel":"hydro","mw":1200.0,"country":"FRA","status":"operating"}},{"type":"Feature","id":16247,"geometry":{"type":"Point","coordinates":[3.517,48.517]},"properties":{"name":"Centrale nucl\u00e9aire de Nogent-sur-Seine","fuel":"nuclear","mw":2620.0,"country":"FRA","status":"operating"}},{"type":"Feature","id":16582,"geometry":{"type":"Point","coordinates":[6.219,49.417]},"properties":{"name":"Centrale nucl\u00e9aire de Cattenom","fuel":"nuclear","mw":5200.0,"country":"FRA","status":"operating"}},{"type":"Feature","id":17032,"geometry":{"type":"Point","coordinates":[5.269,45.799]},"properties":{"name":"Centrale nucl\u00e9aire du Bugey","fuel":"nuclear","mw":3580.0,"country":"FRA","status":"operating"}},{"type":"Feature","id":17136,"geometry":{"type":"Point","coordinates":[4.792,50.09]},"properties":{"name":"Centrale nucl\u00e9aire de Chooz","fuel":"nuclear","mw":3000.0,"country":"FRA","status":"operating"}},{"type":"Feature","id":17157,"geometry":{"type":"Point","coordinates":[5.862,50.385]},"properties":{"name":"Coo - Trois-Ponts","fuel":"hydro","mw":1164.0,"country":"BEL","status":"operating"}},{"type":"Feature","id":17161,"geometry":{"type":"Point","coordinates":[5.274,50.534]},"properties":{"name":"Centrale nucl\u00e9aire de Tihange","fuel":"nuclear","mw":3008.0,"country":"BEL","status":"operating"}},{"type":"Feature","id":17196,"geometry":{"type":"Point","coordinates":[6.322,50.838]},"properties":{"name":"Kraftwerk Weisweiler","fuel":"coal","mw":2361.0,"country":"DEU","status":"operating"}},{"type":"Feature","id":17231,"geometry":{"type":"Point","coordinates":[6.845,50.861]},"properties":{"name":"Knapsack Gas Power Plants","fuel":"gas","mw":1230.0,"country":"DEU","status":"operating"}},{"type":"Feature","id":17243,"geometry":{"type":"Point","coordinates":[6.668,50.994]},"properties":{"name":"Kraftwerk Niederau\u00dfem","fuel":"coal","mw":3133.0,"country":"DEU","status":"operating"}},{"type":"Feature","id":17245,"geometry":{"type":"Point","coordinates":[6.633,51.036]},"properties":{"name":"Kraftwerk Neurath BoA 2&3","fuel":"coal","mw":2100.0,"country":"DEU","status":"operating"}},{"type":"Feature","id":17260,"geometry":{"type":"Point","coordinates":[4.258,51.324]},"properties":{"name":"Kerncentrale Doel","fuel":"nuclear","mw":2935.0,"country":"BEL","status":"operating"}},{"type":"Feature","id":17974,"geometry":{"type":"Point","coordinates":[6.878,53.436]},"properties":{"name":"Eemscentrale","fuel":"gas","mw":2442.0,"country":"","status":"operating"}},{"type":"Feature","id":17976,"geometry":{"type":"Point","coordinates":[6.862,53.443]},"properties":{"name":"Eemshavencentrale","fuel":"coal","mw":1560.0,"country":"","status":"operating"}},{"type":"Feature","id":17977,"geometry":{"type":"Point","coordinates":[6.853,53.448]},"properties":{"name":"Magnum","fuel":"gas","mw":1311.0,"country":"","status":"operating"}},{"type":"Feature","id":18017,"geometry":{"type":"Point","coordinates":[4.842,51.709]},"properties":{"name":"Amercentrale","fuel":"biomass","mw":1245.0,"country":"NLD","status":"operating"}},{"type":"Feature","id":18201,"geometry":{"type":"Point","coordinates":[5.909,51.155]},"properties":{"name":"Clauscentrale","fuel":"gas","mw":1304.0,"country":"NLD","status":"operating"}},{"type":"Feature","id":20851,"geometry":{"type":"Point","coordinates":[12.376,51.182]},"properties":{"name":"Kraftwerk Lippendorf","fuel":"coal","mw":1867.2,"country":"DEU","status":"operating"}},{"type":"Feature","id":21779,"geometry":{"type":"Point","coordinates":[9.48,45.09]},"properties":{"name":"Centrale termoelettrica \"Edoardo Amaldi\"","fuel":"gas","mw":1476.0,"country":"ITA","status":"operating"}},{"type":"Feature","id":22413,"geometry":{"type":"Point","coordinates":[9.435,45.332]},"properties":{"name":"Centrale Termoelettrica Tavazzano e Montanaso","fuel":"gas","mw":1970.0,"country":"ITA","status":"operating"}},{"type":"Feature","id":23279,"geometry":{"type":"Point","coordinates":[11.764,42.123]},"properties":{"name":"Centrale termoelettrica di Torrevaldaliga Sud","fuel":"gas","mw":1180.0,"country":"","status":"operating"}},{"type":"Feature","id":23280,"geometry":{"type":"Point","coordinates":[11.757,42.129]},"properties":{"name":"Centrale termoelettrica di Torrevaldaliga Nord","fuel":"coal","mw":1980.0,"country":"","status":"operating"}},{"type":"Feature","id":26907,"geometry":{"type":"Point","coordinates":[0.569,41.201]},"properties":{"name":"Central nuclear d'Asc\u00f3","fuel":"nuclear","mw":1988.0,"country":"ESP","status":"operating"}},{"type":"Feature","id":26995,"geometry":{"type":"Point","coordinates":[2.229,41.419]},"properties":{"name":"Central T\u00e8rmica de Cicle Combinat Sant Adri\u00e0 de Bes\u00f2s","fuel":"gas","mw":1671.0,"country":"ESP","status":"operating"}},{"type":"Feature","id":27120,"geometry":{"type":"Point","coordinates":[-5.697,39.808]},"properties":{"name":"Central nuclear de Almaraz","fuel":"nuclear","mw":1957.0,"country":"ESP","status":"operating"}},{"type":"Feature","id":27155,"geometry":{"type":"Point","coordinates":[-0.932,39.244]},"properties":{"name":"Central hidroel\u00e8ctrica La Muela-Cortes","fuel":"hydro","mw":1512.0,"country":"ESP","status":"operating"}},{"type":"Feature","id":27431,"geometry":{"type":"Point","coordinates":[8.741,45.52]},"properties":{"name":"Centrale termoelettrica di Turbigo","fuel":"gas","mw":1280.0,"country":"ITA","status":"operating"}},{"type":"Feature","id":28302,"geometry":{"type":"Point","coordinates":[-5.784,54.845]},"properties":{"name":"Ballylumford Power Station","fuel":"gas","mw":1246.0,"country":"GBR","status":"operating"}},{"type":"Feature","id":29304,"geometry":{"type":"Point","coordinates":[16.671,57.415]},"properties":{"name":"Oskarshamns k\u00e4rnkraftverk","fuel":"nuclear","mw":1450.0,"country":"","status":"operating"}},{"type":"Feature","id":29434,"geometry":{"type":"Point","coordinates":[16.149,49.085]},"properties":{"name":"Jadern\u00e1 elektr\u00e1rna Dukovany","fuel":"nuclear","mw":1880.0,"country":"CZE","status":"operating"}},{"type":"Feature","id":29666,"geometry":{"type":"Point","coordinates":[17.882,50.752]},"properties":{"name":"Elektrownia Opole","fuel":"coal","mw":3292.0,"country":"POL","status":"operating"}},{"type":"Feature","id":29682,"geometry":{"type":"Point","coordinates":[18.46,48.26]},"properties":{"name":"Jadrov\u00e1 elektr\u00e1re\u0148 Mochovce","fuel":"nuclear","mw":1471.0,"country":"SVK","status":"operating"}},{"type":"Feature","id":29789,"geometry":{"type":"Point","coordinates":[18.167,60.404]},"properties":{"name":"Forsmarks K\u00e4rnkraftverk","fuel":"nuclear","mw":3271.0,"country":"","status":"operating"}},{"type":"Feature","id":29852,"geometry":{"type":"Point","coordinates":[19.216,50.209]},"properties":{"name":"Elektrownia Jaworzno III","fuel":"coal","mw":2255.0,"country":"POL","status":"operating"}},{"type":"Feature","id":29874,"geometry":{"type":"Point","coordinates":[18.846,50.134]},"properties":{"name":"TAURON Wytwarzanie S. A. Oddzia\u0142 Elektrownia \u0141aziska w \u0141aziskach G\u00f3rnych","fuel":"coal","mw":1155.0,"country":"POL","status":"operating"}},{"type":"Feature","id":29973,"geometry":{"type":"Point","coordinates":[21.339,50.439]},"properties":{"name":"Elektrownia Po\u0142aniec","fuel":"coal","mw":1882.0,"country":"POL","status":"operating"}},{"type":"Feature","id":30417,"geometry":{"type":"Point","coordinates":[21.643,61.406]},"properties":{"name":"Oosinselk\u00e4","fuel":"wind","mw":250000.0,"country":"FIN","status":"operating"}},{"type":"Feature","id":31805,"geometry":{"type":"Point","coordinates":[11.138,45.061]},"properties":{"name":"Centrale termoelettrica di Ostiglia","fuel":"gas","mw":1164.0,"country":"ITA","status":"operating"}},{"type":"Feature","id":31811,"geometry":{"type":"Point","coordinates":[11.252,45.028]},"properties":{"name":"Centrale termoelettrica di Sermide","fuel":"gas","mw":1234.0,"country":"ITA","status":"operating"}},{"type":"Feature","id":31924,"geometry":{"type":"Point","coordinates":[14.57,51.419]},"properties":{"name":"Kraftwerk Boxberg","fuel":"coal","mw":2575.0,"country":"DEU","status":"operating"}},{"type":"Feature","id":32329,"geometry":{"type":"Point","coordinates":[14.377,49.179]},"properties":{"name":"Jadern\u00e1 elektr\u00e1rna Temel\u00edn","fuel":"nuclear","mw":2056.0,"country":"CZE","status":"operating"}},{"type":"Feature","id":33352,"geometry":{"type":"Point","coordinates":[13.677,50.427]},"properties":{"name":"Elektr\u00e1rna Po\u010derady","fuel":"coal","mw":1845.0,"country":"CZE","status":"operating"}},{"type":"Feature","id":36578,"geometry":{"type":"Point","coordinates":[19.327,51.267]},"properties":{"name":"Elektrownia Be\u0142chat\u00f3w","fuel":"coal","mw":5472.0,"country":"POL","status":"operating"}},{"type":"Feature","id":36856,"geometry":{"type":"Point","coordinates":[14.911,50.947]},"properties":{"name":"Elektrownia Tur\u00f3w","fuel":"coal","mw":1994.8,"country":"POL","status":"operating"}},{"type":"Feature","id":36909,"geometry":{"type":"Point","coordinates":[14.46,51.833]},"properties":{"name":"Kraftwerk J\u00e4nschwalde","fuel":"coal","mw":3000.0,"country":"DEU","status":"operating"}},{"type":"Feature","id":36992,"geometry":{"type":"Point","coordinates":[14.355,51.535]},"properties":{"name":"Kraftwerk Schwarze Pumpe","fuel":"coal","mw":1600.0,"country":"DEU","status":"operating"}},{"type":"Feature","id":38563,"geometry":{"type":"Point","coordinates":[22.085,37.417]},"properties":{"name":"\u0391\u0397\u03a3 M\u03b5\u03b3\u03b1\u03bb\u03cc\u03c0\u03bf\u03bb\u03b7\u03c2","fuel":"coal","mw":1322.0,"country":"GRC","status":"operating"}},{"type":"Feature","id":39089,"geometry":{"type":"Point","coordinates":[26.956,38.747]},"properties":{"name":"Enka \u0130zmir Do\u011falgaz Santrali","fuel":"gas","mw":1520.0,"country":"TUR","status":"operating"}},{"type":"Feature","id":39432,"geometry":{"type":"Point","coordinates":[29.073,40.294]},"properties":{"name":"Bursa Do\u011falgaz Kombine \u00c7evrim Santral\u0131","fuel":"gas","mw":1432.0,"country":"TUR","status":"operating"}},{"type":"Feature","id":39511,"geometry":{"type":"Point","coordinates":[27.049,40.398]},"properties":{"name":"\u0130\u00c7DA\u015e Bekirli Termik Santrali","fuel":"coal","mw":1200.0,"country":"TUR","status":"operating"}},{"type":"Feature","id":39512,"geometry":{"type":"Point","coordinates":[27.321,40.418]},"properties":{"name":"Cenal Termik Enerji Santral\u0131","fuel":"coal","mw":1320.0,"country":"TUR","status":"operating"}},{"type":"Feature","id":39798,"geometry":{"type":"Point","coordinates":[31.897,41.509]},"properties":{"name":"ZETES power stations","fuel":"coal","mw":2790.0,"country":"TUR","status":"operating"}},{"type":"Feature","id":40236,"geometry":{"type":"Point","coordinates":[30.391,40.865]},"properties":{"name":"Enka Adapazar\u0131-Gebze Do\u011falgaz Santrali","fuel":"gas","mw":2449.0,"country":"TUR","status":"operating"}},{"type":"Feature","id":40237,"geometry":{"type":"Point","coordinates":[26.132,42.253]},"properties":{"name":"\u0422\u0415\u0426 \"\u041c\u0430\u0440\u0438\u0446\u0430 \u0418\u0437\u0442\u043e\u043a 2\"","fuel":"coal","mw":1620.0,"country":"BGR","status":"operating"}},{"type":"Feature","id":40313,"geometry":{"type":"Point","coordinates":[20.007,44.653]},"properties":{"name":"\u0422\u0435\u0440\u043c\u043e\u0435\u043b\u0435\u043a\u0442\u0440\u0430\u043d\u0430 \u041d\u0438\u043a\u043e\u043b\u0430 \u0422\u0435\u0441\u043b\u0430 \u0411","fuel":"coal","mw":1300.0,"country":"SRB","status":"operating"}},{"type":"Feature","id":40315,"geometry":{"type":"Point","coordinates":[20.158,44.671]},"properties":{"name":"\u0422\u0435\u0440\u043c\u043e\u0435\u043b\u0435\u043a\u0442\u0440\u0430\u043d\u0430 \u041d\u0438\u043a\u043e\u043b\u0430 \u0422\u0435\u0441\u043b\u0430 \u0410","fuel":"coal","mw":1765.5,"country":"SRB","status":"operating"}},{"type":"Feature","id":40483,"geometry":{"type":"Point","coordinates":[27.338,41.482]},"properties":{"name":"Hamitabat Do\u011fal Gaz Kombine \u00c7evrim Santrali (DGK\u00c7S)","fuel":"gas","mw":1220.0,"country":"TUR","status":"operating"}},{"type":"Feature","id":40887,"geometry":{"type":"Point","coordinates":[16.435,48.183]},"properties":{"name":"Kraftwerk Simmering","fuel":"gas","mw":1154.7,"country":"AUT","status":"operating"}},{"type":"Feature","id":41109,"geometry":{"type":"Point","coordinates":[18.853,46.576]},"properties":{"name":"Paksi Atomer\u0151m\u0171","fuel":"nuclear","mw":2000.0,"country":"HUN","status":"operating"}},{"type":"Feature","id":41216,"geometry":{"type":"Point","coordinates":[18.52,50.135]},"properties":{"name":"PGE Energia Ciep\u0142a Oddzia\u0142 w\u00a0Rybniku","fuel":"coal","mw":1350.0,"country":"POL","status":"operating"}},{"type":"Feature","id":42726,"geometry":{"type":"Point","coordinates":[18.002,40.63]},"properties":{"name":"Brindisi Enipower Power Plant","fuel":"gas","mw":1170.0,"country":"ITA","status":"operating"}},{"type":"Feature","id":42727,"geometry":{"type":"Point","coordinates":[18.03,40.564]},"properties":{"name":"Centrale termoelettrica \"Federico II\"","fuel":"coal","mw":2640.0,"country":"ITA","status":"operating"}},{"type":"Feature","id":43105,"geometry":{"type":"Point","coordinates":[21.461,51.666]},"properties":{"name":"Elektrownia Kozienice","fuel":"coal","mw":4016.0,"country":"POL","status":"operating"}},{"type":"Feature","id":44621,"geometry":{"type":"Point","coordinates":[23.775,43.743]},"properties":{"name":"\u0410\u0415\u0426 \u041a\u043e\u0437\u043b\u043e\u0434\u0443\u0439","fuel":"nuclear","mw":2000.0,"country":"BGR","status":"operating"}},{"type":"Feature","id":44928,"geometry":{"type":"Point","coordinates":[22.53,44.671]},"properties":{"name":"\u0425\u0438\u0434\u0440\u043e\u0435\u043b\u0435\u043a\u0442\u0440\u0430\u043d\u0430 \u0402\u0435\u0440\u0434\u0430\u043f I","fuel":"hydro","mw":2371.8,"country":"SRB","status":"operating"}},{"type":"Feature","id":44933,"geometry":{"type":"Point","coordinates":[23.408,44.67]},"properties":{"name":"Termocentrala Turceni","fuel":"coal","mw":1650.0,"country":"ROU","status":"operating"}},{"type":"Feature","id":44967,"geometry":{"type":"Point","coordinates":[22.826,45.914]},"properties":{"name":"Termocentrala Mintia","fuel":"coal","mw":1285.0,"country":"ROU","status":"operating"}},{"type":"Feature","id":46007,"geometry":{"type":"Point","coordinates":[27.903,59.273]},"properties":{"name":"","fuel":"oil_shale","mw":1615.0,"country":"","status":"operating"}},{"type":"Feature","id":47412,"geometry":{"type":"Point","coordinates":[21.789,40.407]},"properties":{"name":"\u0391\u03c4\u03bc\u03bf\u03b7\u03bb\u03b5\u03ba\u03c4\u03c1\u03b9\u03ba\u03cc\u03c2 \u03a3\u03c4\u03b1\u03b8\u03bc\u03cc\u03c2 \u039a\u03b1\u03c1\u03b4\u03b9\u03ac\u03c2","fuel":"coal","mw":1103.0,"country":"GRC","status":"operating"}},{"type":"Feature","id":47535,"geometry":{"type":"Point","coordinates":[21.929,40.392]},"properties":{"name":"\u0391\u03c4\u03bc\u03bf\u03b7\u03bb\u03b5\u03ba\u03c4\u03c1\u03b9\u03ba\u03cc\u03c2 \u03a3\u03c4\u03b1\u03b8\u03bc\u03cc\u03c2 \u0391\u03b3\u03af\u03bf\u03c5 \u0394\u03b7\u03bc\u03b7\u03c4\u03c1\u03af\u03bf\u03c5","fuel":"coal","mw":1456.0,"country":"GRC","status":"operating"}},{"type":"Feature","id":50099,"geometry":{"type":"Point","coordinates":[37.239,47.994]},"properties":{"name":"\u041a\u0443\u0440\u0430\u0445\u0456\u0432\u0441\u044c\u043a\u0430 \u0422\u0415\u0421","fuel":"coal","mw":1527.0,"country":"UKR","status":"operating"}},{"type":"Feature","id":50121,"geometry":{"type":"Point","coordinates":[38.283,48.034]},"properties":{"name":"\u0417\u0443\u0454\u0432\u0441\u044c\u043a\u0430 \u0422\u0415\u0421","fuel":"coal","mw":1245.0,"country":"UKR","status":"operating"}},{"type":"Feature","id":50245,"geometry":{"type":"Point","coordinates":[24.663,49.211]},"properties":{"name":"\u0411\u0443\u0440\u0448\u0442\u0438\u043d\u0441\u044c\u043a\u0430 \u0422\u0415\u0421","fuel":"coal","mw":2400.0,"country":"UKR","status":"operating"}},{"type":"Feature","id":50333,"geometry":{"type":"Point","coordinates":[36.525,49.586]},"properties":{"name":"\u0417\u043c\u0456\u0457\u0432\u0441\u044c\u043a\u0430 \u0422\u0415\u0421","fuel":"coal","mw":2200.0,"country":"UKR","status":"operating"}},{"type":"Feature","id":50347,"geometry":{"type":"Point","coordinates":[30.75,50.133]},"properties":{"name":"\u0422\u0440\u0438\u043f\u0456\u043b\u044c\u0441\u044c\u043a\u0430 \u0422\u0415\u0421","fuel":"coal","mw":1800.0,"country":"UKR","status":"operating"}},{"type":"Feature","id":50418,"geometry":{"type":"Point","coordinates":[25.896,51.326]},"properties":{"name":"\u0420\u0456\u0432\u043d\u0435\u043d\u0441\u044c\u043a\u0430 \u0410\u0415\u0421","fuel":"nuclear","mw":2835.0,"country":"UKR","status":"operating"}},{"type":"Feature","id":50435,"geometry":{"type":"Point","coordinates":[26.648,50.302]},"properties":{"name":"\u0425\u043c\u0435\u043b\u044c\u043d\u0438\u0446\u044c\u043a\u0430 \u0430\u0442\u043e\u043c\u043d\u0430 \u0435\u043b\u0435\u043a\u0442\u0440\u043e\u0441\u0442\u0430\u043d\u0446\u0456\u044f","fuel":"nuclear","mw":2000.0,"country":"UKR","status":"operating"}},{"type":"Feature","id":50478,"geometry":{"type":"Point","coordinates":[35.111,48.407]},"properties":{"name":"\u041f\u0440\u0438\u0434\u043d\u0456\u043f\u0440\u043e\u0432\u0441\u044c\u043a\u0430 \u0422\u0415\u0421","fuel":"coal","mw":1765.0,"country":"UKR","status":"operating"}},{"type":"Feature","id":50549,"geometry":{"type":"Point","coordinates":[38.199,48.466]},"properties":{"name":"\u0412\u0443\u0433\u043b\u0435\u0433\u0456\u0440\u0441\u044c\u043a\u0430 \u0422\u0415\u0421","fuel":"coal","mw":1200.0,"country":"UKR","status":"operating"}},{"type":"Feature","id":50571,"geometry":{"type":"Point","coordinates":[39.266,48.753]},"properties":{"name":"\u041b\u0443\u0433\u0430\u043d\u0441\u044c\u043a\u0430 \u0442\u0435\u043f\u043b\u043e\u0432\u0430 \u0435\u043b\u0435\u043a\u0442\u0440\u043e\u0441\u0442\u0430\u043d\u0446\u0456\u044f","fuel":"coal","mw":1220.0,"country":"UKR","status":"operating"}},{"type":"Feature","id":51185,"geometry":{"type":"Point","coordinates":[33.592,37.799]},"properties":{"name":"Karap\u0131nar G\u00fcne\u015f Enerji Santrali","fuel":"solar","mw":1350.0,"country":"TUR","status":"operating"}},{"type":"Feature","id":51418,"geometry":{"type":"Point","coordinates":[33.536,36.144]},"properties":{"name":"Akkuyu N\u00fckleer Enerji Santrali","fuel":"nuclear","mw":1114.0,"country":"TUR","status":"operating"}},{"type":"Feature","id":51680,"geometry":{"type":"Point","coordinates":[35.879,36.839]},"properties":{"name":"\u0130SKEN Sug\u00f6z\u00fc Termik Santrali","fuel":"coal","mw":1308.0,"country":"","status":"operating"}},{"type":"Feature","id":51684,"geometry":{"type":"Point","coordinates":[36.209,36.691]},"properties":{"name":"\u0130skenderun Atlas Termik Santrali","fuel":"coal","mw":1260.0,"country":"TUR","status":"operating"}},{"type":"Feature","id":51685,"geometry":{"type":"Point","coordinates":[35.855,36.819]},"properties":{"name":"Emba Hunutlu Termik Elektrik Santrali","fuel":"coal","mw":1320.0,"country":"","status":"operating"}},{"type":"Feature","id":51701,"geometry":{"type":"Point","coordinates":[36.988,38.351]},"properties":{"name":"Af\u015fin-Elbistan B Termik Santrali","fuel":"coal","mw":1440.0,"country":"TUR","status":"operating"}},{"type":"Feature","id":51703,"geometry":{"type":"Point","coordinates":[37.027,38.347]},"properties":{"name":"Af\u015fin-Elbistan A Termik Santrali","fuel":"coal","mw":1355.0,"country":"TUR","status":"operating"}},{"type":"Feature","id":51832,"geometry":{"type":"Point","coordinates":[38.313,37.481]},"properties":{"name":"Atat\u00fcrk Hidroelektrik Santrali","fuel":"hydro","mw":2405.0,"country":"TUR","status":"operating"}},{"type":"Feature","id":51944,"geometry":{"type":"Point","coordinates":[39.135,38.225]},"properties":{"name":"Karakaya Hidroelektrik Santrali","fuel":"hydro","mw":1800.0,"country":"TUR","status":"operating"}},{"type":"Feature","id":51964,"geometry":{"type":"Point","coordinates":[38.753,38.807]},"properties":{"name":"Keban Hidroelektrik Santrali","fuel":"hydro","mw":1330.0,"country":"TUR","status":"operating"}},{"type":"Feature","id":51993,"geometry":{"type":"Point","coordinates":[33.659,47.545]},"properties":{"name":"\u041a\u0440\u0438\u0432\u043e\u0440\u0456\u0437\u044c\u043a\u0430 \u0422\u0415\u0421","fuel":"coal","mw":2820.0,"country":"UKR","status":"operating"}},{"type":"Feature","id":52025,"geometry":{"type":"Point","coordinates":[38.007,47.802]},"properties":{"name":"\u0421\u0442\u0430\u0440\u043e\u0431\u0435\u0448\u0456\u0432\u0441\u044c\u043a\u0430 \u0422\u0415\u0421","fuel":"coal","mw":2010.0,"country":"UKR","status":"operating"}},{"type":"Feature","id":52080,"geometry":{"type":"Point","coordinates":[34.588,47.51]},"properties":{"name":"\u0417\u0430\u043f\u043e\u0440\u0456\u0437\u044c\u043a\u0430 \u0410\u0415\u0421","fuel":"nuclear","mw":5700.0,"country":"UKR","status":"operating"}},{"type":"Feature","id":52083,"geometry":{"type":"Point","coordinates":[34.625,47.508]},"properties":{"name":"\u0417\u0430\u043f\u043e\u0440\u0456\u0437\u044c\u043a\u0430 \u0422\u0415\u0421","fuel":"gas","mw":3650.0,"country":"UKR","status":"operating"}},{"type":"Feature","id":52088,"geometry":{"type":"Point","coordinates":[35.087,47.868]},"properties":{"name":"\u0414\u043d\u0456\u043f\u0440\u043e\u0432\u0441\u044c\u043a\u0430 \u0413\u0415\u0421","fuel":"hydro","mw":1578.6,"country":"UKR","status":"operating"}},{"type":"Feature","id":52204,"geometry":{"type":"Point","coordinates":[41.84,37.53]},"properties":{"name":"Il\u0131su Baraj\u0131 Hidroelektrik Santrali","fuel":"hydro","mw":1208.6,"country":"TUR","status":"operating"}},{"type":"Feature","id":52960,"geometry":{"type":"Point","coordinates":[11.583,48.767]},"properties":{"name":"W\u00e4rmekraftwerk Irsching","fuel":"gas","mw":1822.0,"country":"DEU","status":"operating"}},{"type":"Feature","id":53927,"geometry":{"type":"Point","coordinates":[28.056,44.322]},"properties":{"name":"Centrala Nuclear\u0103 de la Cernavod\u0103","fuel":"nuclear","mw":1274.0,"country":"ROU","status":"operating"}},{"type":"Feature","id":54137,"geometry":{"type":"Point","coordinates":[29.22,48.705]},"properties":{"name":"\u041b\u0430\u0434\u0438\u0436\u0438\u043d\u0441\u044c\u043a\u0430 \u0422\u0415\u0421","fuel":"coal","mw":1800.0,"country":"UKR","status":"operating"}},{"type":"Feature","id":54200,"geometry":{"type":"Point","coordinates":[29.937,46.634]},"properties":{"name":"\u0417\u0410\u041e \u00ab\u041c\u043e\u043b\u0434\u0430\u0432\u0441\u043a\u0430\u044f \u0413\u0420\u042d\u0421\u00bb","fuel":"gas","mw":2520.0,"country":"UKR","status":"operating"}},{"type":"Feature","id":54262,"geometry":{"type":"Point","coordinates":[31.218,47.811]},"properties":{"name":"\u041f\u0456\u0432\u0434\u0435\u043d\u043d\u043e\u0443\u043a\u0440\u0430\u0457\u043d\u0441\u044c\u043a\u0430 \u0410\u0415\u0421","fuel":"nuclear","mw":3000.0,"country":"UKR","status":"operating"}}]}