{"type": "FeatureCollection", "features": [{"type": "Feature", "geometry": {"type": "Point", "coordinates": [-77.675, 21.259]}, "properties": {"name": "La Norma", "v": 0}}, {"type": "Feature", "geometry": {"type": "Point", "coordinates": [-77.524, 21.439]}, "properties": {"name": "Redenci\u00f3n", "v": 0}}, {"type": "Feature", "geometry": {"type": "Point", "coordinates": [-77.84, 21.606]}, "properties": {"name": "Subestaci\u00f3n", "v": 0}}, {"type": "Feature", "geometry": {"type": "Point", "coordinates": [-77.632, 21.482]}, "properties": {"name": "F\u00e1brica de Alambres", "v": 0}}, {"type": "Feature", "geometry": {"type": "Point", "coordinates": [-77.64, 21.486]}, "properties": {"name": "", "v": 0}}, {"type": "Feature", "geometry": {"type": "Point", "coordinates": [-77.624, 21.482]}, "properties": {"name": "", "v": 0}}, {"type": "Feature", "geometry": {"type": "Point", "coordinates": [-77.567, 21.458]}, "properties": {"name": "Los Tanques", "v": 0}}, {"type": "Feature", "geometry": {"type": "Point", "coordinates": [-77.606, 21.483]}, "properties": {"name": "Minas", "v": 0}}, {"type": "Feature", "geometry": {"type": "Point", "coordinates": [-77.683, 21.67]}, "properties": {"name": "Subestaci\u00f3n", "v": 0}}, {"type": "Feature", "geometry": {"type": "Point", "coordinates": [-82.465, 22.928]}, "properties": {"name": "", "v": 0}}, {"type": "Feature", "geometry": {"type": "Point", "coordinates": [-82.6, 22.963]}, "properties": {"name": "", "v": 0}}, {"type": "Feature", "geometry": {"type": "Point", "coordinates": [-82.551, 22.99]}, "properties": {"name": "", "v": 0}}, {"type": "Feature", "geometry": {"type": "Point", "coordinates": [-81.709, 23.142]}, "properties": {"name": "Puerto Escondido", "v": 0}}, {"type": "Feature", "geometry": {"type": "Point", "coordinates": [-68.978, 18.442]}, "properties": {"name": "", "v": 0}}, {"type": "Feature", "geometry": {"type": "Point", "coordinates": [-72.3, 18.538]}, "properties": {"name": "", "v": 0}}, {"type": "Feature", "geometry": {"type": "Point", "coordinates": [-72.653, 19.096]}, "properties": {"name": "Point de distribution Negriel", "v": 0}}, {"type": "Feature", "geometry": {"type": "Point", "coordinates": [-70.108, 19.191]}, "properties": {"name": "Subestaci\u00f3n Edenorte", "v": 0}}, {"type": "Feature", "geometry": {"type": "Point", "coordinates": [-70.812, 19.325]}, "properties": {"name": "EdenorteSub Estacion", "v": 0}}, {"type": "Feature", "geometry": {"type": "Point", "coordinates": [-72.142, 19.634]}, "properties": {"name": "", "v": 0}}, {"type": "Feature", "geometry": {"type": "Point", "coordinates": [-71.834, 19.665]}, "properties": {"name": "", "v": 0}}, {"type": "Feature", "geometry": {"type": "Point", "coordinates": [-71.834, 19.665]}, "properties": {"name": "", "v": 0}}, {"type": "Feature", "geometry": {"type": "Point", "coordinates": [-71.841, 19.671]}, "properties": {"name": "", "v": 0}}, {"type": "Feature", "geometry": {"type": "Point", "coordinates": [-72.347, 19.777]}, "properties": {"name": "", "v": 0}}, {"type": "Feature", "geometry": {"type": "Point", "coordinates": [-72.685, 19.446]}, "properties": {"name": "", "v": 0}}, {"type": "Feature", "geometry": {"type": "Point", "coordinates": [-61.016, 10.297]}, "properties": {"name": "T&TEC Mayaro Substation", "v": 0}}, {"type": "Feature", "geometry": {"type": "Point", "coordinates": [-61.27, 10.636]}, "properties": {"name": "", "v": 0}}, {"type": "Feature", "geometry": {"type": "Point", "coordinates": [-61.428, 10.643]}, "properties": {"name": "T&TEC Mt. Hope Substation", "v": 0}}, {"type": "Feature", "geometry": {"type": "Point", "coordinates": [-61.444, 10.651]}, "properties": {"name": "", "v": 0}}, {"type": "Feature", "geometry": {"type": "Point", "coordinates": [-61.61, 10.719]}, "properties": {"name": "T&TEC Mt Pleasant Substation", "v": 0}}, {"type": "Feature", "geometry": {"type": "Point", "coordinates": [-61.451, 10.631]}, "properties": {"name": "", "v": 0}}, {"type": "Feature", "geometry": {"type": "Point", "coordinates": [-57.159, 5.841]}, "properties": {"name": "", "v": 0}}, {"type": "Feature", "geometry": {"type": "Point", "coordinates": [-55.315, 5.824]}, "properties": {"name": "", "v": 0}}, {"type": "Feature", "geometry": {"type": "Point", "coordinates": [-55.21, 5.823]}, "properties": {"name": "", "v": 0}}, {"type": "Feature", "geometry": {"type": "Point", "coordinates": [-76.14, 19.993]}, "properties": {"name": "", "v": 0}}, {"type": "Feature", "geometry": {"type": "Point", "coordinates": [-75.99, 20.217]}, "properties": {"name": "", "v": 0}}, {"type": "Feature", "geometry": {"type": "Point", "coordinates": [-75.914, 20.325]}, "properties": {"name": "", "v": 0}}, {"type": "Feature", "geometry": {"type": "Point", "coordinates": [-75.851, 20.193]}, "properties": {"name": "", "v": 0}}, {"type": "Feature", "geometry": {"type": "Point", "coordinates": [-75.846, 20.192]}, "properties": {"name": "", "v": 0}}, {"type": "Feature", "geometry": {"type": "Point", "coordinates": [-75.811, 20.033]}, "properties": {"name": "", "v": 0}}, {"type": "Feature", "geometry": {"type": "Point", "coordinates": [-75.757, 20.962]}, "properties": {"name": "", "v": 0}}, {"type": "Feature", "geometry": {"type": "Point", "coordinates": [-75.728, 20.907]}, "properties": {"name": "Nicaragua", "v": 0}}, {"type": "Feature", "geometry": {"type": "Point", "coordinates": [-75.641, 20.164]}, "properties": {"name": "La Maya", "v": 0}}, {"type": "Feature", "geometry": {"type": "Point", "coordinates": [-75.579, 20.18]}, "properties": {"name": "", "v": 0}}, {"type": "Feature", "geometry": {"type": "Point", "coordinates": [-75.494, 20.179]}, "properties": {"name": "", "v": 0}}, {"type": "Feature", "geometry": {"type": "Point", "coordinates": [-74.514, 20.354]}, "properties": {"name": "", "v": 0}}]}