{"type": "FeatureCollection", "features": [{"type": "Feature", "id": 0, "geometry": {"type": "Point", "coordinates": [146.636, -6.599]}, "properties": {"name": "Markham Valley Biomass power station", "fuel": "biomass", "mw": 18.0, "country": "PNG", "status": "planned"}}, {"type": "Feature", "id": 1, "geometry": {"type": "Point", "coordinates": [146.636, -6.599]}, "properties": {"name": "Markham Valley Biomass power station", "fuel": "biomass", "mw": 18.0, "country": "PNG", "status": "planned"}}, {"type": "Feature", "id": 2, "geometry": {"type": "Point", "coordinates": [150.213, -5.591]}, "properties": {"name": "Kumbango Palm Oil power station", "fuel": "biomass", "mw": 1.8, "country": "PNG", "status": "operating"}}, {"type": "Feature", "id": 3, "geometry": {"type": "Point", "coordinates": [150.238, -5.623]}, "properties": {"name": "Mosa Palm Oil power station", "fuel": "biomass", "mw": 2.7, "country": "PNG", "status": "operating"}}, {"type": "Feature", "id": 4, "geometry": {"type": "Point", "coordinates": [142.81, -6.004]}, "properties": {"name": "Dirio Hides power station", "fuel": "gas", "mw": 66.0, "country": "PNG", "status": "construction"}}, {"type": "Feature", "id": 5, "geometry": {"type": "Point", "coordinates": [147.143, -9.432]}, "properties": {"name": "Kanudi power station", "fuel": "gas", "mw": 58.0, "country": "PNG", "status": "operating"}}, {"type": "Feature", "id": 6, "geometry": {"type": "Point", "coordinates": [125.735, -9.154]}, "properties": {"name": "Betano power station", "fuel": "gas", "mw": 136.0, "country": "TLS", "status": "operating"}}, {"type": "Feature", "id": 7, "geometry": {"type": "Point", "coordinates": [125.691, -8.54]}, "properties": {"name": "Hera power station", "fuel": "gas", "mw": 119.0, "country": "TLS", "status": "operating"}}, {"type": "Feature", "id": 8, "geometry": {"type": "Point", "coordinates": [147.046, -9.321]}, "properties": {"name": "Dirio power station", "fuel": "gas", "mw": 15.0, "country": "PNG", "status": "operating"}}, {"type": "Feature", "id": 9, "geometry": {"type": "Point", "coordinates": [147.046, -9.321]}, "properties": {"name": "Dirio power station", "fuel": "gas", "mw": 15.0, "country": "PNG", "status": "operating"}}, {"type": "Feature", "id": 10, "geometry": {"type": "Point", "coordinates": [147.046, -9.321]}, "properties": {"name": "Dirio power station", "fuel": "gas", "mw": 15.0, "country": "PNG", "status": "operating"}}, {"type": "Feature", "id": 11, "geometry": {"type": "Point", "coordinates": [147.204, -9.404]}, "properties": {"name": "Moitaka power station", "fuel": "gas", "mw": 41.0, "country": "PNG", "status": "operating"}}, {"type": "Feature", "id": 12, "geometry": {"type": "Point", "coordinates": [147.204, -9.404]}, "properties": {"name": "Moitaka power station", "fuel": "gas", "mw": 15.0, "country": "PNG", "status": "operating"}}, {"type": "Feature", "id": 13, "geometry": {"type": "Point", "coordinates": [146.853, -6.594]}, "properties": {"name": "Munum power plant", "fuel": "gas", "mw": 30.0, "country": "PNG", "status": "operating"}}, {"type": "Feature", "id": 14, "geometry": {"type": "Point", "coordinates": [150.456, -10.318]}, "properties": {"name": "PAWA PNG power plant (Alotau)", "fuel": "gas", "mw": 24.0, "country": "PNG", "status": "planned"}}, {"type": "Feature", "id": 15, "geometry": {"type": "Point", "coordinates": [154.674, -5.43]}, "properties": {"name": "PAWA PNG power plant (Buka Town)", "fuel": "gas", "mw": 24.0, "country": "PNG", "status": "planned"}}, {"type": "Feature", "id": 16, "geometry": {"type": "Point", "coordinates": [143.207, -9.07]}, "properties": {"name": "PAWA PNG power plant (Daru)", "fuel": "gas", "mw": 24.0, "country": "PNG", "status": "planned"}}, {"type": "Feature", "id": 17, "geometry": {"type": "Point", "coordinates": [144.248, -7.412]}, "properties": {"name": "PAWA PNG power plant (Kikori)", "fuel": "gas", "mw": 24.0, "country": "PNG", "status": "planned"}}, {"type": "Feature", "id": 18, "geometry": {"type": "Point", "coordinates": [150.143, -5.547]}, "properties": {"name": "PAWA PNG power plant (Kimbe)", "fuel": "gas", "mw": 24.0, "country": "PNG", "status": "planned"}}, {"type": "Feature", "id": 19, "geometry": {"type": "Point", "coordinates": [141.296, -6.119]}, "properties": {"name": "PAWA PNG power plant (Kiunga)", "fuel": "gas", "mw": 24.0, "country": "PNG", "status": "planned"}}, {"type": "Feature", "id": 20, "geometry": {"type": "Point", "coordinates": [147.011, -6.736]}, "properties": {"name": "PAWA PNG power plant (Lae)", "fuel": "gas", "mw": 24.0, "country": "PNG", "status": "planned"}}, {"type": "Feature", "id": 21, "geometry": {"type": "Point", "coordinates": [152.57, -3.11]}, "properties": {"name": "PAWA PNG power plant (Lihir)", "fuel": "gas", "mw": 24.0, "country": "PNG", "status": "planned"}}, {"type": "Feature", "id": 22, "geometry": {"type": "Point", "coordinates": [145.792, -5.235]}, "properties": {"name": "PAWA PNG power plant (Mandang)", "fuel": "gas", "mw": 24.0, "country": "PNG", "status": "planned"}}, {"type": "Feature", "id": 23, "geometry": {"type": "Point", "coordinates": [147.026, -2.027]}, "properties": {"name": "PAWA PNG power plant (Manus Island)", "fuel": "gas", "mw": 24.0, "country": "PNG", "status": "planned"}}, {"type": "Feature", "id": 24, "geometry": {"type": "Point", "coordinates": [152.164, -4.202]}, "properties": {"name": "PAWA PNG power plant (Rabaul)", "fuel": "gas", "mw": 24.0, "country": "PNG", "status": "planned"}}, {"type": "Feature", "id": 25, "geometry": {"type": "Point", "coordinates": [143.63, -3.573]}, "properties": {"name": "PAWA PNG power plant (Wewak)", "fuel": "gas", "mw": 24.0, "country": "PNG", "status": "planned"}}, {"type": "Feature", "id": 26, "geometry": {"type": "Point", "coordinates": [150.459, -10.314]}, "properties": {"name": "Alotau solar farm", "fuel": "solar", "mw": 1.5, "country": "PNG", "status": "planned"}}, {"type": "Feature", "id": 27, "geometry": {"type": "Point", "coordinates": [143.212, -9.088]}, "properties": {"name": "Daru solar farm", "fuel": "solar", "mw": 1.0, "country": "PNG", "status": "operating"}}, {"type": "Feature", "id": 28, "geometry": {"type": "Point", "coordinates": [150.803, -2.571]}, "properties": {"name": "Kavieng solar farm", "fuel": "solar", "mw": 1.5, "country": "PNG", "status": "planned"}}, {"type": "Feature", "id": 29, "geometry": {"type": "Point", "coordinates": [145.773, -7.963]}, "properties": {"name": "Kerema solar farm", "fuel": "solar", "mw": 1.5, "country": "PNG", "status": "planned"}}, {"type": "Feature", "id": 30, "geometry": {"type": "Point", "coordinates": [146.904, -2.071]}, "properties": {"name": "Manus solar farm", "fuel": "solar", "mw": 1.5, "country": "PNG", "status": "planned"}}, {"type": "Feature", "id": 31, "geometry": {"type": "Point", "coordinates": [146.241, -6.339]}, "properties": {"name": "Markham Valley solar farm", "fuel": "solar", "mw": 11.0, "country": "PNG", "status": "planned"}}, {"type": "Feature", "id": 32, "geometry": {"type": "Point", "coordinates": [143.447, -3.746]}, "properties": {"name": "Saussia solar farm", "fuel": "solar", "mw": 10.0, "country": "PNG", "status": "planned"}}, {"type": "Feature", "id": 33, "geometry": {"type": "Point", "coordinates": [152.202, -4.418]}, "properties": {"name": "Wairiki solar farm", "fuel": "solar", "mw": 5.0, "country": "PNG", "status": "planned"}}, {"type": "Feature", "id": 34, "geometry": {"type": "Point", "coordinates": [126.018, -8.515]}, "properties": {"name": "Manatuto solar farm", "fuel": "solar", "mw": 72.0, "country": "TLS", "status": "planned"}}, {"type": "Feature", "id": 35, "geometry": {"type": "Point", "coordinates": [126.369, -8.697]}, "properties": {"name": "Lariguto wind farm", "fuel": "wind", "mw": 50.0, "country": "TLS", "status": "planned"}}, {"type": "Feature", "id": 36, "geometry": {"type": "Point", "coordinates": [152.646, -3.124]}, "properties": {"name": "Lihir Island geothermal power plant", "fuel": "geothermal", "mw": 30.0, "country": "PNG", "status": "operating"}}, {"type": "Feature", "id": 37, "geometry": {"type": "Point", "coordinates": [147.34, -9.189]}, "properties": {"name": "Edevu hydroelectric plant", "fuel": "hydro", "mw": 54.0, "country": "PNG", "status": "operating"}}, {"type": "Feature", "id": 38, "geometry": {"type": "Point", "coordinates": [142.0, -3.5]}, "properties": {"name": "Frieda River hydroelectric plant", "fuel": "hydro", "mw": 600.0, "country": "PNG", "status": "planned"}}, {"type": "Feature", "id": 39, "geometry": {"type": "Point", "coordinates": [147.853, -6.599]}, "properties": {"name": "Mongi hydroelectric plant", "fuel": "hydro", "mw": 78.0, "country": "PNG", "status": "planned"}}, {"type": "Feature", "id": 40, "geometry": {"type": "Point", "coordinates": [141.304, -5.341]}, "properties": {"name": "Ok Menga hydroelectric plant", "fuel": "hydro", "mw": 57.0, "country": "PNG", "status": "operating"}}, {"type": "Feature", "id": 41, "geometry": {"type": "Point", "coordinates": [145.98, -6.251]}, "properties": {"name": "Ramu 1 hydroelectric plant", "fuel": "hydro", "mw": 77.0, "country": "PNG", "status": "operating"}}, {"type": "Feature", "id": 42, "geometry": {"type": "Point", "coordinates": [145.98, -6.251]}, "properties": {"name": "Ramu 2 hydroelectric plant", "fuel": "hydro", "mw": 180.0, "country": "PNG", "status": "planned"}}, {"type": "Feature", "id": 43, "geometry": {"type": "Point", "coordinates": [147.39, -9.425]}, "properties": {"name": "Rouna 2 hydroelectric plant", "fuel": "hydro", "mw": 36.0, "country": "PNG", "status": "operating"}}]}