{"type": "FeatureCollection", "features": [{"type": "Feature", "geometry": {"type": "LineString", "coordinates": [[-14.676, 11.608], [-14.693, 11.52]]}, "properties": {"v": 225000}}, {"type": "Feature", "geometry": {"type": "LineString", "coordinates": [[-14.676, 11.609], [-14.675, 11.61]]}, "properties": {"v": 225000}}, {"type": "Feature", "geometry": {"type": "LineString", "coordinates": [[-14.676, 11.61], [-14.762, 11.674], [-14.846, 12.051]]}, "properties": {"v": 225000}}, {"type": "Feature", "geometry": {"type": "LineString", "coordinates": [[-15.593, 11.931], [-15.592, 11.931]]}, "properties": {"v": 225000}}, {"type": "Feature", "geometry": {"type": "LineString", "coordinates": [[-15.593, 11.931], [-15.592, 11.931]]}, "properties": {"v": 225000}}, {"type": "Feature", "geometry": {"type": "LineString", "coordinates": [[-15.592, 11.931], [-15.304, 12.063]]}, "properties": {"v": 225000}}, {"type": "Feature", "geometry": {"type": "LineString", "coordinates": [[-15.304, 12.063], [-14.846, 12.052]]}, "properties": {"v": 225000}}, {"type": "Feature", "geometry": {"type": "LineString", "coordinates": [[-14.846, 12.051], [-14.846, 12.051]]}, "properties": {"v": 225000}}, {"type": "Feature", "geometry": {"type": "LineString", "coordinates": [[-14.846, 12.051], [-14.846, 12.051]]}, "properties": {"v": 225000}}, {"type": "Feature", "geometry": {"type": "LineString", "coordinates": [[-14.846, 12.051], [-14.846, 12.051]]}, "properties": {"v": 225000}}, {"type": "Feature", "geometry": {"type": "LineString", "coordinates": [[-14.846, 12.051], [-14.846, 12.051]]}, "properties": {"v": 225000}}, {"type": "Feature", "geometry": {"type": "LineString", "coordinates": [[-14.846, 12.051], [-14.846, 12.052]]}, "properties": {"v": 225000}}, {"type": "Feature", "geometry": {"type": "LineString", "coordinates": [[-15.304, 12.064], [-15.304, 12.063]]}, "properties": {"v": 225000}}, {"type": "Feature", "geometry": {"type": "LineString", "coordinates": [[-15.304, 12.064], [-15.304, 12.063]]}, "properties": {"v": 225000}}, {"type": "Feature", "geometry": {"type": "LineString", "coordinates": [[-15.304, 12.063], [-15.304, 12.064]]}, "properties": {"v": 225000}}, {"type": "Feature", "geometry": {"type": "LineString", "coordinates": [[-15.304, 12.064], [-15.303, 12.063]]}, "properties": {"v": 225000}}, {"type": "Feature", "geometry": {"type": "LineString", "coordinates": [[-15.303, 12.063], [-15.303, 12.063]]}, "properties": {"v": 225000}}, {"type": "Feature", "geometry": {"type": "LineString", "coordinates": [[-15.303, 12.063], [-15.303, 12.064]]}, "properties": {"v": 225000}}, {"type": "Feature", "geometry": {"type": "LineString", "coordinates": [[-15.303, 12.063], [-15.303, 12.064]]}, "properties": {"v": 225000}}, {"type": "Feature", "geometry": {"type": "LineString", "coordinates": [[-15.303, 12.063], [-15.303, 12.064]]}, "properties": {"v": 225000}}, {"type": "Feature", "geometry": {"type": "LineString", "coordinates": [[-15.456, 12.626], [-15.434, 12.242], [-15.303, 12.064]]}, "properties": {"v": 225000}}, {"type": "Feature", "geometry": {"type": "LineString", "coordinates": [[-15.483, 12.627], [-15.565, 12.521], [-15.777, 12.532]]}, "properties": {"v": 225000}}]}