{"type": "FeatureCollection", "features": [{"type": "Feature", "geometry": {"type": "Point", "coordinates": [12.969, -5.445]}, "properties": {"name": "Poste \u00e9lectrique de Moenge", "v": 132000}}, {"type": "Feature", "geometry": {"type": "Point", "coordinates": [27.479, -11.629]}, "properties": {"name": "", "v": 0}}, {"type": "Feature", "geometry": {"type": "Point", "coordinates": [27.544, -11.634]}, "properties": {"name": "", "v": 0}}, {"type": "Feature", "geometry": {"type": "Point", "coordinates": [13.012, -1.827]}, "properties": {"name": "", "v": 0}}, {"type": "Feature", "geometry": {"type": "Point", "coordinates": [15.253, -4.36]}, "properties": {"name": "Station SNEL Ngaliema", "v": 0}}, {"type": "Feature", "geometry": {"type": "Point", "coordinates": [15.264, -4.352]}, "properties": {"name": "Cabine SNEL", "v": 0}}, {"type": "Feature", "geometry": {"type": "Point", "coordinates": [15.265, -4.349]}, "properties": {"name": "Cabine SNEL", "v": 0}}, {"type": "Feature", "geometry": {"type": "Point", "coordinates": [15.277, -4.445]}, "properties": {"name": "", "v": 0}}, {"type": "Feature", "geometry": {"type": "Point", "coordinates": [15.344, -4.338]}, "properties": {"name": "SNEL", "v": 0}}, {"type": "Feature", "geometry": {"type": "Point", "coordinates": [15.355, -4.348]}, "properties": {"name": "", "v": 0}}, {"type": "Feature", "geometry": {"type": "Point", "coordinates": [15.358, -4.352]}, "properties": {"name": "Maternit\u00e9", "v": 0}}, {"type": "Feature", "geometry": {"type": "Point", "coordinates": [17.374, -3.308]}, "properties": {"name": "Centre Basse Tension SNEL", "v": 0}}, {"type": "Feature", "geometry": {"type": "Point", "coordinates": [17.376, -3.294]}, "properties": {"name": "Haute Tension Sadelmi", "v": 0}}, {"type": "Feature", "geometry": {"type": "Point", "coordinates": [16.52, -4.431]}, "properties": {"name": "", "v": 0}}, {"type": "Feature", "geometry": {"type": "Point", "coordinates": [28.849, -2.513]}, "properties": {"name": "", "v": 0}}, {"type": "Feature", "geometry": {"type": "Point", "coordinates": [11.532, 3.874]}, "properties": {"name": "", "v": 0}}, {"type": "Feature", "geometry": {"type": "Point", "coordinates": [11.541, 3.922]}, "properties": {"name": "", "v": 0}}, {"type": "Feature", "geometry": {"type": "Point", "coordinates": [11.541, 3.922]}, "properties": {"name": "", "v": 0}}, {"type": "Feature", "geometry": {"type": "Point", "coordinates": [16.633, 7.93]}, "properties": {"name": "", "v": 0}}, {"type": "Feature", "geometry": {"type": "Point", "coordinates": [15.046, 12.122]}, "properties": {"name": "T", "v": 0}}, {"type": "Feature", "geometry": {"type": "Point", "coordinates": [15.097, 12.091]}, "properties": {"name": "T153 / \u062a 153", "v": 0}}, {"type": "Feature", "geometry": {"type": "Point", "coordinates": [15.076, 12.108]}, "properties": {"name": "T23", "v": 0}}, {"type": "Feature", "geometry": {"type": "Point", "coordinates": [15.054, 12.138]}, "properties": {"name": "T7", "v": 0}}, {"type": "Feature", "geometry": {"type": "Point", "coordinates": [16.637, 7.934]}, "properties": {"name": "", "v": 0}}]}