{"type":"FeatureCollection","features":[{"type":"Feature","id":181,"geometry":{"type":"Point","coordinates":[21.437,61.236]},"properties":{"name":"Olkiluoto nuclear power plant","fuel":"nuclear","mw":1720.0,"country":"FIN","status":"operating"}},{"type":"Feature","id":182,"geometry":{"type":"Point","coordinates":[-1.882,49.537]},"properties":{"name":"Flamanville nuclear power plant","fuel":"nuclear","mw":1650.0,"country":"FRA","status":"operating"}},{"type":"Feature","id":183,"geometry":{"type":"Point","coordinates":[0.658,46.456]},"properties":{"name":"Civaux nuclear power plant","fuel":"nuclear","mw":1561.0,"country":"FRA","status":"operating"}},{"type":"Feature","id":184,"geometry":{"type":"Point","coordinates":[0.658,46.456]},"properties":{"name":"Civaux nuclear power plant","fuel":"nuclear","mw":1561.0,"country":"FRA","status":"operating"}},{"type":"Feature","id":185,"geometry":{"type":"Point","coordinates":[4.787,50.09]},"properties":{"name":"Chooz nuclear power plant","fuel":"nuclear","mw":1560.0,"country":"FRA","status":"operating"}},{"type":"Feature","id":186,"geometry":{"type":"Point","coordinates":[4.787,50.09]},"properties":{"name":"Chooz nuclear power plant","fuel":"nuclear","mw":1560.0,"country":"FRA","status":"operating"}},{"type":"Feature","id":187,"geometry":{"type":"Point","coordinates":[16.673,57.417]},"properties":{"name":"Oskarshamn nuclear power plant","fuel":"nuclear","mw":1450.0,"country":"SWE","status":"operating"}},{"type":"Feature","id":188,"geometry":{"type":"Point","coordinates":[-1.882,49.537]},"properties":{"name":"Flamanville nuclear power plant","fuel":"nuclear","mw":1382.0,"country":"FRA","status":"operating"}},{"type":"Feature","id":189,"geometry":{"type":"Point","coordinates":[-1.882,49.537]},"properties":{"name":"Flamanville nuclear power plant","fuel":"nuclear","mw":1382.0,"country":"FRA","status":"operating"}},{"type":"Feature","id":190,"geometry":{"type":"Point","coordinates":[0.635,49.858]},"properties":{"name":"Paluel nuclear power plant","fuel":"nuclear","mw":1382.0,"country":"FRA","status":"operating"}},{"type":"Feature","id":191,"geometry":{"type":"Point","coordinates":[0.635,49.858]},"properties":{"name":"Paluel nuclear power plant","fuel":"nuclear","mw":1382.0,"country":"FRA","status":"operating"}},{"type":"Feature","id":192,"geometry":{"type":"Point","coordinates":[0.635,49.858]},"properties":{"name":"Paluel nuclear power plant","fuel":"nuclear","mw":1382.0,"country":"FRA","status":"operating"}},{"type":"Feature","id":193,"geometry":{"type":"Point","coordinates":[0.635,49.858]},"properties":{"name":"Paluel nuclear power plant","fuel":"nuclear","mw":1382.0,"country":"FRA","status":"operating"}},{"type":"Feature","id":194,"geometry":{"type":"Point","coordinates":[1.211,49.976]},"properties":{"name":"Penly nuclear power plant","fuel":"nuclear","mw":1382.0,"country":"FRA","status":"operating"}},{"type":"Feature","id":195,"geometry":{"type":"Point","coordinates":[1.211,49.976]},"properties":{"name":"Penly nuclear power plant","fuel":"nuclear","mw":1382.0,"country":"FRA","status":"operating"}},{"type":"Feature","id":196,"geometry":{"type":"Point","coordinates":[4.755,45.404]},"properties":{"name":"St. Alban nuclear power plant","fuel":"nuclear","mw":1381.0,"country":"FRA","status":"operating"}},{"type":"Feature","id":197,"geometry":{"type":"Point","coordinates":[4.755,45.404]},"properties":{"name":"St. Alban nuclear power plant","fuel":"nuclear","mw":1381.0,"country":"FRA","status":"operating"}},{"type":"Feature","id":198,"geometry":{"type":"Point","coordinates":[2.875,47.51]},"properties":{"name":"Belleville nuclear power plant","fuel":"nuclear","mw":1363.0,"country":"FRA","status":"operating"}},{"type":"Feature","id":199,"geometry":{"type":"Point","coordinates":[2.875,47.51]},"properties":{"name":"Belleville nuclear power plant","fuel":"nuclear","mw":1363.0,"country":"FRA","status":"operating"}},{"type":"Feature","id":200,"geometry":{"type":"Point","coordinates":[0.844,44.106]},"properties":{"name":"Golfech nuclear power plant","fuel":"nuclear","mw":1363.0,"country":"FRA","status":"operating"}},{"type":"Feature","id":201,"geometry":{"type":"Point","coordinates":[0.844,44.106]},"properties":{"name":"Golfech nuclear power plant","fuel":"nuclear","mw":1363.0,"country":"FRA","status":"operating"}},{"type":"Feature","id":202,"geometry":{"type":"Point","coordinates":[3.518,48.517]},"properties":{"name":"Nogent nuclear power plant","fuel":"nuclear","mw":1363.0,"country":"FRA","status":"operating"}},{"type":"Feature","id":203,"geometry":{"type":"Point","coordinates":[3.518,48.517]},"properties":{"name":"Nogent nuclear power plant","fuel":"nuclear","mw":1363.0,"country":"FRA","status":"operating"}},{"type":"Feature","id":204,"geometry":{"type":"Point","coordinates":[6.217,49.416]},"properties":{"name":"Cattenom nuclear power plant","fuel":"nuclear","mw":1362.0,"country":"FRA","status":"operating"}},{"type":"Feature","id":205,"geometry":{"type":"Point","coordinates":[6.217,49.416]},"properties":{"name":"Cattenom nuclear power plant","fuel":"nuclear","mw":1362.0,"country":"FRA","status":"operating"}},{"type":"Feature","id":206,"geometry":{"type":"Point","coordinates":[6.217,49.416]},"properties":{"name":"Cattenom nuclear power plant","fuel":"nuclear","mw":1362.0,"country":"FRA","status":"operating"}},{"type":"Feature","id":207,"geometry":{"type":"Point","coordinates":[6.217,49.416]},"properties":{"name":"Cattenom nuclear power plant","fuel":"nuclear","mw":1362.0,"country":"FRA","status":"operating"}},{"type":"Feature","id":208,"geometry":{"type":"Point","coordinates":[18.174,60.403]},"properties":{"name":"Forsmark nuclear power plant","fuel":"nuclear","mw":1208.0,"country":"SWE","status":"operating"}},{"type":"Feature","id":209,"geometry":{"type":"Point","coordinates":[12.109,57.257]},"properties":{"name":"Ringhals nuclear power plant","fuel":"nuclear","mw":1171.0,"country":"SWE","status":"operating"}},{"type":"Feature","id":210,"geometry":{"type":"Point","coordinates":[18.174,60.403]},"properties":{"name":"Forsmark nuclear power plant","fuel":"nuclear","mw":1160.0,"country":"SWE","status":"operating"}},{"type":"Feature","id":211,"geometry":{"type":"Point","coordinates":[-1.051,39.213]},"properties":{"name":"Cofrentes nuclear power plant","fuel":"nuclear","mw":1102.0,"country":"ESP","status":"operating"}},{"type":"Feature","id":212,"geometry":{"type":"Point","coordinates":[12.109,57.257]},"properties":{"name":"Ringhals nuclear power plant","fuel":"nuclear","mw":1117.0,"country":"SWE","status":"operating"}},{"type":"Feature","id":213,"geometry":{"type":"Point","coordinates":[14.38,49.18]},"properties":{"name":"Temelin nuclear power plant","fuel":"nuclear","mw":1082.0,"country":"CZE","status":"operating"}},{"type":"Feature","id":214,"geometry":{"type":"Point","coordinates":[14.38,49.18]},"properties":{"name":"Temelin nuclear power plant","fuel":"nuclear","mw":1082.0,"country":"CZE","status":"operating"}},{"type":"Feature","id":215,"geometry":{"type":"Point","coordinates":[23.768,43.75]},"properties":{"name":"Kozloduy nuclear power plant","fuel":"nuclear","mw":1040.0,"country":"BGR","status":"operating"}},{"type":"Feature","id":216,"geometry":{"type":"Point","coordinates":[23.768,43.75]},"properties":{"name":"Kozloduy nuclear power plant","fuel":"nuclear","mw":1040.0,"country":"BGR","status":"operating"}},{"type":"Feature","id":217,"geometry":{"type":"Point","coordinates":[-2.623,40.702]},"properties":{"name":"Trillo nuclear power plant","fuel":"nuclear","mw":1066.0,"country":"ESP","status":"operating"}},{"type":"Feature","id":218,"geometry":{"type":"Point","coordinates":[5.271,50.533]},"properties":{"name":"Tihange nuclear power plant","fuel":"nuclear","mw":1089.0,"country":"BEL","status":"operating"}},{"type":"Feature","id":219,"geometry":{"type":"Point","coordinates":[4.26,51.325]},"properties":{"name":"Doel nuclear power plant","fuel":"nuclear","mw":1090.0,"country":"BEL","status":"operating"}},{"type":"Feature","id":220,"geometry":{"type":"Point","coordinates":[-5.699,39.807]},"properties":{"name":"Almaraz nuclear power plant","fuel":"nuclear","mw":1049.0,"country":"ESP","status":"operating"}},{"type":"Feature","id":221,"geometry":{"type":"Point","coordinates":[-5.699,39.807]},"properties":{"name":"Almaraz nuclear power plant","fuel":"nuclear","mw":1044.0,"country":"ESP","status":"operating"}},{"type":"Feature","id":222,"geometry":{"type":"Point","coordinates":[0.866,40.951]},"properties":{"name":"Vandellos nuclear power plant","fuel":"nuclear","mw":1087.0,"country":"ESP","status":"operating"}},{"type":"Feature","id":223,"geometry":{"type":"Point","coordinates":[0.569,41.199]},"properties":{"name":"Asc\u00f3 nuclear power plant","fuel":"nuclear","mw":1033.0,"country":"ESP","status":"operating"}},{"type":"Feature","id":224,"geometry":{"type":"Point","coordinates":[0.569,41.199]},"properties":{"name":"Asc\u00f3 nuclear power plant","fuel":"nuclear","mw":1027.0,"country":"ESP","status":"operating"}},{"type":"Feature","id":225,"geometry":{"type":"Point","coordinates":[18.174,60.403]},"properties":{"name":"Forsmark nuclear power plant","fuel":"nuclear","mw":1078.0,"country":"SWE","status":"operating"}},{"type":"Feature","id":226,"geometry":{"type":"Point","coordinates":[5.271,50.533]},"properties":{"name":"Tihange nuclear power plant","fuel":"nuclear","mw":1009.0,"country":"BEL","status":"operating"}},{"type":"Feature","id":227,"geometry":{"type":"Point","coordinates":[4.755,44.633]},"properties":{"name":"Cruas nuclear power plant","fuel":"nuclear","mw":956.0,"country":"FRA","status":"operating"}},{"type":"Feature","id":228,"geometry":{"type":"Point","coordinates":[4.755,44.633]},"properties":{"name":"Cruas nuclear power plant","fuel":"nuclear","mw":956.0,"country":"FRA","status":"operating"}},{"type":"Feature","id":229,"geometry":{"type":"Point","coordinates":[4.755,44.633]},"properties":{"name":"Cruas nuclear power plant","fuel":"nuclear","mw":956.0,"country":"FRA","status":"operating"}},{"type":"Feature","id":230,"geometry":{"type":"Point","coordinates":[1.578,47.72]},"properties":{"name":"Saint-Laurent nuclear power plant","fuel":"nuclear","mw":956.0,"country":"FRA","status":"operating"}},{"type":"Feature","id":231,"geometry":{"type":"Point","coordinates":[1.578,47.72]},"properties":{"name":"Saint-Laurent nuclear power plant","fuel":"nuclear","mw":956.0,"country":"FRA","status":"operating"}},{"type":"Feature","id":232,"geometry":{"type":"Point","coordinates":[4.731,44.331]},"properties":{"name":"Tricastin nuclear power plant","fuel":"nuclear","mw":955.0,"country":"FRA","status":"operating"}},{"type":"Feature","id":233,"geometry":{"type":"Point","coordinates":[4.731,44.331]},"properties":{"name":"Tricastin nuclear power plant","fuel":"nuclear","mw":955.0,"country":"FRA","status":"operating"}},{"type":"Feature","id":234,"geometry":{"type":"Point","coordinates":[4.731,44.331]},"properties":{"name":"Tricastin nuclear power plant","fuel":"nuclear","mw":955.0,"country":"FRA","status":"operating"}},{"type":"Feature","id":235,"geometry":{"type":"Point","coordinates":[4.731,44.331]},"properties":{"name":"Tricastin nuclear power plant","fuel":"nuclear","mw":955.0,"country":"FRA","status":"operating"}},{"type":"Feature","id":236,"geometry":{"type":"Point","coordinates":[0.166,47.225]},"properties":{"name":"Chinon nuclear power plant","fuel":"nuclear","mw":954.0,"country":"FRA","status":"operating"}},{"type":"Feature","id":237,"geometry":{"type":"Point","coordinates":[0.166,47.225]},"properties":{"name":"Chinon nuclear power plant","fuel":"nuclear","mw":954.0,"country":"FRA","status":"operating"}},{"type":"Feature","id":238,"geometry":{"type":"Point","coordinates":[0.166,47.225]},"properties":{"name":"Chinon nuclear power plant","fuel":"nuclear","mw":954.0,"country":"FRA","status":"operating"}},{"type":"Feature","id":239,"geometry":{"type":"Point","coordinates":[0.166,47.225]},"properties":{"name":"Chinon nuclear power plant","fuel":"nuclear","mw":954.0,"country":"FRA","status":"operating"}},{"type":"Feature","id":240,"geometry":{"type":"Point","coordinates":[-0.693,45.256]},"properties":{"name":"Blayais nuclear power plant","fuel":"nuclear","mw":951.0,"country":"FRA","status":"operating"}},{"type":"Feature","id":241,"geometry":{"type":"Point","coordinates":[-0.693,45.256]},"properties":{"name":"Blayais nuclear power plant","fuel":"nuclear","mw":951.0,"country":"FRA","status":"operating"}},{"type":"Feature","id":242,"geometry":{"type":"Point","coordinates":[-0.693,45.256]},"properties":{"name":"Blayais nuclear power plant","fuel":"nuclear","mw":951.0,"country":"FRA","status":"operating"}},{"type":"Feature","id":243,"geometry":{"type":"Point","coordinates":[-0.693,45.256]},"properties":{"name":"Blayais nuclear power plant","fuel":"nuclear","mw":951.0,"country":"FRA","status":"operating"}},{"type":"Feature","id":244,"geometry":{"type":"Point","coordinates":[2.133,51.014]},"properties":{"name":"Gravelines nuclear power plant","fuel":"nuclear","mw":951.0,"country":"FRA","status":"operating"}},{"type":"Feature","id":245,"geometry":{"type":"Point","coordinates":[2.133,51.014]},"properties":{"name":"Gravelines nuclear power plant","fuel":"nuclear","mw":951.0,"country":"FRA","status":"operating"}},{"type":"Feature","id":246,"geometry":{"type":"Point","coordinates":[2.133,51.014]},"properties":{"name":"Gravelines nuclear power plant","fuel":"nuclear","mw":951.0,"country":"FRA","status":"operating"}},{"type":"Feature","id":247,"geometry":{"type":"Point","coordinates":[2.133,51.014]},"properties":{"name":"Gravelines nuclear power plant","fuel":"nuclear","mw":951.0,"country":"FRA","status":"operating"}},{"type":"Feature","id":248,"geometry":{"type":"Point","coordinates":[2.133,51.014]},"properties":{"name":"Gravelines nuclear power plant","fuel":"nuclear","mw":951.0,"country":"FRA","status":"operating"}},{"type":"Feature","id":249,"geometry":{"type":"Point","coordinates":[2.133,51.014]},"properties":{"name":"Gravelines nuclear power plant","fuel":"nuclear","mw":951.0,"country":"FRA","status":"operating"}},{"type":"Feature","id":250,"geometry":{"type":"Point","coordinates":[5.271,45.797]},"properties":{"name":"Bugey nuclear power plant","fuel":"nuclear","mw":945.0,"country":"FRA","status":"operating"}},{"type":"Feature","id":251,"geometry":{"type":"Point","coordinates":[5.271,45.797]},"properties":{"name":"Bugey nuclear power plant","fuel":"nuclear","mw":945.0,"country":"FRA","status":"operating"}},{"type":"Feature","id":252,"geometry":{"type":"Point","coordinates":[2.518,47.732]},"properties":{"name":"Dampierre nuclear power plant","fuel":"nuclear","mw":937.0,"country":"FRA","status":"operating"}},{"type":"Feature","id":253,"geometry":{"type":"Point","coordinates":[2.518,47.732]},"properties":{"name":"Dampierre nuclear power plant","fuel":"nuclear","mw":937.0,"country":"FRA","status":"operating"}},{"type":"Feature","id":254,"geometry":{"type":"Point","coordinates":[2.518,47.732]},"properties":{"name":"Dampierre nuclear power plant","fuel":"nuclear","mw":937.0,"country":"FRA","status":"operating"}},{"type":"Feature","id":255,"geometry":{"type":"Point","coordinates":[2.518,47.732]},"properties":{"name":"Dampierre nuclear power plant","fuel":"nuclear","mw":937.0,"country":"FRA","status":"operating"}},{"type":"Feature","id":256,"geometry":{"type":"Point","coordinates":[5.271,45.797]},"properties":{"name":"Bugey nuclear power plant","fuel":"nuclear","mw":917.0,"country":"FRA","status":"operating"}},{"type":"Feature","id":257,"geometry":{"type":"Point","coordinates":[5.271,45.797]},"properties":{"name":"Bugey nuclear power plant","fuel":"nuclear","mw":917.0,"country":"FRA","status":"operating"}},{"type":"Feature","id":258,"geometry":{"type":"Point","coordinates":[21.443,61.237]},"properties":{"name":"Olkiluoto nuclear power plant","fuel":"nuclear","mw":920.0,"country":"FIN","status":"operating"}},{"type":"Feature","id":259,"geometry":{"type":"Point","coordinates":[21.443,61.237]},"properties":{"name":"Olkiluoto nuclear power plant","fuel":"nuclear","mw":920.0,"country":"FIN","status":"operating"}},{"type":"Feature","id":263,"geometry":{"type":"Point","coordinates":[15.516,45.939]},"properties":{"name":"Kr\u0161ko nuclear power plant","fuel":"nuclear","mw":1100.0,"country":"SVN","status":"planned"}},{"type":"Feature","id":283,"geometry":{"type":"Point","coordinates":[18.853,46.578]},"properties":{"name":"Paks nuclear power plant","fuel":"nuclear","mw":1265.0,"country":"HUN","status":"planned"}},{"type":"Feature","id":284,"geometry":{"type":"Point","coordinates":[18.853,46.578]},"properties":{"name":"Paks nuclear power plant","fuel":"nuclear","mw":1265.0,"country":"HUN","status":"planned"}},{"type":"Feature","id":287,"geometry":{"type":"Point","coordinates":[16.148,49.085]},"properties":{"name":"Dukovany nuclear power plant","fuel":"nuclear","mw":1200.0,"country":"CZE","status":"planned"}},{"type":"Feature","id":288,"geometry":{"type":"Point","coordinates":[16.148,49.085]},"properties":{"name":"Dukovany nuclear power plant","fuel":"nuclear","mw":1200.0,"country":"CZE","status":"planned"}},{"type":"Feature","id":289,"geometry":{"type":"Point","coordinates":[23.768,43.75]},"properties":{"name":"Kozloduy nuclear power plant","fuel":"nuclear","mw":1000.0,"country":"BGR","status":"planned"}},{"type":"Feature","id":290,"geometry":{"type":"Point","coordinates":[23.768,43.75]},"properties":{"name":"Kozloduy nuclear power plant","fuel":"nuclear","mw":1000.0,"country":"BGR","status":"planned"}},{"type":"Feature","id":291,"geometry":{"type":"Point","coordinates":[17.788,54.804]},"properties":{"name":"Lubiatowo-Kopalino nuclear power plant","fuel":"nuclear","mw":1250.0,"country":"POL","status":"planned"}},{"type":"Feature","id":292,"geometry":{"type":"Point","coordinates":[17.788,54.804]},"properties":{"name":"Lubiatowo-Kopalino nuclear power plant","fuel":"nuclear","mw":1250.0,"country":"POL","status":"planned"}},{"type":"Feature","id":293,"geometry":{"type":"Point","coordinates":[17.788,54.804]},"properties":{"name":"Lubiatowo-Kopalino nuclear power plant","fuel":"nuclear","mw":1250.0,"country":"POL","status":"planned"}},{"type":"Feature","id":300,"geometry":{"type":"Point","coordinates":[14.38,49.18]},"properties":{"name":"Temelin nuclear power plant","fuel":"nuclear","mw":1200.0,"country":"CZE","status":"planned"}},{"type":"Feature","id":301,"geometry":{"type":"Point","coordinates":[14.38,49.18]},"properties":{"name":"Temelin nuclear power plant","fuel":"nuclear","mw":1200.0,"country":"CZE","status":"planned"}},{"type":"Feature","id":302,"geometry":{"type":"Point","coordinates":[5.271,45.797]},"properties":{"name":"Bugey nuclear power plant","fuel":"nuclear","mw":1650.0,"country":"FRA","status":"planned"}},{"type":"Feature","id":303,"geometry":{"type":"Point","coordinates":[5.271,45.797]},"properties":{"name":"Bugey nuclear power plant","fuel":"nuclear","mw":1650.0,"country":"FRA","status":"planned"}},{"type":"Feature","id":304,"geometry":{"type":"Point","coordinates":[2.133,51.014]},"properties":{"name":"Gravelines nuclear power plant","fuel":"nuclear","mw":1650.0,"country":"FRA","status":"planned"}},{"type":"Feature","id":305,"geometry":{"type":"Point","coordinates":[2.133,51.014]},"properties":{"name":"Gravelines nuclear power plant","fuel":"nuclear","mw":1650.0,"country":"FRA","status":"planned"}},{"type":"Feature","id":306,"geometry":{"type":"Point","coordinates":[1.211,49.976]},"properties":{"name":"Penly nuclear power plant","fuel":"nuclear","mw":1650.0,"country":"FRA","status":"planned"}},{"type":"Feature","id":307,"geometry":{"type":"Point","coordinates":[1.211,49.976]},"properties":{"name":"Penly nuclear power plant","fuel":"nuclear","mw":1650.0,"country":"FRA","status":"planned"}},{"type":"Feature","id":308,"geometry":{"type":"Point","coordinates":[3.717,51.431]},"properties":{"name":"Borssele nuclear power plant","fuel":"nuclear","mw":1650.0,"country":"NLD","status":"planned"}},{"type":"Feature","id":309,"geometry":{"type":"Point","coordinates":[3.717,51.431]},"properties":{"name":"Borssele nuclear power plant","fuel":"nuclear","mw":1650.0,"country":"NLD","status":"planned"}},{"type":"Feature","id":320,"geometry":{"type":"Point","coordinates":[18.607,51.147]},"properties":{"name":"P\u0105tn\u00f3w nuclear power plant","fuel":"nuclear","mw":1400.0,"country":"POL","status":"planned"}},{"type":"Feature","id":321,"geometry":{"type":"Point","coordinates":[17.691,48.497]},"properties":{"name":"Bohunice nuclear power plant","fuel":"nuclear","mw":1200.0,"country":"SVK","status":"planned"}},{"type":"Feature","id":325,"geometry":{"type":"Point","coordinates":[18.607,51.147]},"properties":{"name":"P\u0105tn\u00f3w nuclear power plant","fuel":"nuclear","mw":1400.0,"country":"POL","status":"planned"}},{"type":"Feature","id":358,"geometry":{"type":"Point","coordinates":[4.755,44.633]},"properties":{"name":"Cruas nuclear power plant","fuel":"nuclear","mw":956.0,"country":"FRA","status":"operating"}},{"type":"Feature","id":611,"geometry":{"type":"Point","coordinates":[5.418,50.585]},"properties":{"name":"Awirs power station","fuel":"gas","mw":875.0,"country":"BEL","status":"operating"}},{"type":"Feature","id":631,"geometry":{"type":"Point","coordinates":[5.492,50.603]},"properties":{"name":"Seraing power station","fuel":"gas","mw":870.0,"country":"BEL","status":"construction"}},{"type":"Feature","id":635,"geometry":{"type":"Point","coordinates":[5.106,51.059]},"properties":{"name":"T-power Beringen power station","fuel":"gas","mw":900.0,"country":"BEL","status":"planned"}},{"type":"Feature","id":890,"geometry":{"type":"Point","coordinates":[7.621,51.637]},"properties":{"name":"Bergkamen power station","fuel":"gas","mw":880.0,"country":"DEU","status":"planned"}},{"type":"Feature","id":896,"geometry":{"type":"Point","coordinates":[7.237,49.363]},"properties":{"name":"Bexbach-C power station","fuel":"gas","mw":900.0,"country":"DEU","status":"planned"}},{"type":"Feature","id":954,"geometry":{"type":"Point","coordinates":[7.307,52.482]},"properties":{"name":"Emsland power station","fuel":"gas","mw":887.0,"country":"DEU","status":"operating"}},{"type":"Feature","id":1030,"geometry":{"type":"Point","coordinates":[14.458,51.836]},"properties":{"name":"Janschwalde power station","fuel":"gas","mw":900.0,"country":"DEU","status":"planned"}},{"type":"Feature","id":1068,"geometry":{"type":"Point","coordinates":[12.373,51.185]},"properties":{"name":"Lippendorf power station","fuel":"gas","mw":875.0,"country":"DEU","status":"planned"}},{"type":"Feature","id":1088,"geometry":{"type":"Point","coordinates":[10.094,52.315]},"properties":{"name":"Mehrum power station","fuel":"gas","mw":1200.0,"country":"DEU","status":"planned"}},{"type":"Feature","id":1116,"geometry":{"type":"Point","coordinates":[8.303,49.013]},"properties":{"name":"RDK (Karlsruhe) power station","fuel":"gas","mw":850.0,"country":"DEU","status":"planned"}},{"type":"Feature","id":1137,"geometry":{"type":"Point","coordinates":[14.353,51.538]},"properties":{"name":"Schwarze Pumpe power station","fuel":"gas","mw":850.0,"country":"DEU","status":"planned"}},{"type":"Feature","id":1151,"geometry":{"type":"Point","coordinates":[8.953,50.089]},"properties":{"name":"Staudinger power station","fuel":"gas","mw":890.0,"country":"DEU","status":"planned"}},{"type":"Feature","id":1171,"geometry":{"type":"Point","coordinates":[6.686,51.579]},"properties":{"name":"Voerde power station","fuel":"gas","mw":850.0,"country":"DEU","status":"planned"}},{"type":"Feature","id":1211,"geometry":{"type":"Point","coordinates":[25.389,41.118]},"properties":{"name":"Gek-Terna Komotini power station","fuel":"gas","mw":877.0,"country":"GRC","status":"operating"}},{"type":"Feature","id":1357,"geometry":{"type":"Point","coordinates":[12.247,45.431]},"properties":{"name":"Andrea Palladio power station","fuel":"gas","mw":860.0,"country":"ITA","status":"planned"}},{"type":"Feature","id":1441,"geometry":{"type":"Point","coordinates":[13.546,45.798]},"properties":{"name":"Monfalcone power station","fuel":"gas","mw":860.0,"country":"ITA","status":"construction"}},{"type":"Feature","id":1453,"geometry":{"type":"Point","coordinates":[11.137,45.06]},"properties":{"name":"Ostiglia power station","fuel":"gas","mw":890.0,"country":"ITA","status":"construction"}},{"type":"Feature","id":1506,"geometry":{"type":"Point","coordinates":[16.657,38.876]},"properties":{"name":"Simeri Crichi power station","fuel":"gas","mw":885.0,"country":"ITA","status":"operating"}},{"type":"Feature","id":1532,"geometry":{"type":"Point","coordinates":[13.289,45.817]},"properties":{"name":"Torviscosa power station","fuel":"gas","mw":867.0,"country":"ITA","status":"operating"}},{"type":"Feature","id":1539,"geometry":{"type":"Point","coordinates":[8.741,45.521]},"properties":{"name":"Turbigo power station","fuel":"gas","mw":855.0,"country":"ITA","status":"operating"}},{"type":"Feature","id":1570,"geometry":{"type":"Point","coordinates":[5.909,51.154]},"properties":{"name":"Claus power station","fuel":"gas","mw":1304.0,"country":"NLD","status":"operating"}},{"type":"Feature","id":1663,"geometry":{"type":"Point","coordinates":[18.522,50.134]},"properties":{"name":"Rybnik power station","fuel":"gas","mw":900.0,"country":"POL","status":"construction"}},{"type":"Feature","id":1743,"geometry":{"type":"Point","coordinates":[22.826,45.913]},"properties":{"name":"Mintia-Deva power station","fuel":"gas","mw":1700.0,"country":"ROU","status":"construction"}},{"type":"Feature","id":1749,"geometry":{"type":"Point","coordinates":[25.999,44.88]},"properties":{"name":"Petrom Brazi power station","fuel":"gas","mw":860.0,"country":"ROU","status":"operating"}},{"type":"Feature","id":1790,"geometry":{"type":"Point","coordinates":[-7.863,43.441]},"properties":{"name":"As Pontes power station","fuel":"gas","mw":856.0,"country":"ESP","status":"operating"}},{"type":"Feature","id":1802,"geometry":{"type":"Point","coordinates":[2.229,41.418]},"properties":{"name":"Bes\u00f3s 5 power station","fuel":"gas","mw":859.0,"country":"ESP","status":"operating"}},{"type":"Feature","id":1821,"geometry":{"type":"Point","coordinates":[-0.001,39.959]},"properties":{"name":"Castell\u00f3n power station","fuel":"gas","mw":858.0,"country":"ESP","status":"operating"}},{"type":"Feature","id":9076,"geometry":{"type":"Point","coordinates":[8.685,50.118]},"properties":{"name":"LEAG solar farm","fuel":"solar","mw":1000.0,"country":"DEU","status":"planned"}},{"type":"Feature","id":15658,"geometry":{"type":"Point","coordinates":[21.071,38.961]},"properties":{"name":"Amvrakikos Kolpos-Boukka solar farm","fuel":"solar","mw":6650.0,"country":"GRC","status":"planned"}},{"type":"Feature","id":19050,"geometry":{"type":"Point","coordinates":[23.835,38.321]},"properties":{"name":"Panayitsa Pouda Kouvelos solar farm","fuel":"solar","mw":6300.0,"country":"GRC","status":"planned"}},{"type":"Feature","id":29028,"geometry":{"type":"Point","coordinates":[-8.775,37.985]},"properties":{"name":"Fernando Pessoa solar farm","fuel":"solar","mw":1140.0,"country":"PRT","status":"planned"}},{"type":"Feature","id":29139,"geometry":{"type":"Point","coordinates":[-7.303,40.216]},"properties":{"name":"Sophia solar farm","fuel":"solar","mw":867.0,"country":"PRT","status":"planned"}},{"type":"Feature","id":29333,"geometry":{"type":"Point","coordinates":[21.316,46.184]},"properties":{"name":"Dama solar farm","fuel":"solar","mw":1044.0,"country":"ROU","status":"planned"}},{"type":"Feature","id":31831,"geometry":{"type":"Point","coordinates":[-4.608,38.943]},"properties":{"name":"Erasmo solar farm","fuel":"solar","mw":1200.0,"country":"ESP","status":"planned"}},{"type":"Feature","id":32194,"geometry":{"type":"Point","coordinates":[-1.754,38.94]},"properties":{"name":"Hive H2 Albamed solar farm","fuel":"solar","mw":1100.0,"country":"ESP","status":"planned"}},{"type":"Feature","id":32222,"geometry":{"type":"Point","coordinates":[-3.252,41.613]},"properties":{"name":"HyDeal Espa\u00f1a solar farm","fuel":"solar","mw":4800.0,"country":"ESP","status":"planned"}},{"type":"Feature","id":32223,"geometry":{"type":"Point","coordinates":[-3.252,41.613]},"properties":{"name":"HyDeal Espa\u00f1a solar farm","fuel":"solar","mw":4700.0,"country":"ESP","status":"planned"}},{"type":"Feature","id":33773,"geometry":{"type":"Point","coordinates":[-0.889,41.654]},"properties":{"name":"Zaragoza and Teruel solar farm","fuel":"solar","mw":2580.0,"country":"ESP","status":"planned"}},{"type":"Feature","id":34226,"geometry":{"type":"Point","coordinates":[2.797,51.59]},"properties":{"name":"Noordhinder Zuid wind farm","fuel":"wind","mw":1400.0,"country":"BEL","status":"planned"}},{"type":"Feature","id":34382,"geometry":{"type":"Point","coordinates":[14.8,54.99]},"properties":{"name":"Bornholm Energy Island wind farm","fuel":"wind","mw":1500.0,"country":"DNK","status":"planned"}},{"type":"Feature","id":34383,"geometry":{"type":"Point","coordinates":[14.8,54.99]},"properties":{"name":"Bornholm Energy Island wind farm","fuel":"wind","mw":1500.0,"country":"DNK","status":"planned"}},{"type":"Feature","id":34422,"geometry":{"type":"Point","coordinates":[11.027,56.667]},"properties":{"name":"Kattegat 2 Offshore wind farm","fuel":"wind","mw":2500.0,"country":"DNK","status":"planned"}},{"type":"Feature","id":34454,"geometry":{"type":"Point","coordinates":[7.443,55.958]},"properties":{"name":"North Sea Mid wind farm","fuel":"wind","mw":1000.0,"country":"DNK","status":"planned"}},{"type":"Feature","id":34455,"geometry":{"type":"Point","coordinates":[7.436,55.807]},"properties":{"name":"North Sea South wind farm","fuel":"wind","mw":1000.0,"country":"DNK","status":"planned"}},{"type":"Feature","id":34494,"geometry":{"type":"Point","coordinates":[8.014,56.37]},"properties":{"name":"Thor Offshore wind farm","fuel":"wind","mw":1000.0,"country":"DNK","status":"planned"}},{"type":"Feature","id":34497,"geometry":{"type":"Point","coordinates":[8.134,56.612]},"properties":{"name":"Thybo 1 Offshore wind farm","fuel":"wind","mw":4000.0,"country":"DNK","status":"planned"}},{"type":"Feature","id":34498,"geometry":{"type":"Point","coordinates":[7.514,57.165]},"properties":{"name":"Thybo 2 Offshore wind farm","fuel":"wind","mw":1760.0,"country":"DNK","status":"planned"}},{"type":"Feature","id":34520,"geometry":{"type":"Point","coordinates":[6.534,55.88]},"properties":{"name":"Vind\u00d8 Energy Island Offshore wind farm","fuel":"wind","mw":3000.0,"country":"DNK","status":"planned"}},{"type":"Feature","id":34521,"geometry":{"type":"Point","coordinates":[6.534,55.88]},"properties":{"name":"Vind\u00d8 Energy Island Offshore wind farm","fuel":"wind","mw":7000.0,"country":"DNK","status":"planned"}},{"type":"Feature","id":34532,"geometry":{"type":"Point","coordinates":[23.981,57.964]},"properties":{"name":"Gulf Of Riga wind farm","fuel":"wind","mw":1000.0,"country":"EST","status":"planned"}},{"type":"Feature","id":34533,"geometry":{"type":"Point","coordinates":[23.023,57.925]},"properties":{"name":"Liivi 1 wind farm","fuel":"wind","mw":900.0,"country":"EST","status":"planned"}},{"type":"Feature","id":34534,"geometry":{"type":"Point","coordinates":[23.103,57.973]},"properties":{"name":"Liivi 2 wind farm","fuel":"wind","mw":1400.0,"country":"EST","status":"planned"}},{"type":"Feature","id":34544,"geometry":{"type":"Point","coordinates":[20.603,58.237]},"properties":{"name":"Saare 1 wind farm","fuel":"wind","mw":900.0,"country":"EST","status":"planned"}},{"type":"Feature","id":34545,"geometry":{"type":"Point","coordinates":[20.965,58.229]},"properties":{"name":"Saare 2.1 wind farm","fuel":"wind","mw":1560.0,"country":"EST","status":"planned"}},{"type":"Feature","id":34548,"geometry":{"type":"Point","coordinates":[23.771,58.053]},"properties":{"name":"Saare Liivi wind farm","fuel":"wind","mw":1200.0,"country":"EST","status":"planned"}},{"type":"Feature","id":34549,"geometry":{"type":"Point","coordinates":[21.669,58.135]},"properties":{"name":"Saare wind farm","fuel":"wind","mw":1400.0,"country":"EST","status":"planned"}},{"type":"Feature","id":34553,"geometry":{"type":"Point","coordinates":[21.817,58.196]},"properties":{"name":"Tuul wind farm","fuel":"wind","mw":1000.0,"country":"EST","status":"planned"}},{"type":"Feature","id":34567,"geometry":{"type":"Point","coordinates":[23.992,65.038]},"properties":{"name":"Halla wind farm","fuel":"wind","mw":2100.0,"country":"FIN","status":"planned"}},{"type":"Feature","id":34640,"geometry":{"type":"Point","coordinates":[20.798,62.777]},"properties":{"name":"Korsn\u00e4s Offshore wind farm","fuel":"wind","mw":2000.0,"country":"FIN","status":"planned"}},{"type":"Feature","id":34653,"geometry":{"type":"Point","coordinates":[21.927,63.792]},"properties":{"name":"Laine wind farm","fuel":"wind","mw":1950.0,"country":"FIN","status":"planned"}},{"type":"Feature","id":34703,"geometry":{"type":"Point","coordinates":[21.363,61.702]},"properties":{"name":"Navakka offshore wind farm","fuel":"wind","mw":1500.0,"country":"FIN","status":"planned"}},{"type":"Feature","id":34746,"geometry":{"type":"Point","coordinates":[24.298,65.539]},"properties":{"name":"Pooki Offshore wind farm","fuel":"wind","mw":2000.0,"country":"FIN","status":"planned"}},{"type":"Feature","id":34815,"geometry":{"type":"Point","coordinates":[21.231,62.382]},"properties":{"name":"Tyrsky offshore wind farm","fuel":"wind","mw":1400.0,"country":"FIN","status":"planned"}},{"type":"Feature","id":34832,"geometry":{"type":"Point","coordinates":[21.428,61.411]},"properties":{"name":"Wellamo Offshore wind farm","fuel":"wind","mw":2000.0,"country":"FIN","status":"planned"}},{"type":"Feature","id":34936,"geometry":{"type":"Point","coordinates":[-1.665,46.259]},"properties":{"name":"Bay of Biscay offshore wind farm","fuel":"wind","mw":1200.0,"country":"FRA","status":"planned"}},{"type":"Feature","id":35086,"geometry":{"type":"Point","coordinates":[-0.999,49.68]},"properties":{"name":"Centre Manche 1 wind farm","fuel":"wind","mw":1000.0,"country":"FRA","status":"planned"}},{"type":"Feature","id":35087,"geometry":{"type":"Point","coordinates":[-0.383,49.433]},"properties":{"name":"Centre Manche 2 offshore wind farm","fuel":"wind","mw":1500.0,"country":"FRA","status":"planned"}},{"type":"Feature","id":35216,"geometry":{"type":"Point","coordinates":[-1.264,50.018]},"properties":{"name":"Cotentin wind farm","fuel":"wind","mw":1000.0,"country":"FRA","status":"planned"}},{"type":"Feature","id":35299,"geometry":{"type":"Point","coordinates":[1.228,50.53]},"properties":{"name":"East Channel - North Sea offshore wind farm","fuel":"wind","mw":2000.0,"country":"FRA","status":"planned"}},{"type":"Feature","id":35332,"geometry":{"type":"Point","coordinates":[-2.25,46.446]},"properties":{"name":"Eolink Gw Scale floating wind farm","fuel":"wind","mw":1000.0,"country":"FRA","status":"planned"}},{"type":"Feature","id":35965,"geometry":{"type":"Point","coordinates":[-2.502,48.999]},"properties":{"name":"North Atlantic Western Floating Offshore wind farm","fuel":"wind","mw":2000.0,"country":"FRA","status":"planned"}},{"type":"Feature","id":35976,"geometry":{"type":"Point","coordinates":[-1.434,45.795]},"properties":{"name":"Oleron wind farm","fuel":"wind","mw":1000.0,"country":"FRA","status":"planned"}},{"type":"Feature","id":35977,"geometry":{"type":"Point","coordinates":[-1.434,45.795]},"properties":{"name":"Oleron wind farm","fuel":"wind","mw":1000.0,"country":"FRA","status":"planned"}},{"type":"Feature","id":37187,"geometry":{"type":"Point","coordinates":[12.441,54.557]},"properties":{"name":"Gennaker wind farm","fuel":"wind","mw":945.0,"country":"DEU","status":"planned"}},{"type":"Feature","id":37386,"geometry":{"type":"Point","coordinates":[6.186,54.365]},"properties":{"name":"He Dreiht wind farm","fuel":"wind","mw":960.0,"country":"DEU","status":"construction"}},{"type":"Feature","id":38107,"geometry":{"type":"Point","coordinates":[6.719,53.645]},"properties":{"name":"Nordlicht wind farm","fuel":"wind","mw":980.0,"country":"DEU","status":"planned"}},{"type":"Feature","id":39138,"geometry":{"type":"Point","coordinates":[25.474,36.782]},"properties":{"name":"Cyclades Islands wind farm","fuel":"wind","mw":1047.0,"country":"GRC","status":"planned"}},{"type":"Feature","id":39679,"geometry":{"type":"Point","coordinates":[25.611,35.303]},"properties":{"name":"Southern Rhodes wind farm","fuel":"wind","mw":1339.8,"country":"GRC","status":"planned"}},{"type":"Feature","id":39867,"geometry":{"type":"Point","coordinates":[-8.286,54.573]},"properties":{"name":"Arranmore Floating wind farm","fuel":"wind","mw":1000.0,"country":"IRL","status":"planned"}},{"type":"Feature","id":39880,"geometry":{"type":"Point","coordinates":[-5.921,53.085]},"properties":{"name":"Banba Offshore wind farm","fuel":"wind","mw":1000.0,"country":"IRL","status":"planned"}},{"type":"Feature","id":39890,"geometry":{"type":"Point","coordinates":[-6.49,51.83]},"properties":{"name":"Blackwater Floating wind farm","fuel":"wind","mw":1500.0,"country":"IRL","status":"planned"}},{"type":"Feature","id":39915,"geometry":{"type":"Point","coordinates":[-7.253,51.505]},"properties":{"name":"Celtic Offshore Renewable Energy Floating wind farm","fuel":"wind","mw":1680.0,"country":"IRL","status":"planned"}},{"type":"Feature","id":39918,"geometry":{"type":"Point","coordinates":[-10.27,52.71]},"properties":{"name":"Clarus offshore wind farm","fuel":"wind","mw":1000.0,"country":"IRL","status":"planned"}},{"type":"Feature","id":39924,"geometry":{"type":"Point","coordinates":[-5.78,53.1]},"properties":{"name":"Codling wind farm","fuel":"wind","mw":1300.0,"country":"IRL","status":"planned"}},{"type":"Feature","id":39939,"geometry":{"type":"Point","coordinates":[-6.557,51.726]},"properties":{"name":"Danu offshore wind farm","fuel":"wind","mw":1000.0,"country":"IRL","status":"planned"}},{"type":"Feature","id":39953,"geometry":{"type":"Point","coordinates":[-6.273,52.328]},"properties":{"name":"East Celtic Offshore wind farm","fuel":"wind","mw":900.0,"country":"IRL","status":"planned"}},{"type":"Feature","id":39955,"geometry":{"type":"Point","coordinates":[-8.08,51.36]},"properties":{"name":"Emerald floating wind farm","fuel":"wind","mw":1000.0,"country":"IRL","status":"planned"}},{"type":"Feature","id":39959,"geometry":{"type":"Point","coordinates":[-8.998,51.432]},"properties":{"name":"Floating Cork Offshore Wind","fuel":"wind","mw":1000.0,"country":"IRL","status":"planned"}},{"type":"Feature","id":39977,"geometry":{"type":"Point","coordinates":[-5.74,53.26]},"properties":{"name":"Greystones wind farm","fuel":"wind","mw":1200.0,"country":"IRL","status":"planned"}},{"type":"Feature","id":39982,"geometry":{"type":"Point","coordinates":[-10.409,52.34]},"properties":{"name":"Ilen Array Offshore wind farm","fuel":"wind","mw":1500.0,"country":"IRL","status":"planned"}},{"type":"Feature","id":39985,"geometry":{"type":"Point","coordinates":[-7.58,51.601]},"properties":{"name":"Inis Ealga Offshore wind farm","fuel":"wind","mw":1000.0,"country":"IRL","status":"planned"}},{"type":"Feature","id":39987,"geometry":{"type":"Point","coordinates":[-10.037,52.59]},"properties":{"name":"Kerry Offshore wind farm","fuel":"wind","mw":1000.0,"country":"IRL","status":"planned"}},{"type":"Feature","id":39995,"geometry":{"type":"Point","coordinates":[-8.278,51.717]},"properties":{"name":"Kinsale Offshore wind farm","fuel":"wind","mw":1000.0,"country":"IRL","status":"planned"}},{"type":"Feature","id":40007,"geometry":{"type":"Point","coordinates":[-5.465,52.484]},"properties":{"name":"Latitude 52 Offshore wind farm","fuel":"wind","mw":1000.0,"country":"IRL","status":"planned"}},{"type":"Feature","id":40024,"geometry":{"type":"Point","coordinates":[-8.271,54.587]},"properties":{"name":"Malin Head Offshore wind farm","fuel":"wind","mw":1000.0,"country":"IRL","status":"planned"}},{"type":"Feature","id":40035,"geometry":{"type":"Point","coordinates":[-10.345,52.334]},"properties":{"name":"Moneypoint Offshore wind farm","fuel":"wind","mw":1100.0,"country":"IRL","status":"planned"}},{"type":"Feature","id":40040,"geometry":{"type":"Point","coordinates":[-6.911,51.573]},"properties":{"name":"Muirgen Offshore wind farm","fuel":"wind","mw":1000.0,"country":"IRL","status":"planned"}},{"type":"Feature","id":40041,"geometry":{"type":"Point","coordinates":[-7.255,51.52]},"properties":{"name":"North Celtic Sea Offshore wind farm","fuel":"wind","mw":900.0,"country":"IRL","status":"planned"}},{"type":"Feature","id":40054,"geometry":{"type":"Point","coordinates":[-11.061,52.461]},"properties":{"name":"Rian Offshore Array wind farm","fuel":"wind","mw":2500.0,"country":"IRL","status":"planned"}},{"type":"Feature","id":40060,"geometry":{"type":"Point","coordinates":[-5.88,53.75]},"properties":{"name":"Setanta offshore wind farm","fuel":"wind","mw":1000.0,"country":"IRL","status":"planned"}},{"type":"Feature","id":40062,"geometry":{"type":"Point","coordinates":[-6.07,52.34]},"properties":{"name":"Shelmalere wind farm","fuel":"wind","mw":1000.0,"country":"IRL","status":"planned"}},{"type":"Feature","id":40071,"geometry":{"type":"Point","coordinates":[-5.752,53.503]},"properties":{"name":"South Irish Sea Offshore wind farm","fuel":"wind","mw":1330.0,"country":"IRL","status":"planned"}},{"type":"Feature","id":40073,"geometry":{"type":"Point","coordinates":[-5.495,53.142]},"properties":{"name":"Sunrise Offshore wind farm","fuel":"wind","mw":2000.0,"country":"IRL","status":"planned"}},{"type":"Feature","id":40075,"geometry":{"type":"Point","coordinates":[-10.148,52.514]},"properties":{"name":"Tarbert Offshore wind farm","fuel":"wind","mw":1000.0,"country":"IRL","status":"planned"}},{"type":"Feature","id":40079,"geometry":{"type":"Point","coordinates":[-9.971,52.558]},"properties":{"name":"Tralee Offshore wind farm","fuel":"wind","mw":2500.0,"country":"IRL","status":"planned"}},{"type":"Feature","id":40089,"geometry":{"type":"Point","coordinates":[-10.747,51.824]},"properties":{"name":"Valentia Island Floating wind farm","fuel":"wind","mw":920.0,"country":"IRL","status":"planned"}},{"type":"Feature","id":40095,"geometry":{"type":"Point","coordinates":[-9.866,52.845]},"properties":{"name":"Western Star Floating Offshore wind farm","fuel":"wind","mw":1350.0,"country":"IRL","status":"planned"}},{"type":"Feature","id":40101,"geometry":{"type":"Point","coordinates":[14.381,42.54]},"properties":{"name":"Abruzzo 1 floating wind farm","fuel":"wind","mw":1700.0,"country":"ITA","status":"planned"}},{"type":"Feature","id":40122,"geometry":{"type":"Point","coordinates":[16.451,42.065]},"properties":{"name":"Apeneste wind farm","fuel":"wind","mw":915.0,"country":"ITA","status":"planned"}},{"type":"Feature","id":40135,"geometry":{"type":"Point","coordinates":[17.004,41.728]},"properties":{"name":"Barium Bay floating wind farm","fuel":"wind","mw":1100.0,"country":"ITA","status":"planned"}},{"type":"Feature","id":40146,"geometry":{"type":"Point","coordinates":[14.82,36.489]},"properties":{"name":"Bluwind Pozzallo offshore wind farm","fuel":"wind","mw":975.0,"country":"ITA","status":"planned"}},{"type":"Feature","id":40154,"geometry":{"type":"Point","coordinates":[18.369,40.782]},"properties":{"name":"Brindisi 2.0 wind farm","fuel":"wind","mw":1422.0,"country":"ITA","status":"planned"}},{"type":"Feature","id":40219,"geometry":{"type":"Point","coordinates":[12.229,37.252]},"properties":{"name":"Elymo wind farm","fuel":"wind","mw":1020.0,"country":"ITA","status":"planned"}},{"type":"Feature","id":40259,"geometry":{"type":"Point","coordinates":[18.026,39.637]},"properties":{"name":"Hexicon Puglia 1 floating offshore wind farm","fuel":"wind","mw":1950.0,"country":"ITA","status":"planned"}},{"type":"Feature","id":40260,"geometry":{"type":"Point","coordinates":[18.451,39.62]},"properties":{"name":"Hexicon Puglia 2 floating offshore wind farm","fuel":"wind","mw":1150.0,"country":"ITA","status":"planned"}},{"type":"Feature","id":40266,"geometry":{"type":"Point","coordinates":[18.2,40.581]},"properties":{"name":"Kailia Energia wind farm","fuel":"wind","mw":1170.0,"country":"ITA","status":"planned"}},{"type":"Feature","id":40267,"geometry":{"type":"Point","coordinates":[17.537,38.749]},"properties":{"name":"Krimisa Offshore wind farm","fuel":"wind","mw":1116.0,"country":"ITA","status":"planned"}},{"type":"Feature","id":40303,"geometry":{"type":"Point","coordinates":[11.517,37.961]},"properties":{"name":"Med Wind wind farm","fuel":"wind","mw":2793.0,"country":"ITA","status":"planned"}},{"type":"Feature","id":40309,"geometry":{"type":"Point","coordinates":[18.795,39.754]},"properties":{"name":"Messapia wind farm","fuel":"wind","mw":1314.0,"country":"ITA","status":"planned"}},{"type":"Feature","id":40346,"geometry":{"type":"Point","coordinates":[16.459,41.926]},"properties":{"name":"Nereus Offshore Floating wind farm","fuel":"wind","mw":1800.0,"country":"ITA","status":"planned"}},{"type":"Feature","id":40354,"geometry":{"type":"Point","coordinates":[18.439,40.399]},"properties":{"name":"Odra Energia wind farm","fuel":"wind","mw":1300.0,"country":"ITA","status":"planned"}},{"type":"Feature","id":40386,"geometry":{"type":"Point","coordinates":[10.245,41.039]},"properties":{"name":"Poseidon wind farm","fuel":"wind","mw":1008.0,"country":"ITA","status":"planned"}},{"type":"Feature","id":40389,"geometry":{"type":"Point","coordinates":[16.377,41.447]},"properties":{"name":"Puglia A wind farm","fuel":"wind","mw":1005.0,"country":"ITA","status":"planned"}},{"type":"Feature","id":40390,"geometry":{"type":"Point","coordinates":[16.537,41.282]},"properties":{"name":"Puglia B wind farm","fuel":"wind","mw":930.0,"country":"ITA","status":"planned"}},{"type":"Feature","id":40450,"geometry":{"type":"Point","coordinates":[9.84,41.273]},"properties":{"name":"Sardinia North East floating wind farm","fuel":"wind","mw":1950.0,"country":"ITA","status":"planned"}},{"type":"Feature","id":40451,"geometry":{"type":"Point","coordinates":[7.833,40.557]},"properties":{"name":"Sardinia North West wind farm","fuel":"wind","mw":1350.0,"country":"ITA","status":"planned"}},{"type":"Feature","id":40452,"geometry":{"type":"Point","coordinates":[8.642,38.767]},"properties":{"name":"Sardinia South 1 wind farm","fuel":"wind","mw":1600.0,"country":"ITA","status":"planned"}},{"type":"Feature","id":40472,"geometry":{"type":"Point","coordinates":[13.148,36.063]},"properties":{"name":"Sicilia A wind farm","fuel":"wind","mw":1020.0,"country":"ITA","status":"planned"}},{"type":"Feature","id":40473,"geometry":{"type":"Point","coordinates":[13.49,35.956]},"properties":{"name":"Sicilia B wind farm","fuel":"wind","mw":1005.0,"country":"ITA","status":"planned"}},{"type":"Feature","id":40474,"geometry":{"type":"Point","coordinates":[13.351,37.115]},"properties":{"name":"Sicily South wind farm","fuel":"wind","mw":1200.0,"country":"ITA","status":"planned"}},{"type":"Feature","id":40485,"geometry":{"type":"Point","coordinates":[10.108,40.797]},"properties":{"name":"Tibula Energia floating offshore wind farm","fuel":"wind","mw":975.0,"country":"ITA","status":"planned"}},{"type":"Feature","id":40523,"geometry":{"type":"Point","coordinates":[10.061,41.14]},"properties":{"name":"Zefiro Vento offshore wind farm","fuel":"wind","mw":3150.0,"country":"ITA","status":"planned"}},{"type":"Feature","id":40528,"geometry":{"type":"Point","coordinates":[21.059,57.141]},"properties":{"name":"Elwind wind farm (Latvia)","fuel":"wind","mw":1000.0,"country":"LVA","status":"planned"}},{"type":"Feature","id":40638,"geometry":{"type":"Point","coordinates":[4.113,54.247]},"properties":{"name":"Doordewind offshore wind farm","fuel":"wind","mw":2000.0,"country":"NLD","status":"planned"}},{"type":"Feature","id":40639,"geometry":{"type":"Point","coordinates":[4.113,54.247]},"properties":{"name":"Doordewind offshore wind farm","fuel":"wind","mw":2000.0,"country":"NLD","status":"planned"}},{"type":"Feature","id":40685,"geometry":{"type":"Point","coordinates":[3.569,52.746]},"properties":{"name":"IJmuiden Ver Alpha Offshore wind farm","fuel":"wind","mw":2000.0,"country":"NLD","status":"planned"}},{"type":"Feature","id":40686,"geometry":{"type":"Point","coordinates":[3.583,52.905]},"properties":{"name":"IJmuiden Ver Beta Offshore wind farm","fuel":"wind","mw":2000.0,"country":"NLD","status":"planned"}},{"type":"Feature","id":40687,"geometry":{"type":"Point","coordinates":[4.215,53.535]},"properties":{"name":"IJmuiden Ver Gamma Offshore wind farm","fuel":"wind","mw":1000.0,"country":"NLD","status":"planned"}},{"type":"Feature","id":40688,"geometry":{"type":"Point","coordinates":[4.215,53.535]},"properties":{"name":"IJmuiden Ver Gamma Offshore wind farm","fuel":"wind","mw":1000.0,"country":"NLD","status":"planned"}},{"type":"Feature","id":40715,"geometry":{"type":"Point","coordinates":[3.777,53.396]},"properties":{"name":"Nederwiek I offshore wind farm","fuel":"wind","mw":1000.0,"country":"NLD","status":"planned"}},{"type":"Feature","id":40716,"geometry":{"type":"Point","coordinates":[3.777,53.396]},"properties":{"name":"Nederwiek I offshore wind farm","fuel":"wind","mw":1000.0,"country":"NLD","status":"planned"}},{"type":"Feature","id":40717,"geometry":{"type":"Point","coordinates":[3.586,53.391]},"properties":{"name":"Nederwiek II Offshore wind farm","fuel":"wind","mw":2000.0,"country":"NLD","status":"planned"}},{"type":"Feature","id":40718,"geometry":{"type":"Point","coordinates":[4.095,53.172]},"properties":{"name":"Nederwiek III Offshore wind farm","fuel":"wind","mw":2000.0,"country":"NLD","status":"planned"}},{"type":"Feature","id":40802,"geometry":{"type":"Point","coordinates":[17.65,55.05]},"properties":{"name":"Baltic Power Offshore wind farm","fuel":"wind","mw":1200.0,"country":"POL","status":"construction"}},{"type":"Feature","id":40803,"geometry":{"type":"Point","coordinates":[17.53,55.56]},"properties":{"name":"Baltica I Offshore wind farm","fuel":"wind","mw":896.0,"country":"POL","status":"planned"}},{"type":"Feature","id":40804,"geometry":{"type":"Point","coordinates":[17.1,55.07]},"properties":{"name":"Baltica II Offshore wind farm","fuel":"wind","mw":1500.0,"country":"POL","status":"planned"}},{"type":"Feature","id":40805,"geometry":{"type":"Point","coordinates":[17.45,55.06]},"properties":{"name":"Baltica III Offshore wind farm","fuel":"wind","mw":1000.0,"country":"POL","status":"planned"}},{"type":"Feature","id":40806,"geometry":{"type":"Point","coordinates":[16.074,54.869]},"properties":{"name":"Baltica IV Offshore wind farm","fuel":"wind","mw":990.0,"country":"POL","status":"planned"}},{"type":"Feature","id":40807,"geometry":{"type":"Point","coordinates":[16.327,55.008]},"properties":{"name":"Baltica IX Offshore wind farm","fuel":"wind","mw":975.0,"country":"POL","status":"planned"}},{"type":"Feature","id":40809,"geometry":{"type":"Point","coordinates":[17.26,55.52]},"properties":{"name":"Ba\u0142tyk 1 Offshore wind farm","fuel":"wind","mw":1560.0,"country":"POL","status":"planned"}},{"type":"Feature","id":40855,"geometry":{"type":"Point","coordinates":[15.492,54.364]},"properties":{"name":"Energa MFW 1 Offshore wind farm","fuel":"wind","mw":900.0,"country":"POL","status":"planned"}},{"type":"Feature","id":40860,"geometry":{"type":"Point","coordinates":[17.135,55.347]},"properties":{"name":"Freeboard I Offshore wind farm","fuel":"wind","mw":1500.0,"country":"POL","status":"planned"}},{"type":"Feature","id":40980,"geometry":{"type":"Point","coordinates":[15.437,54.496]},"properties":{"name":"Orlen Neptun III Offshore wind farm","fuel":"wind","mw":1200.0,"country":"POL","status":"planned"}},{"type":"Feature","id":40981,"geometry":{"type":"Point","coordinates":[15.594,54.437]},"properties":{"name":"Orlen Neptun IV Offshore wind farm","fuel":"wind","mw":1200.0,"country":"POL","status":"planned"}},{"type":"Feature","id":40982,"geometry":{"type":"Point","coordinates":[17.667,55.03]},"properties":{"name":"Orlen Neptun VIII Offshore wind farm","fuel":"wind","mw":1000.0,"country":"POL","status":"planned"}},{"type":"Feature","id":41032,"geometry":{"type":"Point","coordinates":[16.431,55.036]},"properties":{"name":"Sharco Duo Offshore wind farm","fuel":"wind","mw":1800.0,"country":"POL","status":"planned"}},{"type":"Feature","id":41139,"geometry":{"type":"Point","coordinates":[-8.871,40.146]},"properties":{"name":"Botafogo Offshore Floating wind farm","fuel":"wind","mw":990.0,"country":"PRT","status":"planned"}},{"type":"Feature","id":41164,"geometry":{"type":"Point","coordinates":[-9.192,41.503]},"properties":{"name":"Creoula Offshore Floating wind farm","fuel":"wind","mw":1440.0,"country":"PRT","status":"planned"}},{"type":"Feature","id":41209,"geometry":{"type":"Point","coordinates":[-8.871,40.146]},"properties":{"name":"Nortada Offshore Floating wind farm","fuel":"wind","mw":2000.0,"country":"PRT","status":"planned"}},{"type":"Feature","id":41486,"geometry":{"type":"Point","coordinates":[-6.944,37.259]},"properties":{"name":"Andalusian Green Hydrogen Valley wind farm","fuel":"wind","mw":1500.0,"country":"ESP","status":"planned"}},{"type":"Feature","id":41712,"geometry":{"type":"Point","coordinates":[1.122,40.381]},"properties":{"name":"Catwind Floating wind farm","fuel":"wind","mw":1200.0,"country":"ESP","status":"planned"}},{"type":"Feature","id":42057,"geometry":{"type":"Point","coordinates":[-8.557,43.469]},"properties":{"name":"Galwind Floating wind farm","fuel":"wind","mw":1000.0,"country":"ESP","status":"planned"}},{"type":"Feature","id":42556,"geometry":{"type":"Point","coordinates":[-5.278,36.217]},"properties":{"name":"Nao Victoria Floating Offshore wind farm","fuel":"wind","mw":990.0,"country":"ESP","status":"planned"}},{"type":"Feature","id":42572,"geometry":{"type":"Point","coordinates":[3.996,41.894]},"properties":{"name":"Norfeu Floating Offshore wind farm","fuel":"wind","mw":1080.0,"country":"ESP","status":"planned"}},{"type":"Feature","id":43172,"geometry":{"type":"Point","coordinates":[21.492,64.214]},"properties":{"name":"Aurum Offshore wind farm","fuel":"wind","mw":2200.0,"country":"SWE","status":"planned"}},{"type":"Feature","id":43174,"geometry":{"type":"Point","coordinates":[16.525,55.555]},"properties":{"name":"Baltic Edge Floating Offshore wind farm","fuel":"wind","mw":1000.0,"country":"SWE","status":"planned"}},{"type":"Feature","id":43175,"geometry":{"type":"Point","coordinates":[18.338,58.286]},"properties":{"name":"Baltic Offshore Alpha wind farm","fuel":"wind","mw":1900.0,"country":"SWE","status":"planned"}},{"type":"Feature","id":43176,"geometry":{"type":"Point","coordinates":[19.954,58.57]},"properties":{"name":"Baltic Offshore Epsilon wind farm","fuel":"wind","mw":2740.0,"country":"SWE","status":"planned"}},{"type":"Feature","id":43177,"geometry":{"type":"Point","coordinates":[11.176,57.868]},"properties":{"name":"Baltic Offshore Gamma wind farm","fuel":"wind","mw":2000.0,"country":"SWE","status":"planned"}},{"type":"Feature","id":43178,"geometry":{"type":"Point","coordinates":[21.286,63.997]},"properties":{"name":"Baltic Offshore Kappa wind farm","fuel":"wind","mw":1240.0,"country":"SWE","status":"planned"}},{"type":"Feature","id":43179,"geometry":{"type":"Point","coordinates":[17.599,61.613]},"properties":{"name":"Baltic Offshore Lambda wind farm","fuel":"wind","mw":3440.0,"country":"SWE","status":"planned"}},{"type":"Feature","id":43180,"geometry":{"type":"Point","coordinates":[22.063,65.143]},"properties":{"name":"Baltic Offshore Omega wind farm","fuel":"wind","mw":1400.0,"country":"SWE","status":"planned"}},{"type":"Feature","id":43181,"geometry":{"type":"Point","coordinates":[17.858,62.32]},"properties":{"name":"Baltic Offshore Sigma wind farm","fuel":"wind","mw":3000.0,"country":"SWE","status":"planned"}},{"type":"Feature","id":43195,"geometry":{"type":"Point","coordinates":[14.594,55.958]},"properties":{"name":"Blekinge Offshore wind farm","fuel":"wind","mw":1000.0,"country":"SWE","status":"planned"}},{"type":"Feature","id":43202,"geometry":{"type":"Point","coordinates":[21.796,65.136]},"properties":{"name":"Bores Krona offshore wind farm","fuel":"wind","mw":3100.0,"country":"SWE","status":"planned"}},{"type":"Feature","id":43223,"geometry":{"type":"Point","coordinates":[18.864,61.846]},"properties":{"name":"Eystrasalt wind farm","fuel":"wind","mw":3600.0,"country":"SWE","status":"planned"}},{"type":"Feature","id":43229,"geometry":{"type":"Point","coordinates":[12.097,56.722]},"properties":{"name":"Falkenberg-Halmstad Offshore wind farm","fuel":"wind","mw":1210.0,"country":"SWE","status":"planned"}},{"type":"Feature","id":43245,"geometry":{"type":"Point","coordinates":[18.605,61.129]},"properties":{"name":"Fyrskeppet wind farm","fuel":"wind","mw":2800.0,"country":"SWE","status":"planned"}},{"type":"Feature","id":43251,"geometry":{"type":"Point","coordinates":[18.005,60.858]},"properties":{"name":"G\u00e4vle \u00d6st offshore wind farm","fuel":"wind","mw":5500.0,"country":"SWE","status":"planned"}},{"type":"Feature","id":43252,"geometry":{"type":"Point","coordinates":[17.79,60.762]},"properties":{"name":"G\u00e4vle V\u00e4st offshore wind farm","fuel":"wind","mw":4000.0,"country":"SWE","status":"planned"}},{"type":"Feature","id":43260,"geometry":{"type":"Point","coordinates":[17.697,61.526]},"properties":{"name":"Gretas Klackar Offshore wind farm","fuel":"wind","mw":1800.0,"country":"SWE","status":"planned"}},{"type":"Feature","id":43277,"geometry":{"type":"Point","coordinates":[19.532,56.864]},"properties":{"name":"Herkules Floating Offshore wind farm","fuel":"wind","mw":2750.0,"country":"SWE","status":"planned"}},{"type":"Feature","id":43306,"geometry":{"type":"Point","coordinates":[17.7,58.161]},"properties":{"name":"Kapheira Offshore wind farm","fuel":"wind","mw":2000.0,"country":"SWE","status":"planned"}},{"type":"Feature","id":43310,"geometry":{"type":"Point","coordinates":[12.514,56.656]},"properties":{"name":"Kattegat (\u00d8rsted) Offshore wind farm","fuel":"wind","mw":1500.0,"country":"SWE","status":"planned"}},{"type":"Feature","id":43311,"geometry":{"type":"Point","coordinates":[11.974,56.83]},"properties":{"name":"Kattegat Syd wind farm","fuel":"wind","mw":1200.0,"country":"SWE","status":"planned"}},{"type":"Feature","id":43351,"geometry":{"type":"Point","coordinates":[10.561,58.199]},"properties":{"name":"Mareld wind farm","fuel":"wind","mw":2500.0,"country":"SWE","status":"planned"}},{"type":"Feature","id":43373,"geometry":{"type":"Point","coordinates":[17.869,60.974]},"properties":{"name":"Najaderna Offshore wind farm","fuel":"wind","mw":1700.0,"country":"SWE","status":"planned"}},{"type":"Feature","id":43391,"geometry":{"type":"Point","coordinates":[18.56,61.344]},"properties":{"name":"Olof Sk\u00f6tkonung Offshore wind farm","fuel":"wind","mw":1750.0,"country":"SWE","status":"planned"}},{"type":"Feature","id":43402,"geometry":{"type":"Point","coordinates":[23.225,65.412]},"properties":{"name":"Polargrund Offshore wind farm","fuel":"wind","mw":3000.0,"country":"SWE","status":"planned"}},{"type":"Feature","id":43403,"geometry":{"type":"Point","coordinates":[10.869,57.994]},"properties":{"name":"Poseidon Offshore wind farm","fuel":"wind","mw":1400.0,"country":"SWE","status":"planned"}},{"type":"Feature","id":43471,"geometry":{"type":"Point","coordinates":[20.648,67.152]},"properties":{"name":"Storlandet wind farm","fuel":"wind","mw":2600.0,"country":"SWE","status":"planned"}},{"type":"Feature","id":43480,"geometry":{"type":"Point","coordinates":[17.795,62.318]},"properties":{"name":"Sundsvall Floating Offshore wind farm","fuel":"wind","mw":1200.0,"country":"SWE","status":"planned"}},{"type":"Feature","id":43485,"geometry":{"type":"Point","coordinates":[17.964,61.529]},"properties":{"name":"Sylen offshore wind farm","fuel":"wind","mw":8675.0,"country":"SWE","status":"planned"}},{"type":"Feature","id":43511,"geometry":{"type":"Point","coordinates":[11.168,57.794]},"properties":{"name":"V\u00e4stvind wind farm","fuel":"wind","mw":1000.0,"country":"SWE","status":"planned"}},{"type":"Feature","id":43514,"geometry":{"type":"Point","coordinates":[10.511,58.636]},"properties":{"name":"Vidar wind farm","fuel":"wind","mw":2000.0,"country":"SWE","status":"planned"}},{"type":"Feature","id":44054,"geometry":{"type":"Point","coordinates":[9.792,47.148]},"properties":{"name":"Lunersee II hydroelectric plant","fuel":"hydro","mw":1000.0,"country":"AUT","status":"planned"}},{"type":"Feature","id":44108,"geometry":{"type":"Point","coordinates":[23.871,42.162]},"properties":{"name":"Chaira hydroelectric plant","fuel":"hydro","mw":864.0,"country":"BGR","status":"operating"}},{"type":"Feature","id":44237,"geometry":{"type":"Point","coordinates":[6.051,45.145]},"properties":{"name":"Grand Maison hydroelectric plant","fuel":"hydro","mw":1713.0,"country":"FRA","status":"operating"}},{"type":"Feature","id":44274,"geometry":{"type":"Point","coordinates":[2.643,44.737]},"properties":{"name":"Mont\u00e9zic hydroelectric plant","fuel":"hydro","mw":910.0,"country":"FRA","status":"operating"}},{"type":"Feature","id":44348,"geometry":{"type":"Point","coordinates":[11.008,50.518]},"properties":{"name":"Goldisthal hydroelectric plant","fuel":"hydro","mw":1060.0,"country":"DEU","status":"operating"}},{"type":"Feature","id":44357,"geometry":{"type":"Point","coordinates":[12.88,50.518]},"properties":{"name":"Markersbach hydroelectric plant","fuel":"hydro","mw":1046.0,"country":"DEU","status":"operating"}},{"type":"Feature","id":44374,"geometry":{"type":"Point","coordinates":[7.926,47.652]},"properties":{"name":"Wehr hydroelectric plant","fuel":"hydro","mw":910.0,"country":"DEU","status":"operating"}},{"type":"Feature","id":44453,"geometry":{"type":"Point","coordinates":[10.344,46.172]},"properties":{"name":"Edolo hydroelectric plant","fuel":"hydro","mw":950.0,"country":"ITA","status":"operating"}},{"type":"Feature","id":44454,"geometry":{"type":"Point","coordinates":[7.391,44.23]},"properties":{"name":"Entracque Chro hydroelectric plant","fuel":"hydro","mw":1064.0,"country":"ITA","status":"operating"}},{"type":"Feature","id":44498,"geometry":{"type":"Point","coordinates":[14.093,41.385]},"properties":{"name":"Presenzano hydroelectric plant","fuel":"hydro","mw":985.0,"country":"ITA","status":"operating"}},{"type":"Feature","id":44504,"geometry":{"type":"Point","coordinates":[8.732,46.069]},"properties":{"name":"Roncovalgrande hydroelectric plant","fuel":"hydro","mw":1000.0,"country":"ITA","status":"operating"}},{"type":"Feature","id":44548,"geometry":{"type":"Point","coordinates":[25.24,56.583]},"properties":{"name":"Plavinas hydroelectric plant","fuel":"hydro","mw":894.0,"country":"LVA","status":"operating"}},{"type":"Feature","id":44552,"geometry":{"type":"Point","coordinates":[24.247,54.799]},"properties":{"name":"Kruonis hydroelectric plant","fuel":"hydro","mw":900.0,"country":"LTU","status":"operating"}},{"type":"Feature","id":44553,"geometry":{"type":"Point","coordinates":[6.183,49.94]},"properties":{"name":"Vianden hydroelectric plant","fuel":"hydro","mw":1294.0,"country":"LUX","status":"operating"}},{"type":"Feature","id":44585,"geometry":{"type":"Point","coordinates":[-7.727,41.494]},"properties":{"name":"Gouv\u00e3es hydroelectric plant","fuel":"hydro","mw":880.0,"country":"PRT","status":"operating"}},{"type":"Feature","id":44586,"geometry":{"type":"Point","coordinates":[-7.69,41.55]},"properties":{"name":"Minh\u00e9u hydroelectric plant","fuel":"hydro","mw":1320.0,"country":"PRT","status":"planned"}},{"type":"Feature","id":44622,"geometry":{"type":"Point","coordinates":[22.528,44.67]},"properties":{"name":"Iron Gate I hydroelectric plant","fuel":"hydro","mw":2306.0,"country":"ROU","status":"operating"}},{"type":"Feature","id":44645,"geometry":{"type":"Point","coordinates":[23.269,46.714]},"properties":{"name":"Tarnita-Lapustesti hydroelectric plant","fuel":"hydro","mw":1000.0,"country":"ROU","status":"planned"}},{"type":"Feature","id":44684,"geometry":{"type":"Point","coordinates":[-4.0,43.096]},"properties":{"name":"Aguayo II hydroelectric plant","fuel":"hydro","mw":1000.0,"country":"ESP","status":"planned"}},{"type":"Feature","id":44718,"geometry":{"type":"Point","coordinates":[-7.204,42.183]},"properties":{"name":"Conso II hydroelectric plant","fuel":"hydro","mw":1800.0,"country":"ESP","status":"planned"}},{"type":"Feature","id":44722,"geometry":{"type":"Point","coordinates":[-0.931,39.244]},"properties":{"name":"Cortes La Muela II hydroelectric plant","fuel":"hydro","mw":882.0,"country":"ESP","status":"operating"}},{"type":"Feature","id":44738,"geometry":{"type":"Point","coordinates":[-6.885,39.729]},"properties":{"name":"Jos\u00e9 Mar\u00eda Oriol hydroelectric plant","fuel":"hydro","mw":957.0,"country":"ESP","status":"operating"}},{"type":"Feature","id":45064,"geometry":{"type":"Point","coordinates":[14.575,51.42]},"properties":{"name":"Boxberg power station","fuel":"coal","mw":907.0,"country":"DEU","status":"operating"}},{"type":"Feature","id":45066,"geometry":{"type":"Point","coordinates":[7.346,51.632]},"properties":{"name":"Datteln power station","fuel":"coal","mw":1100.0,"country":"DEU","status":"operating"}},{"type":"Feature","id":45073,"geometry":{"type":"Point","coordinates":[8.49,49.446]},"properties":{"name":"GKM (Mannheim) power station","fuel":"coal","mw":912.0,"country":"DEU","status":"operating"}},{"type":"Feature","id":45085,"geometry":{"type":"Point","coordinates":[12.373,51.185]},"properties":{"name":"Lippendorf power station","fuel":"coal","mw":933.0,"country":"DEU","status":"operating"}},{"type":"Feature","id":45086,"geometry":{"type":"Point","coordinates":[12.373,51.185]},"properties":{"name":"Lippendorf power station","fuel":"coal","mw":933.0,"country":"DEU","status":"operating"}},{"type":"Feature","id":45090,"geometry":{"type":"Point","coordinates":[6.633,51.036]},"properties":{"name":"Neurath power station","fuel":"coal","mw":1100.0,"country":"DEU","status":"operating"}},{"type":"Feature","id":45091,"geometry":{"type":"Point","coordinates":[6.633,51.036]},"properties":{"name":"Neurath power station","fuel":"coal","mw":1100.0,"country":"DEU","status":"operating"}},{"type":"Feature","id":45094,"geometry":{"type":"Point","coordinates":[6.668,50.997]},"properties":{"name":"Niederaussem power station","fuel":"coal","mw":1012.0,"country":"DEU","status":"operating"}},{"type":"Feature","id":45097,"geometry":{"type":"Point","coordinates":[8.303,49.013]},"properties":{"name":"RDK (Karlsruhe) power station","fuel":"coal","mw":910.0,"country":"DEU","status":"operating"}},{"type":"Feature","id":45128,"geometry":{"type":"Point","coordinates":[4.027,51.959]},"properties":{"name":"Maasvlakte Power Station (Uniper)","fuel":"coal","mw":1100.0,"country":"NLD","status":"operating"}},{"type":"Feature","id":45141,"geometry":{"type":"Point","coordinates":[19.331,51.266]},"properties":{"name":"Belchatow power station","fuel":"coal","mw":858.0,"country":"POL","status":"operating"}},{"type":"Feature","id":45168,"geometry":{"type":"Point","coordinates":[19.21,50.208]},"properties":{"name":"Jaworzno power station","fuel":"coal","mw":910.0,"country":"POL","status":"operating"}},{"type":"Feature","id":45172,"geometry":{"type":"Point","coordinates":[21.461,51.667]},"properties":{"name":"Kozienice power station","fuel":"coal","mw":1075.0,"country":"POL","status":"operating"}},{"type":"Feature","id":45200,"geometry":{"type":"Point","coordinates":[17.882,50.752]},"properties":{"name":"Opole power station","fuel":"coal","mw":900.0,"country":"POL","status":"operating"}},{"type":"Feature","id":45201,"geometry":{"type":"Point","coordinates":[17.882,50.752]},"properties":{"name":"Opole power station","fuel":"coal","mw":900.0,"country":"POL","status":"operating"}}]}