{"type": "FeatureCollection", "features": [{"type": "Feature", "geometry": {"type": "Point", "coordinates": [-17.468, 14.68]}, "properties": {"name": "", "v": 0}}, {"type": "Feature", "geometry": {"type": "Point", "coordinates": [-17.456, 14.685]}, "properties": {"name": "poste de courant", "v": 0}}, {"type": "Feature", "geometry": {"type": "Point", "coordinates": [-17.31, 14.723]}, "properties": {"name": "", "v": 0}}, {"type": "Feature", "geometry": {"type": "Point", "coordinates": [-17.31, 14.727]}, "properties": {"name": "", "v": 0}}, {"type": "Feature", "geometry": {"type": "Point", "coordinates": [-17.31, 14.74]}, "properties": {"name": "Centram courant TER", "v": 0}}, {"type": "Feature", "geometry": {"type": "Point", "coordinates": [-16.579, 15.185]}, "properties": {"name": "", "v": 0}}, {"type": "Feature", "geometry": {"type": "Point", "coordinates": [-16.49, 15.986]}, "properties": {"name": "", "v": 0}}, {"type": "Feature", "geometry": {"type": "Point", "coordinates": [-16.427, 15.929]}, "properties": {"name": "", "v": 0}}, {"type": "Feature", "geometry": {"type": "Point", "coordinates": [-16.22, 15.62]}, "properties": {"name": "SENELEC", "v": 0}}, {"type": "Feature", "geometry": {"type": "Point", "coordinates": [-13.727, 16.045]}, "properties": {"name": "Poste courant", "v": 0}}, {"type": "Feature", "geometry": {"type": "Point", "coordinates": [-13.821, 16.01]}, "properties": {"name": "Centrale \u00e9lectrique", "v": 0}}, {"type": "Feature", "geometry": {"type": "Point", "coordinates": [-5.049, 7.689]}, "properties": {"name": "niche cie", "v": 0}}, {"type": "Feature", "geometry": {"type": "Point", "coordinates": [-3.961, 7.051]}, "properties": {"name": "Poste de r\u00e9flexion", "v": 0}}, {"type": "Feature", "geometry": {"type": "Point", "coordinates": [-5.049, 7.69]}, "properties": {"name": "niche cie", "v": 0}}, {"type": "Feature", "geometry": {"type": "Point", "coordinates": [-5.077, 7.679]}, "properties": {"name": "", "v": 0}}, {"type": "Feature", "geometry": {"type": "Point", "coordinates": [-4.02, 5.31]}, "properties": {"name": "", "v": 0}}, {"type": "Feature", "geometry": {"type": "Point", "coordinates": [-4.083, 5.393]}, "properties": {"name": "", "v": 0}}, {"type": "Feature", "geometry": {"type": "Point", "coordinates": [-4.041, 5.428]}, "properties": {"name": "", "v": 0}}, {"type": "Feature", "geometry": {"type": "Point", "coordinates": [-3.963, 5.366]}, "properties": {"name": "poste haut tension 213", "v": 0}}, {"type": "Feature", "geometry": {"type": "Point", "coordinates": [-5.049, 7.69]}, "properties": {"name": "niche cie", "v": 0}}, {"type": "Feature", "geometry": {"type": "Point", "coordinates": [-3.83, 5.324]}, "properties": {"name": "Poste de bingerville", "v": 0}}, {"type": "Feature", "geometry": {"type": "Point", "coordinates": [1.16, 6.191]}, "properties": {"name": "", "v": 0}}, {"type": "Feature", "geometry": {"type": "Point", "coordinates": [1.226, 6.162]}, "properties": {"name": "", "v": 0}}, {"type": "Feature", "geometry": {"type": "Point", "coordinates": [1.209, 6.187]}, "properties": {"name": "", "v": 0}}, {"type": "Feature", "geometry": {"type": "Point", "coordinates": [1.144, 6.257]}, "properties": {"name": "", "v": 0}}, {"type": "Feature", "geometry": {"type": "Point", "coordinates": [0.914, 6.45]}, "properties": {"name": "atelier CSF", "v": 0}}, {"type": "Feature", "geometry": {"type": "Point", "coordinates": [2.548, 6.469]}, "properties": {"name": "poteau \u00e9lectrique", "v": 0}}, {"type": "Feature", "geometry": {"type": "Point", "coordinates": [2.547, 6.472]}, "properties": {"name": "poteau \u00e9lectrique", "v": 0}}, {"type": "Feature", "geometry": {"type": "Point", "coordinates": [2.548, 6.471]}, "properties": {"name": "poteau \u00e9lectrique", "v": 0}}, {"type": "Feature", "geometry": {"type": "Point", "coordinates": [2.548, 6.471]}, "properties": {"name": "poteau \u00e9lectrique", "v": 0}}, {"type": "Feature", "geometry": {"type": "Point", "coordinates": [2.547, 6.472]}, "properties": {"name": "poteau electrique", "v": 0}}, {"type": "Feature", "geometry": {"type": "Point", "coordinates": [2.547, 6.472]}, "properties": {"name": "lampader solaire", "v": 0}}, {"type": "Feature", "geometry": {"type": "Point", "coordinates": [2.547, 6.473]}, "properties": {"name": "poteau \u00e9lectrique", "v": 0}}, {"type": "Feature", "geometry": {"type": "Point", "coordinates": [2.547, 6.474]}, "properties": {"name": "poteau \u00e9lectriqje", "v": 0}}, {"type": "Feature", "geometry": {"type": "Point", "coordinates": [0.477, 7.144]}, "properties": {"name": "E.C.G. Office", "v": 0}}, {"type": "Feature", "geometry": {"type": "Point", "coordinates": [-1.552, 12.462]}, "properties": {"name": "", "v": 0}}, {"type": "Feature", "geometry": {"type": "Point", "coordinates": [-1.685, 6.927]}, "properties": {"name": "", "v": 0}}, {"type": "Feature", "geometry": {"type": "Point", "coordinates": [-1.543, 6.694]}, "properties": {"name": "Electricity Company of Ghana Ltd - Ayigya", "v": 0}}, {"type": "Feature", "geometry": {"type": "Point", "coordinates": [-1.732, 6.692]}, "properties": {"name": "Electricity Company of Ghana (Office)", "v": 0}}, {"type": "Feature", "geometry": {"type": "Point", "coordinates": [-2.434, 5.822]}, "properties": {"name": "", "v": 0}}, {"type": "Feature", "geometry": {"type": "Point", "coordinates": [-0.268, 6.096]}, "properties": {"name": "Electricity Company of Ghana", "v": 0}}, {"type": "Feature", "geometry": {"type": "Point", "coordinates": [-0.222, 5.582]}, "properties": {"name": "", "v": 0}}, {"type": "Feature", "geometry": {"type": "Point", "coordinates": [-0.273, 5.575]}, "properties": {"name": "Station G", "v": 0}}, {"type": "Feature", "geometry": {"type": "Point", "coordinates": [2.109, 13.545]}, "properties": {"name": "Transfo Nigelec", "v": 0}}, {"type": "Feature", "geometry": {"type": "Point", "coordinates": [-13.623, 9.619]}, "properties": {"name": "", "v": 0}}, {"type": "Feature", "geometry": {"type": "Point", "coordinates": [-13.614, 9.618]}, "properties": {"name": "", "v": 0}}, {"type": "Feature", "geometry": {"type": "Point", "coordinates": [5.581, 6.357]}, "properties": {"name": "", "v": 0}}, {"type": "Feature", "geometry": {"type": "Point", "coordinates": [5.605, 6.337]}, "properties": {"name": "", "v": 0}}, {"type": "Feature", "geometry": {"type": "Point", "coordinates": [5.606, 6.35]}, "properties": {"name": "", "v": 0}}, {"type": "Feature", "geometry": {"type": "Point", "coordinates": [5.606, 6.293]}, "properties": {"name": "", "v": 0}}, {"type": "Feature", "geometry": {"type": "Point", "coordinates": [5.607, 6.295]}, "properties": {"name": "", "v": 0}}, {"type": "Feature", "geometry": {"type": "Point", "coordinates": [5.608, 6.314]}, "properties": {"name": "Transformer", "v": 0}}, {"type": "Feature", "geometry": {"type": "Point", "coordinates": [5.608, 6.293]}, "properties": {"name": "", "v": 0}}, {"type": "Feature", "geometry": {"type": "Point", "coordinates": [5.609, 6.336]}, "properties": {"name": "", "v": 0}}, {"type": "Feature", "geometry": {"type": "Point", "coordinates": [5.61, 6.346]}, "properties": {"name": "", "v": 0}}, {"type": "Feature", "geometry": {"type": "Point", "coordinates": [5.612, 6.349]}, "properties": {"name": "", "v": 0}}, {"type": "Feature", "geometry": {"type": "Point", "coordinates": [5.613, 6.349]}, "properties": {"name": "", "v": 0}}, {"type": "Feature", "geometry": {"type": "Point", "coordinates": [5.613, 6.298]}, "properties": {"name": "", "v": 0}}, {"type": "Feature", "geometry": {"type": "Point", "coordinates": [5.624, 6.322]}, "properties": {"name": "", "v": 0}}, {"type": "Feature", "geometry": {"type": "Point", "coordinates": [5.625, 6.326]}, "properties": {"name": "Transformer", "v": 0}}, {"type": "Feature", "geometry": {"type": "Point", "coordinates": [5.628, 6.352]}, "properties": {"name": "Transformer", "v": 0}}, {"type": "Feature", "geometry": {"type": "Point", "coordinates": [5.629, 6.32]}, "properties": {"name": "", "v": 0}}, {"type": "Feature", "geometry": {"type": "Point", "coordinates": [5.632, 6.326]}, "properties": {"name": "", "v": 0}}, {"type": "Feature", "geometry": {"type": "Point", "coordinates": [7.054, 4.792]}, "properties": {"name": "Okuru Injection Substation", "v": 0}}, {"type": "Feature", "geometry": {"type": "Point", "coordinates": [7.431, 9.073]}, "properties": {"name": "", "v": 0}}, {"type": "Feature", "geometry": {"type": "Point", "coordinates": [13.141, 11.811]}, "properties": {"name": "", "v": 0}}, {"type": "Feature", "geometry": {"type": "Point", "coordinates": [13.776, 13.087]}, "properties": {"name": "", "v": 0}}, {"type": "Feature", "geometry": {"type": "Point", "coordinates": [5.596, 6.324]}, "properties": {"name": "", "v": 0}}, {"type": "Feature", "geometry": {"type": "Point", "coordinates": [-7.54, 9.511]}, "properties": {"name": "Poste 90kV Odienn\u00e9", "v": 0}}]}