{"type": "FeatureCollection", "features": [{"type": "Feature", "geometry": {"type": "Point", "coordinates": [53.371, 46.064]}, "properties": {"name": "47-SU-3301", "v": 110000}}, {"type": "Feature", "geometry": {"type": "Point", "coordinates": [74.298, 31.509]}, "properties": {"name": "132kv", "v": 132000}}, {"type": "Feature", "geometry": {"type": "Point", "coordinates": [68.319, 40.795]}, "properties": {"name": "\u042d\u041d\u0415\u0420\u0413\u041e\u041f\u041e\u0422\u041e\u041a \u041f\u041e\u0414\u0421\u0422\u0410\u041d\u0426\u0418\u042f", "v": 110000}}, {"type": "Feature", "geometry": {"type": "Point", "coordinates": [61.863, 53.878]}, "properties": {"name": "", "v": 110000}}, {"type": "Feature", "geometry": {"type": "Point", "coordinates": [81.893, 50.634]}, "properties": {"name": "", "v": 110000}}, {"type": "Feature", "geometry": {"type": "Point", "coordinates": [58.423, 50.265]}, "properties": {"name": "", "v": 110000}}, {"type": "Feature", "geometry": {"type": "Point", "coordinates": [73.744, 43.603]}, "properties": {"name": "", "v": 0}}, {"type": "Feature", "geometry": {"type": "Point", "coordinates": [65.545, 44.783]}, "properties": {"name": "", "v": 0}}, {"type": "Feature", "geometry": {"type": "Point", "coordinates": [76.285, 44.804]}, "properties": {"name": "", "v": 0}}, {"type": "Feature", "geometry": {"type": "Point", "coordinates": [75.666, 45.022]}, "properties": {"name": "", "v": 0}}, {"type": "Feature", "geometry": {"type": "Point", "coordinates": [78.715, 45.379]}, "properties": {"name": "", "v": 0}}, {"type": "Feature", "geometry": {"type": "Point", "coordinates": [79.621, 43.983]}, "properties": {"name": "", "v": 0}}, {"type": "Feature", "geometry": {"type": "Point", "coordinates": [73.166, 33.571]}, "properties": {"name": "Naval Anchorage Substation", "v": 0}}, {"type": "Feature", "geometry": {"type": "Point", "coordinates": [74.347, 31.469]}, "properties": {"name": "Pel Electric", "v": 0}}, {"type": "Feature", "geometry": {"type": "Point", "coordinates": [67.067, 24.949]}, "properties": {"name": "Allied Chemical", "v": 0}}, {"type": "Feature", "geometry": {"type": "Point", "coordinates": [72.315, 34.18]}, "properties": {"name": "", "v": 0}}, {"type": "Feature", "geometry": {"type": "Point", "coordinates": [70.436, 34.435]}, "properties": {"name": "", "v": 0}}, {"type": "Feature", "geometry": {"type": "Point", "coordinates": [69.355, 34.541]}, "properties": {"name": "", "v": 0}}, {"type": "Feature", "geometry": {"type": "Point", "coordinates": [74.426, 32.383]}, "properties": {"name": "Umar Butt Chowk", "v": 0}}, {"type": "Feature", "geometry": {"type": "Point", "coordinates": [72.414, 32.929]}, "properties": {"name": "Substation Talagang", "v": 0}}, {"type": "Feature", "geometry": {"type": "Point", "coordinates": [67.343, 24.871]}, "properties": {"name": "", "v": 0}}, {"type": "Feature", "geometry": {"type": "Point", "coordinates": [67.139, 24.879]}, "properties": {"name": "PolChem Traders - Pioneers of Magnesium Oxide - PolyChemystic", "v": 0}}, {"type": "Feature", "geometry": {"type": "Point", "coordinates": [67.086, 24.894]}, "properties": {"name": "", "v": 0}}, {"type": "Feature", "geometry": {"type": "Point", "coordinates": [66.983, 24.867]}, "properties": {"name": "Electric", "v": 0}}, {"type": "Feature", "geometry": {"type": "Point", "coordinates": [65.71, 31.629]}, "properties": {"name": "", "v": 0}}, {"type": "Feature", "geometry": {"type": "Point", "coordinates": [65.425, 31.581]}, "properties": {"name": "", "v": 0}}, {"type": "Feature", "geometry": {"type": "Point", "coordinates": [65.116, 32.323]}, "properties": {"name": "", "v": 0}}, {"type": "Feature", "geometry": {"type": "Point", "coordinates": [64.591, 31.827]}, "properties": {"name": "", "v": 0}}, {"type": "Feature", "geometry": {"type": "Point", "coordinates": [67.649, 36.738]}, "properties": {"name": "", "v": 0}}, {"type": "Feature", "geometry": {"type": "Point", "coordinates": [72.797, 40.537]}, "properties": {"name": "", "v": 0}}, {"type": "Feature", "geometry": {"type": "Point", "coordinates": [72.796, 40.537]}, "properties": {"name": "", "v": 0}}, {"type": "Feature", "geometry": {"type": "Point", "coordinates": [72.797, 40.537]}, "properties": {"name": "", "v": 0}}, {"type": "Feature", "geometry": {"type": "Point", "coordinates": [72.794, 40.538]}, "properties": {"name": "", "v": 0}}, {"type": "Feature", "geometry": {"type": "Point", "coordinates": [72.8, 40.538]}, "properties": {"name": "", "v": 0}}, {"type": "Feature", "geometry": {"type": "Point", "coordinates": [72.806, 40.539]}, "properties": {"name": "\u041e\u0448-5", "v": 0}}, {"type": "Feature", "geometry": {"type": "Point", "coordinates": [72.802, 40.539]}, "properties": {"name": "", "v": 0}}, {"type": "Feature", "geometry": {"type": "Point", "coordinates": [72.807, 40.539]}, "properties": {"name": "", "v": 0}}, {"type": "Feature", "geometry": {"type": "Point", "coordinates": [72.802, 40.539]}, "properties": {"name": "", "v": 0}}, {"type": "Feature", "geometry": {"type": "Point", "coordinates": [72.798, 40.539]}, "properties": {"name": "", "v": 0}}, {"type": "Feature", "geometry": {"type": "Point", "coordinates": [72.798, 40.539]}, "properties": {"name": "", "v": 0}}, {"type": "Feature", "geometry": {"type": "Point", "coordinates": [72.803, 40.539]}, "properties": {"name": "", "v": 0}}, {"type": "Feature", "geometry": {"type": "Point", "coordinates": [72.802, 40.539]}, "properties": {"name": "", "v": 0}}, {"type": "Feature", "geometry": {"type": "Point", "coordinates": [72.796, 40.54]}, "properties": {"name": "", "v": 0}}, {"type": "Feature", "geometry": {"type": "Point", "coordinates": [72.796, 40.54]}, "properties": {"name": "", "v": 0}}, {"type": "Feature", "geometry": {"type": "Point", "coordinates": [72.796, 40.54]}, "properties": {"name": "", "v": 0}}, {"type": "Feature", "geometry": {"type": "Point", "coordinates": [72.798, 40.54]}, "properties": {"name": "", "v": 0}}, {"type": "Feature", "geometry": {"type": "Point", "coordinates": [72.802, 40.54]}, "properties": {"name": "", "v": 0}}, {"type": "Feature", "geometry": {"type": "Point", "coordinates": [72.794, 40.54]}, "properties": {"name": "", "v": 0}}, {"type": "Feature", "geometry": {"type": "Point", "coordinates": [72.794, 40.541]}, "properties": {"name": "", "v": 0}}, {"type": "Feature", "geometry": {"type": "Point", "coordinates": [72.798, 40.541]}, "properties": {"name": "\u0422\u041f-219 \u0444.\u0417\u0430\u0439\u043d\u0430\u0431", "v": 0}}, {"type": "Feature", "geometry": {"type": "Point", "coordinates": [72.801, 40.541]}, "properties": {"name": "", "v": 0}}, {"type": "Feature", "geometry": {"type": "Point", "coordinates": [72.802, 40.542]}, "properties": {"name": "", "v": 0}}, {"type": "Feature", "geometry": {"type": "Point", "coordinates": [72.804, 40.543]}, "properties": {"name": "", "v": 0}}, {"type": "Feature", "geometry": {"type": "Point", "coordinates": [72.803, 40.544]}, "properties": {"name": "", "v": 0}}, {"type": "Feature", "geometry": {"type": "Point", "coordinates": [72.807, 40.544]}, "properties": {"name": "", "v": 0}}, {"type": "Feature", "geometry": {"type": "Point", "coordinates": [72.805, 40.545]}, "properties": {"name": "", "v": 0}}, {"type": "Feature", "geometry": {"type": "Point", "coordinates": [72.804, 40.547]}, "properties": {"name": "", "v": 0}}, {"type": "Feature", "geometry": {"type": "Point", "coordinates": [72.803, 40.547]}, "properties": {"name": "", "v": 0}}, {"type": "Feature", "geometry": {"type": "Point", "coordinates": [60.465, 41.593]}, "properties": {"name": "", "v": 0}}, {"type": "Feature", "geometry": {"type": "Point", "coordinates": [71.451, 38.367]}, "properties": {"name": "", "v": 0}}, {"type": "Feature", "geometry": {"type": "Point", "coordinates": [71.455, 38.368]}, "properties": {"name": "", "v": 0}}, {"type": "Feature", "geometry": {"type": "Point", "coordinates": [71.448, 38.369]}, "properties": {"name": "", "v": 0}}, {"type": "Feature", "geometry": {"type": "Point", "coordinates": [71.47, 38.37]}, "properties": {"name": "", "v": 0}}, {"type": "Feature", "geometry": {"type": "Point", "coordinates": [71.454, 38.372]}, "properties": {"name": "", "v": 0}}, {"type": "Feature", "geometry": {"type": "Point", "coordinates": [71.462, 38.372]}, "properties": {"name": "", "v": 0}}, {"type": "Feature", "geometry": {"type": "Point", "coordinates": [71.462, 38.374]}, "properties": {"name": "", "v": 0}}, {"type": "Feature", "geometry": {"type": "Point", "coordinates": [71.472, 38.378]}, "properties": {"name": "", "v": 0}}, {"type": "Feature", "geometry": {"type": "Point", "coordinates": [71.469, 38.379]}, "properties": {"name": "", "v": 0}}, {"type": "Feature", "geometry": {"type": "Point", "coordinates": [71.473, 38.379]}, "properties": {"name": "", "v": 0}}, {"type": "Feature", "geometry": {"type": "Point", "coordinates": [71.475, 38.379]}, "properties": {"name": "", "v": 0}}, {"type": "Feature", "geometry": {"type": "Point", "coordinates": [71.495, 38.39]}, "properties": {"name": "", "v": 0}}, {"type": "Feature", "geometry": {"type": "Point", "coordinates": [71.503, 38.4]}, "properties": {"name": "", "v": 0}}, {"type": "Feature", "geometry": {"type": "Point", "coordinates": [71.528, 38.412]}, "properties": {"name": "", "v": 0}}, {"type": "Feature", "geometry": {"type": "Point", "coordinates": [71.55, 38.427]}, "properties": {"name": "", "v": 0}}, {"type": "Feature", "geometry": {"type": "Point", "coordinates": [71.55, 38.428]}, "properties": {"name": "", "v": 0}}, {"type": "Feature", "geometry": {"type": "Point", "coordinates": [71.581, 38.44]}, "properties": {"name": "", "v": 0}}, {"type": "Feature", "geometry": {"type": "Point", "coordinates": [70.827, 38.455]}, "properties": {"name": "", "v": 0}}, {"type": "Feature", "geometry": {"type": "Point", "coordinates": [71.606, 38.464]}, "properties": {"name": "", "v": 0}}, {"type": "Feature", "geometry": {"type": "Point", "coordinates": [70.825, 38.467]}, "properties": {"name": "", "v": 0}}, {"type": "Feature", "geometry": {"type": "Point", "coordinates": [71.627, 38.469]}, "properties": {"name": "", "v": 0}}, {"type": "Feature", "geometry": {"type": "Point", "coordinates": [71.648, 38.487]}, "properties": {"name": "", "v": 0}}, {"type": "Feature", "geometry": {"type": "Point", "coordinates": [71.654, 38.5]}, "properties": {"name": "", "v": 0}}, {"type": "Feature", "geometry": {"type": "Point", "coordinates": [71.666, 38.502]}, "properties": {"name": "", "v": 0}}, {"type": "Feature", "geometry": {"type": "Point", "coordinates": [71.675, 38.513]}, "properties": {"name": "", "v": 0}}, {"type": "Feature", "geometry": {"type": "Point", "coordinates": [71.682, 38.516]}, "properties": {"name": "", "v": 0}}, {"type": "Feature", "geometry": {"type": "Point", "coordinates": [71.685, 38.522]}, "properties": {"name": "", "v": 0}}, {"type": "Feature", "geometry": {"type": "Point", "coordinates": [71.69, 38.525]}, "properties": {"name": "", "v": 0}}, {"type": "Feature", "geometry": {"type": "Point", "coordinates": [71.694, 38.528]}, "properties": {"name": "", "v": 0}}, {"type": "Feature", "geometry": {"type": "Point", "coordinates": [71.719, 38.533]}, "properties": {"name": "", "v": 0}}, {"type": "Feature", "geometry": {"type": "Point", "coordinates": [71.712, 38.542]}, "properties": {"name": "", "v": 0}}, {"type": "Feature", "geometry": {"type": "Point", "coordinates": [71.844, 38.596]}, "properties": {"name": "", "v": 0}}, {"type": "Feature", "geometry": {"type": "Point", "coordinates": [71.855, 38.614]}, "properties": {"name": "", "v": 0}}, {"type": "Feature", "geometry": {"type": "Point", "coordinates": [71.925, 38.633]}, "properties": {"name": "", "v": 0}}, {"type": "Feature", "geometry": {"type": "Point", "coordinates": [71.938, 38.646]}, "properties": {"name": "", "v": 0}}, {"type": "Feature", "geometry": {"type": "Point", "coordinates": [71.796, 36.001]}, "properties": {"name": "", "v": 0}}, {"type": "Feature", "geometry": {"type": "Point", "coordinates": [71.81, 35.903]}, "properties": {"name": "", "v": 0}}, {"type": "Feature", "geometry": {"type": "Point", "coordinates": [71.938, 35.938]}, "properties": {"name": "Powre Station", "v": 0}}, {"type": "Feature", "geometry": {"type": "Point", "coordinates": [71.962, 35.959]}, "properties": {"name": "Powre Station", "v": 0}}, {"type": "Feature", "geometry": {"type": "Point", "coordinates": [72.208, 36.393]}, "properties": {"name": "", "v": 0}}, {"type": "Feature", "geometry": {"type": "Point", "coordinates": [72.363, 36.263]}, "properties": {"name": "Power Station", "v": 0}}, {"type": "Feature", "geometry": {"type": "Point", "coordinates": [72.507, 36.244]}, "properties": {"name": "Power Station", "v": 0}}, {"type": "Feature", "geometry": {"type": "Point", "coordinates": [72.872, 34.917]}, "properties": {"name": "", "v": 0}}, {"type": "Feature", "geometry": {"type": "Point", "coordinates": [58.392, 37.943]}, "properties": {"name": "\u041f/\u0441\u0442-303(\u043d\u043e\u0432)", "v": 0}}, {"type": "Feature", "geometry": {"type": "Point", "coordinates": [58.391, 37.943]}, "properties": {"name": "\u041f/\u0441\u0442-303", "v": 0}}, {"type": "Feature", "geometry": {"type": "Point", "coordinates": [58.391, 37.943]}, "properties": {"name": "\u041f/\u0441\u0442-414", "v": 0}}, {"type": "Feature", "geometry": {"type": "Point", "coordinates": [58.376, 37.944]}, "properties": {"name": "\u0422\u043f-0414", "v": 0}}, {"type": "Feature", "geometry": {"type": "Point", "coordinates": [58.372, 37.945]}, "properties": {"name": "\u041f/-120", "v": 0}}, {"type": "Feature", "geometry": {"type": "Point", "coordinates": [58.373, 37.945]}, "properties": {"name": "\u041f/\u0441\u0442-320", "v": 0}}, {"type": "Feature", "geometry": {"type": "Point", "coordinates": [58.382, 37.946]}, "properties": {"name": "\u0422\u043f-0275", "v": 0}}, {"type": "Feature", "geometry": {"type": "Point", "coordinates": [58.385, 37.946]}, "properties": {"name": "\u0422\u043f-0079", "v": 0}}, {"type": "Feature", "geometry": {"type": "Point", "coordinates": [58.377, 37.952]}, "properties": {"name": "\u0422\u043f-0458", "v": 0}}, {"type": "Feature", "geometry": {"type": "Point", "coordinates": [58.373, 37.953]}, "properties": {"name": "\u0420\u043f-016", "v": 0}}, {"type": "Feature", "geometry": {"type": "Point", "coordinates": [58.375, 37.953]}, "properties": {"name": "\u0422\u043f-0452", "v": 0}}, {"type": "Feature", "geometry": {"type": "Point", "coordinates": [58.369, 37.953]}, "properties": {"name": "\u0422\u043f-0608", "v": 0}}, {"type": "Feature", "geometry": {"type": "Point", "coordinates": [58.375, 37.96]}, "properties": {"name": "\u0422\u043f-0130", "v": 0}}, {"type": "Feature", "geometry": {"type": "Point", "coordinates": [58.378, 37.96]}, "properties": {"name": "\u0422\u043f-0138", "v": 0}}, {"type": "Feature", "geometry": {"type": "Point", "coordinates": [58.369, 37.962]}, "properties": {"name": "\u0422\u043f-0121", "v": 0}}, {"type": "Feature", "geometry": {"type": "Point", "coordinates": [58.387, 37.962]}, "properties": {"name": "\u0420\u043f-215", "v": 0}}, {"type": "Feature", "geometry": {"type": "Point", "coordinates": [58.38, 37.968]}, "properties": {"name": "\u0420\u0442\u043f-169", "v": 0}}, {"type": "Feature", "geometry": {"type": "Point", "coordinates": [58.403, 38.019]}, "properties": {"name": "\u0422\u043f-3506", "v": 0}}, {"type": "Feature", "geometry": {"type": "Point", "coordinates": [58.398, 38.023]}, "properties": {"name": "\u0422\u043f-3506", "v": 0}}, {"type": "Feature", "geometry": {"type": "Point", "coordinates": [58.403, 38.028]}, "properties": {"name": "\u0422\u043f-3467", "v": 0}}, {"type": "Feature", "geometry": {"type": "Point", "coordinates": [58.403, 38.035]}, "properties": {"name": "\u0422\u043f-3447", "v": 0}}, {"type": "Feature", "geometry": {"type": "Point", "coordinates": [68.238, 38.517]}, "properties": {"name": "", "v": 0}}, {"type": "Feature", "geometry": {"type": "Point", "coordinates": [68.224, 38.55]}, "properties": {"name": "", "v": 0}}, {"type": "Feature", "geometry": {"type": "Point", "coordinates": [68.064, 39.344]}, "properties": {"name": "\u041f\u043e\u0434\u0441\u0442\u0430\u043d\u0446\u0438\u044f", "v": 0}}, {"type": "Feature", "geometry": {"type": "Point", "coordinates": [59.616, 42.542]}, "properties": {"name": "", "v": 0}}, {"type": "Feature", "geometry": {"type": "Point", "coordinates": [59.603, 42.528]}, "properties": {"name": "", "v": 0}}, {"type": "Feature", "geometry": {"type": "Point", "coordinates": [59.632, 42.46]}, "properties": {"name": "", "v": 0}}, {"type": "Feature", "geometry": {"type": "Point", "coordinates": [59.622, 42.459]}, "properties": {"name": "", "v": 0}}, {"type": "Feature", "geometry": {"type": "Point", "coordinates": [59.622, 42.459]}, "properties": {"name": "", "v": 0}}, {"type": "Feature", "geometry": {"type": "Point", "coordinates": [59.617, 42.446]}, "properties": {"name": "", "v": 0}}, {"type": "Feature", "geometry": {"type": "Point", "coordinates": [59.614, 42.439]}, "properties": {"name": "", "v": 0}}, {"type": "Feature", "geometry": {"type": "Point", "coordinates": [59.605, 42.438]}, "properties": {"name": "", "v": 0}}, {"type": "Feature", "geometry": {"type": "Point", "coordinates": [59.612, 42.427]}, "properties": {"name": "", "v": 0}}, {"type": "Feature", "geometry": {"type": "Point", "coordinates": [59.637, 42.389]}, "properties": {"name": "", "v": 0}}, {"type": "Feature", "geometry": {"type": "Point", "coordinates": [59.637, 42.388]}, "properties": {"name": "", "v": 0}}, {"type": "Feature", "geometry": {"type": "Point", "coordinates": [58.416, 37.926]}, "properties": {"name": "\u0422\u043f-0145", "v": 0}}, {"type": "Feature", "geometry": {"type": "Point", "coordinates": [58.406, 37.93]}, "properties": {"name": "\u041f/\u0441\u0442-401", "v": 0}}, {"type": "Feature", "geometry": {"type": "Point", "coordinates": [58.436, 37.923]}, "properties": {"name": "\u0422\u043f-0885", "v": 0}}, {"type": "Feature", "geometry": {"type": "Point", "coordinates": [58.432, 37.918]}, "properties": {"name": "\u0422\u043f-0816", "v": 0}}, {"type": "Feature", "geometry": {"type": "Point", "coordinates": [58.417, 37.921]}, "properties": {"name": "\u0422\u043f-0057", "v": 0}}, {"type": "Feature", "geometry": {"type": "Point", "coordinates": [58.411, 37.923]}, "properties": {"name": "\u0422\u043f-0338", "v": 0}}, {"type": "Feature", "geometry": {"type": "Point", "coordinates": [58.404, 37.914]}, "properties": {"name": "\u0422\u043f-0939", "v": 0}}, {"type": "Feature", "geometry": {"type": "Point", "coordinates": [58.404, 37.915]}, "properties": {"name": "\u0422\u043f-0897", "v": 0}}, {"type": "Feature", "geometry": {"type": "Point", "coordinates": [58.403, 37.918]}, "properties": {"name": "\u0422\u043f-0968 (\u043d\u043e\u0432)", "v": 0}}, {"type": "Feature", "geometry": {"type": "Point", "coordinates": [58.399, 37.909]}, "properties": {"name": "\u0422\u043f-1094", "v": 0}}, {"type": "Feature", "geometry": {"type": "Point", "coordinates": [59.603, 42.527]}, "properties": {"name": "", "v": 0}}, {"type": "Feature", "geometry": {"type": "Point", "coordinates": [59.638, 42.475]}, "properties": {"name": "", "v": 0}}, {"type": "Feature", "geometry": {"type": "Point", "coordinates": [58.415, 37.926]}, "properties": {"name": "\u0422\u043f-0045", "v": 0}}, {"type": "Feature", "geometry": {"type": "Point", "coordinates": [58.41, 37.933]}, "properties": {"name": "\u0422\u043f-0034", "v": 0}}, {"type": "Feature", "geometry": {"type": "Point", "coordinates": [58.428, 37.907]}, "properties": {"name": "\u0420\u043f-221", "v": 0}}, {"type": "Feature", "geometry": {"type": "Point", "coordinates": [58.426, 37.908]}, "properties": {"name": "\u041f/\u0441\u0442-111", "v": 0}}, {"type": "Feature", "geometry": {"type": "Point", "coordinates": [58.422, 37.923]}, "properties": {"name": "\u0422\u043f-0050", "v": 0}}, {"type": "Feature", "geometry": {"type": "Point", "coordinates": [58.42, 37.924]}, "properties": {"name": "\u0422\u043f-0048", "v": 0}}, {"type": "Feature", "geometry": {"type": "Point", "coordinates": [58.418, 37.921]}, "properties": {"name": "\u041f/\u0441\u0442-310", "v": 0}}, {"type": "Feature", "geometry": {"type": "Point", "coordinates": [58.418, 37.922]}, "properties": {"name": "\u0420\u043f-006", "v": 0}}, {"type": "Feature", "geometry": {"type": "Point", "coordinates": [58.417, 37.924]}, "properties": {"name": "\u0422\u043f-0047", "v": 0}}, {"type": "Feature", "geometry": {"type": "Point", "coordinates": [58.416, 37.916]}, "properties": {"name": "\u0422\u043f-0905", "v": 0}}, {"type": "Feature", "geometry": {"type": "Point", "coordinates": [58.416, 37.925]}, "properties": {"name": "\u0422\u043f-1145", "v": 0}}, {"type": "Feature", "geometry": {"type": "Point", "coordinates": [58.416, 37.916]}, "properties": {"name": "\u041f/\u0441\u0442-402", "v": 0}}, {"type": "Feature", "geometry": {"type": "Point", "coordinates": [58.412, 37.922]}, "properties": {"name": "\u0422\u043f-0356", "v": 0}}, {"type": "Feature", "geometry": {"type": "Point", "coordinates": [58.408, 37.92]}, "properties": {"name": "\u0422\u043f-0648", "v": 0}}, {"type": "Feature", "geometry": {"type": "Point", "coordinates": [58.408, 37.92]}, "properties": {"name": "\u0422\u043f-0247", "v": 0}}, {"type": "Feature", "geometry": {"type": "Point", "coordinates": [58.404, 37.924]}, "properties": {"name": "\u0422\u043f-0651", "v": 0}}, {"type": "Feature", "geometry": {"type": "Point", "coordinates": [58.404, 37.924]}, "properties": {"name": "\u0422\u043f-0652", "v": 0}}, {"type": "Feature", "geometry": {"type": "Point", "coordinates": [58.404, 37.915]}, "properties": {"name": "\u0422\u043f-0837", "v": 0}}, {"type": "Feature", "geometry": {"type": "Point", "coordinates": [59.665, 42.947]}, "properties": {"name": "", "v": 0}}, {"type": "Feature", "geometry": {"type": "Point", "coordinates": [59.699, 42.951]}, "properties": {"name": "", "v": 0}}, {"type": "Feature", "geometry": {"type": "Point", "coordinates": [58.401, 37.916]}, "properties": {"name": "\u041f/\u0441\u0442-317", "v": 0}}, {"type": "Feature", "geometry": {"type": "Point", "coordinates": [58.399, 37.909]}, "properties": {"name": "\u0422\u043f-1098", "v": 0}}, {"type": "Feature", "geometry": {"type": "Point", "coordinates": [58.4, 37.938]}, "properties": {"name": "\u0422\u043f-0032", "v": 0}}, {"type": "Feature", "geometry": {"type": "Point", "coordinates": [59.599, 42.47]}, "properties": {"name": "", "v": 0}}, {"type": "Feature", "geometry": {"type": "Point", "coordinates": [74.662, 42.789]}, "properties": {"name": "", "v": 0}}, {"type": "Feature", "geometry": {"type": "Point", "coordinates": [75.292, 42.826]}, "properties": {"name": "", "v": 0}}, {"type": "Feature", "geometry": {"type": "Point", "coordinates": [75.29, 42.836]}, "properties": {"name": "", "v": 0}}, {"type": "Feature", "geometry": {"type": "Point", "coordinates": [74.564, 42.838]}, "properties": {"name": "", "v": 0}}, {"type": "Feature", "geometry": {"type": "Point", "coordinates": [74.567, 42.843]}, "properties": {"name": "", "v": 0}}, {"type": "Feature", "geometry": {"type": "Point", "coordinates": [74.582, 42.844]}, "properties": {"name": "", "v": 0}}, {"type": "Feature", "geometry": {"type": "Point", "coordinates": [74.582, 42.844]}, "properties": {"name": "", "v": 0}}, {"type": "Feature", "geometry": {"type": "Point", "coordinates": [74.583, 42.845]}, "properties": {"name": "", "v": 0}}, {"type": "Feature", "geometry": {"type": "Point", "coordinates": [74.621, 42.85]}, "properties": {"name": "", "v": 0}}, {"type": "Feature", "geometry": {"type": "Point", "coordinates": [74.594, 42.857]}, "properties": {"name": "", "v": 0}}, {"type": "Feature", "geometry": {"type": "Point", "coordinates": [74.59, 42.867]}, "properties": {"name": "", "v": 0}}, {"type": "Feature", "geometry": {"type": "Point", "coordinates": [74.579, 42.872]}, "properties": {"name": "", "v": 0}}, {"type": "Feature", "geometry": {"type": "Point", "coordinates": [74.841, 42.889]}, "properties": {"name": "", "v": 0}}, {"type": "Feature", "geometry": {"type": "Point", "coordinates": [74.879, 42.893]}, "properties": {"name": "", "v": 0}}, {"type": "Feature", "geometry": {"type": "Point", "coordinates": [74.849, 42.894]}, "properties": {"name": "", "v": 0}}, {"type": "Feature", "geometry": {"type": "Point", "coordinates": [72.749, 42.953]}, "properties": {"name": "", "v": 0}}, {"type": "Feature", "geometry": {"type": "Point", "coordinates": [76.849, 43.182]}, "properties": {"name": "", "v": 0}}, {"type": "Feature", "geometry": {"type": "Point", "coordinates": [76.874, 43.244]}, "properties": {"name": "", "v": 0}}, {"type": "Feature", "geometry": {"type": "Point", "coordinates": [76.945, 43.245]}, "properties": {"name": "", "v": 0}}, {"type": "Feature", "geometry": {"type": "Point", "coordinates": [76.943, 43.249]}, "properties": {"name": "", "v": 0}}, {"type": "Feature", "geometry": {"type": "Point", "coordinates": [76.943, 43.255]}, "properties": {"name": "\u0422\u0440\u0430\u043d\u0441\u0444\u043e\u0440\u043c\u0430\u0442\u043e\u0440\u043d\u0430\u044f \u043f\u043e\u0434\u0441\u0442\u0430\u043d\u0446\u0438\u044f \u2116 2397", "v": 0}}, {"type": "Feature", "geometry": {"type": "Point", "coordinates": [76.948, 43.255]}, "properties": {"name": "\u0422\u0440\u0430\u043d\u0441\u0444\u043e\u0440\u043c\u0430\u0442\u043e\u0440\u043d\u0430\u044f \u043f\u043e\u0434\u0441\u0442\u0430\u043d\u0446\u0438\u044f \u2116 9618", "v": 0}}, {"type": "Feature", "geometry": {"type": "Point", "coordinates": [76.948, 43.262]}, "properties": {"name": "\u0422\u0440\u0430\u043d\u0441\u0444\u043e\u0440\u043c\u0430\u0442\u043e\u0440\u043d\u0430\u044f \u043f\u043e\u0434\u0441\u0442\u0430\u043d\u0446\u0438\u044f \u2116 6840", "v": 0}}, {"type": "Feature", "geometry": {"type": "Point", "coordinates": [76.954, 43.259]}, "properties": {"name": "", "v": 0}}, {"type": "Feature", "geometry": {"type": "Point", "coordinates": [76.97, 43.264]}, "properties": {"name": "", "v": 0}}, {"type": "Feature", "geometry": {"type": "Point", "coordinates": [77.119, 43.393]}, "properties": {"name": "", "v": 0}}, {"type": "Feature", "geometry": {"type": "Point", "coordinates": [78.388, 42.498]}, "properties": {"name": "", "v": 0}}, {"type": "Feature", "geometry": {"type": "Point", "coordinates": [78.393, 42.505]}, "properties": {"name": "", "v": 0}}, {"type": "Feature", "geometry": {"type": "Point", "coordinates": [74.667, 42.885]}, "properties": {"name": "", "v": 0}}, {"type": "Feature", "geometry": {"type": "Point", "coordinates": [68.69, 40.895]}, "properties": {"name": "", "v": 0}}, {"type": "Feature", "geometry": {"type": "Point", "coordinates": [69.174, 41.47]}, "properties": {"name": "", "v": 0}}, {"type": "Feature", "geometry": {"type": "Point", "coordinates": [69.205, 41.305]}, "properties": {"name": "", "v": 0}}, {"type": "Feature", "geometry": {"type": "Point", "coordinates": [69.208, 41.473]}, "properties": {"name": "", "v": 0}}, {"type": "Feature", "geometry": {"type": "Point", "coordinates": [69.219, 41.276]}, "properties": {"name": "", "v": 0}}, {"type": "Feature", "geometry": {"type": "Point", "coordinates": [69.227, 41.336]}, "properties": {"name": "\u0422\u043f 985", "v": 0}}, {"type": "Feature", "geometry": {"type": "Point", "coordinates": [69.246, 41.304]}, "properties": {"name": "", "v": 0}}, {"type": "Feature", "geometry": {"type": "Point", "coordinates": [69.246, 41.304]}, "properties": {"name": "", "v": 0}}, {"type": "Feature", "geometry": {"type": "Point", "coordinates": [69.27, 41.287]}, "properties": {"name": "", "v": 0}}, {"type": "Feature", "geometry": {"type": "Point", "coordinates": [69.271, 41.361]}, "properties": {"name": "", "v": 0}}, {"type": "Feature", "geometry": {"type": "Point", "coordinates": [69.273, 41.362]}, "properties": {"name": "", "v": 0}}, {"type": "Feature", "geometry": {"type": "Point", "coordinates": [69.274, 41.363]}, "properties": {"name": "", "v": 0}}, {"type": "Feature", "geometry": {"type": "Point", "coordinates": [69.276, 41.364]}, "properties": {"name": "", "v": 0}}, {"type": "Feature", "geometry": {"type": "Point", "coordinates": [69.279, 41.362]}, "properties": {"name": "", "v": 0}}, {"type": "Feature", "geometry": {"type": "Point", "coordinates": [69.282, 41.327]}, "properties": {"name": "", "v": 0}}, {"type": "Feature", "geometry": {"type": "Point", "coordinates": [69.279, 41.364]}, "properties": {"name": "", "v": 0}}, {"type": "Feature", "geometry": {"type": "Point", "coordinates": [69.572, 41.418]}, "properties": {"name": "", "v": 0}}, {"type": "Feature", "geometry": {"type": "Point", "coordinates": [69.573, 41.417]}, "properties": {"name": "", "v": 0}}, {"type": "Feature", "geometry": {"type": "Point", "coordinates": [70.022, 41.55]}, "properties": {"name": "", "v": 0}}, {"type": "Feature", "geometry": {"type": "Point", "coordinates": [68.198, 43.278]}, "properties": {"name": "\u042d\u043b\u0435\u043a\u0442\u0440\u043e\u043f\u043e\u0434\u0441\u0442\u0430\u043d\u0446\u0438\u044f", "v": 0}}, {"type": "Feature", "geometry": {"type": "Point", "coordinates": [68.202, 43.301]}, "properties": {"name": "\u042d\u043b\u0435\u043a\u0442\u0440\u043e\u043f\u043e\u0434\u0441\u0442\u0430\u043d\u0446\u0438\u044f", "v": 0}}, {"type": "Feature", "geometry": {"type": "Point", "coordinates": [68.285, 43.285]}, "properties": {"name": "", "v": 0}}, {"type": "Feature", "geometry": {"type": "Point", "coordinates": [68.208, 43.295]}, "properties": {"name": "", "v": 0}}, {"type": "Feature", "geometry": {"type": "Point", "coordinates": [68.239, 43.308]}, "properties": {"name": "\u042d\u043b\u0435\u043a\u0442\u0440\u043e\u043f\u043e\u0434\u0441\u0442\u0430\u043d\u0446\u0438\u044f", "v": 0}}, {"type": "Feature", "geometry": {"type": "Point", "coordinates": [68.316, 43.306]}, "properties": {"name": "", "v": 0}}, {"type": "Feature", "geometry": {"type": "Point", "coordinates": [69.663, 42.786]}, "properties": {"name": "", "v": 0}}, {"type": "Feature", "geometry": {"type": "Point", "coordinates": [69.214, 41.385]}, "properties": {"name": "", "v": 0}}, {"type": "Feature", "geometry": {"type": "Point", "coordinates": [69.358, 41.281]}, "properties": {"name": "", "v": 0}}, {"type": "Feature", "geometry": {"type": "Point", "coordinates": [70.503, 39.933]}, "properties": {"name": "", "v": 0}}, {"type": "Feature", "geometry": {"type": "Point", "coordinates": [72.826, 40.502]}, "properties": {"name": "", "v": 0}}, {"type": "Feature", "geometry": {"type": "Point", "coordinates": [72.831, 40.505]}, "properties": {"name": "\u041f\u043e\u0434\u0441\u0442\u0430\u043d\u0446\u0438\u044f", "v": 0}}, {"type": "Feature", "geometry": {"type": "Point", "coordinates": [72.731, 40.517]}, "properties": {"name": "\u0422\u041f-397 \u0444. \u0421\u041c\u0423-\u0422\u0422", "v": 0}}, {"type": "Feature", "geometry": {"type": "Point", "coordinates": [72.731, 40.517]}, "properties": {"name": "", "v": 0}}, {"type": "Feature", "geometry": {"type": "Point", "coordinates": [72.803, 40.527]}, "properties": {"name": "", "v": 0}}, {"type": "Feature", "geometry": {"type": "Point", "coordinates": [72.804, 40.527]}, "properties": {"name": "", "v": 0}}, {"type": "Feature", "geometry": {"type": "Point", "coordinates": [72.805, 40.527]}, "properties": {"name": "", "v": 0}}, {"type": "Feature", "geometry": {"type": "Point", "coordinates": [72.802, 40.529]}, "properties": {"name": "", "v": 0}}, {"type": "Feature", "geometry": {"type": "Point", "coordinates": [72.8, 40.529]}, "properties": {"name": "", "v": 0}}, {"type": "Feature", "geometry": {"type": "Point", "coordinates": [72.798, 40.531]}, "properties": {"name": "", "v": 0}}, {"type": "Feature", "geometry": {"type": "Point", "coordinates": [72.795, 40.531]}, "properties": {"name": "", "v": 0}}, {"type": "Feature", "geometry": {"type": "Point", "coordinates": [72.795, 40.533]}, "properties": {"name": "", "v": 0}}, {"type": "Feature", "geometry": {"type": "Point", "coordinates": [72.792, 40.534]}, "properties": {"name": "", "v": 0}}, {"type": "Feature", "geometry": {"type": "Point", "coordinates": [72.793, 40.535]}, "properties": {"name": "", "v": 0}}, {"type": "Feature", "geometry": {"type": "Point", "coordinates": [72.794, 40.535]}, "properties": {"name": "", "v": 0}}, {"type": "Feature", "geometry": {"type": "Point", "coordinates": [72.793, 40.536]}, "properties": {"name": "", "v": 0}}, {"type": "Feature", "geometry": {"type": "Point", "coordinates": [67.71, 40.178]}, "properties": {"name": "", "v": 0}}, {"type": "Feature", "geometry": {"type": "Point", "coordinates": [71.492, 37.955]}, "properties": {"name": "", "v": 0}}, {"type": "Feature", "geometry": {"type": "Point", "coordinates": [71.496, 37.958]}, "properties": {"name": "", "v": 0}}, {"type": "Feature", "geometry": {"type": "Point", "coordinates": [71.498, 37.955]}, "properties": {"name": "", "v": 0}}, {"type": "Feature", "geometry": {"type": "Point", "coordinates": [71.499, 37.956]}, "properties": {"name": "", "v": 0}}, {"type": "Feature", "geometry": {"type": "Point", "coordinates": [71.505, 37.967]}, "properties": {"name": "", "v": 0}}, {"type": "Feature", "geometry": {"type": "Point", "coordinates": [71.512, 37.961]}, "properties": {"name": "", "v": 0}}, {"type": "Feature", "geometry": {"type": "Point", "coordinates": [71.518, 37.963]}, "properties": {"name": "", "v": 0}}, {"type": "Feature", "geometry": {"type": "Point", "coordinates": [71.531, 37.962]}, "properties": {"name": "", "v": 0}}, {"type": "Feature", "geometry": {"type": "Point", "coordinates": [71.551, 37.944]}, "properties": {"name": "", "v": 0}}, {"type": "Feature", "geometry": {"type": "Point", "coordinates": [71.552, 37.945]}, "properties": {"name": "", "v": 0}}, {"type": "Feature", "geometry": {"type": "Point", "coordinates": [71.552, 37.948]}, "properties": {"name": "", "v": 0}}, {"type": "Feature", "geometry": {"type": "Point", "coordinates": [71.558, 37.948]}, "properties": {"name": "", "v": 0}}, {"type": "Feature", "geometry": {"type": "Point", "coordinates": [71.56, 37.942]}, "properties": {"name": "", "v": 0}}, {"type": "Feature", "geometry": {"type": "Point", "coordinates": [71.561, 37.945]}, "properties": {"name": "", "v": 0}}, {"type": "Feature", "geometry": {"type": "Point", "coordinates": [71.582, 37.946]}, "properties": {"name": "", "v": 0}}, {"type": "Feature", "geometry": {"type": "Point", "coordinates": [71.59, 37.945]}, "properties": {"name": "", "v": 0}}, {"type": "Feature", "geometry": {"type": "Point", "coordinates": [71.594, 37.934]}, "properties": {"name": "", "v": 0}}, {"type": "Feature", "geometry": {"type": "Point", "coordinates": [71.627, 37.968]}, "properties": {"name": "", "v": 0}}, {"type": "Feature", "geometry": {"type": "Point", "coordinates": [71.632, 37.972]}, "properties": {"name": "", "v": 0}}, {"type": "Feature", "geometry": {"type": "Point", "coordinates": [71.634, 37.973]}, "properties": {"name": "", "v": 0}}, {"type": "Feature", "geometry": {"type": "Point", "coordinates": [71.65, 37.852]}, "properties": {"name": "", "v": 0}}, {"type": "Feature", "geometry": {"type": "Point", "coordinates": [71.652, 37.847]}, "properties": {"name": "", "v": 0}}, {"type": "Feature", "geometry": {"type": "Point", "coordinates": [71.654, 37.84]}, "properties": {"name": "", "v": 0}}, {"type": "Feature", "geometry": {"type": "Point", "coordinates": [71.668, 38.006]}, "properties": {"name": "", "v": 0}}, {"type": "Feature", "geometry": {"type": "Point", "coordinates": [71.707, 37.992]}, "properties": {"name": "", "v": 0}}, {"type": "Feature", "geometry": {"type": "Point", "coordinates": [71.832, 38.002]}, "properties": {"name": "", "v": 0}}, {"type": "Feature", "geometry": {"type": "Point", "coordinates": [71.865, 38.037]}, "properties": {"name": "", "v": 0}}, {"type": "Feature", "geometry": {"type": "Point", "coordinates": [71.863, 38.038]}, "properties": {"name": "", "v": 0}}, {"type": "Feature", "geometry": {"type": "Point", "coordinates": [71.874, 38.063]}, "properties": {"name": "", "v": 0}}, {"type": "Feature", "geometry": {"type": "Point", "coordinates": [71.939, 38.124]}, "properties": {"name": "", "v": 0}}, {"type": "Feature", "geometry": {"type": "Point", "coordinates": [71.94, 38.128]}, "properties": {"name": "", "v": 0}}, {"type": "Feature", "geometry": {"type": "Point", "coordinates": [71.945, 38.149]}, "properties": {"name": "", "v": 0}}, {"type": "Feature", "geometry": {"type": "Point", "coordinates": [71.945, 38.15]}, "properties": {"name": "", "v": 0}}, {"type": "Feature", "geometry": {"type": "Point", "coordinates": [71.597, 37.804]}, "properties": {"name": "\u0417\u0435\u0440\u0438\u0441\u0442\u0433\u043e\u04b3\u0438 35/10\u043a\u0412-\u0438 \"\u041f\u0430\u0441\u0442\u0431\u0430\u04b7\u0443\"", "v": 0}}, {"type": "Feature", "geometry": {"type": "Point", "coordinates": [71.546, 37.698]}, "properties": {"name": "\u0417\u0435\u0440\u0438\u0441\u0442\u0433\u043e\u04b3\u0438 35/10\u043a\u0412-\u0438 \"\u0411\u0443\u043d\u0438\"", "v": 0}}, {"type": "Feature", "geometry": {"type": "Point", "coordinates": [72.435, 36.483]}, "properties": {"name": "Power Station", "v": 0}}, {"type": "Feature", "geometry": {"type": "Point", "coordinates": [72.42, 36.471]}, "properties": {"name": "Power Station", "v": 0}}, {"type": "Feature", "geometry": {"type": "Point", "coordinates": [72.65, 36.405]}, "properties": {"name": "Power Station", "v": 0}}, {"type": "Feature", "geometry": {"type": "Point", "coordinates": [72.435, 36.481]}, "properties": {"name": "Power Station", "v": 0}}, {"type": "Feature", "geometry": {"type": "Point", "coordinates": [71.319, 37.911]}, "properties": {"name": "", "v": 0}}, {"type": "Feature", "geometry": {"type": "Point", "coordinates": [71.385, 37.913]}, "properties": {"name": "", "v": 0}}, {"type": "Feature", "geometry": {"type": "Point", "coordinates": [71.386, 37.918]}, "properties": {"name": "", "v": 0}}, {"type": "Feature", "geometry": {"type": "Point", "coordinates": [71.418, 37.922]}, "properties": {"name": "", "v": 0}}, {"type": "Feature", "geometry": {"type": "Point", "coordinates": [71.418, 37.923]}, "properties": {"name": "", "v": 0}}, {"type": "Feature", "geometry": {"type": "Point", "coordinates": [71.308, 37.924]}, "properties": {"name": "", "v": 0}}, {"type": "Feature", "geometry": {"type": "Point", "coordinates": [71.431, 37.925]}, "properties": {"name": "", "v": 0}}, {"type": "Feature", "geometry": {"type": "Point", "coordinates": [71.426, 37.926]}, "properties": {"name": "", "v": 0}}, {"type": "Feature", "geometry": {"type": "Point", "coordinates": [71.433, 37.927]}, "properties": {"name": "", "v": 0}}, {"type": "Feature", "geometry": {"type": "Point", "coordinates": [71.429, 37.928]}, "properties": {"name": "", "v": 0}}, {"type": "Feature", "geometry": {"type": "Point", "coordinates": [71.256, 37.928]}, "properties": {"name": "", "v": 0}}, {"type": "Feature", "geometry": {"type": "Point", "coordinates": [71.436, 37.928]}, "properties": {"name": "", "v": 0}}, {"type": "Feature", "geometry": {"type": "Point", "coordinates": [71.442, 37.933]}, "properties": {"name": "", "v": 0}}, {"type": "Feature", "geometry": {"type": "Point", "coordinates": [71.448, 37.935]}, "properties": {"name": "", "v": 0}}, {"type": "Feature", "geometry": {"type": "Point", "coordinates": [71.455, 37.936]}, "properties": {"name": "", "v": 0}}, {"type": "Feature", "geometry": {"type": "Point", "coordinates": [71.456, 37.937]}, "properties": {"name": "", "v": 0}}, {"type": "Feature", "geometry": {"type": "Point", "coordinates": [71.459, 37.937]}, "properties": {"name": "", "v": 0}}, {"type": "Feature", "geometry": {"type": "Point", "coordinates": [71.452, 37.937]}, "properties": {"name": "", "v": 0}}, {"type": "Feature", "geometry": {"type": "Point", "coordinates": [71.464, 37.941]}, "properties": {"name": "", "v": 0}}, {"type": "Feature", "geometry": {"type": "Point", "coordinates": [71.455, 37.942]}, "properties": {"name": "", "v": 0}}, {"type": "Feature", "geometry": {"type": "Point", "coordinates": [71.479, 37.95]}, "properties": {"name": "", "v": 0}}, {"type": "Feature", "geometry": {"type": "Point", "coordinates": [71.276, 37.96]}, "properties": {"name": "", "v": 0}}, {"type": "Feature", "geometry": {"type": "Point", "coordinates": [71.339, 38.119]}, "properties": {"name": "", "v": 0}}, {"type": "Feature", "geometry": {"type": "Point", "coordinates": [71.473, 38.205]}, "properties": {"name": "", "v": 0}}, {"type": "Feature", "geometry": {"type": "Point", "coordinates": [71.488, 38.218]}, "properties": {"name": "", "v": 0}}, {"type": "Feature", "geometry": {"type": "Point", "coordinates": [71.525, 38.227]}, "properties": {"name": "", "v": 0}}, {"type": "Feature", "geometry": {"type": "Point", "coordinates": [71.541, 38.233]}, "properties": {"name": "", "v": 0}}, {"type": "Feature", "geometry": {"type": "Point", "coordinates": [71.574, 38.273]}, "properties": {"name": "", "v": 0}}, {"type": "Feature", "geometry": {"type": "Point", "coordinates": [71.417, 38.336]}, "properties": {"name": "", "v": 0}}, {"type": "Feature", "geometry": {"type": "Point", "coordinates": [71.41, 38.338]}, "properties": {"name": "", "v": 0}}, {"type": "Feature", "geometry": {"type": "Point", "coordinates": [71.325, 36.091]}, "properties": {"name": "Power Station", "v": 0}}, {"type": "Feature", "geometry": {"type": "Point", "coordinates": [71.627, 36.005]}, "properties": {"name": "Power Hause", "v": 0}}, {"type": "Feature", "geometry": {"type": "Point", "coordinates": [71.6, 37.868]}, "properties": {"name": "\u0417\u0435\u0440\u0438\u0441\u0442\u0433\u043e\u04b3\u0438 35/10\u043a\u0412-\u0438 \"\u041f\u0430\u0441\u0442\u0445\u0443\u0432\"", "v": 0}}, {"type": "Feature", "geometry": {"type": "Point", "coordinates": [71.265, 37.951]}, "properties": {"name": "\u0417\u0435\u0440\u0438\u0441\u0442\u0433\u043e\u04b3\u0438 35/10\u043a\u0412-\u0438 \"\u0412\u043e\u0437\u043d\u0430\u0432\u0434\"", "v": 0}}, {"type": "Feature", "geometry": {"type": "Point", "coordinates": [71.557, 37.942]}, "properties": {"name": "", "v": 0}}, {"type": "Feature", "geometry": {"type": "Point", "coordinates": [71.568, 37.947]}, "properties": {"name": "", "v": 0}}, {"type": "Feature", "geometry": {"type": "Point", "coordinates": [58.353, 37.964]}, "properties": {"name": "\u0422\u043f-0012", "v": 0}}, {"type": "Feature", "geometry": {"type": "Point", "coordinates": [58.358, 37.965]}, "properties": {"name": "\u0422\u043f0809", "v": 0}}, {"type": "Feature", "geometry": {"type": "Point", "coordinates": [58.354, 37.966]}, "properties": {"name": "\u0422\u043f-1109", "v": 0}}, {"type": "Feature", "geometry": {"type": "Point", "coordinates": [58.361, 37.967]}, "properties": {"name": "\u0422\u043f-0226", "v": 0}}, {"type": "Feature", "geometry": {"type": "Point", "coordinates": [58.36, 37.967]}, "properties": {"name": "\u0422\u043f-0120", "v": 0}}, {"type": "Feature", "geometry": {"type": "Point", "coordinates": [58.325, 37.974]}, "properties": {"name": "\u0422\u043f-2399", "v": 0}}, {"type": "Feature", "geometry": {"type": "Point", "coordinates": [58.323, 37.976]}, "properties": {"name": "\u0420-237", "v": 0}}, {"type": "Feature", "geometry": {"type": "Point", "coordinates": [58.326, 37.977]}, "properties": {"name": "\u0420\u043f-198", "v": 0}}, {"type": "Feature", "geometry": {"type": "Point", "coordinates": [58.334, 37.98]}, "properties": {"name": "\u0420\u043f-196", "v": 0}}, {"type": "Feature", "geometry": {"type": "Point", "coordinates": [58.327, 37.98]}, "properties": {"name": "\u0422\u043f-2319", "v": 0}}, {"type": "Feature", "geometry": {"type": "Point", "coordinates": [58.334, 37.981]}, "properties": {"name": "\u0422\u043f-2333", "v": 0}}, {"type": "Feature", "geometry": {"type": "Point", "coordinates": [58.34, 37.996]}, "properties": {"name": "\u0422\u043f-1535", "v": 0}}, {"type": "Feature", "geometry": {"type": "Point", "coordinates": [58.251, 38.009]}, "properties": {"name": "\u041f/\u0441\u0442-140", "v": 0}}, {"type": "Feature", "geometry": {"type": "Point", "coordinates": [58.299, 38.016]}, "properties": {"name": "\u041f/\u0441\u0442-337", "v": 0}}, {"type": "Feature", "geometry": {"type": "Point", "coordinates": [58.24, 38.032]}, "properties": {"name": "\u041f/\u0441\u0442-149", "v": 0}}, {"type": "Feature", "geometry": {"type": "Point", "coordinates": [58.289, 38.04]}, "properties": {"name": "\u041f/\u0441\u0442-132", "v": 0}}, {"type": "Feature", "geometry": {"type": "Point", "coordinates": [58.3, 38.091]}, "properties": {"name": "\u0417\u0440\u0443-10", "v": 0}}, {"type": "Feature", "geometry": {"type": "Point", "coordinates": [58.292, 38.094]}, "properties": {"name": "\u0420\u043f-255", "v": 0}}, {"type": "Feature", "geometry": {"type": "Point", "coordinates": [58.292, 38.094]}, "properties": {"name": "\u0420\u043f-257", "v": 0}}, {"type": "Feature", "geometry": {"type": "Point", "coordinates": [58.311, 38.097]}, "properties": {"name": "\u0420\u043f-258", "v": 0}}, {"type": "Feature", "geometry": {"type": "Point", "coordinates": [58.328, 37.873]}, "properties": {"name": "\u0422\u043f-2912", "v": 0}}, {"type": "Feature", "geometry": {"type": "Point", "coordinates": [58.359, 37.88]}, "properties": {"name": "\u0422\u043f-3248", "v": 0}}, {"type": "Feature", "geometry": {"type": "Point", "coordinates": [58.382, 37.889]}, "properties": {"name": "\u0422\u043f-2672", "v": 0}}, {"type": "Feature", "geometry": {"type": "Point", "coordinates": [58.361, 37.891]}, "properties": {"name": "\u0422\u043f-3195", "v": 0}}, {"type": "Feature", "geometry": {"type": "Point", "coordinates": [58.361, 37.892]}, "properties": {"name": "\u0420\u043f-138", "v": 0}}, {"type": "Feature", "geometry": {"type": "Point", "coordinates": [58.351, 37.892]}, "properties": {"name": "\u0420\u043f-078", "v": 0}}, {"type": "Feature", "geometry": {"type": "Point", "coordinates": [58.38, 37.892]}, "properties": {"name": "\u0422\u043f-2671", "v": 0}}, {"type": "Feature", "geometry": {"type": "Point", "coordinates": [58.39, 37.896]}, "properties": {"name": "\u0422\u043f-1061", "v": 0}}, {"type": "Feature", "geometry": {"type": "Point", "coordinates": [58.396, 37.897]}, "properties": {"name": "\u0422\u043f-1048", "v": 0}}, {"type": "Feature", "geometry": {"type": "Point", "coordinates": [58.39, 37.897]}, "properties": {"name": "\u0422\u043f-1045(\u043d\u043e\u0432)", "v": 0}}, {"type": "Feature", "geometry": {"type": "Point", "coordinates": [58.392, 37.898]}, "properties": {"name": "\u0422\u043f-1049", "v": 0}}, {"type": "Feature", "geometry": {"type": "Point", "coordinates": [58.354, 37.901]}, "properties": {"name": "\u0420\u043f-149", "v": 0}}, {"type": "Feature", "geometry": {"type": "Point", "coordinates": [58.385, 37.908]}, "properties": {"name": "\u0420\u043f-036", "v": 0}}, {"type": "Feature", "geometry": {"type": "Point", "coordinates": [58.393, 37.908]}, "properties": {"name": "\u041f/\u0441\u0442-102", "v": 0}}, {"type": "Feature", "geometry": {"type": "Point", "coordinates": [58.353, 37.911]}, "properties": {"name": "\u0420\u043f-176", "v": 0}}, {"type": "Feature", "geometry": {"type": "Point", "coordinates": [58.396, 37.912]}, "properties": {"name": "\u0422\u043f-0960", "v": 0}}, {"type": "Feature", "geometry": {"type": "Point", "coordinates": [58.369, 37.914]}, "properties": {"name": "\u0420\u043f-192", "v": 0}}, {"type": "Feature", "geometry": {"type": "Point", "coordinates": [58.37, 37.915]}, "properties": {"name": "\u0422\u043f-1694", "v": 0}}, {"type": "Feature", "geometry": {"type": "Point", "coordinates": [58.344, 37.916]}, "properties": {"name": "\u0422\u043f-2242", "v": 0}}, {"type": "Feature", "geometry": {"type": "Point", "coordinates": [58.345, 37.917]}, "properties": {"name": "\u0420\u043f-122", "v": 0}}, {"type": "Feature", "geometry": {"type": "Point", "coordinates": [58.39, 37.919]}, "properties": {"name": "\u0422\u043f-1953", "v": 0}}, {"type": "Feature", "geometry": {"type": "Point", "coordinates": [58.39, 37.919]}, "properties": {"name": "\u0422\u043f-1952", "v": 0}}, {"type": "Feature", "geometry": {"type": "Point", "coordinates": [58.395, 37.92]}, "properties": {"name": "\u0422\u043f-0308", "v": 0}}, {"type": "Feature", "geometry": {"type": "Point", "coordinates": [58.395, 37.921]}, "properties": {"name": "\u0422\u043f-0409", "v": 0}}, {"type": "Feature", "geometry": {"type": "Point", "coordinates": [58.37, 37.922]}, "properties": {"name": "\u0420\u043f-194", "v": 0}}, {"type": "Feature", "geometry": {"type": "Point", "coordinates": [58.302, 37.922]}, "properties": {"name": "\u041f/\u0441\u0442-314", "v": 0}}, {"type": "Feature", "geometry": {"type": "Point", "coordinates": [58.366, 37.926]}, "properties": {"name": "\u041f/\u0441\u0442-409", "v": 0}}, {"type": "Feature", "geometry": {"type": "Point", "coordinates": [58.388, 37.927]}, "properties": {"name": "\u041f/\u0441\u0442-319", "v": 0}}, {"type": "Feature", "geometry": {"type": "Point", "coordinates": [58.366, 37.93]}, "properties": {"name": "\u0422\u043f-1238", "v": 0}}, {"type": "Feature", "geometry": {"type": "Point", "coordinates": [58.393, 37.93]}, "properties": {"name": "\u0422\u043f-0451", "v": 0}}, {"type": "Feature", "geometry": {"type": "Point", "coordinates": [58.365, 37.931]}, "properties": {"name": "\u0422\u043f-1239", "v": 0}}, {"type": "Feature", "geometry": {"type": "Point", "coordinates": [58.354, 37.933]}, "properties": {"name": "\u0422\u043f-1430", "v": 0}}, {"type": "Feature", "geometry": {"type": "Point", "coordinates": [58.392, 37.933]}, "properties": {"name": "\u0422\u043f-1250", "v": 0}}, {"type": "Feature", "geometry": {"type": "Point", "coordinates": [58.391, 37.934]}, "properties": {"name": "\u0422\u043f0358", "v": 0}}, {"type": "Feature", "geometry": {"type": "Point", "coordinates": [58.396, 37.913]}, "properties": {"name": "\u0420\u043f-023", "v": 0}}, {"type": "Feature", "geometry": {"type": "Point", "coordinates": [58.396, 37.919]}, "properties": {"name": "\u0422\u043f(\u043d\u043e\u0432\u043e\u0435)", "v": 0}}, {"type": "Feature", "geometry": {"type": "Point", "coordinates": [58.396, 37.919]}, "properties": {"name": "\u0422\u043f-0945", "v": 0}}, {"type": "Feature", "geometry": {"type": "Point", "coordinates": [58.397, 37.912]}, "properties": {"name": "\u041f/\u0441\u0442-404", "v": 0}}, {"type": "Feature", "geometry": {"type": "Point", "coordinates": [58.399, 37.908]}, "properties": {"name": "\u0422\u043f-1091", "v": 0}}, {"type": "Feature", "geometry": {"type": "Point", "coordinates": [58.371, 37.931]}, "properties": {"name": "\u0422\u043f-1224", "v": 0}}, {"type": "Feature", "geometry": {"type": "Point", "coordinates": [58.36, 37.937]}, "properties": {"name": "\u0420\u043f-210", "v": 0}}, {"type": "Feature", "geometry": {"type": "Point", "coordinates": [58.348, 37.938]}, "properties": {"name": "\u0422\u043f-208", "v": 0}}, {"type": "Feature", "geometry": {"type": "Point", "coordinates": [58.364, 37.944]}, "properties": {"name": "\u0422\u043f-1193", "v": 0}}, {"type": "Feature", "geometry": {"type": "Point", "coordinates": [58.364, 37.944]}, "properties": {"name": "\u0422\u043f-0028", "v": 0}}, {"type": "Feature", "geometry": {"type": "Point", "coordinates": [58.351, 37.947]}, "properties": {"name": "\u0422\u043f-1257", "v": 0}}, {"type": "Feature", "geometry": {"type": "Point", "coordinates": [58.351, 37.947]}, "properties": {"name": "\u0422\u043f-0090", "v": 0}}, {"type": "Feature", "geometry": {"type": "Point", "coordinates": [58.344, 37.947]}, "properties": {"name": "\u0422\u043f-0706", "v": 0}}, {"type": "Feature", "geometry": {"type": "Point", "coordinates": [58.347, 37.947]}, "properties": {"name": "\u0422\u043f-0444", "v": 0}}, {"type": "Feature", "geometry": {"type": "Point", "coordinates": [58.363, 37.95]}, "properties": {"name": "\u0422\u043f-0020", "v": 0}}, {"type": "Feature", "geometry": {"type": "Point", "coordinates": [58.36, 37.95]}, "properties": {"name": "\u0422\u043f-0122", "v": 0}}, {"type": "Feature", "geometry": {"type": "Point", "coordinates": [58.356, 37.951]}, "properties": {"name": "\u0422\u043f-0026", "v": 0}}, {"type": "Feature", "geometry": {"type": "Point", "coordinates": [58.356, 37.952]}, "properties": {"name": "\u0422\u043f-0016", "v": 0}}, {"type": "Feature", "geometry": {"type": "Point", "coordinates": [58.356, 37.952]}, "properties": {"name": "\u0422\u043f-0815", "v": 0}}, {"type": "Feature", "geometry": {"type": "Point", "coordinates": [58.356, 37.953]}, "properties": {"name": "\u0422\u043f-1415", "v": 0}}, {"type": "Feature", "geometry": {"type": "Point", "coordinates": [58.334, 37.953]}, "properties": {"name": "\u0422\u043f-0194", "v": 0}}, {"type": "Feature", "geometry": {"type": "Point", "coordinates": [58.357, 37.955]}, "properties": {"name": "\u0422\u043f-0092", "v": 0}}, {"type": "Feature", "geometry": {"type": "Point", "coordinates": [58.359, 37.957]}, "properties": {"name": "\u0422\u043f-0099", "v": 0}}, {"type": "Feature", "geometry": {"type": "Point", "coordinates": [58.365, 37.96]}, "properties": {"name": "\u0421\u0418\u0417\u041f", "v": 0}}, {"type": "Feature", "geometry": {"type": "Point", "coordinates": [72.802, 40.547]}, "properties": {"name": "", "v": 0}}, {"type": "Feature", "geometry": {"type": "Point", "coordinates": [72.805, 40.549]}, "properties": {"name": "", "v": 0}}, {"type": "Feature", "geometry": {"type": "Point", "coordinates": [72.807, 40.549]}, "properties": {"name": "", "v": 0}}, {"type": "Feature", "geometry": {"type": "Point", "coordinates": [72.805, 40.551]}, "properties": {"name": "", "v": 0}}, {"type": "Feature", "geometry": {"type": "Point", "coordinates": [72.808, 40.551]}, "properties": {"name": "", "v": 0}}, {"type": "Feature", "geometry": {"type": "Point", "coordinates": [84.043, 49.104]}, "properties": {"name": "", "v": 0}}, {"type": "Feature", "geometry": {"type": "Point", "coordinates": [73.66, 48.763]}, "properties": {"name": "", "v": 0}}, {"type": "Feature", "geometry": {"type": "Point", "coordinates": [84.049, 49.11]}, "properties": {"name": "", "v": 0}}, {"type": "Feature", "geometry": {"type": "Point", "coordinates": [84.032, 49.109]}, "properties": {"name": "", "v": 0}}, {"type": "Feature", "geometry": {"type": "Point", "coordinates": [84.043, 49.106]}, "properties": {"name": "", "v": 0}}, {"type": "Feature", "geometry": {"type": "Point", "coordinates": [76.009, 48.156]}, "properties": {"name": "\u0442\u043f 674", "v": 0}}, {"type": "Feature", "geometry": {"type": "Point", "coordinates": [61.545, 54.036]}, "properties": {"name": "", "v": 0}}, {"type": "Feature", "geometry": {"type": "Point", "coordinates": [61.731, 54.037]}, "properties": {"name": "", "v": 0}}, {"type": "Feature", "geometry": {"type": "Point", "coordinates": [66.784, 53.204]}, "properties": {"name": "", "v": 0}}, {"type": "Feature", "geometry": {"type": "Point", "coordinates": [69.165, 52.923]}, "properties": {"name": "\u041f\u0421 110/35/10 \u043a\u0412 \u0417\u0430\u0440\u0435\u043d\u0434\u0430", "v": 0}}, {"type": "Feature", "geometry": {"type": "Point", "coordinates": [69.251, 53.311]}, "properties": {"name": "", "v": 0}}, {"type": "Feature", "geometry": {"type": "Point", "coordinates": [70.151, 52.922]}, "properties": {"name": "", "v": 0}}, {"type": "Feature", "geometry": {"type": "Point", "coordinates": [70.202, 53.013]}, "properties": {"name": "", "v": 0}}, {"type": "Feature", "geometry": {"type": "Point", "coordinates": [70.425, 52.941]}, "properties": {"name": "", "v": 0}}, {"type": "Feature", "geometry": {"type": "Point", "coordinates": [77.426, 52.92]}, "properties": {"name": "", "v": 0}}, {"type": "Feature", "geometry": {"type": "Point", "coordinates": [69.086, 54.826]}, "properties": {"name": "", "v": 0}}, {"type": "Feature", "geometry": {"type": "Point", "coordinates": [69.086, 54.826]}, "properties": {"name": "", "v": 0}}, {"type": "Feature", "geometry": {"type": "Point", "coordinates": [69.087, 54.826]}, "properties": {"name": "", "v": 0}}, {"type": "Feature", "geometry": {"type": "Point", "coordinates": [69.087, 54.826]}, "properties": {"name": "", "v": 0}}, {"type": "Feature", "geometry": {"type": "Point", "coordinates": [69.216, 54.847]}, "properties": {"name": "\u0411\u0430\u0437\u0430 \u041f\u041c\u0421 26", "v": 0}}, {"type": "Feature", "geometry": {"type": "Point", "coordinates": [63.506, 49.639]}, "properties": {"name": "", "v": 0}}, {"type": "Feature", "geometry": {"type": "Point", "coordinates": [72.585, 49.692]}, "properties": {"name": "", "v": 0}}, {"type": "Feature", "geometry": {"type": "Point", "coordinates": [57.105, 50.281]}, "properties": {"name": "\u041a\u0422\u041f-3 \u042e\u0433\u043e-\u0417\u0430\u043f\u0430\u0434", "v": 0}}, {"type": "Feature", "geometry": {"type": "Point", "coordinates": [57.173, 50.289]}, "properties": {"name": "\u0422\u041f-81/2", "v": 0}}, {"type": "Feature", "geometry": {"type": "Point", "coordinates": [57.188, 50.276]}, "properties": {"name": "\u0422\u041f-76/12\u043c\u043a\u0440", "v": 0}}, {"type": "Feature", "geometry": {"type": "Point", "coordinates": [57.193, 50.274]}, "properties": {"name": "\u0422\u041f-70/12 \u043c\u043a\u0440", "v": 0}}, {"type": "Feature", "geometry": {"type": "Point", "coordinates": [57.193, 50.276]}, "properties": {"name": "\u0422\u041f-70/12 \u043c\u043a\u0440", "v": 0}}, {"type": "Feature", "geometry": {"type": "Point", "coordinates": [57.195, 50.278]}, "properties": {"name": "\u0422\u041f-72/12 \u043c\u043a\u0440", "v": 0}}, {"type": "Feature", "geometry": {"type": "Point", "coordinates": [57.197, 50.281]}, "properties": {"name": "\u0422\u041f-126/11\u043c\u043a\u0440", "v": 0}}, {"type": "Feature", "geometry": {"type": "Point", "coordinates": [57.219, 50.26]}, "properties": {"name": "", "v": 0}}, {"type": "Feature", "geometry": {"type": "Point", "coordinates": [57.22, 50.258]}, "properties": {"name": "", "v": 0}}, {"type": "Feature", "geometry": {"type": "Point", "coordinates": [57.223, 50.261]}, "properties": {"name": "", "v": 0}}, {"type": "Feature", "geometry": {"type": "Point", "coordinates": [57.224, 50.259]}, "properties": {"name": "", "v": 0}}, {"type": "Feature", "geometry": {"type": "Point", "coordinates": [57.225, 50.263]}, "properties": {"name": "", "v": 0}}, {"type": "Feature", "geometry": {"type": "Point", "coordinates": [57.227, 50.257]}, "properties": {"name": "", "v": 0}}, {"type": "Feature", "geometry": {"type": "Point", "coordinates": [82.734, 50.042]}, "properties": {"name": "", "v": 0}}, {"type": "Feature", "geometry": {"type": "Point", "coordinates": [81.846, 50.554]}, "properties": {"name": "", "v": 0}}, {"type": "Feature", "geometry": {"type": "Point", "coordinates": [81.795, 50.588]}, "properties": {"name": "", "v": 0}}, {"type": "Feature", "geometry": {"type": "Point", "coordinates": [72.693, 50.055]}, "properties": {"name": "", "v": 0}}, {"type": "Feature", "geometry": {"type": "Point", "coordinates": [81.786, 50.587]}, "properties": {"name": "", "v": 0}}, {"type": "Feature", "geometry": {"type": "Point", "coordinates": [72.963, 50.049]}, "properties": {"name": "", "v": 0}}, {"type": "Feature", "geometry": {"type": "Point", "coordinates": [57.359, 50.328]}, "properties": {"name": "", "v": 0}}, {"type": "Feature", "geometry": {"type": "Point", "coordinates": [57.359, 50.328]}, "properties": {"name": "", "v": 0}}, {"type": "Feature", "geometry": {"type": "Point", "coordinates": [57.362, 50.325]}, "properties": {"name": "", "v": 0}}, {"type": "Feature", "geometry": {"type": "Point", "coordinates": [57.366, 50.323]}, "properties": {"name": "", "v": 0}}, {"type": "Feature", "geometry": {"type": "Point", "coordinates": [57.336, 50.323]}, "properties": {"name": "", "v": 0}}, {"type": "Feature", "geometry": {"type": "Point", "coordinates": [57.346, 50.322]}, "properties": {"name": "\u0422\u041f-41/18", "v": 0}}, {"type": "Feature", "geometry": {"type": "Point", "coordinates": [57.366, 50.322]}, "properties": {"name": "", "v": 0}}, {"type": "Feature", "geometry": {"type": "Point", "coordinates": [57.337, 50.322]}, "properties": {"name": "\u0422\u041f-52/4", "v": 0}}, {"type": "Feature", "geometry": {"type": "Point", "coordinates": [57.368, 50.322]}, "properties": {"name": "", "v": 0}}, {"type": "Feature", "geometry": {"type": "Point", "coordinates": [57.363, 50.321]}, "properties": {"name": "", "v": 0}}, {"type": "Feature", "geometry": {"type": "Point", "coordinates": [57.37, 50.32]}, "properties": {"name": "", "v": 0}}, {"type": "Feature", "geometry": {"type": "Point", "coordinates": [57.332, 50.32]}, "properties": {"name": "\u0422\u041f-50/5", "v": 0}}, {"type": "Feature", "geometry": {"type": "Point", "coordinates": [57.341, 50.32]}, "properties": {"name": "\u0422\u041f-44/15", "v": 0}}, {"type": "Feature", "geometry": {"type": "Point", "coordinates": [70.118, 51.289]}, "properties": {"name": "", "v": 0}}, {"type": "Feature", "geometry": {"type": "Point", "coordinates": [70.776, 51.325]}, "properties": {"name": "", "v": 0}}, {"type": "Feature", "geometry": {"type": "Point", "coordinates": [71.346, 50.977]}, "properties": {"name": "", "v": 0}}, {"type": "Feature", "geometry": {"type": "Point", "coordinates": [71.364, 51.2]}, "properties": {"name": "", "v": 0}}, {"type": "Feature", "geometry": {"type": "Point", "coordinates": [71.377, 51.207]}, "properties": {"name": "", "v": 0}}, {"type": "Feature", "geometry": {"type": "Point", "coordinates": [71.526, 51.138]}, "properties": {"name": "", "v": 0}}, {"type": "Feature", "geometry": {"type": "Point", "coordinates": [71.633, 51.255]}, "properties": {"name": "", "v": 0}}, {"type": "Feature", "geometry": {"type": "Point", "coordinates": [71.651, 51.115]}, "properties": {"name": "", "v": 0}}, {"type": "Feature", "geometry": {"type": "Point", "coordinates": [71.813, 51.052]}, "properties": {"name": "", "v": 0}}, {"type": "Feature", "geometry": {"type": "Point", "coordinates": [77.469, 51.518]}, "properties": {"name": "", "v": 0}}, {"type": "Feature", "geometry": {"type": "Point", "coordinates": [77.791, 51.474]}, "properties": {"name": "", "v": 0}}, {"type": "Feature", "geometry": {"type": "Point", "coordinates": [81.476, 50.989]}, "properties": {"name": "", "v": 0}}, {"type": "Feature", "geometry": {"type": "Point", "coordinates": [57.232, 50.314]}, "properties": {"name": "KTP \u041a\u0456\u0440\u043f\u0456\u0448", "v": 0}}, {"type": "Feature", "geometry": {"type": "Point", "coordinates": [57.232, 50.28]}, "properties": {"name": "\u0422\u041f-70/1", "v": 0}}, {"type": "Feature", "geometry": {"type": "Point", "coordinates": [57.233, 50.277]}, "properties": {"name": "\u0422\u041f-90/1", "v": 0}}, {"type": "Feature", "geometry": {"type": "Point", "coordinates": [57.239, 50.315]}, "properties": {"name": "\u0422\u041f-\u041a\u0438\u0440\u043f\u0438\u0447\u043d\u044b\u0439", "v": 0}}, {"type": "Feature", "geometry": {"type": "Point", "coordinates": [57.242, 50.315]}, "properties": {"name": "\u0422\u041f-\u0416\u0430\u0442\u0430\u049b\u0445\u0430\u043d\u0430", "v": 0}}, {"type": "Feature", "geometry": {"type": "Point", "coordinates": [57.245, 50.317]}, "properties": {"name": "\u041a\u0422\u041f-3 \u041a\u0438\u0440\u043f\u0438\u0447\u043d\u044b\u0439", "v": 0}}, {"type": "Feature", "geometry": {"type": "Point", "coordinates": [57.275, 50.302]}, "properties": {"name": "\u041a\u0422\u041f-6 \u0417\u0430\u0440\u0435\u0447\u043d\u044b\u0439", "v": 0}}, {"type": "Feature", "geometry": {"type": "Point", "coordinates": [57.275, 50.295]}, "properties": {"name": "\u041a\u0422\u041f-12 \u0417\u0430\u0440\u0435\u0447\u043d\u044b\u0439 2", "v": 0}}, {"type": "Feature", "geometry": {"type": "Point", "coordinates": [57.275, 50.3]}, "properties": {"name": "\u041a\u0422\u041f-4 \u0417\u0430\u0440\u0435\u0447\u043d\u044b\u0439 2", "v": 0}}, {"type": "Feature", "geometry": {"type": "Point", "coordinates": [57.278, 50.302]}, "properties": {"name": "\u041a\u0422\u041f-5 \u0417\u0430\u0440\u0435\u0447\u043d\u044b\u0439 2", "v": 0}}, {"type": "Feature", "geometry": {"type": "Point", "coordinates": [57.279, 50.303]}, "properties": {"name": "\u041a\u0422\u041f-7 \u0417\u0430\u0440\u0435\u0447\u043d\u044b\u0439 2", "v": 0}}, {"type": "Feature", "geometry": {"type": "Point", "coordinates": [57.282, 50.3]}, "properties": {"name": "\u041a\u0422\u041f\u0413-9 \u0417\u0430\u0440\u0435\u0447\u043d\u044b\u0439 2", "v": 0}}, {"type": "Feature", "geometry": {"type": "Point", "coordinates": [57.328, 50.317]}, "properties": {"name": "\u0422\u041f-47/2", "v": 0}}, {"type": "Feature", "geometry": {"type": "Point", "coordinates": [57.331, 50.319]}, "properties": {"name": "", "v": 0}}, {"type": "Feature", "geometry": {"type": "Point", "coordinates": [57.331, 50.316]}, "properties": {"name": "", "v": 0}}, {"type": "Feature", "geometry": {"type": "Point", "coordinates": [57.332, 50.316]}, "properties": {"name": "\u0422\u041f-56/11", "v": 0}}, {"type": "Feature", "geometry": {"type": "Point", "coordinates": [57.334, 50.314]}, "properties": {"name": "\u0422\u041f-62/17", "v": 0}}, {"type": "Feature", "geometry": {"type": "Point", "coordinates": [57.335, 50.318]}, "properties": {"name": "\u0422\u041f-58/13", "v": 0}}, {"type": "Feature", "geometry": {"type": "Point", "coordinates": [57.337, 50.316]}, "properties": {"name": "\u0422\u041f-60/15", "v": 0}}, {"type": "Feature", "geometry": {"type": "Point", "coordinates": [57.337, 50.317]}, "properties": {"name": "\u0422\u041f-59/14", "v": 0}}, {"type": "Feature", "geometry": {"type": "Point", "coordinates": [57.339, 50.318]}, "properties": {"name": "\u0422\u041f-46/13", "v": 0}}, {"type": "Feature", "geometry": {"type": "Point", "coordinates": [57.365, 50.319]}, "properties": {"name": "", "v": 0}}, {"type": "Feature", "geometry": {"type": "Point", "coordinates": [57.367, 50.317]}, "properties": {"name": "", "v": 0}}, {"type": "Feature", "geometry": {"type": "Point", "coordinates": [57.368, 50.319]}, "properties": {"name": "", "v": 0}}, {"type": "Feature", "geometry": {"type": "Point", "coordinates": [57.37, 50.318]}, "properties": {"name": "", "v": 0}}, {"type": "Feature", "geometry": {"type": "Point", "coordinates": [57.371, 50.319]}, "properties": {"name": "", "v": 0}}, {"type": "Feature", "geometry": {"type": "Point", "coordinates": [57.372, 50.32]}, "properties": {"name": "", "v": 0}}, {"type": "Feature", "geometry": {"type": "Point", "coordinates": [61.629, 50.239]}, "properties": {"name": "", "v": 0}}, {"type": "Feature", "geometry": {"type": "Point", "coordinates": [61.654, 50.351]}, "properties": {"name": "", "v": 0}}, {"type": "Feature", "geometry": {"type": "Point", "coordinates": [61.871, 50.18]}, "properties": {"name": "", "v": 0}}, {"type": "Feature", "geometry": {"type": "Point", "coordinates": [62.119, 50.073]}, "properties": {"name": "", "v": 0}}, {"type": "Feature", "geometry": {"type": "Point", "coordinates": [57.333, 50.314]}, "properties": {"name": "\u0420\u041f-2 \u041d\u0443\u0440 \u0421\u0438\u0442\u0438", "v": 0}}, {"type": "Feature", "geometry": {"type": "Point", "coordinates": [57.33, 50.314]}, "properties": {"name": "\u0422\u041f-63/18", "v": 0}}, {"type": "Feature", "geometry": {"type": "Point", "coordinates": [57.333, 50.313]}, "properties": {"name": "\u0422\u041f-64/19", "v": 0}}, {"type": "Feature", "geometry": {"type": "Point", "coordinates": [57.152, 50.295]}, "properties": {"name": "\u0422\u041f-66/2", "v": 0}}, {"type": "Feature", "geometry": {"type": "Point", "coordinates": [57.161, 50.295]}, "properties": {"name": "\u0422\u041f-53/2", "v": 0}}, {"type": "Feature", "geometry": {"type": "Point", "coordinates": [57.151, 50.301]}, "properties": {"name": "\u0420\u041f-3", "v": 0}}, {"type": "Feature", "geometry": {"type": "Point", "coordinates": [57.154, 50.296]}, "properties": {"name": "\u0422\u041f-142", "v": 0}}, {"type": "Feature", "geometry": {"type": "Point", "coordinates": [57.158, 50.297]}, "properties": {"name": "\u0422\u041f-52/2", "v": 0}}, {"type": "Feature", "geometry": {"type": "Point", "coordinates": [57.15, 50.297]}, "properties": {"name": "\u0422\u041f-59\u0416", "v": 0}}, {"type": "Feature", "geometry": {"type": "Point", "coordinates": [57.152, 50.294]}, "properties": {"name": "\u0422\u041f-102", "v": 0}}, {"type": "Feature", "geometry": {"type": "Point", "coordinates": [57.153, 50.299]}, "properties": {"name": "\u0422\u041f-48", "v": 0}}, {"type": "Feature", "geometry": {"type": "Point", "coordinates": [57.152, 50.299]}, "properties": {"name": "\u0422\u041f-49", "v": 0}}, {"type": "Feature", "geometry": {"type": "Point", "coordinates": [57.149, 50.304]}, "properties": {"name": "\u0422\u041f-56", "v": 0}}, {"type": "Feature", "geometry": {"type": "Point", "coordinates": [57.151, 50.296]}, "properties": {"name": "\u0422\u041f-40/2", "v": 0}}, {"type": "Feature", "geometry": {"type": "Point", "coordinates": [57.154, 50.297]}, "properties": {"name": "\u0422\u041f-67", "v": 0}}, {"type": "Feature", "geometry": {"type": "Point", "coordinates": [64.007, 49.772]}, "properties": {"name": "", "v": 0}}, {"type": "Feature", "geometry": {"type": "Point", "coordinates": [73.089, 49.775]}, "properties": {"name": "", "v": 0}}]}