{"type": "FeatureCollection", "features": [{"type": "Feature", "id": 0, "geometry": {"type": "Point", "coordinates": [-78.705, 22.009]}, "properties": {"name": "Ciro Redondo power station", "fuel": "biomass", "mw": 60.0, "country": "CUB", "status": "operating"}}, {"type": "Feature", "id": 1, "geometry": {"type": "Point", "coordinates": [-69.331, 18.466]}, "properties": {"name": "San Pedro power station (Dominican Republic)", "fuel": "biomass", "mw": 30.0, "country": "DOM", "status": "operating"}}, {"type": "Feature", "id": 2, "geometry": {"type": "Point", "coordinates": [-81.886, 22.759]}, "properties": {"name": "Ingenio H\u00e9ctor Molina power station", "fuel": "biomass", "mw": 50.0, "country": "CUB", "status": "planned"}}, {"type": "Feature", "id": 3, "geometry": {"type": "Point", "coordinates": [-71.086, 18.22]}, "properties": {"name": "Ingenio Barahona Biomass power station", "fuel": "biomass", "mw": 7.0, "country": "DOM", "status": "operating"}}, {"type": "Feature", "id": 4, "geometry": {"type": "Point", "coordinates": [-69.33, 18.471]}, "properties": {"name": "Crist\u00f3bal Col\u00f3n Sugar power station", "fuel": "biomass", "mw": 7.0, "country": "DOM", "status": "operating"}}, {"type": "Feature", "id": 5, "geometry": {"type": "Point", "coordinates": [-68.453, 18.665]}, "properties": {"name": "Punta Cana WtE power station", "fuel": "biomass", "mw": 26.0, "country": "DOM", "status": "planned"}}, {"type": "Feature", "id": 6, "geometry": {"type": "Point", "coordinates": [-82.017, 23.182]}, "properties": {"name": "Boca de Jaruco power station", "fuel": "gas", "mw": 313.0, "country": "CUB", "status": "operating"}}, {"type": "Feature", "id": 7, "geometry": {"type": "Point", "coordinates": [-80.531, 22.2]}, "properties": {"name": "Camilo Cienfuegos power station", "fuel": "gas", "mw": 84.0, "country": "CUB", "status": "operating"}}, {"type": "Feature", "id": 8, "geometry": {"type": "Point", "coordinates": [-77.272, 21.567]}, "properties": {"name": "CT 10 de Octubre power station", "fuel": "gas", "mw": 125.0, "country": "CUB", "status": "operating"}}, {"type": "Feature", "id": 9, "geometry": {"type": "Point", "coordinates": [-75.597, 20.727]}, "properties": {"name": "CTE Lidio Ram\u00f3n P\u00e9rez power station", "fuel": "gas", "mw": 250.0, "country": "CUB", "status": "operating"}}, {"type": "Feature", "id": 10, "geometry": {"type": "Point", "coordinates": [-75.597, 20.727]}, "properties": {"name": "EG Felton Fuel Oil power station", "fuel": "gas", "mw": 60.0, "country": "CUB", "status": "operating"}}, {"type": "Feature", "id": 11, "geometry": {"type": "Point", "coordinates": [-74.859, 20.63]}, "properties": {"name": "EG Punta Gorda power station", "fuel": "gas", "mw": 174.0, "country": "CUB", "status": "operating"}}, {"type": "Feature", "id": 12, "geometry": {"type": "Point", "coordinates": [-82.338, 23.117]}, "properties": {"name": "Powership Erol Bey power station", "fuel": "gas", "mw": 63.0, "country": "CUB", "status": "operating"}}, {"type": "Feature", "id": 13, "geometry": {"type": "Point", "coordinates": [-82.749, 23.019]}, "properties": {"name": "Termoel\u00e9ctrica de Santa Cruz power station", "fuel": "gas", "mw": 200.0, "country": "CUB", "status": "planned"}}, {"type": "Feature", "id": 14, "geometry": {"type": "Point", "coordinates": [-81.269, 23.088]}, "properties": {"name": "Varadero power station", "fuel": "gas", "mw": 173.0, "country": "CUB", "status": "operating"}}, {"type": "Feature", "id": 15, "geometry": {"type": "Point", "coordinates": [-69.634, 18.407]}, "properties": {"name": "Andr\u00e9s power station", "fuel": "gas", "mw": 319.0, "country": "DOM", "status": "operating"}}, {"type": "Feature", "id": 16, "geometry": {"type": "Point", "coordinates": [-68.433, 18.664]}, "properties": {"name": "Bavaro power station", "fuel": "gas", "mw": 51.0, "country": "DOM", "status": "operating"}}, {"type": "Feature", "id": 17, "geometry": {"type": "Point", "coordinates": [-69.883, 18.484]}, "properties": {"name": "Estrella del Mar II power station", "fuel": "gas", "mw": 111.0, "country": "DOM", "status": "operating"}}, {"type": "Feature", "id": 18, "geometry": {"type": "Point", "coordinates": [-69.883, 18.483]}, "properties": {"name": "Estrella del Mar III power station", "fuel": "gas", "mw": 150.0, "country": "DOM", "status": "operating"}}, {"type": "Feature", "id": 19, "geometry": {"type": "Point", "coordinates": [-69.883, 18.482]}, "properties": {"name": "Estrella del Mar IV power station", "fuel": "gas", "mw": 145.0, "country": "DOM", "status": "planned"}}, {"type": "Feature", "id": 20, "geometry": {"type": "Point", "coordinates": [-70.355, 18.927]}, "properties": {"name": "Falcondo mine power station", "fuel": "gas", "mw": 66.0, "country": "DOM", "status": "operating"}}, {"type": "Feature", "id": 21, "geometry": {"type": "Point", "coordinates": [-70.355, 18.927]}, "properties": {"name": "Falcondo mine power station", "fuel": "gas", "mw": 66.0, "country": "DOM", "status": "operating"}}, {"type": "Feature", "id": 22, "geometry": {"type": "Point", "coordinates": [-70.355, 18.927]}, "properties": {"name": "Falcondo mine power station", "fuel": "gas", "mw": 66.0, "country": "DOM", "status": "operating"}}, {"type": "Feature", "id": 23, "geometry": {"type": "Point", "coordinates": [-70.55, 19.248]}, "properties": {"name": "La Vega power station", "fuel": "gas", "mw": 94.5, "country": "DOM", "status": "operating"}}, {"type": "Feature", "id": 24, "geometry": {"type": "Point", "coordinates": [-69.869, 18.499]}, "properties": {"name": "Los Mina power station", "fuel": "gas", "mw": 359.0, "country": "DOM", "status": "operating"}}, {"type": "Feature", "id": 25, "geometry": {"type": "Point", "coordinates": [-69.319, 18.468]}, "properties": {"name": "Los Or\u00edgenes power station", "fuel": "gas", "mw": 60.7, "country": "DOM", "status": "operating"}}, {"type": "Feature", "id": 26, "geometry": {"type": "Point", "coordinates": [-71.738, 19.695]}, "properties": {"name": "Manzanillo Energy power station", "fuel": "gas", "mw": 420.0, "country": "DOM", "status": "construction"}}, {"type": "Feature", "id": 27, "geometry": {"type": "Point", "coordinates": [-71.736, 19.699]}, "properties": {"name": "Manzanillo Gas & Power power station", "fuel": "gas", "mw": 420.0, "country": "DOM", "status": "construction"}}, {"type": "Feature", "id": 28, "geometry": {"type": "Point", "coordinates": [-71.702, 19.677]}, "properties": {"name": "Manzanillo Power Land power station", "fuel": "gas", "mw": 432.0, "country": "DOM", "status": "construction"}}, {"type": "Feature", "id": 29, "geometry": {"type": "Point", "coordinates": [-70.832, 18.351]}, "properties": {"name": "Monte Rio power station", "fuel": "gas", "mw": 101.4, "country": "DOM", "status": "operating"}}, {"type": "Feature", "id": 30, "geometry": {"type": "Point", "coordinates": [-70.013, 18.556]}, "properties": {"name": "Palamara power station", "fuel": "gas", "mw": 107.0, "country": "DOM", "status": "operating"}}, {"type": "Feature", "id": 31, "geometry": {"type": "Point", "coordinates": [-70.094, 19.204]}, "properties": {"name": "Pimentel 3 power station", "fuel": "gas", "mw": 51.0, "country": "DOM", "status": "operating"}}, {"type": "Feature", "id": 32, "geometry": {"type": "Point", "coordinates": [-70.839, 18.346]}, "properties": {"name": "Powership Azua power station", "fuel": "gas", "mw": 102.8, "country": "DOM", "status": "operating"}}, {"type": "Feature", "id": 33, "geometry": {"type": "Point", "coordinates": [-70.839, 18.346]}, "properties": {"name": "Powership Azua power station", "fuel": "gas", "mw": 73.8, "country": "DOM", "status": "operating"}}, {"type": "Feature", "id": 34, "geometry": {"type": "Point", "coordinates": [-69.351, 18.494]}, "properties": {"name": "Quisqueya 1 power station", "fuel": "gas", "mw": 225.0, "country": "DOM", "status": "operating"}}, {"type": "Feature", "id": 35, "geometry": {"type": "Point", "coordinates": [-69.35, 18.492]}, "properties": {"name": "Quisqueya 2 power station", "fuel": "gas", "mw": 225.0, "country": "DOM", "status": "operating"}}, {"type": "Feature", "id": 36, "geometry": {"type": "Point", "coordinates": [-70.021, 18.424]}, "properties": {"name": "R\u00edo Haina power station", "fuel": "gas", "mw": 100.0, "country": "DOM", "status": "operating"}}, {"type": "Feature", "id": 37, "geometry": {"type": "Point", "coordinates": [-69.633, 18.419]}, "properties": {"name": "San Felipe power station", "fuel": "gas", "mw": 470.0, "country": "DOM", "status": "construction"}}, {"type": "Feature", "id": 38, "geometry": {"type": "Point", "coordinates": [-69.342, 18.495]}, "properties": {"name": "San Pedro de Macor\u00eds power station", "fuel": "gas", "mw": 100.0, "country": "DOM", "status": "operating"}}, {"type": "Feature", "id": 39, "geometry": {"type": "Point", "coordinates": [-69.342, 18.495]}, "properties": {"name": "San Pedro de Macor\u00eds power station", "fuel": "gas", "mw": 100.0, "country": "DOM", "status": "operating"}}, {"type": "Feature", "id": 40, "geometry": {"type": "Point", "coordinates": [-69.342, 18.495]}, "properties": {"name": "San Pedro de Macor\u00eds power station", "fuel": "gas", "mw": 100.0, "country": "DOM", "status": "operating"}}, {"type": "Feature", "id": 41, "geometry": {"type": "Point", "coordinates": [-69.342, 18.495]}, "properties": {"name": "San Pedro de Macor\u00eds power station", "fuel": "gas", "mw": 130.0, "country": "DOM", "status": "construction"}}, {"type": "Feature", "id": 42, "geometry": {"type": "Point", "coordinates": [-69.62, 18.457]}, "properties": {"name": "Siba power station", "fuel": "gas", "mw": 210.0, "country": "DOM", "status": "operating"}}, {"type": "Feature", "id": 43, "geometry": {"type": "Point", "coordinates": [-69.62, 18.457]}, "properties": {"name": "Siba power station", "fuel": "gas", "mw": 70.0, "country": "DOM", "status": "construction"}}, {"type": "Feature", "id": 44, "geometry": {"type": "Point", "coordinates": [-69.313, 18.448]}, "properties": {"name": "Sultana del Este power station", "fuel": "gas", "mw": 153.9, "country": "DOM", "status": "operating"}}, {"type": "Feature", "id": 45, "geometry": {"type": "Point", "coordinates": [-77.918, 18.452]}, "properties": {"name": "Bogue power station", "fuel": "gas", "mw": 120.0, "country": "JAM", "status": "operating"}}, {"type": "Feature", "id": 46, "geometry": {"type": "Point", "coordinates": [-77.106, 17.897]}, "properties": {"name": "Doctor Bird I power station", "fuel": "gas", "mw": 74.2, "country": "JAM", "status": "operating"}}, {"type": "Feature", "id": 47, "geometry": {"type": "Point", "coordinates": [-77.106, 17.897]}, "properties": {"name": "Doctor Bird II power station", "fuel": "gas", "mw": 50.1, "country": "JAM", "status": "operating"}}, {"type": "Feature", "id": 48, "geometry": {"type": "Point", "coordinates": [-77.248, 17.931]}, "properties": {"name": "Jamalco power station", "fuel": "gas", "mw": 150.0, "country": "JAM", "status": "operating"}}, {"type": "Feature", "id": 49, "geometry": {"type": "Point", "coordinates": [-76.753, 17.97]}, "properties": {"name": "Rockfort Private power station", "fuel": "gas", "mw": 60.0, "country": "JAM", "status": "operating"}}, {"type": "Feature", "id": 50, "geometry": {"type": "Point", "coordinates": [-77.108, 17.9]}, "properties": {"name": "South Jamaica Power Centre", "fuel": "gas", "mw": 194.0, "country": "JAM", "status": "operating"}}, {"type": "Feature", "id": 51, "geometry": {"type": "Point", "coordinates": [-76.806, 17.972]}, "properties": {"name": "West Kingston power station", "fuel": "gas", "mw": 65.5, "country": "JAM", "status": "operating"}}, {"type": "Feature", "id": 52, "geometry": {"type": "Point", "coordinates": [-60.792, 11.142]}, "properties": {"name": "Cove Power Station", "fuel": "gas", "mw": 65.6, "country": "TTO", "status": "operating"}}, {"type": "Feature", "id": 53, "geometry": {"type": "Point", "coordinates": [-61.474, 10.147]}, "properties": {"name": "Penal power station", "fuel": "gas", "mw": 234.0, "country": "TTO", "status": "operating"}}, {"type": "Feature", "id": 54, "geometry": {"type": "Point", "coordinates": [-61.487, 10.418]}, "properties": {"name": "Point Lisas power station", "fuel": "gas", "mw": 88.0, "country": "TTO", "status": "operating"}}, {"type": "Feature", "id": 55, "geometry": {"type": "Point", "coordinates": [-61.487, 10.418]}, "properties": {"name": "Point Lisas power station", "fuel": "gas", "mw": 88.0, "country": "TTO", "status": "operating"}}, {"type": "Feature", "id": 56, "geometry": {"type": "Point", "coordinates": [-61.487, 10.418]}, "properties": {"name": "Point Lisas power station", "fuel": "gas", "mw": 88.0, "country": "TTO", "status": "operating"}}, {"type": "Feature", "id": 57, "geometry": {"type": "Point", "coordinates": [-61.487, 10.418]}, "properties": {"name": "Point Lisas power station", "fuel": "gas", "mw": 88.0, "country": "TTO", "status": "operating"}}, {"type": "Feature", "id": 58, "geometry": {"type": "Point", "coordinates": [-61.487, 10.418]}, "properties": {"name": "Point Lisas power station", "fuel": "gas", "mw": 62.5, "country": "TTO", "status": "operating"}}, {"type": "Feature", "id": 59, "geometry": {"type": "Point", "coordinates": [-61.487, 10.418]}, "properties": {"name": "Point Lisas power station", "fuel": "gas", "mw": 62.5, "country": "TTO", "status": "operating"}}, {"type": "Feature", "id": 60, "geometry": {"type": "Point", "coordinates": [-61.487, 10.418]}, "properties": {"name": "Point Lisas power station", "fuel": "gas", "mw": 62.5, "country": "TTO", "status": "operating"}}, {"type": "Feature", "id": 61, "geometry": {"type": "Point", "coordinates": [-61.487, 10.418]}, "properties": {"name": "Point Lisas power station", "fuel": "gas", "mw": 62.5, "country": "TTO", "status": "operating"}}, {"type": "Feature", "id": 62, "geometry": {"type": "Point", "coordinates": [-61.487, 10.418]}, "properties": {"name": "Point Lisas power station", "fuel": "gas", "mw": 105.0, "country": "TTO", "status": "operating"}}, {"type": "Feature", "id": 63, "geometry": {"type": "Point", "coordinates": [-61.487, 10.418]}, "properties": {"name": "Point Lisas power station", "fuel": "gas", "mw": 105.0, "country": "TTO", "status": "operating"}}, {"type": "Feature", "id": 64, "geometry": {"type": "Point", "coordinates": [-61.461, 10.404]}, "properties": {"name": "Trinity power station", "fuel": "gas", "mw": 75.0, "country": "TTO", "status": "operating"}}, {"type": "Feature", "id": 65, "geometry": {"type": "Point", "coordinates": [-61.461, 10.404]}, "properties": {"name": "Trinity power station", "fuel": "gas", "mw": 75.0, "country": "TTO", "status": "operating"}}, {"type": "Feature", "id": 66, "geometry": {"type": "Point", "coordinates": [-61.461, 10.404]}, "properties": {"name": "Trinity power station", "fuel": "gas", "mw": 75.0, "country": "TTO", "status": "operating"}}, {"type": "Feature", "id": 67, "geometry": {"type": "Point", "coordinates": [-61.626, 10.217]}, "properties": {"name": "Union Estate power station", "fuel": "gas", "mw": 360.0, "country": "TTO", "status": "operating"}}, {"type": "Feature", "id": 68, "geometry": {"type": "Point", "coordinates": [-61.626, 10.217]}, "properties": {"name": "Union Estate power station", "fuel": "gas", "mw": 360.0, "country": "TTO", "status": "operating"}}, {"type": "Feature", "id": 69, "geometry": {"type": "Point", "coordinates": [-80.56, 22.277]}, "properties": {"name": "Alcalde Mayor solar farm", "fuel": "solar", "mw": 21.9, "country": "CUB", "status": "operating"}}, {"type": "Feature", "id": 70, "geometry": {"type": "Point", "coordinates": [-82.591, 22.819]}, "properties": {"name": "Artemisa solar project I", "fuel": "solar", "mw": 2.6, "country": "CUB", "status": "operating"}}, {"type": "Feature", "id": 71, "geometry": {"type": "Point", "coordinates": [-82.665, 23.012]}, "properties": {"name": "Artemisa solar project II", "fuel": "solar", "mw": 18.9, "country": "CUB", "status": "operating"}}, {"type": "Feature", "id": 72, "geometry": {"type": "Point", "coordinates": [-82.534, 22.919]}, "properties": {"name": "Artemisa solar project III", "fuel": "solar", "mw": 5.4, "country": "CUB", "status": "operating"}}, {"type": "Feature", "id": 73, "geometry": {"type": "Point", "coordinates": [-82.606, 23.019]}, "properties": {"name": "Artemisa solar project IV", "fuel": "solar", "mw": 11.2, "country": "CUB", "status": "operating"}}, {"type": "Feature", "id": 74, "geometry": {"type": "Point", "coordinates": [-76.64, 20.403]}, "properties": {"name": "Bayamo solar project I", "fuel": "solar", "mw": 1.5, "country": "CUB", "status": "operating"}}, {"type": "Feature", "id": 75, "geometry": {"type": "Point", "coordinates": [-76.603, 20.347]}, "properties": {"name": "Bayamo solar project II", "fuel": "solar", "mw": 4.5, "country": "CUB", "status": "operating"}}, {"type": "Feature", "id": 76, "geometry": {"type": "Point", "coordinates": [-82.452, 23.078]}, "properties": {"name": "BioCubaFarma solar farm", "fuel": "solar", "mw": 5.0, "country": "CUB", "status": "planned"}}, {"type": "Feature", "id": 77, "geometry": {"type": "Point", "coordinates": [-79.494, 22.061]}, "properties": {"name": "Cabaigu\u00e1n solar farm", "fuel": "solar", "mw": 21.9, "country": "CUB", "status": "operating"}}, {"type": "Feature", "id": 78, "geometry": {"type": "Point", "coordinates": [-79.896, 22.647]}, "properties": {"name": "Calabazar de Sagua solar farm", "fuel": "solar", "mw": 21.9, "country": "CUB", "status": "operating"}}, {"type": "Feature", "id": 79, "geometry": {"type": "Point", "coordinates": [-77.895, 21.411]}, "properties": {"name": "Camaguey solar farm", "fuel": "solar", "mw": 2.5, "country": "CUB", "status": "operating"}}, {"type": "Feature", "id": 80, "geometry": {"type": "Point", "coordinates": [-77.367, 21.072]}, "properties": {"name": "Camag\u00fcey solar project I", "fuel": "solar", "mw": 1.9, "country": "CUB", "status": "operating"}}, {"type": "Feature", "id": 81, "geometry": {"type": "Point", "coordinates": [-77.472, 21.533]}, "properties": {"name": "Camag\u00fcey solar project II", "fuel": "solar", "mw": 2.8, "country": "CUB", "status": "operating"}}, {"type": "Feature", "id": 82, "geometry": {"type": "Point", "coordinates": [-77.953, 21.416]}, "properties": {"name": "Camag\u00fcey solar project III", "fuel": "solar", "mw": 5.4, "country": "CUB", "status": "operating"}}, {"type": "Feature", "id": 83, "geometry": {"type": "Point", "coordinates": [-76.902, 20.704]}, "properties": {"name": "Camilo Cienfuegos solar farm", "fuel": "solar", "mw": 21.8, "country": "CUB", "status": "operating"}}, {"type": "Feature", "id": 84, "geometry": {"type": "Point", "coordinates": [-81.236, 23.049]}, "properties": {"name": "Cardenas solar farm", "fuel": "solar", "mw": 6.3, "country": "CUB", "status": "operating"}}, {"type": "Feature", "id": 85, "geometry": {"type": "Point", "coordinates": [-78.894, 22.208]}, "properties": {"name": "Ciego De Avila solar project", "fuel": "solar", "mw": 5.0, "country": "CUB", "status": "operating"}}, {"type": "Feature", "id": 86, "geometry": {"type": "Point", "coordinates": [-78.711, 21.943]}, "properties": {"name": "Ciego De \u00c1vila solar project", "fuel": "solar", "mw": 3.7, "country": "CUB", "status": "operating"}}, {"type": "Feature", "id": 87, "geometry": {"type": "Point", "coordinates": [-80.536, 22.331]}, "properties": {"name": "Cienfuegos solar project I", "fuel": "solar", "mw": 2.1, "country": "CUB", "status": "operating"}}, {"type": "Feature", "id": 88, "geometry": {"type": "Point", "coordinates": [-80.41, 22.242]}, "properties": {"name": "Cienfuegos solar project II", "fuel": "solar", "mw": 3.5, "country": "CUB", "status": "operating"}}, {"type": "Feature", "id": 89, "geometry": {"type": "Point", "coordinates": [-80.826, 22.378]}, "properties": {"name": "Cienfuegos solar project III", "fuel": "solar", "mw": 2.4, "country": "CUB", "status": "operating"}}, {"type": "Feature", "id": 90, "geometry": {"type": "Point", "coordinates": [-80.289, 22.335]}, "properties": {"name": "Cienfuegos solar project IV", "fuel": "solar", "mw": 4.1, "country": "CUB", "status": "operating"}}, {"type": "Feature", "id": 91, "geometry": {"type": "Point", "coordinates": [-80.439, 22.191]}, "properties": {"name": "Cienfuegos solar project V", "fuel": "solar", "mw": 3.1, "country": "CUB", "status": "operating"}}, {"type": "Feature", "id": 92, "geometry": {"type": "Point", "coordinates": [-80.906, 22.721]}, "properties": {"name": "Col\u00f3n (Cuba) solar farm", "fuel": "solar", "mw": 21.8, "country": "CUB", "status": "operating"}}, {"type": "Feature", "id": 93, "geometry": {"type": "Point", "coordinates": [-80.903, 22.761]}, "properties": {"name": "Col\u00f3n solar project", "fuel": "solar", "mw": 13.1, "country": "CUB", "status": "operating"}}, {"type": "Feature", "id": 94, "geometry": {"type": "Point", "coordinates": [-78.764, 21.878]}, "properties": {"name": "Cruce de la Trocha solar farm", "fuel": "solar", "mw": 21.9, "country": "CUB", "status": "operating"}}, {"type": "Feature", "id": 95, "geometry": {"type": "Point", "coordinates": [-79.65, 22.07]}, "properties": {"name": "Cumbre (NTPC) solar farm", "fuel": "solar", "mw": 25.0, "country": "CUB", "status": "planned"}}, {"type": "Feature", "id": 96, "geometry": {"type": "Point", "coordinates": [-79.17, 21.941]}, "properties": {"name": "El Meso solar farm", "fuel": "solar", "mw": 21.8, "country": "CUB", "status": "operating"}}, {"type": "Feature", "id": 97, "geometry": {"type": "Point", "coordinates": [-82.416, 22.951]}, "properties": {"name": "El Rinc\u00f3n solar farm", "fuel": "solar", "mw": 21.9, "country": "CUB", "status": "operating"}}, {"type": "Feature", "id": 98, "geometry": {"type": "Point", "coordinates": [-82.423, 22.948]}, "properties": {"name": "El Santuario solar farm", "fuel": "solar", "mw": 21.8, "country": "CUB", "status": "operating"}}, {"type": "Feature", "id": 99, "geometry": {"type": "Point", "coordinates": [-82.238, 23.01]}, "properties": {"name": "Escuela de Enfermer\u00eda solar farm", "fuel": "solar", "mw": 21.9, "country": "CUB", "status": "operating"}}, {"type": "Feature", "id": 100, "geometry": {"type": "Point", "coordinates": [-76.48, 20.542]}, "properties": {"name": "Granma solar project I", "fuel": "solar", "mw": 5.4, "country": "CUB", "status": "operating"}}, {"type": "Feature", "id": 101, "geometry": {"type": "Point", "coordinates": [-76.438, 20.359]}, "properties": {"name": "Granma solar project II", "fuel": "solar", "mw": 4.9, "country": "CUB", "status": "operating"}}, {"type": "Feature", "id": 102, "geometry": {"type": "Point", "coordinates": [-76.374, 20.382]}, "properties": {"name": "Granma solar project III", "fuel": "solar", "mw": 3.9, "country": "CUB", "status": "operating"}}, {"type": "Feature", "id": 103, "geometry": {"type": "Point", "coordinates": [-77.581, 20.006]}, "properties": {"name": "Granma solar project IV", "fuel": "solar", "mw": 11.2, "country": "CUB", "status": "operating"}}, {"type": "Feature", "id": 104, "geometry": {"type": "Point", "coordinates": [-75.207, 20.11]}, "properties": {"name": "Guantanamo solar project I", "fuel": "solar", "mw": 6.8, "country": "CUB", "status": "operating"}}, {"type": "Feature", "id": 105, "geometry": {"type": "Point", "coordinates": [-75.238, 20.136]}, "properties": {"name": "Guantanamo solar project II", "fuel": "solar", "mw": 3.1, "country": "CUB", "status": "operating"}}, {"type": "Feature", "id": 106, "geometry": {"type": "Point", "coordinates": [-74.846, 20.053]}, "properties": {"name": "Guant\u00e1namo solar project I", "fuel": "solar", "mw": 5.1, "country": "CUB", "status": "operating"}}, {"type": "Feature", "id": 107, "geometry": {"type": "Point", "coordinates": [-75.324, 20.129]}, "properties": {"name": "Guant\u00e1namo solar project II", "fuel": "solar", "mw": 1.5, "country": "CUB", "status": "operating"}}, {"type": "Feature", "id": 108, "geometry": {"type": "Point", "coordinates": [-81.509, 22.982]}, "properties": {"name": "Guan\u00e1bana II solar farm", "fuel": "solar", "mw": 21.8, "country": "CUB", "status": "construction"}}, {"type": "Feature", "id": 109, "geometry": {"type": "Point", "coordinates": [-79.462, 21.744]}, "properties": {"name": "Guasimal solar farm", "fuel": "solar", "mw": 4.4, "country": "CUB", "status": "operating"}}, {"type": "Feature", "id": 110, "geometry": {"type": "Point", "coordinates": [-82.378, 22.991]}, "properties": {"name": "Havana solar project I", "fuel": "solar", "mw": 2.5, "country": "CUB", "status": "operating"}}, {"type": "Feature", "id": 111, "geometry": {"type": "Point", "coordinates": [-82.351, 22.994]}, "properties": {"name": "Havana solar project II", "fuel": "solar", "mw": 1.4, "country": "CUB", "status": "operating"}}, {"type": "Feature", "id": 112, "geometry": {"type": "Point", "coordinates": [-75.912, 21.087]}, "properties": {"name": "Holgu\u00edn solar project", "fuel": "solar", "mw": 5.5, "country": "CUB", "status": "operating"}}, {"type": "Feature", "id": 113, "geometry": {"type": "Point", "coordinates": [-80.776, 22.98]}, "properties": {"name": "Hoyo Colorado solar farm", "fuel": "solar", "mw": 21.9, "country": "CUB", "status": "operating"}}, {"type": "Feature", "id": 114, "geometry": {"type": "Point", "coordinates": [-82.748, 21.734]}, "properties": {"name": "Isle Of Youth solar project", "fuel": "solar", "mw": 1.2, "country": "CUB", "status": "operating"}}, {"type": "Feature", "id": 115, "geometry": {"type": "Point", "coordinates": [-81.217, 22.81]}, "properties": {"name": "Jovellanos II solar farm", "fuel": "solar", "mw": 21.9, "country": "CUB", "status": "operating"}}, {"type": "Feature", "id": 116, "geometry": {"type": "Point", "coordinates": [-83.512, 22.511]}, "properties": {"name": "La Barbarita solar farm", "fuel": "solar", "mw": 21.8, "country": "CUB", "status": "operating"}}, {"type": "Feature", "id": 117, "geometry": {"type": "Point", "coordinates": [-78.788, 21.74]}, "properties": {"name": "La Carolina solar farm", "fuel": "solar", "mw": 21.9, "country": "CUB", "status": "operating"}}, {"type": "Feature", "id": 118, "geometry": {"type": "Point", "coordinates": [-80.252, 22.586]}, "properties": {"name": "La Criolla solar plant", "fuel": "solar", "mw": 4.4, "country": "CUB", "status": "operating"}}, {"type": "Feature", "id": 119, "geometry": {"type": "Point", "coordinates": [-77.786, 21.664]}, "properties": {"name": "La C\u00edvica solar farm", "fuel": "solar", "mw": 20.0, "country": "CUB", "status": "construction"}}, {"type": "Feature", "id": 120, "geometry": {"type": "Point", "coordinates": [-80.046, 22.641]}, "properties": {"name": "La Distancia (NTPC) solar farm", "fuel": "solar", "mw": 10.0, "country": "CUB", "status": "planned"}}, {"type": "Feature", "id": 121, "geometry": {"type": "Point", "coordinates": [-83.695, 22.428]}, "properties": {"name": "La Lucila solar farm", "fuel": "solar", "mw": 21.8, "country": "CUB", "status": "operating"}}, {"type": "Feature", "id": 122, "geometry": {"type": "Point", "coordinates": [-80.587, 22.985]}, "properties": {"name": "La Paloma (NTPC) solar farm", "fuel": "solar", "mw": 5.0, "country": "CUB", "status": "planned"}}, {"type": "Feature", "id": 123, "geometry": {"type": "Point", "coordinates": [-76.612, 20.391]}, "properties": {"name": "La S\u00e1bana solar farm", "fuel": "solar", "mw": 21.9, "country": "CUB", "status": "operating"}}, {"type": "Feature", "id": 124, "geometry": {"type": "Point", "coordinates": [-77.122, 20.327]}, "properties": {"name": "Las Tapias solar farm", "fuel": "solar", "mw": 21.8, "country": "CUB", "status": "construction"}}, {"type": "Feature", "id": 125, "geometry": {"type": "Point", "coordinates": [-76.963, 21.292]}, "properties": {"name": "Las Tunas solar project", "fuel": "solar", "mw": 4.8, "country": "CUB", "status": "operating"}}, {"type": "Feature", "id": 126, "geometry": {"type": "Point", "coordinates": [-79.444, 21.929]}, "properties": {"name": "Los Cristales solar farm", "fuel": "solar", "mw": 2.2, "country": "CUB", "status": "construction"}}, {"type": "Feature", "id": 127, "geometry": {"type": "Point", "coordinates": [-78.154, 21.28]}, "properties": {"name": "Luaces solar farm", "fuel": "solar", "mw": 23.8, "country": "CUB", "status": "operating"}}, {"type": "Feature", "id": 128, "geometry": {"type": "Point", "coordinates": [-80.078, 22.799]}, "properties": {"name": "Mac\u00fan (NTPC) solar farm", "fuel": "solar", "mw": 10.0, "country": "CUB", "status": "planned"}}, {"type": "Feature", "id": 129, "geometry": {"type": "Point", "coordinates": [-74.153, 20.241]}, "properties": {"name": "Mais\u00ed solar project", "fuel": "solar", "mw": 1.4, "country": "CUB", "status": "operating"}}, {"type": "Feature", "id": 130, "geometry": {"type": "Point", "coordinates": [-80.267, 22.317]}, "properties": {"name": "Mal Tiempo solar farm", "fuel": "solar", "mw": 21.9, "country": "CUB", "status": "operating"}}, {"type": "Feature", "id": 131, "geometry": {"type": "Point", "coordinates": [-82.905, 22.736]}, "properties": {"name": "Mango Dulce solar farm", "fuel": "solar", "mw": 21.9, "country": "CUB", "status": "operating"}}, {"type": "Feature", "id": 132, "geometry": {"type": "Point", "coordinates": [-82.787, 23.004]}, "properties": {"name": "Mariel solar farm", "fuel": "solar", "mw": 10.5, "country": "CUB", "status": "operating"}}, {"type": "Feature", "id": 133, "geometry": {"type": "Point", "coordinates": [-82.724, 22.946]}, "properties": {"name": "Mariel solar farm", "fuel": "solar", "mw": 38.7, "country": "CUB", "status": "operating"}}, {"type": "Feature", "id": 134, "geometry": {"type": "Point", "coordinates": [-82.787, 23.004]}, "properties": {"name": "Mariel solar farm", "fuel": "solar", "mw": 12.7, "country": "CUB", "status": "operating"}}, {"type": "Feature", "id": 135, "geometry": {"type": "Point", "coordinates": [-75.623, 20.665]}, "properties": {"name": "Mayar\u00ed solar farm", "fuel": "solar", "mw": 21.8, "country": "CUB", "status": "operating"}}, {"type": "Feature", "id": 136, "geometry": {"type": "Point", "coordinates": [-79.933, 22.435]}, "properties": {"name": "Minidustria 2 (NTPC) solar farm", "fuel": "solar", "mw": 5.0, "country": "CUB", "status": "planned"}}, {"type": "Feature", "id": 137, "geometry": {"type": "Point", "coordinates": [-78.636, 22.088]}, "properties": {"name": "Mor\u00f3n solar project", "fuel": "solar", "mw": 3.4, "country": "CUB", "status": "operating"}}, {"type": "Feature", "id": 138, "geometry": {"type": "Point", "coordinates": [-82.79, 21.867]}, "properties": {"name": "Nueva Gerona solar project I", "fuel": "solar", "mw": 3.1, "country": "CUB", "status": "operating"}}, {"type": "Feature", "id": 139, "geometry": {"type": "Point", "coordinates": [-82.834, 21.89]}, "properties": {"name": "Nueva Gerona solar project II", "fuel": "solar", "mw": 1.7, "country": "CUB", "status": "operating"}}, {"type": "Feature", "id": 140, "geometry": {"type": "Point", "coordinates": [-83.323, 22.526]}, "properties": {"name": "Pinar Del Rio solar project I", "fuel": "solar", "mw": 10.4, "country": "CUB", "status": "operating"}}, {"type": "Feature", "id": 141, "geometry": {"type": "Point", "coordinates": [-83.635, 22.412]}, "properties": {"name": "Pinar Del Rio solar project II", "fuel": "solar", "mw": 3.3, "country": "CUB", "status": "operating"}}, {"type": "Feature", "id": 142, "geometry": {"type": "Point", "coordinates": [-83.701, 22.283]}, "properties": {"name": "Pinar Del Rio solar project III", "fuel": "solar", "mw": 2.6, "country": "CUB", "status": "operating"}}, {"type": "Feature", "id": 143, "geometry": {"type": "Point", "coordinates": [-83.303, 22.554]}, "properties": {"name": "Pinar Del Rio solar project IV", "fuel": "solar", "mw": 3.0, "country": "CUB", "status": "operating"}}, {"type": "Feature", "id": 144, "geometry": {"type": "Point", "coordinates": [-83.674, 22.395]}, "properties": {"name": "Pinar Del Rio solar project V", "fuel": "solar", "mw": 2.7, "country": "CUB", "status": "operating"}}, {"type": "Feature", "id": 145, "geometry": {"type": "Point", "coordinates": [-84.022, 22.029]}, "properties": {"name": "Pinar Del Rio solar project VI", "fuel": "solar", "mw": 2.5, "country": "CUB", "status": "operating"}}, {"type": "Feature", "id": 146, "geometry": {"type": "Point", "coordinates": [-83.633, 22.404]}, "properties": {"name": "Pinar del Rio\u00a01 solar project", "fuel": "solar", "mw": 7.6, "country": "CUB", "status": "operating"}}, {"type": "Feature", "id": 147, "geometry": {"type": "Point", "coordinates": [-79.652, 22.187]}, "properties": {"name": "Program-06 ISA solar farm", "fuel": "solar", "mw": 784.5, "country": "CUB", "status": "planned"}}, {"type": "Feature", "id": 148, "geometry": {"type": "Point", "coordinates": [-78.789, 21.744]}, "properties": {"name": "Pueblo De Venezuela solar project", "fuel": "solar", "mw": 2.7, "country": "CUB", "status": "operating"}}, {"type": "Feature", "id": 149, "geometry": {"type": "Point", "coordinates": [-76.642, 21.172]}, "properties": {"name": "Puerto Padre solar project", "fuel": "solar", "mw": 7.8, "country": "CUB", "status": "operating"}}, {"type": "Feature", "id": 150, "geometry": {"type": "Point", "coordinates": [-79.933, 22.435]}, "properties": {"name": "Quemado Hilario (NTPC) solar farm", "fuel": "solar", "mw": 5.0, "country": "CUB", "status": "planned"}}, {"type": "Feature", "id": 151, "geometry": {"type": "Point", "coordinates": [-79.531, 22.488]}, "properties": {"name": "Remedios solar farm", "fuel": "solar", "mw": 21.9, "country": "CUB", "status": "operating"}}, {"type": "Feature", "id": 152, "geometry": {"type": "Point", "coordinates": [-79.259, 22.329]}, "properties": {"name": "Sancti Spiritus solar project I", "fuel": "solar", "mw": 2.5, "country": "CUB", "status": "operating"}}, {"type": "Feature", "id": 153, "geometry": {"type": "Point", "coordinates": [-79.477, 22.087]}, "properties": {"name": "Sancti Spiritus solar project II", "fuel": "solar", "mw": 5.3, "country": "CUB", "status": "operating"}}, {"type": "Feature", "id": 154, "geometry": {"type": "Point", "coordinates": [-79.133, 22.161]}, "properties": {"name": "Sancti Spiritus solar project III", "fuel": "solar", "mw": 1.5, "country": "CUB", "status": "operating"}}, {"type": "Feature", "id": 155, "geometry": {"type": "Point", "coordinates": [-79.08, 22.274]}, "properties": {"name": "Sancti Spiritus solar project V", "fuel": "solar", "mw": 6.1, "country": "CUB", "status": "operating"}}, {"type": "Feature", "id": 156, "geometry": {"type": "Point", "coordinates": [-79.249, 21.763]}, "properties": {"name": "Sancti Spiritus solar project VI", "fuel": "solar", "mw": 2.3, "country": "CUB", "status": "operating"}}, {"type": "Feature", "id": 157, "geometry": {"type": "Point", "coordinates": [-79.444, 21.929]}, "properties": {"name": "Sancti Spitirus solar farm", "fuel": "solar", "mw": 1.2, "country": "CUB", "status": "operating"}}, {"type": "Feature", "id": 158, "geometry": {"type": "Point", "coordinates": [-79.444, 21.929]}, "properties": {"name": "Sancti Spitirus solar farm", "fuel": "solar", "mw": 1.2, "country": "CUB", "status": "operating"}}, {"type": "Feature", "id": 159, "geometry": {"type": "Point", "coordinates": [-79.989, 22.488]}, "properties": {"name": "Santa Clara solar project I", "fuel": "solar", "mw": 2.8, "country": "CUB", "status": "operating"}}, {"type": "Feature", "id": 160, "geometry": {"type": "Point", "coordinates": [-79.941, 22.386]}, "properties": {"name": "Santa Clara solar project II", "fuel": "solar", "mw": 1.5, "country": "CUB", "status": "operating"}}, {"type": "Feature", "id": 161, "geometry": {"type": "Point", "coordinates": [-79.901, 22.433]}, "properties": {"name": "Santa Clara solar project III", "fuel": "solar", "mw": 1.7, "country": "CUB", "status": "operating"}}, {"type": "Feature", "id": 162, "geometry": {"type": "Point", "coordinates": [-75.887, 20.175]}, "properties": {"name": "Santiago De Cuba solar project I", "fuel": "solar", "mw": 4.8, "country": "CUB", "status": "operating"}}, {"type": "Feature", "id": 163, "geometry": {"type": "Point", "coordinates": [-75.771, 20.007]}, "properties": {"name": "Santiago De Cuba solar project II", "fuel": "solar", "mw": 3.3, "country": "CUB", "status": "operating"}}, {"type": "Feature", "id": 164, "geometry": {"type": "Point", "coordinates": [-78.633, 21.691]}, "properties": {"name": "Santiago Rojas Salinas solar farm", "fuel": "solar", "mw": 21.9, "country": "CUB", "status": "operating"}}, {"type": "Feature", "id": 165, "geometry": {"type": "Point", "coordinates": [-75.512, 20.409]}, "properties": {"name": "Segundo Frente solar project", "fuel": "solar", "mw": 2.5, "country": "CUB", "status": "operating"}}, {"type": "Feature", "id": 166, "geometry": {"type": "Point", "coordinates": [-77.757, 21.703]}, "properties": {"name": "Sierra De Cubitas solar project", "fuel": "solar", "mw": 2.8, "country": "CUB", "status": "operating"}}, {"type": "Feature", "id": 167, "geometry": {"type": "Point", "coordinates": [-82.788, 23.004]}, "properties": {"name": "TBD Guajaib\u00f3n solar farm", "fuel": "solar", "mw": 23.0, "country": "CUB", "status": "operating"}}, {"type": "Feature", "id": 168, "geometry": {"type": "Point", "coordinates": [-82.788, 23.004]}, "properties": {"name": "TBD Guajaib\u00f3n solar farm", "fuel": "solar", "mw": 127.0, "country": "CUB", "status": "planned"}}, {"type": "Feature", "id": 169, "geometry": {"type": "Point", "coordinates": [-79.265, 22.005]}, "properties": {"name": "Tuinuc\u00fa solar farm", "fuel": "solar", "mw": 21.8, "country": "CUB", "status": "operating"}}, {"type": "Feature", "id": 170, "geometry": {"type": "Point", "coordinates": [-80.217, 22.837]}, "properties": {"name": "Villa Clara solar project I", "fuel": "solar", "mw": 7.4, "country": "CUB", "status": "operating"}}, {"type": "Feature", "id": 171, "geometry": {"type": "Point", "coordinates": [-80.187, 22.551]}, "properties": {"name": "Villa Clara solar project II", "fuel": "solar", "mw": 3.9, "country": "CUB", "status": "operating"}}, {"type": "Feature", "id": 172, "geometry": {"type": "Point", "coordinates": [-80.713, 22.254]}, "properties": {"name": "Yaguaramas solar project", "fuel": "solar", "mw": 5.6, "country": "CUB", "status": "operating"}}, {"type": "Feature", "id": 173, "geometry": {"type": "Point", "coordinates": [-70.607, 19.405]}, "properties": {"name": "Aeropuerto Internacional del Cibao solar farm", "fuel": "solar", "mw": 3.0, "country": "DOM", "status": "operating"}}, {"type": "Feature", "id": 174, "geometry": {"type": "Point", "coordinates": [-70.355, 19.68]}, "properties": {"name": "Ardav\u00edn solar farm", "fuel": "solar", "mw": 83.4, "country": "DOM", "status": "planned"}}, {"type": "Feature", "id": 175, "geometry": {"type": "Point", "coordinates": [-68.717, 18.615]}, "properties": {"name": "Atasol solar farm", "fuel": "solar", "mw": 49.8, "country": "DOM", "status": "planned"}}, {"type": "Feature", "id": 176, "geometry": {"type": "Point", "coordinates": [-70.442, 18.344]}, "properties": {"name": "Ban\u00ed solar farm", "fuel": "solar", "mw": 160.0, "country": "DOM", "status": "planned"}}, {"type": "Feature", "id": 177, "geometry": {"type": "Point", "coordinates": [-70.441, 18.327]}, "properties": {"name": "Bayasol Photovoltaic solar farm", "fuel": "solar", "mw": 50.0, "country": "DOM", "status": "operating"}}, {"type": "Feature", "id": 178, "geometry": {"type": "Point", "coordinates": [-71.109, 18.235]}, "properties": {"name": "Blanquizales solar farm", "fuel": "solar", "mw": 87.8, "country": "DOM", "status": "planned"}}, {"type": "Feature", "id": 179, "geometry": {"type": "Point", "coordinates": [-71.453, 19.743]}, "properties": {"name": "Botoncillo solar farm", "fuel": "solar", "mw": 44.2, "country": "DOM", "status": "planned"}}, {"type": "Feature", "id": 180, "geometry": {"type": "Point", "coordinates": [-70.991, 19.576]}, "properties": {"name": "Brazo Derecho solar farm", "fuel": "solar", "mw": 3.0, "country": "DOM", "status": "operating"}}, {"type": "Feature", "id": 181, "geometry": {"type": "Point", "coordinates": [-68.561, 18.544]}, "properties": {"name": "CEPM solar farm", "fuel": "solar", "mw": 7.2, "country": "DOM", "status": "operating"}}, {"type": "Feature", "id": 182, "geometry": {"type": "Point", "coordinates": [-70.398, 18.323]}, "properties": {"name": "Calabaza solar farm", "fuel": "solar", "mw": 50.6, "country": "DOM", "status": "operating"}}, {"type": "Feature", "id": 183, "geometry": {"type": "Point", "coordinates": [-71.125, 18.344]}, "properties": {"name": "Canoa Solar Park", "fuel": "solar", "mw": 25.0, "country": "DOM", "status": "operating"}}, {"type": "Feature", "id": 184, "geometry": {"type": "Point", "coordinates": [-71.134, 18.343]}, "properties": {"name": "Canoa Solar Park", "fuel": "solar", "mw": 25.0, "country": "DOM", "status": "planned"}}, {"type": "Feature", "id": 185, "geometry": {"type": "Point", "coordinates": [-70.653, 18.457]}, "properties": {"name": "Caribe Farms solar farm", "fuel": "solar", "mw": 95.0, "country": "DOM", "status": "planned"}}, {"type": "Feature", "id": 186, "geometry": {"type": "Point", "coordinates": [-69.617, 18.59]}, "properties": {"name": "Caribe solar farm (Dominican Republic)", "fuel": "solar", "mw": 99.9, "country": "DOM", "status": "planned"}}, {"type": "Feature", "id": 187, "geometry": {"type": "Point", "coordinates": [-70.967, 19.594]}, "properties": {"name": "Cayena solar farm", "fuel": "solar", "mw": 48.3, "country": "DOM", "status": "planned"}}, {"type": "Feature", "id": 188, "geometry": {"type": "Point", "coordinates": [-69.26, 18.455]}, "properties": {"name": "Coastal Solar Project", "fuel": "solar", "mw": 100.0, "country": "DOM", "status": "planned"}}, {"type": "Feature", "id": 189, "geometry": {"type": "Point", "coordinates": [-71.447, 19.732]}, "properties": {"name": "Colibr\u00ed solar farm", "fuel": "solar", "mw": 96.8, "country": "DOM", "status": "planned"}}, {"type": "Feature", "id": 190, "geometry": {"type": "Point", "coordinates": [-71.393, 19.671]}, "properties": {"name": "Costa Azul solar farm", "fuel": "solar", "mw": 96.8, "country": "DOM", "status": "planned"}}, {"type": "Feature", "id": 191, "geometry": {"type": "Point", "coordinates": [-68.875, 18.536]}, "properties": {"name": "Cotoper\u00ed solar farm", "fuel": "solar", "mw": 48.1, "country": "DOM", "status": "operating"}}, {"type": "Feature", "id": 192, "geometry": {"type": "Point", "coordinates": [-68.875, 18.53]}, "properties": {"name": "Cotoper\u00ed solar farm", "fuel": "solar", "mw": 48.1, "country": "DOM", "status": "operating"}}, {"type": "Feature", "id": 193, "geometry": {"type": "Point", "coordinates": [-68.865, 18.535]}, "properties": {"name": "Cotoper\u00ed solar farm", "fuel": "solar", "mw": 48.1, "country": "DOM", "status": "operating"}}, {"type": "Feature", "id": 194, "geometry": {"type": "Point", "coordinates": [-70.897, 18.459]}, "properties": {"name": "DP World Dominican Republic Net Zero solar farm", "fuel": "solar", "mw": 9.9, "country": "DOM", "status": "planned"}}, {"type": "Feature", "id": 195, "geometry": {"type": "Point", "coordinates": [-70.753, 19.425]}, "properties": {"name": "Dicayagua solar farm", "fuel": "solar", "mw": 145.0, "country": "DOM", "status": "planned"}}, {"type": "Feature", "id": 196, "geometry": {"type": "Point", "coordinates": [-69.956, 19.525]}, "properties": {"name": "Dominicana Azul solar farm", "fuel": "solar", "mw": 82.9, "country": "DOM", "status": "planned"}}, {"type": "Feature", "id": 197, "geometry": {"type": "Point", "coordinates": [-69.956, 19.525]}, "properties": {"name": "Dominicana Azul solar farm", "fuel": "solar", "mw": 96.8, "country": "DOM", "status": "planned"}}, {"type": "Feature", "id": 198, "geometry": {"type": "Point", "coordinates": [-70.095, 18.569]}, "properties": {"name": "EGEPID solar farm", "fuel": "solar", "mw": 27.0, "country": "DOM", "status": "planned"}}, {"type": "Feature", "id": 199, "geometry": {"type": "Point", "coordinates": [-69.453, 18.427]}, "properties": {"name": "Eco Este solar farm", "fuel": "solar", "mw": 39.4, "country": "DOM", "status": "planned"}}, {"type": "Feature", "id": 200, "geometry": {"type": "Point", "coordinates": [-71.641, 19.846]}, "properties": {"name": "Eco Norte solar farm", "fuel": "solar", "mw": 6.3, "country": "DOM", "status": "planned"}}, {"type": "Feature", "id": 201, "geometry": {"type": "Point", "coordinates": [-69.857, 18.614]}, "properties": {"name": "Eco Sur solar farm", "fuel": "solar", "mw": 20.1, "country": "DOM", "status": "planned"}}, {"type": "Feature", "id": 202, "geometry": {"type": "Point", "coordinates": [-69.683, 18.53]}, "properties": {"name": "El Guincho solar farm", "fuel": "solar", "mw": 65.0, "country": "DOM", "status": "planned"}}, {"type": "Feature", "id": 203, "geometry": {"type": "Point", "coordinates": [-69.187, 18.447]}, "properties": {"name": "El Soco solar farm", "fuel": "solar", "mw": 50.0, "country": "DOM", "status": "operating"}}, {"type": "Feature", "id": 204, "geometry": {"type": "Point", "coordinates": [-70.963, 19.583]}, "properties": {"name": "Esperanza solar farm", "fuel": "solar", "mw": 90.0, "country": "DOM", "status": "operating"}}, {"type": "Feature", "id": 205, "geometry": {"type": "Point", "coordinates": [-70.963, 19.583]}, "properties": {"name": "Esperanza solar farm", "fuel": "solar", "mw": 48.3, "country": "DOM", "status": "planned"}}, {"type": "Feature", "id": 206, "geometry": {"type": "Point", "coordinates": [-69.728, 18.591]}, "properties": {"name": "Este Cabreto solar farm", "fuel": "solar", "mw": 50.0, "country": "DOM", "status": "planned"}}, {"type": "Feature", "id": 207, "geometry": {"type": "Point", "coordinates": [-68.492, 18.688]}, "properties": {"name": "FV3 solar farm", "fuel": "solar", "mw": 24.6, "country": "DOM", "status": "operating"}}, {"type": "Feature", "id": 208, "geometry": {"type": "Point", "coordinates": [-68.554, 18.767]}, "properties": {"name": "FV5 solar farm", "fuel": "solar", "mw": 46.7, "country": "DOM", "status": "planned"}}, {"type": "Feature", "id": 209, "geometry": {"type": "Point", "coordinates": [-68.975, 18.59]}, "properties": {"name": "FV6 solar farm", "fuel": "solar", "mw": 79.8, "country": "DOM", "status": "construction"}}, {"type": "Feature", "id": 210, "geometry": {"type": "Point", "coordinates": [-70.196, 18.335]}, "properties": {"name": "Girasol Solar Park", "fuel": "solar", "mw": 120.0, "country": "DOM", "status": "operating"}}, {"type": "Feature", "id": 211, "geometry": {"type": "Point", "coordinates": [-70.194, 18.339]}, "properties": {"name": "Girasol Solar Park", "fuel": "solar", "mw": 48.3, "country": "DOM", "status": "planned"}}, {"type": "Feature", "id": 212, "geometry": {"type": "Point", "coordinates": [-71.393, 19.675]}, "properties": {"name": "Guayub\u00edn solar farm", "fuel": "solar", "mw": 44.7, "country": "DOM", "status": "planned"}}, {"type": "Feature", "id": 213, "geometry": {"type": "Point", "coordinates": [-71.393, 19.675]}, "properties": {"name": "Guayub\u00edn solar farm", "fuel": "solar", "mw": 44.7, "country": "DOM", "status": "planned"}}, {"type": "Feature", "id": 214, "geometry": {"type": "Point", "coordinates": [-71.393, 19.675]}, "properties": {"name": "Guayub\u00edn solar farm", "fuel": "solar", "mw": 61.9, "country": "DOM", "status": "planned"}}, {"type": "Feature", "id": 215, "geometry": {"type": "Point", "coordinates": [-70.676, 19.45]}, "properties": {"name": "Gurabo solar project", "fuel": "solar", "mw": 5.0, "country": "DOM", "status": "planned"}}, {"type": "Feature", "id": 216, "geometry": {"type": "Point", "coordinates": [-69.652, 18.509]}, "properties": {"name": "Helios Solar Park", "fuel": "solar", "mw": 92.4, "country": "DOM", "status": "planned"}}, {"type": "Feature", "id": 217, "geometry": {"type": "Point", "coordinates": [-70.413, 18.317]}, "properties": {"name": "IDDI solar farm", "fuel": "solar", "mw": 42.0, "country": "DOM", "status": "planned"}}, {"type": "Feature", "id": 218, "geometry": {"type": "Point", "coordinates": [-69.698, 18.555]}, "properties": {"name": "Integra solar farm", "fuel": "solar", "mw": 10.0, "country": "DOM", "status": "planned"}}, {"type": "Feature", "id": 219, "geometry": {"type": "Point", "coordinates": [-71.394, 19.672]}, "properties": {"name": "Itabo solar farm", "fuel": "solar", "mw": 49.5, "country": "DOM", "status": "planned"}}, {"type": "Feature", "id": 220, "geometry": {"type": "Point", "coordinates": [-71.154, 19.677]}, "properties": {"name": "Jaib\u00f3n solar farm", "fuel": "solar", "mw": 66.5, "country": "DOM", "status": "planned"}}, {"type": "Feature", "id": 221, "geometry": {"type": "Point", "coordinates": [-70.027, 18.556]}, "properties": {"name": "Jambol\u00e1n solar farm", "fuel": "solar", "mw": 18.4, "country": "DOM", "status": "planned"}}, {"type": "Feature", "id": 222, "geometry": {"type": "Point", "coordinates": [-69.697, 18.554]}, "properties": {"name": "Joya solar farm", "fuel": "solar", "mw": 61.4, "country": "DOM", "status": "planned"}}, {"type": "Feature", "id": 223, "geometry": {"type": "Point", "coordinates": [-69.847, 18.614]}, "properties": {"name": "La Victoria Solar Facility", "fuel": "solar", "mw": 58.0, "country": "DOM", "status": "operating"}}, {"type": "Feature", "id": 224, "geometry": {"type": "Point", "coordinates": [-70.093, 19.202]}, "properties": {"name": "Laesa solar farm", "fuel": "solar", "mw": 30.9, "country": "DOM", "status": "planned"}}, {"type": "Feature", "id": 225, "geometry": {"type": "Point", "coordinates": [-70.799, 18.474]}, "properties": {"name": "Las Barias solar farm", "fuel": "solar", "mw": 9.2, "country": "DOM", "status": "planned"}}, {"type": "Feature", "id": 226, "geometry": {"type": "Point", "coordinates": [-69.612, 18.636]}, "properties": {"name": "Las Parras solar farm", "fuel": "solar", "mw": 248.4, "country": "DOM", "status": "planned"}}, {"type": "Feature", "id": 227, "geometry": {"type": "Point", "coordinates": [-70.801, 18.471]}, "properties": {"name": "Los Jovillos solar farm", "fuel": "solar", "mw": 13.8, "country": "DOM", "status": "planned"}}, {"type": "Feature", "id": 228, "geometry": {"type": "Point", "coordinates": [-70.095, 18.503]}, "properties": {"name": "Los Montones solar farm", "fuel": "solar", "mw": 44.4, "country": "DOM", "status": "planned"}}, {"type": "Feature", "id": 229, "geometry": {"type": "Point", "coordinates": [-70.862, 18.353]}, "properties": {"name": "Los Negros solar farm", "fuel": "solar", "mw": 25.0, "country": "DOM", "status": "operating"}}, {"type": "Feature", "id": 230, "geometry": {"type": "Point", "coordinates": [-70.205, 18.251]}, "properties": {"name": "Lucila solar farm", "fuel": "solar", "mw": 10.3, "country": "DOM", "status": "planned"}}, {"type": "Feature", "id": 231, "geometry": {"type": "Point", "coordinates": [-69.755, 18.491]}, "properties": {"name": "Maranatha Santo Domingo Este solar farm", "fuel": "solar", "mw": 10.0, "country": "DOM", "status": "operating"}}, {"type": "Feature", "id": 232, "geometry": {"type": "Point", "coordinates": [-69.92, 18.629]}, "properties": {"name": "Marti solar farm", "fuel": "solar", "mw": 43.0, "country": "DOM", "status": "planned"}}, {"type": "Feature", "id": 233, "geometry": {"type": "Point", "coordinates": [-69.588, 18.643]}, "properties": {"name": "Mata De Palma Washington Solar Park", "fuel": "solar", "mw": 50.0, "country": "DOM", "status": "operating"}}, {"type": "Feature", "id": 234, "geometry": {"type": "Point", "coordinates": [-69.59, 18.648]}, "properties": {"name": "Mata De Palma Washington Solar Park", "fuel": "solar", "mw": 50.0, "country": "DOM", "status": "operating"}}, {"type": "Feature", "id": 235, "geometry": {"type": "Point", "coordinates": [-69.59, 18.648]}, "properties": {"name": "Mata De Palma Washington Solar Park", "fuel": "solar", "mw": 50.0, "country": "DOM", "status": "operating"}}, {"type": "Feature", "id": 236, "geometry": {"type": "Point", "coordinates": [-70.444, 18.263]}, "properties": {"name": "Matanzas solar farm", "fuel": "solar", "mw": 57.8, "country": "DOM", "status": "planned"}}, {"type": "Feature", "id": 237, "geometry": {"type": "Point", "coordinates": [-70.0, 19.536]}, "properties": {"name": "Matrisol solar farm", "fuel": "solar", "mw": 50.0, "country": "DOM", "status": "operating"}}, {"type": "Feature", "id": 238, "geometry": {"type": "Point", "coordinates": [-69.499, 18.624]}, "properties": {"name": "Mella solar farm", "fuel": "solar", "mw": 99.0, "country": "DOM", "status": "planned"}}, {"type": "Feature", "id": 239, "geometry": {"type": "Point", "coordinates": [-69.711, 18.563]}, "properties": {"name": "Mirasol solar farm", "fuel": "solar", "mw": 100.0, "country": "DOM", "status": "construction"}}, {"type": "Feature", "id": 240, "geometry": {"type": "Point", "coordinates": [-69.79, 18.82]}, "properties": {"name": "Monte Plata Solar Plant", "fuel": "solar", "mw": 30.0, "country": "DOM", "status": "operating"}}, {"type": "Feature", "id": 241, "geometry": {"type": "Point", "coordinates": [-69.791, 18.83]}, "properties": {"name": "Monte Plata Solar Plant", "fuel": "solar", "mw": 42.2, "country": "DOM", "status": "operating"}}, {"type": "Feature", "id": 242, "geometry": {"type": "Point", "coordinates": [-71.381, 19.709]}, "properties": {"name": "Montecristi Solar Park", "fuel": "solar", "mw": 58.0, "country": "DOM", "status": "operating"}}, {"type": "Feature", "id": 243, "geometry": {"type": "Point", "coordinates": [-71.393, 19.673]}, "properties": {"name": "Montecristi solar project", "fuel": "solar", "mw": 2.8, "country": "DOM", "status": "planned"}}, {"type": "Feature", "id": 244, "geometry": {"type": "Point", "coordinates": [-70.86, 19.549]}, "properties": {"name": "Navarrete solar farm", "fuel": "solar", "mw": 4.3, "country": "DOM", "status": "planned"}}, {"type": "Feature", "id": 245, "geometry": {"type": "Point", "coordinates": [-70.059, 18.387]}, "properties": {"name": "Nigua solar farm", "fuel": "solar", "mw": 22.4, "country": "DOM", "status": "planned"}}, {"type": "Feature", "id": 246, "geometry": {"type": "Point", "coordinates": [-71.349, 19.688]}, "properties": {"name": "Noroeste solar farm", "fuel": "solar", "mw": 64.3, "country": "DOM", "status": "planned"}}, {"type": "Feature", "id": 247, "geometry": {"type": "Point", "coordinates": [-70.097, 18.569]}, "properties": {"name": "Onifled Energy solar farm", "fuel": "solar", "mw": 26.9, "country": "DOM", "status": "planned"}}, {"type": "Feature", "id": 248, "geometry": {"type": "Point", "coordinates": [-69.473, 18.48]}, "properties": {"name": "PC Sun Power Del Caribe solar farm", "fuel": "solar", "mw": 99.9, "country": "DOM", "status": "planned"}}, {"type": "Feature", "id": 249, "geometry": {"type": "Point", "coordinates": [-70.039, 18.388]}, "properties": {"name": "Parque Industrial ITABO solar farm", "fuel": "solar", "mw": 1.0, "country": "DOM", "status": "operating"}}, {"type": "Feature", "id": 250, "geometry": {"type": "Point", "coordinates": [-69.957, 19.486]}, "properties": {"name": "Payita solar farm", "fuel": "solar", "mw": 50.0, "country": "DOM", "status": "planned"}}, {"type": "Feature", "id": 251, "geometry": {"type": "Point", "coordinates": [-69.964, 19.485]}, "properties": {"name": "Payita solar farm", "fuel": "solar", "mw": 50.0, "country": "DOM", "status": "planned"}}, {"type": "Feature", "id": 252, "geometry": {"type": "Point", "coordinates": [-71.386, 18.857]}, "properties": {"name": "Pedro Corto solar farm", "fuel": "solar", "mw": 63.3, "country": "DOM", "status": "planned"}}, {"type": "Feature", "id": 253, "geometry": {"type": "Point", "coordinates": [-70.393, 18.306]}, "properties": {"name": "Peravia solar farm", "fuel": "solar", "mw": 70.0, "country": "DOM", "status": "planned"}}, {"type": "Feature", "id": 254, "geometry": {"type": "Point", "coordinates": [-70.393, 18.306]}, "properties": {"name": "Peravia solar farm", "fuel": "solar", "mw": 70.0, "country": "DOM", "status": "planned"}}, {"type": "Feature", "id": 255, "geometry": {"type": "Point", "coordinates": [-70.112, 19.228]}, "properties": {"name": "Pimentel Energy solar farm", "fuel": "solar", "mw": 119.6, "country": "DOM", "status": "planned"}}, {"type": "Feature", "id": 256, "geometry": {"type": "Point", "coordinates": [-69.182, 18.543]}, "properties": {"name": "Porvenir solar farm (Dominican Republic)", "fuel": "solar", "mw": 46.7, "country": "DOM", "status": "planned"}}, {"type": "Feature", "id": 257, "geometry": {"type": "Point", "coordinates": [-70.251, 18.236]}, "properties": {"name": "Punta Catalina solar farm", "fuel": "solar", "mw": 40.0, "country": "DOM", "status": "planned"}}, {"type": "Feature", "id": 258, "geometry": {"type": "Point", "coordinates": [-71.362, 19.743]}, "properties": {"name": "Quisqueya Verde solar farm", "fuel": "solar", "mw": 125.0, "country": "DOM", "status": "planned"}}, {"type": "Feature", "id": 259, "geometry": {"type": "Point", "coordinates": [-69.056, 18.473]}, "properties": {"name": "REWD solar farm", "fuel": "solar", "mw": 50.0, "country": "DOM", "status": "planned"}}, {"type": "Feature", "id": 260, "geometry": {"type": "Point", "coordinates": [-69.491, 18.619]}, "properties": {"name": "Redelsol Goutier solar farm", "fuel": "solar", "mw": 54.6, "country": "DOM", "status": "planned"}}, {"type": "Feature", "id": 261, "geometry": {"type": "Point", "coordinates": [-69.493, 18.631]}, "properties": {"name": "Redsolar Energy Green solar farm", "fuel": "solar", "mw": 79.6, "country": "DOM", "status": "planned"}}, {"type": "Feature", "id": 262, "geometry": {"type": "Point", "coordinates": [-70.926, 19.343]}, "properties": {"name": "Sajoma solar farm", "fuel": "solar", "mw": 80.0, "country": "DOM", "status": "operating"}}, {"type": "Feature", "id": 263, "geometry": {"type": "Point", "coordinates": [-70.1, 18.539]}, "properties": {"name": "Santa Clara Energy Group solar farm", "fuel": "solar", "mw": 67.7, "country": "DOM", "status": "planned"}}, {"type": "Feature", "id": 264, "geometry": {"type": "Point", "coordinates": [-70.371, 18.331]}, "properties": {"name": "Santanasol Solar Park", "fuel": "solar", "mw": 65.0, "country": "DOM", "status": "operating"}}, {"type": "Feature", "id": 265, "geometry": {"type": "Point", "coordinates": [-69.943, 19.594]}, "properties": {"name": "Solsur solar farm", "fuel": "solar", "mw": 50.0, "country": "DOM", "status": "planned"}}, {"type": "Feature", "id": 266, "geometry": {"type": "Point", "coordinates": [-68.66, 18.831]}, "properties": {"name": "Sumidero solar farm", "fuel": "solar", "mw": 53.8, "country": "DOM", "status": "construction"}}, {"type": "Feature", "id": 267, "geometry": {"type": "Point", "coordinates": [-70.361, 18.301]}, "properties": {"name": "Sunfarming Food & Energy solar farm", "fuel": "solar", "mw": 50.0, "country": "DOM", "status": "planned"}}, {"type": "Feature", "id": 268, "geometry": {"type": "Point", "coordinates": [-69.993, 19.506]}, "properties": {"name": "Taino I solar farm", "fuel": "solar", "mw": 95.6, "country": "DOM", "status": "planned"}}, {"type": "Feature", "id": 269, "geometry": {"type": "Point", "coordinates": [-70.219, 18.246]}, "properties": {"name": "Tornasol solar farm", "fuel": "solar", "mw": 48.3, "country": "DOM", "status": "planned"}}, {"type": "Feature", "id": 270, "geometry": {"type": "Point", "coordinates": [-69.699, 18.554]}, "properties": {"name": "Washington Capital solar farm", "fuel": "solar", "mw": 48.1, "country": "DOM", "status": "planned"}}, {"type": "Feature", "id": 271, "geometry": {"type": "Point", "coordinates": [-69.699, 18.554]}, "properties": {"name": "Washington Capital solar farm", "fuel": "solar", "mw": 48.1, "country": "DOM", "status": "planned"}}, {"type": "Feature", "id": 272, "geometry": {"type": "Point", "coordinates": [-69.694, 18.554]}, "properties": {"name": "Watsol Energy solar farm", "fuel": "solar", "mw": 64.0, "country": "DOM", "status": "planned"}}, {"type": "Feature", "id": 273, "geometry": {"type": "Point", "coordinates": [-70.733, 19.475]}, "properties": {"name": "Zonaxol solar farm", "fuel": "solar", "mw": 44.0, "country": "DOM", "status": "planned"}}, {"type": "Feature", "id": 274, "geometry": {"type": "Point", "coordinates": [-72.014, 19.669]}, "properties": {"name": "Caracol Industrial Park solar farm", "fuel": "solar", "mw": 8.0, "country": "HTI", "status": "construction"}}, {"type": "Feature", "id": 275, "geometry": {"type": "Point", "coordinates": [-72.014, 19.669]}, "properties": {"name": "Caracol Industrial Park solar farm", "fuel": "solar", "mw": 4.0, "country": "HTI", "status": "construction"}}, {"type": "Feature", "id": 276, "geometry": {"type": "Point", "coordinates": [-77.283, 17.996]}, "properties": {"name": "Clarendon solar farm", "fuel": "solar", "mw": 49.8, "country": "JAM", "status": "planned"}}, {"type": "Feature", "id": 277, "geometry": {"type": "Point", "coordinates": [-77.309, 17.944]}, "properties": {"name": "Content solar farm", "fuel": "solar", "mw": 20.0, "country": "JAM", "status": "operating"}}, {"type": "Feature", "id": 278, "geometry": {"type": "Point", "coordinates": [-76.772, 17.939]}, "properties": {"name": "Kingston solar project", "fuel": "solar", "mw": 2.8, "country": "JAM", "status": "operating"}}, {"type": "Feature", "id": 279, "geometry": {"type": "Point", "coordinates": [-78.102, 18.227]}, "properties": {"name": "Paradise Park solar farm", "fuel": "solar", "mw": 52.0, "country": "JAM", "status": "operating"}}, {"type": "Feature", "id": 280, "geometry": {"type": "Point", "coordinates": [-76.839, 18.009]}, "properties": {"name": "Saint Andrew solar project", "fuel": "solar", "mw": 1.1, "country": "JAM", "status": "operating"}}, {"type": "Feature", "id": 281, "geometry": {"type": "Point", "coordinates": [-77.146, 17.898]}, "properties": {"name": "Saint Catherine solar project", "fuel": "solar", "mw": 1.6, "country": "JAM", "status": "operating"}}, {"type": "Feature", "id": 282, "geometry": {"type": "Point", "coordinates": [-77.579, 18.443]}, "properties": {"name": "Trelawny solar farm", "fuel": "solar", "mw": 50.0, "country": "JAM", "status": "planned"}}, {"type": "Feature", "id": 283, "geometry": {"type": "Point", "coordinates": [-61.463, 10.406]}, "properties": {"name": "Brechin Castle Solar Project", "fuel": "solar", "mw": 92.0, "country": "TTO", "status": "construction"}}, {"type": "Feature", "id": 284, "geometry": {"type": "Point", "coordinates": [-75.6, 21.007]}, "properties": {"name": "Cabo Lucrecia wind farm", "fuel": "wind", "mw": 50.0, "country": "CUB", "status": "planned"}}, {"type": "Feature", "id": 285, "geometry": {"type": "Point", "coordinates": [-76.137, 21.119]}, "properties": {"name": "Gibara wind farm", "fuel": "wind", "mw": 50.0, "country": "CUB", "status": "planned"}}, {"type": "Feature", "id": 286, "geometry": {"type": "Point", "coordinates": [-76.4, 21.268]}, "properties": {"name": "La Herradura wind farm", "fuel": "wind", "mw": 33.0, "country": "CUB", "status": "construction"}}, {"type": "Feature", "id": 287, "geometry": {"type": "Point", "coordinates": [-76.322, 21.236]}, "properties": {"name": "La Herradura wind farm", "fuel": "wind", "mw": 50.0, "country": "CUB", "status": "construction"}}, {"type": "Feature", "id": 288, "geometry": {"type": "Point", "coordinates": [-76.445, 21.273]}, "properties": {"name": "La Herradura wind farm", "fuel": "wind", "mw": 30.0, "country": "CUB", "status": "planned"}}, {"type": "Feature", "id": 289, "geometry": {"type": "Point", "coordinates": [-75.859, 21.089]}, "properties": {"name": "Los Jag\u00fceyes wind farm", "fuel": "wind", "mw": 35.0, "country": "CUB", "status": "planned"}}, {"type": "Feature", "id": 290, "geometry": {"type": "Point", "coordinates": [-76.891, 21.242]}, "properties": {"name": "Manat\u00ed wind farm", "fuel": "wind", "mw": 122.0, "country": "CUB", "status": "planned"}}, {"type": "Feature", "id": 291, "geometry": {"type": "Point", "coordinates": [-75.633, 20.955]}, "properties": {"name": "Punta De Mulas wind farm", "fuel": "wind", "mw": 50.0, "country": "CUB", "status": "planned"}}, {"type": "Feature", "id": 292, "geometry": {"type": "Point", "coordinates": [-74.154, 20.182]}, "properties": {"name": "Punta Fraile wind farm", "fuel": "wind", "mw": 52.5, "country": "CUB", "status": "planned"}}, {"type": "Feature", "id": 293, "geometry": {"type": "Point", "coordinates": [-74.232, 20.144]}, "properties": {"name": "Punta Fraile wind farm", "fuel": "wind", "mw": 35.0, "country": "CUB", "status": "planned"}}, {"type": "Feature", "id": 294, "geometry": {"type": "Point", "coordinates": [-74.203, 20.289]}, "properties": {"name": "Punta Quemado wind farm", "fuel": "wind", "mw": 52.0, "country": "CUB", "status": "planned"}}, {"type": "Feature", "id": 295, "geometry": {"type": "Point", "coordinates": [-74.18, 20.265]}, "properties": {"name": "Punta Quemado wind farm", "fuel": "wind", "mw": 35.0, "country": "CUB", "status": "planned"}}, {"type": "Feature", "id": 296, "geometry": {"type": "Point", "coordinates": [-75.762, 21.115]}, "properties": {"name": "Rio Seco wind farm", "fuel": "wind", "mw": 50.0, "country": "CUB", "status": "construction"}}, {"type": "Feature", "id": 297, "geometry": {"type": "Point", "coordinates": [-75.689, 21.079]}, "properties": {"name": "Rio Seco wind farm", "fuel": "wind", "mw": 96.0, "country": "CUB", "status": "planned"}}, {"type": "Feature", "id": 298, "geometry": {"type": "Point", "coordinates": [-71.221, 19.693]}, "properties": {"name": "Agua Clara wind farm", "fuel": "wind", "mw": 50.0, "country": "DOM", "status": "operating"}}, {"type": "Feature", "id": 299, "geometry": {"type": "Point", "coordinates": [-70.948, 19.58]}, "properties": {"name": "Esperanza (Dominican Republic) wind farm", "fuel": "wind", "mw": 50.0, "country": "DOM", "status": "construction"}}, {"type": "Feature", "id": 300, "geometry": {"type": "Point", "coordinates": [-70.963, 19.561]}, "properties": {"name": "Esperanza wind farm (Dominican Republic)", "fuel": "wind", "mw": 50.0, "country": "DOM", "status": "planned"}}, {"type": "Feature", "id": 301, "geometry": {"type": "Point", "coordinates": [-71.5, 19.875]}, "properties": {"name": "Granadillos wind farm", "fuel": "wind", "mw": 50.0, "country": "DOM", "status": "operating"}}, {"type": "Feature", "id": 302, "geometry": {"type": "Point", "coordinates": [-71.498, 19.9]}, "properties": {"name": "Guanillo wind farm", "fuel": "wind", "mw": 50.0, "country": "DOM", "status": "operating"}}, {"type": "Feature", "id": 303, "geometry": {"type": "Point", "coordinates": [-70.963, 19.893]}, "properties": {"name": "La Isabela wind farm", "fuel": "wind", "mw": 50.0, "country": "DOM", "status": "operating"}}, {"type": "Feature", "id": 304, "geometry": {"type": "Point", "coordinates": [-71.245, 17.898]}, "properties": {"name": "Larimar wind farm", "fuel": "wind", "mw": 50.0, "country": "DOM", "status": "operating"}}, {"type": "Feature", "id": 305, "geometry": {"type": "Point", "coordinates": [-71.232, 17.913]}, "properties": {"name": "Larimar wind farm", "fuel": "wind", "mw": 48.0, "country": "DOM", "status": "operating"}}, {"type": "Feature", "id": 306, "geometry": {"type": "Point", "coordinates": [-69.905, 19.617]}, "properties": {"name": "Los Cacaos wind farm", "fuel": "wind", "mw": 50.0, "country": "DOM", "status": "planned"}}, {"type": "Feature", "id": 307, "geometry": {"type": "Point", "coordinates": [-71.27, 17.884]}, "properties": {"name": "Los Cocos wind farm", "fuel": "wind", "mw": 25.2, "country": "DOM", "status": "operating"}}, {"type": "Feature", "id": 308, "geometry": {"type": "Point", "coordinates": [-71.27, 17.884]}, "properties": {"name": "Los Cocos wind farm", "fuel": "wind", "mw": 52.0, "country": "DOM", "status": "operating"}}, {"type": "Feature", "id": 309, "geometry": {"type": "Point", "coordinates": [-70.822, 19.88]}, "properties": {"name": "Los Guzmancito wind farm", "fuel": "wind", "mw": 48.0, "country": "DOM", "status": "operating"}}, {"type": "Feature", "id": 310, "geometry": {"type": "Point", "coordinates": [-70.858, 19.886]}, "properties": {"name": "Los Guzmancito wind farm", "fuel": "wind", "mw": 50.0, "country": "DOM", "status": "operating"}}, {"type": "Feature", "id": 311, "geometry": {"type": "Point", "coordinates": [-71.445, 19.742]}, "properties": {"name": "Los Manantiales 2 wind farm", "fuel": "wind", "mw": 50.0, "country": "DOM", "status": "planned"}}, {"type": "Feature", "id": 312, "geometry": {"type": "Point", "coordinates": [-71.445, 19.742]}, "properties": {"name": "Los Manantiales 3 wind farm", "fuel": "wind", "mw": 50.0, "country": "DOM", "status": "planned"}}, {"type": "Feature", "id": 313, "geometry": {"type": "Point", "coordinates": [-71.421, 19.802]}, "properties": {"name": "Los Manantiales wind farm", "fuel": "wind", "mw": 50.0, "country": "DOM", "status": "planned"}}, {"type": "Feature", "id": 314, "geometry": {"type": "Point", "coordinates": [-70.491, 18.264]}, "properties": {"name": "Matafongo wind farm", "fuel": "wind", "mw": 34.0, "country": "DOM", "status": "operating"}}, {"type": "Feature", "id": 315, "geometry": {"type": "Point", "coordinates": [-71.34, 19.785]}, "properties": {"name": "Pecasa wind farm", "fuel": "wind", "mw": 50.0, "country": "DOM", "status": "operating"}}, {"type": "Feature", "id": 316, "geometry": {"type": "Point", "coordinates": [-70.418, 19.745]}, "properties": {"name": "Puerto Plata-Imbert wind farm", "fuel": "wind", "mw": 46.0, "country": "DOM", "status": "operating"}}, {"type": "Feature", "id": 317, "geometry": {"type": "Point", "coordinates": [-71.017, 19.293]}, "properties": {"name": "Sajoma wind farm", "fuel": "wind", "mw": 50.0, "country": "DOM", "status": "planned"}}, {"type": "Feature", "id": 318, "geometry": {"type": "Point", "coordinates": [-71.017, 19.293]}, "properties": {"name": "Sajoma wind farm", "fuel": "wind", "mw": 50.0, "country": "DOM", "status": "planned"}}, {"type": "Feature", "id": 319, "geometry": {"type": "Point", "coordinates": [-69.042, 18.983]}, "properties": {"name": "Vientos del Jovero wind farm", "fuel": "wind", "mw": 49.5, "country": "DOM", "status": "planned"}}, {"type": "Feature", "id": 320, "geometry": {"type": "Point", "coordinates": [-77.692, 17.94]}, "properties": {"name": "Jamaica wind farm", "fuel": "wind", "mw": 36.3, "country": "JAM", "status": "operating"}}, {"type": "Feature", "id": 321, "geometry": {"type": "Point", "coordinates": [-77.542, 17.916]}, "properties": {"name": "Wigton wind farm", "fuel": "wind", "mw": 21.0, "country": "JAM", "status": "operating"}}, {"type": "Feature", "id": 322, "geometry": {"type": "Point", "coordinates": [-77.534, 17.919]}, "properties": {"name": "Wigton wind farm", "fuel": "wind", "mw": 18.0, "country": "JAM", "status": "operating"}}, {"type": "Feature", "id": 323, "geometry": {"type": "Point", "coordinates": [-77.534, 17.919]}, "properties": {"name": "Wigton wind farm", "fuel": "wind", "mw": 24.0, "country": "JAM", "status": "operating"}}, {"type": "Feature", "id": 324, "geometry": {"type": "Point", "coordinates": [-76.132, 21.15]}, "properties": {"name": "Gibara wind farm", "fuel": "wind", "mw": 5.1, "country": "CUB", "status": "operating"}}, {"type": "Feature", "id": 325, "geometry": {"type": "Point", "coordinates": [-76.148, 21.166]}, "properties": {"name": "Gibara wind farm", "fuel": "wind", "mw": 4.5, "country": "CUB", "status": "operating"}}, {"type": "Feature", "id": 326, "geometry": {"type": "Point", "coordinates": [-82.763, 21.722]}, "properties": {"name": "Isla de la Juventud wind farm", "fuel": "wind", "mw": 1.6, "country": "CUB", "status": "operating"}}, {"type": "Feature", "id": 327, "geometry": {"type": "Point", "coordinates": [-71.27, 17.884]}, "properties": {"name": "Los Cocos wind farm", "fuel": "wind", "mw": 1.8, "country": "DOM", "status": "operating"}}, {"type": "Feature", "id": 328, "geometry": {"type": "Point", "coordinates": [-71.27, 17.884]}, "properties": {"name": "Los Cocos wind farm", "fuel": "wind", "mw": 8.3, "country": "DOM", "status": "operating"}}, {"type": "Feature", "id": 329, "geometry": {"type": "Point", "coordinates": [-69.903, 19.626]}, "properties": {"name": "Quilvio Cabrera wind farm", "fuel": "wind", "mw": 8.2, "country": "DOM", "status": "operating"}}, {"type": "Feature", "id": 330, "geometry": {"type": "Point", "coordinates": [-70.258, 18.429]}, "properties": {"name": "Aguacate hydroelectric plant", "fuel": "hydro", "mw": 60.0, "country": "DOM", "status": "operating"}}, {"type": "Feature", "id": 331, "geometry": {"type": "Point", "coordinates": [-71.716, 19.07]}, "properties": {"name": "El Corte hydroelectric plant", "fuel": "hydro", "mw": 36.0, "country": "DOM", "status": "planned"}}, {"type": "Feature", "id": 332, "geometry": {"type": "Point", "coordinates": [-70.332, 18.511]}, "properties": {"name": "Jig\u00fcey hydroelectric plant", "fuel": "hydro", "mw": 98.0, "country": "DOM", "status": "operating"}}, {"type": "Feature", "id": 333, "geometry": {"type": "Point", "coordinates": [-70.691, 19.45]}, "properties": {"name": "Las Placetas hydroelectric plant", "fuel": "hydro", "mw": 204.0, "country": "DOM", "status": "construction"}}, {"type": "Feature", "id": 334, "geometry": {"type": "Point", "coordinates": [-71.089, 19.428]}, "properties": {"name": "Monci\u00f3n hydroelectric plant", "fuel": "hydro", "mw": 52.0, "country": "DOM", "status": "operating"}}, {"type": "Feature", "id": 335, "geometry": {"type": "Point", "coordinates": [-70.987, 18.808]}, "properties": {"name": "Palomino hydroelectric plant", "fuel": "hydro", "mw": 90.0, "country": "DOM", "status": "operating"}}, {"type": "Feature", "id": 336, "geometry": {"type": "Point", "coordinates": [-70.625, 18.916]}, "properties": {"name": "Pinalito hydroelectric plant", "fuel": "hydro", "mw": 50.0, "country": "DOM", "status": "operating"}}, {"type": "Feature", "id": 337, "geometry": {"type": "Point", "coordinates": [-70.724, 19.288]}, "properties": {"name": "Tavera hydroelectric plant", "fuel": "hydro", "mw": 80.0, "country": "DOM", "status": "operating"}}, {"type": "Feature", "id": 338, "geometry": {"type": "Point", "coordinates": [-70.276, 18.392]}, "properties": {"name": "Valdesia hydroelectric plant", "fuel": "hydro", "mw": 54.0, "country": "DOM", "status": "operating"}}, {"type": "Feature", "id": 339, "geometry": {"type": "Point", "coordinates": [-72.088, 18.884]}, "properties": {"name": "Artibonite-4C hydroelectric plant", "fuel": "hydro", "mw": 32.0, "country": "HTI", "status": "planned"}}, {"type": "Feature", "id": 340, "geometry": {"type": "Point", "coordinates": [-71.087, 18.221]}, "properties": {"name": "Barahona power station", "fuel": "coal", "mw": 52.0, "country": "DOM", "status": "operating"}}, {"type": "Feature", "id": 341, "geometry": {"type": "Point", "coordinates": [-70.027, 18.406]}, "properties": {"name": "Itabo power station", "fuel": "coal", "mw": 128.0, "country": "DOM", "status": "operating"}}, {"type": "Feature", "id": 342, "geometry": {"type": "Point", "coordinates": [-70.027, 18.406]}, "properties": {"name": "Itabo power station", "fuel": "coal", "mw": 132.0, "country": "DOM", "status": "operating"}}, {"type": "Feature", "id": 343, "geometry": {"type": "Point", "coordinates": [-70.238, 18.233]}, "properties": {"name": "Punta Catalina power station", "fuel": "coal", "mw": 376.0, "country": "DOM", "status": "operating"}}, {"type": "Feature", "id": 344, "geometry": {"type": "Point", "coordinates": [-70.238, 18.233]}, "properties": {"name": "Punta Catalina power station", "fuel": "coal", "mw": 376.0, "country": "DOM", "status": "operating"}}]}