{"type": "FeatureCollection", "features": [{"type": "Feature", "geometry": {"type": "Point", "coordinates": [99.026, 21.342]}, "properties": {"name": "Mine Pyin Substation", "v": 230000}}, {"type": "Feature", "geometry": {"type": "Point", "coordinates": [97.333, 24.999]}, "properties": {"name": "", "v": 0}}, {"type": "Feature", "geometry": {"type": "Point", "coordinates": [94.681, 20.05]}, "properties": {"name": "\u1019\u1004\u103a\u1038\u1018\u1030\u1038\u1006\u102d\u102f\u101c\u102c\u1013\u102c\u1010\u103a\u1021\u102c\u1038\u1001\u103d\u1032\u101b\u102f\u1036", "v": 0}}, {"type": "Feature", "geometry": {"type": "Point", "coordinates": [94.038, 21.994]}, "properties": {"name": "\u1019\u103c\u1005\u103a\u101e\u102c\u1006\u100a\u103a\u101b\u1031\u1021\u102c\u1038\u101c\u103b\u103e\u1015\u103a\u1005\u1005\u103a\u1013\u102c\u1010\u103a\u1021\u102c\u1038\u1001\u103d\u1032\u101b\u102f\u1036", "v": 0}}, {"type": "Feature", "geometry": {"type": "Point", "coordinates": [94.632, 20.565]}, "properties": {"name": "\u1001\u103d\u1032\u101b\u102f\u1036", "v": 0}}, {"type": "Feature", "geometry": {"type": "Point", "coordinates": [94.691, 20.85]}, "properties": {"name": "\u1010\u100a\u1031\u102c\u1004\u103a\u1015\u1004\u103a\u1019 \u1013\u102c\u1010\u103a\u1021\u102c\u1038\u1001\u103d\u1032\u101b\u102f\u1036", "v": 0}}, {"type": "Feature", "geometry": {"type": "Point", "coordinates": [96.649, 23.13]}, "properties": {"name": "\u1019\u102d\u102f\u1038\u1019\u102d\u1010\u103a \u1001\u103d\u1032\u101b\u102f\u1036", "v": 0}}, {"type": "Feature", "geometry": {"type": "Point", "coordinates": [94.408, 23.643]}, "properties": {"name": "\u1019\u1031\u102c\u103a\u101c\u102d\u102f\u1000\u103a\u1001\u103d\u1032\u101b\u102f\u1036", "v": 0}}, {"type": "Feature", "geometry": {"type": "Point", "coordinates": [95.573, 22.933]}, "properties": {"name": "\u1007\u102e\u1038\u1000\u102f\u1014\u103a\u1038\u1001\u103d\u1032\u101b\u102f\u1036", "v": 0}}, {"type": "Feature", "geometry": {"type": "Point", "coordinates": [96.508, 22.398]}, "properties": {"name": "\u101f\u102d\u102f\u1001\u102d\u102f\u1013\u102c\u1010\u103a\u1021\u102c\u1038\u1001\u103d\u1032\u101b\u102f\u1036", "v": 0}}, {"type": "Feature", "geometry": {"type": "Point", "coordinates": [95.712, 21.687]}, "properties": {"name": "Myoh Th\u0101 Substation", "v": 0}}, {"type": "Feature", "geometry": {"type": "Point", "coordinates": [95.465, 21.781]}, "properties": {"name": "66/11kV substation", "v": 0}}, {"type": "Feature", "geometry": {"type": "Point", "coordinates": [94.435, 21.479]}, "properties": {"name": "66000 \u1013\u102c\u1010\u103a\u1021\u102c\u1038\u1001\u103d\u1032\u101b\u102f\u1036", "v": 0}}, {"type": "Feature", "geometry": {"type": "Point", "coordinates": [94.239, 18.854]}, "properties": {"name": "", "v": 0}}, {"type": "Feature", "geometry": {"type": "Point", "coordinates": [94.149, 22.164]}, "properties": {"name": "\u1002\u1014\u1037\u103a\u1002\u1031\u102b\u1001\u101b\u102d\u102f\u1004\u103a \u101c\u103b\u103e\u1015\u103a\u1005\u1005\u103a\u1013\u102c\u1010\u103a\u1021\u102c\u1038\u1001\u103d\u1032\u101b\u102f\u1036\u1038", "v": 0}}, {"type": "Feature", "geometry": {"type": "Point", "coordinates": [94.132, 21.404]}, "properties": {"name": "66/11kV Kyaukhtu Sub-Station", "v": 0}}, {"type": "Feature", "geometry": {"type": "Point", "coordinates": [95.093, 21.277]}, "properties": {"name": "", "v": 0}}, {"type": "Feature", "geometry": {"type": "Point", "coordinates": [96.066, 19.772]}, "properties": {"name": "(33/11)kV Sport SS", "v": 0}}, {"type": "Feature", "geometry": {"type": "Point", "coordinates": [96.07, 19.788]}, "properties": {"name": "", "v": 0}}, {"type": "Feature", "geometry": {"type": "Point", "coordinates": [96.082, 19.749]}, "properties": {"name": "(33/11)kV SS-6", "v": 0}}, {"type": "Feature", "geometry": {"type": "Point", "coordinates": [96.096, 19.645]}, "properties": {"name": "(33/11)kV Industrial SS", "v": 0}}, {"type": "Feature", "geometry": {"type": "Point", "coordinates": [96.1, 19.764]}, "properties": {"name": "(33/11)kV SS-3", "v": 0}}, {"type": "Feature", "geometry": {"type": "Point", "coordinates": [96.103, 19.704]}, "properties": {"name": "(33/11)kV SS-7", "v": 0}}, {"type": "Feature", "geometry": {"type": "Point", "coordinates": [96.111, 19.752]}, "properties": {"name": "(33/11)kV SS-1", "v": 0}}, {"type": "Feature", "geometry": {"type": "Point", "coordinates": [96.115, 19.631]}, "properties": {"name": "(33/11)kV LAWE SS", "v": 0}}, {"type": "Feature", "geometry": {"type": "Point", "coordinates": [95.393, 21.379]}, "properties": {"name": "\u1001\u103d\u1032\u101b\u102f\u1036\u1014\u1031\u101b\u102c", "v": 0}}, {"type": "Feature", "geometry": {"type": "Point", "coordinates": [94.255, 20.478]}, "properties": {"name": "\u1019\u102f\u1014\u103a\u1038\u1001\u103b\u1031\u102c\u1004\u103a\u1038\u1001\u103d\u1032\u101b\u102f\u1036", "v": 0}}, {"type": "Feature", "geometry": {"type": "Point", "coordinates": [95.017, 20.806]}, "properties": {"name": "\u1002\u103d\u1031\u1038\u1001\u103b\u102d\u102f (\u1046\u1046) \u1000\u1031\u1017\u103d\u102e \u1013\u102c\u1010\u103a\u1021\u102c\u1038\u1001\u103d\u1032\u101b\u102f\u1036", "v": 0}}, {"type": "Feature", "geometry": {"type": "Point", "coordinates": [96.103, 19.667]}, "properties": {"name": "MPT SS", "v": 0}}, {"type": "Feature", "geometry": {"type": "Point", "coordinates": [96.104, 19.671]}, "properties": {"name": "(33/11)kV SS-5", "v": 0}}, {"type": "Feature", "geometry": {"type": "Point", "coordinates": [96.119, 19.714]}, "properties": {"name": "(33/11)kV SS-4", "v": 0}}, {"type": "Feature", "geometry": {"type": "Point", "coordinates": [96.132, 19.692]}, "properties": {"name": "(33/11)kV SS-12", "v": 0}}, {"type": "Feature", "geometry": {"type": "Point", "coordinates": [96.525, 18.725]}, "properties": {"name": "Zayatkyi Sub-station, Htantapin Township", "v": 0}}, {"type": "Feature", "geometry": {"type": "Point", "coordinates": [97.033, 20.815]}, "properties": {"name": "", "v": 0}}, {"type": "Feature", "geometry": {"type": "Point", "coordinates": [99.035, 19.162]}, "properties": {"name": "", "v": 0}}, {"type": "Feature", "geometry": {"type": "Point", "coordinates": [102.935, 17.088]}, "properties": {"name": "\u0e01\u0e32\u0e23\u0e44\u0e1f\u0e1f\u0e49\u0e32\u0e2a\u0e48\u0e27\u0e19\u0e20\u0e39\u0e21\u0e34\u0e20\u0e32\u0e04", "v": 0}}, {"type": "Feature", "geometry": {"type": "Point", "coordinates": [105.926, 21.015]}, "properties": {"name": "Tr\u1ea1m bi\u1ebfn \u00e1p An L\u1ea1c 2", "v": 0}}, {"type": "Feature", "geometry": {"type": "Point", "coordinates": [105.911, 21.062]}, "properties": {"name": "", "v": 0}}, {"type": "Feature", "geometry": {"type": "Point", "coordinates": [102.711, 17.368]}, "properties": {"name": "", "v": 0}}, {"type": "Feature", "geometry": {"type": "Point", "coordinates": [96.242, 19.613]}, "properties": {"name": "(33/11)kV Alar SS", "v": 0}}, {"type": "Feature", "geometry": {"type": "Point", "coordinates": [96.235, 19.734]}, "properties": {"name": "(230/66/33/11)kV PMN", "v": 0}}, {"type": "Feature", "geometry": {"type": "Point", "coordinates": [96.229, 21.858]}, "properties": {"name": "\u101b\u103d\u103e\u1031\u1005\u102c\u101b\u1036\u1001\u103d\u1032\u101b\u102f\u1036 (\u1014\u103d\u102c\u1038\u1001\u1032)", "v": 0}}, {"type": "Feature", "geometry": {"type": "Point", "coordinates": [96.483, 18.356]}, "properties": {"name": "\u101c\u103b\u103e\u1015\u103a\u1005\u1005\u103a\u1013\u102c\u1010\u103a\u1021\u102c\u1038\u1001\u103d\u1032\u101b\u102f\u1036 (\u1000\u100a\u103d\u1010\u103a\u1000\u103d\u1004\u103a\u1038\u1019\u103c\u102d\u102f\u1037)", "v": 0}}, {"type": "Feature", "geometry": {"type": "Point", "coordinates": [96.302, 18.962]}, "properties": {"name": "", "v": 0}}, {"type": "Feature", "geometry": {"type": "Point", "coordinates": [97.0, 24.142]}, "properties": {"name": "\u1001\u103d\u1032\u101b\u102f\u1036", "v": 0}}, {"type": "Feature", "geometry": {"type": "Point", "coordinates": [103.97, 15.999]}, "properties": {"name": "", "v": 0}}, {"type": "Feature", "geometry": {"type": "Point", "coordinates": [103.868, 11.239]}, "properties": {"name": "", "v": 0}}, {"type": "Feature", "geometry": {"type": "Point", "coordinates": [101.192, 12.982]}, "properties": {"name": "", "v": 0}}, {"type": "Feature", "geometry": {"type": "Point", "coordinates": [100.917, 14.864]}, "properties": {"name": "", "v": 0}}, {"type": "Feature", "geometry": {"type": "Point", "coordinates": [101.502, 12.964]}, "properties": {"name": "", "v": 0}}, {"type": "Feature", "geometry": {"type": "Point", "coordinates": [101.283, 13.419]}, "properties": {"name": "", "v": 0}}, {"type": "Feature", "geometry": {"type": "Point", "coordinates": [101.17, 14.23]}, "properties": {"name": "", "v": 0}}, {"type": "Feature", "geometry": {"type": "Point", "coordinates": [101.731, 15.14]}, "properties": {"name": "", "v": 0}}, {"type": "Feature", "geometry": {"type": "Point", "coordinates": [102.021, 14.95]}, "properties": {"name": "", "v": 0}}, {"type": "Feature", "geometry": {"type": "Point", "coordinates": [102.124, 16.481]}, "properties": {"name": "", "v": 0}}, {"type": "Feature", "geometry": {"type": "Point", "coordinates": [101.703, 14.011]}, "properties": {"name": "", "v": 0}}, {"type": "Feature", "geometry": {"type": "Point", "coordinates": [98.393, 7.916]}, "properties": {"name": "", "v": 0}}, {"type": "Feature", "geometry": {"type": "Point", "coordinates": [99.14, 7.969]}, "properties": {"name": "", "v": 0}}, {"type": "Feature", "geometry": {"type": "Point", "coordinates": [99.021, 8.056]}, "properties": {"name": "", "v": 0}}, {"type": "Feature", "geometry": {"type": "Point", "coordinates": [99.507, 11.405]}, "properties": {"name": "", "v": 0}}, {"type": "Feature", "geometry": {"type": "Point", "coordinates": [99.942, 13.091]}, "properties": {"name": "", "v": 0}}, {"type": "Feature", "geometry": {"type": "Point", "coordinates": [96.157, 16.796]}, "properties": {"name": "", "v": 0}}, {"type": "Feature", "geometry": {"type": "Point", "coordinates": [97.615, 16.637]}, "properties": {"name": "\u1019\u102e\u1038\u1021\u102c\u1038\u103b\u1019\u103d\u1004\u1039\u1037\u1005\u1000\u1039", "v": 0}}, {"type": "Feature", "geometry": {"type": "Point", "coordinates": [97.608, 16.645]}, "properties": {"name": "\u1019\u102e\u1038\u1021\u102c\u1038\u103b\u1019\u103d\u1004\u1039\u1037\u1005\u1000\u1039", "v": 0}}, {"type": "Feature", "geometry": {"type": "Point", "coordinates": [99.722, 16.162]}, "properties": {"name": "", "v": 0}}, {"type": "Feature", "geometry": {"type": "Point", "coordinates": [100.643, 13.961]}, "properties": {"name": "Rangsit South Electric Station 1", "v": 0}}, {"type": "Feature", "geometry": {"type": "Point", "coordinates": [100.668, 14.454]}, "properties": {"name": "", "v": 0}}, {"type": "Feature", "geometry": {"type": "Point", "coordinates": [103.864, 11.232]}, "properties": {"name": "Osla 1", "v": 0}}, {"type": "Feature", "geometry": {"type": "Point", "coordinates": [104.907, 11.56]}, "properties": {"name": "", "v": 0}}, {"type": "Feature", "geometry": {"type": "Point", "coordinates": [105.723, 10.051]}, "properties": {"name": "", "v": 0}}, {"type": "Feature", "geometry": {"type": "Point", "coordinates": [106.441, 10.546]}, "properties": {"name": "Tr\u1ea1m bi\u1ebfn \u00e1p 110kV T\u00e2n An", "v": 0}}, {"type": "Feature", "geometry": {"type": "Point", "coordinates": [106.564, 11.024]}, "properties": {"name": "", "v": 0}}, {"type": "Feature", "geometry": {"type": "Point", "coordinates": [106.578, 10.571]}, "properties": {"name": "Tr\u1ea1m bi\u1ebfn \u00c1p 220kV C\u1ea7n \u0110\u01b0\u1edbc", "v": 0}}, {"type": "Feature", "geometry": {"type": "Point", "coordinates": [106.706, 10.776]}, "properties": {"name": "", "v": 0}}, {"type": "Feature", "geometry": {"type": "Point", "coordinates": [105.034, 14.943]}, "properties": {"name": "", "v": 0}}, {"type": "Feature", "geometry": {"type": "Point", "coordinates": [103.069, 16.058]}, "properties": {"name": "", "v": 0}}, {"type": "Feature", "geometry": {"type": "Point", "coordinates": [102.475, 13.725]}, "properties": {"name": "", "v": 0}}, {"type": "Feature", "geometry": {"type": "Point", "coordinates": [103.071, 14.955]}, "properties": {"name": "", "v": 0}}, {"type": "Feature", "geometry": {"type": "Point", "coordinates": [102.545, 13.675]}, "properties": {"name": "", "v": 0}}]}