{"type": "FeatureCollection", "features": [{"type": "Feature", "geometry": {"type": "Point", "coordinates": [25.789, 45.852]}, "properties": {"name": "", "v": 110000}}, {"type": "Feature", "geometry": {"type": "Point", "coordinates": [37.52, 41.015]}, "properties": {"name": "", "v": 345000}}, {"type": "Feature", "geometry": {"type": "Point", "coordinates": [28.965, 40.233]}, "properties": {"name": "", "v": 380000}}, {"type": "Feature", "geometry": {"type": "Point", "coordinates": [28.965, 40.234]}, "properties": {"name": "", "v": 380000}}, {"type": "Feature", "geometry": {"type": "Point", "coordinates": [28.965, 40.234]}, "properties": {"name": "", "v": 380000}}, {"type": "Feature", "geometry": {"type": "Point", "coordinates": [28.965, 40.234]}, "properties": {"name": "", "v": 380000}}, {"type": "Feature", "geometry": {"type": "Point", "coordinates": [28.965, 40.233]}, "properties": {"name": "Bursa Snayi 380kV TM", "v": 380000}}, {"type": "Feature", "geometry": {"type": "Point", "coordinates": [28.965, 40.234]}, "properties": {"name": "", "v": 380000}}, {"type": "Feature", "geometry": {"type": "Point", "coordinates": [28.965, 40.234]}, "properties": {"name": "", "v": 380000}}, {"type": "Feature", "geometry": {"type": "Point", "coordinates": [28.965, 40.234]}, "properties": {"name": "", "v": 380000}}, {"type": "Feature", "geometry": {"type": "Point", "coordinates": [28.966, 40.233]}, "properties": {"name": "", "v": 380000}}, {"type": "Feature", "geometry": {"type": "Point", "coordinates": [32.871, 39.41]}, "properties": {"name": "", "v": 154000}}, {"type": "Feature", "geometry": {"type": "Point", "coordinates": [32.871, 39.41]}, "properties": {"name": "", "v": 154000}}, {"type": "Feature", "geometry": {"type": "Point", "coordinates": [27.819, 41.274]}, "properties": {"name": "Avrupa Serbest B\u00f6gesi Trafo Merkezi", "v": 154000}}, {"type": "Feature", "geometry": {"type": "Point", "coordinates": [39.296, 40.548]}, "properties": {"name": "Derya 2 HES Trafo Merkezi", "v": 154000}}, {"type": "Feature", "geometry": {"type": "Point", "coordinates": [28.169, 45.603]}, "properties": {"name": "", "v": 0}}, {"type": "Feature", "geometry": {"type": "Point", "coordinates": [28.82, 45.35]}, "properties": {"name": "", "v": 0}}, {"type": "Feature", "geometry": {"type": "Point", "coordinates": [28.835, 45.354]}, "properties": {"name": "", "v": 0}}, {"type": "Feature", "geometry": {"type": "Point", "coordinates": [28.814, 45.356]}, "properties": {"name": "", "v": 0}}, {"type": "Feature", "geometry": {"type": "Point", "coordinates": [28.84, 45.366]}, "properties": {"name": "", "v": 0}}, {"type": "Feature", "geometry": {"type": "Point", "coordinates": [28.844, 45.37]}, "properties": {"name": "", "v": 0}}, {"type": "Feature", "geometry": {"type": "Point", "coordinates": [28.846, 45.374]}, "properties": {"name": "", "v": 0}}, {"type": "Feature", "geometry": {"type": "Point", "coordinates": [28.829, 45.375]}, "properties": {"name": "", "v": 0}}, {"type": "Feature", "geometry": {"type": "Point", "coordinates": [28.835, 45.354]}, "properties": {"name": "", "v": 0}}, {"type": "Feature", "geometry": {"type": "Point", "coordinates": [28.81, 45.361]}, "properties": {"name": "", "v": 0}}, {"type": "Feature", "geometry": {"type": "Point", "coordinates": [28.827, 45.367]}, "properties": {"name": "", "v": 0}}, {"type": "Feature", "geometry": {"type": "Point", "coordinates": [28.82, 45.349]}, "properties": {"name": "", "v": 0}}, {"type": "Feature", "geometry": {"type": "Point", "coordinates": [21.295, 46.64]}, "properties": {"name": "", "v": 0}}, {"type": "Feature", "geometry": {"type": "Point", "coordinates": [23.031, 46.237]}, "properties": {"name": "Termocentral\u0103 Buninginea", "v": 0}}, {"type": "Feature", "geometry": {"type": "Point", "coordinates": [23.354, 46.767]}, "properties": {"name": "", "v": 0}}, {"type": "Feature", "geometry": {"type": "Point", "coordinates": [25.622, 45.639]}, "properties": {"name": "", "v": 0}}, {"type": "Feature", "geometry": {"type": "Point", "coordinates": [25.826, 45.162]}, "properties": {"name": "", "v": 0}}, {"type": "Feature", "geometry": {"type": "Point", "coordinates": [26.763, 45.387]}, "properties": {"name": "", "v": 0}}, {"type": "Feature", "geometry": {"type": "Point", "coordinates": [27.096, 45.907]}, "properties": {"name": "", "v": 0}}, {"type": "Feature", "geometry": {"type": "Point", "coordinates": [23.794, 45.887]}, "properties": {"name": "", "v": 0}}, {"type": "Feature", "geometry": {"type": "Point", "coordinates": [25.447, 45.703]}, "properties": {"name": "", "v": 0}}, {"type": "Feature", "geometry": {"type": "Point", "coordinates": [21.25, 45.755]}, "properties": {"name": "", "v": 0}}, {"type": "Feature", "geometry": {"type": "Point", "coordinates": [28.825, 45.374]}, "properties": {"name": "", "v": 0}}, {"type": "Feature", "geometry": {"type": "Point", "coordinates": [28.839, 45.338]}, "properties": {"name": "", "v": 0}}, {"type": "Feature", "geometry": {"type": "Point", "coordinates": [26.115, 44.41]}, "properties": {"name": "", "v": 0}}, {"type": "Feature", "geometry": {"type": "Point", "coordinates": [26.115, 44.411]}, "properties": {"name": "", "v": 0}}, {"type": "Feature", "geometry": {"type": "Point", "coordinates": [26.144, 44.415]}, "properties": {"name": "", "v": 0}}, {"type": "Feature", "geometry": {"type": "Point", "coordinates": [26.162, 44.412]}, "properties": {"name": "", "v": 0}}, {"type": "Feature", "geometry": {"type": "Point", "coordinates": [26.162, 44.414]}, "properties": {"name": "", "v": 0}}, {"type": "Feature", "geometry": {"type": "Point", "coordinates": [26.169, 44.412]}, "properties": {"name": "", "v": 0}}, {"type": "Feature", "geometry": {"type": "Point", "coordinates": [26.172, 44.412]}, "properties": {"name": "", "v": 0}}, {"type": "Feature", "geometry": {"type": "Point", "coordinates": [26.178, 44.411]}, "properties": {"name": "", "v": 0}}, {"type": "Feature", "geometry": {"type": "Point", "coordinates": [26.176, 44.412]}, "properties": {"name": "", "v": 0}}, {"type": "Feature", "geometry": {"type": "Point", "coordinates": [26.177, 44.412]}, "properties": {"name": "", "v": 0}}, {"type": "Feature", "geometry": {"type": "Point", "coordinates": [26.179, 44.412]}, "properties": {"name": "", "v": 0}}, {"type": "Feature", "geometry": {"type": "Point", "coordinates": [26.182, 44.414]}, "properties": {"name": "", "v": 0}}, {"type": "Feature", "geometry": {"type": "Point", "coordinates": [26.181, 44.416]}, "properties": {"name": "", "v": 0}}, {"type": "Feature", "geometry": {"type": "Point", "coordinates": [26.06, 44.492]}, "properties": {"name": "", "v": 0}}, {"type": "Feature", "geometry": {"type": "Point", "coordinates": [26.029, 44.414]}, "properties": {"name": "", "v": 0}}, {"type": "Feature", "geometry": {"type": "Point", "coordinates": [26.346, 44.14]}, "properties": {"name": "", "v": 0}}, {"type": "Feature", "geometry": {"type": "Point", "coordinates": [24.347, 44.111]}, "properties": {"name": "", "v": 0}}, {"type": "Feature", "geometry": {"type": "Point", "coordinates": [23.362, 43.914]}, "properties": {"name": "", "v": 0}}, {"type": "Feature", "geometry": {"type": "Point", "coordinates": [24.836, 44.89]}, "properties": {"name": "", "v": 0}}, {"type": "Feature", "geometry": {"type": "Point", "coordinates": [24.907, 44.835]}, "properties": {"name": "", "v": 0}}, {"type": "Feature", "geometry": {"type": "Point", "coordinates": [24.911, 44.83]}, "properties": {"name": "", "v": 0}}, {"type": "Feature", "geometry": {"type": "Point", "coordinates": [25.914, 44.856]}, "properties": {"name": "", "v": 0}}, {"type": "Feature", "geometry": {"type": "Point", "coordinates": [26.106, 44.716]}, "properties": {"name": "", "v": 0}}, {"type": "Feature", "geometry": {"type": "Point", "coordinates": [21.571, 44.759]}, "properties": {"name": "", "v": 0}}, {"type": "Feature", "geometry": {"type": "Point", "coordinates": [26.506, 44.889]}, "properties": {"name": "", "v": 0}}, {"type": "Feature", "geometry": {"type": "Point", "coordinates": [28.32, 44.769]}, "properties": {"name": "", "v": 0}}, {"type": "Feature", "geometry": {"type": "Point", "coordinates": [28.32, 44.769]}, "properties": {"name": "", "v": 0}}, {"type": "Feature", "geometry": {"type": "Point", "coordinates": [34.617, 36.79]}, "properties": {"name": "", "v": 0}}, {"type": "Feature", "geometry": {"type": "Point", "coordinates": [34.633, 36.811]}, "properties": {"name": "", "v": 0}}, {"type": "Feature", "geometry": {"type": "Point", "coordinates": [34.638, 36.805]}, "properties": {"name": "", "v": 0}}, {"type": "Feature", "geometry": {"type": "Point", "coordinates": [44.786, 41.731]}, "properties": {"name": "", "v": 0}}, {"type": "Feature", "geometry": {"type": "Point", "coordinates": [44.785, 41.73]}, "properties": {"name": "", "v": 0}}, {"type": "Feature", "geometry": {"type": "Point", "coordinates": [41.691, 41.572]}, "properties": {"name": "", "v": 0}}, {"type": "Feature", "geometry": {"type": "Point", "coordinates": [44.843, 41.692]}, "properties": {"name": "", "v": 0}}, {"type": "Feature", "geometry": {"type": "Point", "coordinates": [44.755, 41.722]}, "properties": {"name": "", "v": 0}}, {"type": "Feature", "geometry": {"type": "Point", "coordinates": [44.795, 41.696]}, "properties": {"name": "", "v": 0}}, {"type": "Feature", "geometry": {"type": "Point", "coordinates": [45.483, 41.922]}, "properties": {"name": "", "v": 0}}, {"type": "Feature", "geometry": {"type": "Point", "coordinates": [41.632, 41.639]}, "properties": {"name": "", "v": 0}}, {"type": "Feature", "geometry": {"type": "Point", "coordinates": [45.264, 41.727]}, "properties": {"name": "", "v": 0}}, {"type": "Feature", "geometry": {"type": "Point", "coordinates": [41.623, 41.647]}, "properties": {"name": "", "v": 0}}, {"type": "Feature", "geometry": {"type": "Point", "coordinates": [41.631, 41.637]}, "properties": {"name": "", "v": 0}}, {"type": "Feature", "geometry": {"type": "Point", "coordinates": [41.628, 41.637]}, "properties": {"name": "", "v": 0}}, {"type": "Feature", "geometry": {"type": "Point", "coordinates": [41.619, 41.618]}, "properties": {"name": "", "v": 0}}, {"type": "Feature", "geometry": {"type": "Point", "coordinates": [41.608, 41.621]}, "properties": {"name": "", "v": 0}}, {"type": "Feature", "geometry": {"type": "Point", "coordinates": [41.706, 41.686]}, "properties": {"name": "", "v": 0}}, {"type": "Feature", "geometry": {"type": "Point", "coordinates": [42.11, 41.861]}, "properties": {"name": "\u10d1\u10df\u10e3\u10df\u10f0\u10d4\u10e1\u10d8", "v": 0}}, {"type": "Feature", "geometry": {"type": "Point", "coordinates": [44.693, 41.719]}, "properties": {"name": "", "v": 0}}, {"type": "Feature", "geometry": {"type": "Point", "coordinates": [44.807, 41.702]}, "properties": {"name": "", "v": 0}}, {"type": "Feature", "geometry": {"type": "Point", "coordinates": [44.742, 41.724]}, "properties": {"name": "", "v": 0}}, {"type": "Feature", "geometry": {"type": "Point", "coordinates": [44.768, 41.716]}, "properties": {"name": "", "v": 0}}, {"type": "Feature", "geometry": {"type": "Point", "coordinates": [44.802, 41.72]}, "properties": {"name": "", "v": 0}}, {"type": "Feature", "geometry": {"type": "Point", "coordinates": [44.803, 41.718]}, "properties": {"name": "", "v": 0}}, {"type": "Feature", "geometry": {"type": "Point", "coordinates": [44.863, 41.694]}, "properties": {"name": "", "v": 0}}, {"type": "Feature", "geometry": {"type": "Point", "coordinates": [41.581, 41.571]}, "properties": {"name": "", "v": 0}}, {"type": "Feature", "geometry": {"type": "Point", "coordinates": [41.613, 41.638]}, "properties": {"name": "", "v": 0}}, {"type": "Feature", "geometry": {"type": "Point", "coordinates": [41.661, 41.641]}, "properties": {"name": "", "v": 0}}, {"type": "Feature", "geometry": {"type": "Point", "coordinates": [41.623, 41.64]}, "properties": {"name": "", "v": 0}}, {"type": "Feature", "geometry": {"type": "Point", "coordinates": [41.61, 41.622]}, "properties": {"name": "", "v": 0}}, {"type": "Feature", "geometry": {"type": "Point", "coordinates": [41.648, 41.645]}, "properties": {"name": "", "v": 0}}, {"type": "Feature", "geometry": {"type": "Point", "coordinates": [44.761, 41.709]}, "properties": {"name": "", "v": 0}}, {"type": "Feature", "geometry": {"type": "Point", "coordinates": [44.777, 41.743]}, "properties": {"name": "", "v": 0}}, {"type": "Feature", "geometry": {"type": "Point", "coordinates": [44.876, 41.694]}, "properties": {"name": "", "v": 0}}, {"type": "Feature", "geometry": {"type": "Point", "coordinates": [44.817, 41.699]}, "properties": {"name": "", "v": 0}}, {"type": "Feature", "geometry": {"type": "Point", "coordinates": [24.402, 41.742]}, "properties": {"name": "", "v": 0}}, {"type": "Feature", "geometry": {"type": "Point", "coordinates": [24.587, 41.911]}, "properties": {"name": "", "v": 0}}, {"type": "Feature", "geometry": {"type": "Point", "coordinates": [44.798, 41.714]}, "properties": {"name": "", "v": 0}}, {"type": "Feature", "geometry": {"type": "Point", "coordinates": [44.8, 41.714]}, "properties": {"name": "", "v": 0}}, {"type": "Feature", "geometry": {"type": "Point", "coordinates": [44.761, 41.708]}, "properties": {"name": "", "v": 0}}, {"type": "Feature", "geometry": {"type": "Point", "coordinates": [41.822, 42.054]}, "properties": {"name": "", "v": 0}}, {"type": "Feature", "geometry": {"type": "Point", "coordinates": [41.939, 42.084]}, "properties": {"name": "", "v": 0}}, {"type": "Feature", "geometry": {"type": "Point", "coordinates": [43.226, 42.097]}, "properties": {"name": "", "v": 0}}, {"type": "Feature", "geometry": {"type": "Point", "coordinates": [44.086, 41.986]}, "properties": {"name": "\u10d2\u10dd\u10e0\u10d8\u10e1 \u10e5\u10d5\u10d4\u10e1\u10d0\u10d3\u10d2\u10e3\u10e0\u10d8", "v": 0}}, {"type": "Feature", "geometry": {"type": "Point", "coordinates": [28.244, 41.075]}, "properties": {"name": "", "v": 0}}, {"type": "Feature", "geometry": {"type": "Point", "coordinates": [28.248, 41.074]}, "properties": {"name": "", "v": 0}}, {"type": "Feature", "geometry": {"type": "Point", "coordinates": [28.255, 41.073]}, "properties": {"name": "", "v": 0}}, {"type": "Feature", "geometry": {"type": "Point", "coordinates": [28.257, 41.08]}, "properties": {"name": "", "v": 0}}, {"type": "Feature", "geometry": {"type": "Point", "coordinates": [28.257, 41.081]}, "properties": {"name": "", "v": 0}}, {"type": "Feature", "geometry": {"type": "Point", "coordinates": [28.258, 41.083]}, "properties": {"name": "", "v": 0}}, {"type": "Feature", "geometry": {"type": "Point", "coordinates": [28.305, 41.105]}, "properties": {"name": "", "v": 0}}, {"type": "Feature", "geometry": {"type": "Point", "coordinates": [28.339, 41.1]}, "properties": {"name": "", "v": 0}}, {"type": "Feature", "geometry": {"type": "Point", "coordinates": [28.546, 41.106]}, "properties": {"name": "", "v": 0}}, {"type": "Feature", "geometry": {"type": "Point", "coordinates": [28.6, 41.103]}, "properties": {"name": "", "v": 0}}, {"type": "Feature", "geometry": {"type": "Point", "coordinates": [28.685, 41.051]}, "properties": {"name": "", "v": 0}}, {"type": "Feature", "geometry": {"type": "Point", "coordinates": [28.697, 41.058]}, "properties": {"name": "", "v": 0}}, {"type": "Feature", "geometry": {"type": "Point", "coordinates": [28.787, 41.109]}, "properties": {"name": "", "v": 0}}, {"type": "Feature", "geometry": {"type": "Point", "coordinates": [47.181, 41.23]}, "properties": {"name": "Su Elektrik Stansiyas\u0131", "v": 0}}, {"type": "Feature", "geometry": {"type": "Point", "coordinates": [28.376, 41.062]}, "properties": {"name": "", "v": 0}}, {"type": "Feature", "geometry": {"type": "Point", "coordinates": [28.378, 41.064]}, "properties": {"name": "", "v": 0}}, {"type": "Feature", "geometry": {"type": "Point", "coordinates": [37.891, 40.854]}, "properties": {"name": "Trafo", "v": 0}}, {"type": "Feature", "geometry": {"type": "Point", "coordinates": [28.242, 41.076]}, "properties": {"name": "", "v": 0}}, {"type": "Feature", "geometry": {"type": "Point", "coordinates": [28.333, 41.098]}, "properties": {"name": "TE\u0130A\u015e Mobil Trafo Merkezi", "v": 0}}, {"type": "Feature", "geometry": {"type": "Point", "coordinates": [28.584, 41.027]}, "properties": {"name": "", "v": 0}}, {"type": "Feature", "geometry": {"type": "Point", "coordinates": [29.85, 41.137]}, "properties": {"name": "", "v": 0}}, {"type": "Feature", "geometry": {"type": "Point", "coordinates": [34.531, 38.551]}, "properties": {"name": "", "v": 0}}, {"type": "Feature", "geometry": {"type": "Point", "coordinates": [34.674, 37.965]}, "properties": {"name": "", "v": 0}}, {"type": "Feature", "geometry": {"type": "Point", "coordinates": [34.749, 38.46]}, "properties": {"name": "", "v": 0}}, {"type": "Feature", "geometry": {"type": "Point", "coordinates": [34.75, 38.365]}, "properties": {"name": "", "v": 0}}, {"type": "Feature", "geometry": {"type": "Point", "coordinates": [34.833, 38.705]}, "properties": {"name": "", "v": 0}}, {"type": "Feature", "geometry": {"type": "Point", "coordinates": [34.834, 38.721]}, "properties": {"name": "", "v": 0}}, {"type": "Feature", "geometry": {"type": "Point", "coordinates": [34.843, 38.714]}, "properties": {"name": "", "v": 0}}, {"type": "Feature", "geometry": {"type": "Point", "coordinates": [34.844, 38.711]}, "properties": {"name": "", "v": 0}}, {"type": "Feature", "geometry": {"type": "Point", "coordinates": [34.849, 38.713]}, "properties": {"name": "", "v": 0}}, {"type": "Feature", "geometry": {"type": "Point", "coordinates": [34.849, 38.704]}, "properties": {"name": "", "v": 0}}, {"type": "Feature", "geometry": {"type": "Point", "coordinates": [34.858, 38.621]}, "properties": {"name": "", "v": 0}}, {"type": "Feature", "geometry": {"type": "Point", "coordinates": [34.861, 38.624]}, "properties": {"name": "", "v": 0}}, {"type": "Feature", "geometry": {"type": "Point", "coordinates": [34.864, 38.629]}, "properties": {"name": "", "v": 0}}, {"type": "Feature", "geometry": {"type": "Point", "coordinates": [34.865, 38.625]}, "properties": {"name": "", "v": 0}}, {"type": "Feature", "geometry": {"type": "Point", "coordinates": [34.911, 38.629]}, "properties": {"name": "", "v": 0}}, {"type": "Feature", "geometry": {"type": "Point", "coordinates": [34.912, 38.633]}, "properties": {"name": "", "v": 0}}, {"type": "Feature", "geometry": {"type": "Point", "coordinates": [34.919, 38.642]}, "properties": {"name": "", "v": 0}}, {"type": "Feature", "geometry": {"type": "Point", "coordinates": [34.931, 38.633]}, "properties": {"name": "", "v": 0}}, {"type": "Feature", "geometry": {"type": "Point", "coordinates": [35.444, 38.737]}, "properties": {"name": "", "v": 0}}, {"type": "Feature", "geometry": {"type": "Point", "coordinates": [36.926, 37.559]}, "properties": {"name": "", "v": 0}}, {"type": "Feature", "geometry": {"type": "Point", "coordinates": [40.32, 37.929]}, "properties": {"name": "", "v": 0}}, {"type": "Feature", "geometry": {"type": "Point", "coordinates": [34.815, 36.97]}, "properties": {"name": "Elektrik santrali", "v": 0}}, {"type": "Feature", "geometry": {"type": "Point", "coordinates": [42.279, 38.499]}, "properties": {"name": "", "v": 0}}, {"type": "Feature", "geometry": {"type": "Point", "coordinates": [44.48, 40.195]}, "properties": {"name": "", "v": 0}}, {"type": "Feature", "geometry": {"type": "Point", "coordinates": [44.481, 40.215]}, "properties": {"name": "", "v": 0}}, {"type": "Feature", "geometry": {"type": "Point", "coordinates": [44.492, 40.204]}, "properties": {"name": "", "v": 0}}, {"type": "Feature", "geometry": {"type": "Point", "coordinates": [44.502, 40.183]}, "properties": {"name": "", "v": 0}}, {"type": "Feature", "geometry": {"type": "Point", "coordinates": [44.503, 40.182]}, "properties": {"name": "", "v": 0}}, {"type": "Feature", "geometry": {"type": "Point", "coordinates": [44.513, 40.174]}, "properties": {"name": "", "v": 0}}, {"type": "Feature", "geometry": {"type": "Point", "coordinates": [44.85, 40.757]}, "properties": {"name": "", "v": 0}}, {"type": "Feature", "geometry": {"type": "Point", "coordinates": [45.824, 39.014]}, "properties": {"name": "", "v": 0}}, {"type": "Feature", "geometry": {"type": "Point", "coordinates": [46.559, 38.923]}, "properties": {"name": "", "v": 0}}, {"type": "Feature", "geometry": {"type": "Point", "coordinates": [46.721, 40.243]}, "properties": {"name": "", "v": 0}}, {"type": "Feature", "geometry": {"type": "Point", "coordinates": [46.818, 39.971]}, "properties": {"name": "", "v": 0}}, {"type": "Feature", "geometry": {"type": "Point", "coordinates": [48.95, 40.041]}, "properties": {"name": "Haciqabul Elektrik \u015e\u0259b\u0259k\u0259", "v": 0}}, {"type": "Feature", "geometry": {"type": "Point", "coordinates": [49.47, 40.177]}, "properties": {"name": "S\u0259ng\u0259\u00e7al Elektrik Stansiyas\u0131", "v": 0}}, {"type": "Feature", "geometry": {"type": "Point", "coordinates": [49.478, 40.711]}, "properties": {"name": "Elektrik Yar\u0131mstansiya \\ Ya\u015fma 1", "v": 0}}, {"type": "Feature", "geometry": {"type": "Point", "coordinates": [49.741, 40.321]}, "properties": {"name": "Elektrik Yar\u0131mstansiyas\u0131 \\ L\u00f6kbatan", "v": 0}}, {"type": "Feature", "geometry": {"type": "Point", "coordinates": [49.822, 40.335]}, "properties": {"name": "102 y/st", "v": 0}}, {"type": "Feature", "geometry": {"type": "Point", "coordinates": [49.834, 40.357]}, "properties": {"name": "Az\u0259r\u0130\u015f\u0131q \u0130\u00e7\u0259ri \u015e\u0259h\u0259r Yar\u0131mstansiyas\u0131", "v": 0}}, {"type": "Feature", "geometry": {"type": "Point", "coordinates": [49.439, 40.733]}, "properties": {"name": "Ya\u015fma K\u00fcl\u0259k Elektrik Stansiyas\u0131", "v": 0}}, {"type": "Feature", "geometry": {"type": "Point", "coordinates": [49.741, 40.464]}, "properties": {"name": "Elektrik Yar\u0131mstansiya \\ X\u0131rdalan", "v": 0}}, {"type": "Feature", "geometry": {"type": "Point", "coordinates": [49.606, 40.595]}, "properties": {"name": "Elekstrik Yar\u0131mstansiya \\ Superfosfat Zavodu", "v": 0}}, {"type": "Feature", "geometry": {"type": "Point", "coordinates": [49.803, 40.44]}, "properties": {"name": "Bil\u0259c\u0259ri Elektrik Stansiyas\u0131", "v": 0}}, {"type": "Feature", "geometry": {"type": "Point", "coordinates": [49.916, 40.455]}, "properties": {"name": "35 sayl\u0131 Yar\u0131mstansiya \\ Balaxan\u0131", "v": 0}}, {"type": "Feature", "geometry": {"type": "Point", "coordinates": [49.999, 40.408]}, "properties": {"name": "Suraxani Elektric T\u0259chizat", "v": 0}}, {"type": "Feature", "geometry": {"type": "Point", "coordinates": [49.952, 40.494]}, "properties": {"name": "Zabrat Elekrik Yar\u0131mstansiyas\u0131", "v": 0}}, {"type": "Feature", "geometry": {"type": "Point", "coordinates": [50.106, 40.503]}, "properties": {"name": "Yar\u0131mstansiya 486 / \u015ea\u011fan", "v": 0}}, {"type": "Feature", "geometry": {"type": "Point", "coordinates": [48.862, 41.398]}, "properties": {"name": "", "v": 0}}, {"type": "Feature", "geometry": {"type": "Point", "coordinates": [49.796, 40.42]}, "properties": {"name": "", "v": 0}}, {"type": "Feature", "geometry": {"type": "Point", "coordinates": [46.041, 40.694]}, "properties": {"name": "\u015e\u0259mkir\u00e7ay Su Elektrik Stansiyas\u0131", "v": 0}}, {"type": "Feature", "geometry": {"type": "Point", "coordinates": [45.809, 40.575]}, "properties": {"name": "Elektrik Yar\u0131mstansiya \\ G\u0259d\u0259b\u0259y", "v": 0}}, {"type": "Feature", "geometry": {"type": "Point", "coordinates": [44.51, 40.193]}, "properties": {"name": "", "v": 0}}, {"type": "Feature", "geometry": {"type": "Point", "coordinates": [44.502, 40.199]}, "properties": {"name": "", "v": 0}}, {"type": "Feature", "geometry": {"type": "Point", "coordinates": [49.769, 40.325]}, "properties": {"name": "Elektrik Yar\u0131mstansiya \\ S\u0259d\u0259r\u0259k Bazar\u0131", "v": 0}}, {"type": "Feature", "geometry": {"type": "Point", "coordinates": [46.262, 40.535]}, "properties": {"name": "\u00c7i\u00e7\u0259kli KSES Elektrostansiya", "v": 0}}, {"type": "Feature", "geometry": {"type": "Point", "coordinates": [49.88, 40.414]}, "properties": {"name": "Az\u0259r\u0130\u015f\u0131q BMKZ Yar\u0131mstansiyas\u0131", "v": 0}}, {"type": "Feature", "geometry": {"type": "Point", "coordinates": [49.815, 40.417]}, "properties": {"name": "", "v": 0}}, {"type": "Feature", "geometry": {"type": "Point", "coordinates": [49.814, 40.42]}, "properties": {"name": "", "v": 0}}, {"type": "Feature", "geometry": {"type": "Point", "coordinates": [48.28, 40.488]}, "properties": {"name": "", "v": 0}}, {"type": "Feature", "geometry": {"type": "Point", "coordinates": [48.28, 40.489]}, "properties": {"name": "", "v": 0}}, {"type": "Feature", "geometry": {"type": "Point", "coordinates": [48.281, 40.489]}, "properties": {"name": "", "v": 0}}, {"type": "Feature", "geometry": {"type": "Point", "coordinates": [48.28, 40.489]}, "properties": {"name": "", "v": 0}}, {"type": "Feature", "geometry": {"type": "Point", "coordinates": [26.952, 39.574]}, "properties": {"name": "", "v": 0}}, {"type": "Feature", "geometry": {"type": "Point", "coordinates": [27.074, 38.39]}, "properties": {"name": "", "v": 0}}, {"type": "Feature", "geometry": {"type": "Point", "coordinates": [27.085, 38.473]}, "properties": {"name": "Elektrik Trafosu", "v": 0}}, {"type": "Feature", "geometry": {"type": "Point", "coordinates": [27.093, 38.465]}, "properties": {"name": "", "v": 0}}, {"type": "Feature", "geometry": {"type": "Point", "coordinates": [27.874, 37.141]}, "properties": {"name": "", "v": 0}}, {"type": "Feature", "geometry": {"type": "Point", "coordinates": [27.874, 37.141]}, "properties": {"name": "", "v": 0}}, {"type": "Feature", "geometry": {"type": "Point", "coordinates": [27.89, 39.823]}, "properties": {"name": "", "v": 0}}, {"type": "Feature", "geometry": {"type": "Point", "coordinates": [27.901, 37.033]}, "properties": {"name": "", "v": 0}}, {"type": "Feature", "geometry": {"type": "Point", "coordinates": [27.901, 37.033]}, "properties": {"name": "", "v": 0}}, {"type": "Feature", "geometry": {"type": "Point", "coordinates": [27.902, 37.034]}, "properties": {"name": "", "v": 0}}, {"type": "Feature", "geometry": {"type": "Point", "coordinates": [27.919, 39.827]}, "properties": {"name": "", "v": 0}}, {"type": "Feature", "geometry": {"type": "Point", "coordinates": [27.92, 39.829]}, "properties": {"name": "", "v": 0}}, {"type": "Feature", "geometry": {"type": "Point", "coordinates": [28.039, 39.757]}, "properties": {"name": "Kepsut RES", "v": 0}}, {"type": "Feature", "geometry": {"type": "Point", "coordinates": [26.719, 39.332]}, "properties": {"name": "", "v": 0}}, {"type": "Feature", "geometry": {"type": "Point", "coordinates": [26.715, 39.33]}, "properties": {"name": "", "v": 0}}, {"type": "Feature", "geometry": {"type": "Point", "coordinates": [26.713, 39.327]}, "properties": {"name": "", "v": 0}}, {"type": "Feature", "geometry": {"type": "Point", "coordinates": [26.701, 39.329]}, "properties": {"name": "", "v": 0}}, {"type": "Feature", "geometry": {"type": "Point", "coordinates": [26.707, 39.335]}, "properties": {"name": "", "v": 0}}, {"type": "Feature", "geometry": {"type": "Point", "coordinates": [26.705, 39.338]}, "properties": {"name": "", "v": 0}}, {"type": "Feature", "geometry": {"type": "Point", "coordinates": [26.714, 39.335]}, "properties": {"name": "", "v": 0}}, {"type": "Feature", "geometry": {"type": "Point", "coordinates": [26.709, 39.337]}, "properties": {"name": "", "v": 0}}, {"type": "Feature", "geometry": {"type": "Point", "coordinates": [26.71, 39.332]}, "properties": {"name": "", "v": 0}}, {"type": "Feature", "geometry": {"type": "Point", "coordinates": [26.687, 39.346]}, "properties": {"name": "", "v": 0}}, {"type": "Feature", "geometry": {"type": "Point", "coordinates": [26.691, 39.346]}, "properties": {"name": "", "v": 0}}, {"type": "Feature", "geometry": {"type": "Point", "coordinates": [26.667, 39.339]}, "properties": {"name": "", "v": 0}}, {"type": "Feature", "geometry": {"type": "Point", "coordinates": [26.658, 39.346]}, "properties": {"name": "", "v": 0}}, {"type": "Feature", "geometry": {"type": "Point", "coordinates": [26.656, 39.345]}, "properties": {"name": "", "v": 0}}, {"type": "Feature", "geometry": {"type": "Point", "coordinates": [26.679, 39.334]}, "properties": {"name": "", "v": 0}}, {"type": "Feature", "geometry": {"type": "Point", "coordinates": [26.675, 39.332]}, "properties": {"name": "", "v": 0}}, {"type": "Feature", "geometry": {"type": "Point", "coordinates": [26.682, 39.334]}, "properties": {"name": "", "v": 0}}, {"type": "Feature", "geometry": {"type": "Point", "coordinates": [26.698, 39.31]}, "properties": {"name": "", "v": 0}}, {"type": "Feature", "geometry": {"type": "Point", "coordinates": [26.716, 39.326]}, "properties": {"name": "", "v": 0}}, {"type": "Feature", "geometry": {"type": "Point", "coordinates": [26.715, 39.326]}, "properties": {"name": "", "v": 0}}, {"type": "Feature", "geometry": {"type": "Point", "coordinates": [26.675, 39.285]}, "properties": {"name": "", "v": 0}}, {"type": "Feature", "geometry": {"type": "Point", "coordinates": [27.257, 39.668]}, "properties": {"name": "\u015eapda\u011f\u0131 Enerji RES TM", "v": 0}}, {"type": "Feature", "geometry": {"type": "Point", "coordinates": [28.964, 40.233]}, "properties": {"name": "", "v": 0}}, {"type": "Feature", "geometry": {"type": "Point", "coordinates": [28.965, 40.233]}, "properties": {"name": "", "v": 0}}, {"type": "Feature", "geometry": {"type": "Point", "coordinates": [28.965, 40.233]}, "properties": {"name": "", "v": 0}}, {"type": "Feature", "geometry": {"type": "Point", "coordinates": [28.967, 40.234]}, "properties": {"name": "", "v": 0}}, {"type": "Feature", "geometry": {"type": "Point", "coordinates": [28.967, 40.234]}, "properties": {"name": "", "v": 0}}, {"type": "Feature", "geometry": {"type": "Point", "coordinates": [28.967, 40.234]}, "properties": {"name": "", "v": 0}}, {"type": "Feature", "geometry": {"type": "Point", "coordinates": [29.045, 40.217]}, "properties": {"name": "", "v": 0}}, {"type": "Feature", "geometry": {"type": "Point", "coordinates": [29.064, 40.176]}, "properties": {"name": "", "v": 0}}, {"type": "Feature", "geometry": {"type": "Point", "coordinates": [29.067, 40.18]}, "properties": {"name": "", "v": 0}}, {"type": "Feature", "geometry": {"type": "Point", "coordinates": [29.603, 40.795]}, "properties": {"name": "", "v": 0}}, {"type": "Feature", "geometry": {"type": "Point", "coordinates": [29.603, 40.795]}, "properties": {"name": "", "v": 0}}, {"type": "Feature", "geometry": {"type": "Point", "coordinates": [29.652, 40.011]}, "properties": {"name": "", "v": 0}}, {"type": "Feature", "geometry": {"type": "Point", "coordinates": [30.077, 39.907]}, "properties": {"name": "", "v": 0}}, {"type": "Feature", "geometry": {"type": "Point", "coordinates": [30.077, 39.907]}, "properties": {"name": "", "v": 0}}, {"type": "Feature", "geometry": {"type": "Point", "coordinates": [30.385, 40.713]}, "properties": {"name": "", "v": 0}}, {"type": "Feature", "geometry": {"type": "Point", "coordinates": [32.773, 40.001]}, "properties": {"name": "", "v": 0}}, {"type": "Feature", "geometry": {"type": "Point", "coordinates": [32.81, 39.791]}, "properties": {"name": "", "v": 0}}, {"type": "Feature", "geometry": {"type": "Point", "coordinates": [32.825, 39.792]}, "properties": {"name": "", "v": 0}}, {"type": "Feature", "geometry": {"type": "Point", "coordinates": [32.858, 39.936]}, "properties": {"name": "", "v": 0}}, {"type": "Feature", "geometry": {"type": "Point", "coordinates": [32.89, 39.959]}, "properties": {"name": "", "v": 0}}, {"type": "Feature", "geometry": {"type": "Point", "coordinates": [32.903, 40.008]}, "properties": {"name": "", "v": 0}}, {"type": "Feature", "geometry": {"type": "Point", "coordinates": [32.907, 40.015]}, "properties": {"name": "", "v": 0}}, {"type": "Feature", "geometry": {"type": "Point", "coordinates": [34.81, 39.822]}, "properties": {"name": "", "v": 0}}, {"type": "Feature", "geometry": {"type": "Point", "coordinates": [32.851, 39.791]}, "properties": {"name": "", "v": 0}}, {"type": "Feature", "geometry": {"type": "Point", "coordinates": [32.85, 39.794]}, "properties": {"name": "", "v": 0}}, {"type": "Feature", "geometry": {"type": "Point", "coordinates": [32.85, 39.794]}, "properties": {"name": "", "v": 0}}, {"type": "Feature", "geometry": {"type": "Point", "coordinates": [33.372, 39.923]}, "properties": {"name": "", "v": 0}}, {"type": "Feature", "geometry": {"type": "Point", "coordinates": [32.827, 39.791]}, "properties": {"name": "", "v": 0}}, {"type": "Feature", "geometry": {"type": "Point", "coordinates": [29.931, 40.763]}, "properties": {"name": "TEDA\u015e", "v": 0}}, {"type": "Feature", "geometry": {"type": "Point", "coordinates": [28.125, 36.773]}, "properties": {"name": "", "v": 0}}, {"type": "Feature", "geometry": {"type": "Point", "coordinates": [28.215, 36.789]}, "properties": {"name": "", "v": 0}}, {"type": "Feature", "geometry": {"type": "Point", "coordinates": [28.698, 36.707]}, "properties": {"name": "", "v": 0}}, {"type": "Feature", "geometry": {"type": "Point", "coordinates": [28.802, 36.803]}, "properties": {"name": "", "v": 0}}, {"type": "Feature", "geometry": {"type": "Point", "coordinates": [28.802, 36.803]}, "properties": {"name": "", "v": 0}}, {"type": "Feature", "geometry": {"type": "Point", "coordinates": [28.802, 36.803]}, "properties": {"name": "", "v": 0}}, {"type": "Feature", "geometry": {"type": "Point", "coordinates": [29.114, 36.554]}, "properties": {"name": "", "v": 0}}, {"type": "Feature", "geometry": {"type": "Point", "coordinates": [29.133, 36.671]}, "properties": {"name": "", "v": 0}}, {"type": "Feature", "geometry": {"type": "Point", "coordinates": [29.133, 36.671]}, "properties": {"name": "", "v": 0}}, {"type": "Feature", "geometry": {"type": "Point", "coordinates": [30.551, 36.649]}, "properties": {"name": "", "v": 0}}, {"type": "Feature", "geometry": {"type": "Point", "coordinates": [30.707, 36.884]}, "properties": {"name": "", "v": 0}}, {"type": "Feature", "geometry": {"type": "Point", "coordinates": [31.97, 36.556]}, "properties": {"name": "", "v": 0}}, {"type": "Feature", "geometry": {"type": "Point", "coordinates": [31.975, 36.554]}, "properties": {"name": "", "v": 0}}, {"type": "Feature", "geometry": {"type": "Point", "coordinates": [31.98, 36.55]}, "properties": {"name": "", "v": 0}}, {"type": "Feature", "geometry": {"type": "Point", "coordinates": [31.984, 36.552]}, "properties": {"name": "", "v": 0}}, {"type": "Feature", "geometry": {"type": "Point", "coordinates": [33.638, 36.6]}, "properties": {"name": "Kayaba\u015f\u0131 K\u00f6y\u00fc Trafosu", "v": 0}}, {"type": "Feature", "geometry": {"type": "Point", "coordinates": [34.632, 36.822]}, "properties": {"name": "", "v": 0}}, {"type": "Feature", "geometry": {"type": "Point", "coordinates": [34.634, 36.811]}, "properties": {"name": "", "v": 0}}, {"type": "Feature", "geometry": {"type": "Point", "coordinates": [34.633, 36.81]}, "properties": {"name": "", "v": 0}}, {"type": "Feature", "geometry": {"type": "Point", "coordinates": [34.632, 36.822]}, "properties": {"name": "", "v": 0}}, {"type": "Feature", "geometry": {"type": "Point", "coordinates": [34.621, 36.791]}, "properties": {"name": "", "v": 0}}, {"type": "Feature", "geometry": {"type": "Point", "coordinates": [34.567, 36.771]}, "properties": {"name": "", "v": 0}}, {"type": "Feature", "geometry": {"type": "Point", "coordinates": [34.566, 36.77]}, "properties": {"name": "", "v": 0}}, {"type": "Feature", "geometry": {"type": "Point", "coordinates": [31.99, 36.561]}, "properties": {"name": "", "v": 0}}, {"type": "Feature", "geometry": {"type": "Point", "coordinates": [23.23, 41.648]}, "properties": {"name": "", "v": 0}}, {"type": "Feature", "geometry": {"type": "Point", "coordinates": [24.74, 41.695]}, "properties": {"name": "", "v": 0}}, {"type": "Feature", "geometry": {"type": "Point", "coordinates": [25.259, 41.381]}, "properties": {"name": "\u041f\u043e\u0434\u0441\u0442\u0430\u043d\u0446\u0438\u044f", "v": 0}}, {"type": "Feature", "geometry": {"type": "Point", "coordinates": [25.338, 41.633]}, "properties": {"name": "", "v": 0}}, {"type": "Feature", "geometry": {"type": "Point", "coordinates": [26.567, 40.935]}, "properties": {"name": "", "v": 0}}, {"type": "Feature", "geometry": {"type": "Point", "coordinates": [26.569, 41.668]}, "properties": {"name": "", "v": 0}}, {"type": "Feature", "geometry": {"type": "Point", "coordinates": [26.569, 41.671]}, "properties": {"name": "", "v": 0}}, {"type": "Feature", "geometry": {"type": "Point", "coordinates": [26.571, 41.667]}, "properties": {"name": "", "v": 0}}, {"type": "Feature", "geometry": {"type": "Point", "coordinates": [26.582, 41.662]}, "properties": {"name": "", "v": 0}}, {"type": "Feature", "geometry": {"type": "Point", "coordinates": [26.584, 41.682]}, "properties": {"name": "", "v": 0}}, {"type": "Feature", "geometry": {"type": "Point", "coordinates": [26.584, 41.682]}, "properties": {"name": "", "v": 0}}, {"type": "Feature", "geometry": {"type": "Point", "coordinates": [26.585, 41.66]}, "properties": {"name": "TR-6", "v": 0}}, {"type": "Feature", "geometry": {"type": "Point", "coordinates": [26.587, 41.657]}, "properties": {"name": "TR-6/A (1000 Evler 3)", "v": 0}}, {"type": "Feature", "geometry": {"type": "Point", "coordinates": [26.591, 41.676]}, "properties": {"name": "", "v": 0}}, {"type": "Feature", "geometry": {"type": "Point", "coordinates": [26.593, 41.665]}, "properties": {"name": "", "v": 0}}, {"type": "Feature", "geometry": {"type": "Point", "coordinates": [26.593, 41.668]}, "properties": {"name": "", "v": 0}}, {"type": "Feature", "geometry": {"type": "Point", "coordinates": [41.801, 42.432]}, "properties": {"name": "", "v": 0}}, {"type": "Feature", "geometry": {"type": "Point", "coordinates": [23.187, 42.747]}, "properties": {"name": "", "v": 0}}, {"type": "Feature", "geometry": {"type": "Point", "coordinates": [23.232, 42.842]}, "properties": {"name": "", "v": 0}}, {"type": "Feature", "geometry": {"type": "Point", "coordinates": [24.454, 42.693]}, "properties": {"name": "", "v": 0}}, {"type": "Feature", "geometry": {"type": "Point", "coordinates": [24.697, 43.144]}, "properties": {"name": "", "v": 0}}, {"type": "Feature", "geometry": {"type": "Point", "coordinates": [25.318, 42.69]}, "properties": {"name": "", "v": 0}}, {"type": "Feature", "geometry": {"type": "Point", "coordinates": [25.38, 42.654]}, "properties": {"name": "", "v": 0}}, {"type": "Feature", "geometry": {"type": "Point", "coordinates": [25.38, 42.664]}, "properties": {"name": "", "v": 0}}, {"type": "Feature", "geometry": {"type": "Point", "coordinates": [25.382, 42.661]}, "properties": {"name": "", "v": 0}}, {"type": "Feature", "geometry": {"type": "Point", "coordinates": [25.397, 42.949]}, "properties": {"name": "", "v": 0}}, {"type": "Feature", "geometry": {"type": "Point", "coordinates": [25.403, 42.954]}, "properties": {"name": "", "v": 0}}, {"type": "Feature", "geometry": {"type": "Point", "coordinates": [25.404, 42.672]}, "properties": {"name": "", "v": 0}}, {"type": "Feature", "geometry": {"type": "Point", "coordinates": [25.415, 42.562]}, "properties": {"name": "", "v": 0}}, {"type": "Feature", "geometry": {"type": "Point", "coordinates": [25.459, 42.658]}, "properties": {"name": "", "v": 0}}, {"type": "Feature", "geometry": {"type": "Point", "coordinates": [25.476, 42.975]}, "properties": {"name": "", "v": 0}}, {"type": "Feature", "geometry": {"type": "Point", "coordinates": [25.553, 43.273]}, "properties": {"name": "", "v": 0}}, {"type": "Feature", "geometry": {"type": "Point", "coordinates": [25.567, 42.823]}, "properties": {"name": "", "v": 0}}, {"type": "Feature", "geometry": {"type": "Point", "coordinates": [25.568, 43.403]}, "properties": {"name": "", "v": 0}}, {"type": "Feature", "geometry": {"type": "Point", "coordinates": [25.586, 43.478]}, "properties": {"name": "", "v": 0}}, {"type": "Feature", "geometry": {"type": "Point", "coordinates": [26.56, 43.229]}, "properties": {"name": "", "v": 0}}, {"type": "Feature", "geometry": {"type": "Point", "coordinates": [26.569, 43.237]}, "properties": {"name": "", "v": 0}}, {"type": "Feature", "geometry": {"type": "Point", "coordinates": [26.812, 43.166]}, "properties": {"name": "", "v": 0}}, {"type": "Feature", "geometry": {"type": "Point", "coordinates": [26.84, 43.169]}, "properties": {"name": "", "v": 0}}, {"type": "Feature", "geometry": {"type": "Point", "coordinates": [25.979, 43.844]}, "properties": {"name": "", "v": 0}}, {"type": "Feature", "geometry": {"type": "Point", "coordinates": [25.98, 43.846]}, "properties": {"name": "", "v": 0}}, {"type": "Feature", "geometry": {"type": "Point", "coordinates": [25.987, 43.849]}, "properties": {"name": "", "v": 0}}, {"type": "Feature", "geometry": {"type": "Point", "coordinates": [25.987, 43.85]}, "properties": {"name": "", "v": 0}}, {"type": "Feature", "geometry": {"type": "Point", "coordinates": [25.988, 43.851]}, "properties": {"name": "", "v": 0}}, {"type": "Feature", "geometry": {"type": "Point", "coordinates": [27.143, 43.826]}, "properties": {"name": "\u0410\u043b\u0444\u0430\u0442\u0430\u0440", "v": 0}}, {"type": "Feature", "geometry": {"type": "Point", "coordinates": [28.95, 37.625]}, "properties": {"name": "", "v": 0}}, {"type": "Feature", "geometry": {"type": "Point", "coordinates": [28.95, 37.625]}, "properties": {"name": "", "v": 0}}, {"type": "Feature", "geometry": {"type": "Point", "coordinates": [29.028, 37.793]}, "properties": {"name": "Trafo", "v": 0}}, {"type": "Feature", "geometry": {"type": "Point", "coordinates": [29.124, 37.927]}, "properties": {"name": "", "v": 0}}, {"type": "Feature", "geometry": {"type": "Point", "coordinates": [29.238, 37.799]}, "properties": {"name": "", "v": 0}}, {"type": "Feature", "geometry": {"type": "Point", "coordinates": [29.238, 37.8]}, "properties": {"name": "", "v": 0}}, {"type": "Feature", "geometry": {"type": "Point", "coordinates": [29.239, 37.8]}, "properties": {"name": "", "v": 0}}, {"type": "Feature", "geometry": {"type": "Point", "coordinates": [29.239, 37.8]}, "properties": {"name": "", "v": 0}}, {"type": "Feature", "geometry": {"type": "Point", "coordinates": [29.596, 37.816]}, "properties": {"name": "", "v": 0}}, {"type": "Feature", "geometry": {"type": "Point", "coordinates": [29.596, 37.816]}, "properties": {"name": "", "v": 0}}, {"type": "Feature", "geometry": {"type": "Point", "coordinates": [29.883, 39.574]}, "properties": {"name": "", "v": 0}}, {"type": "Feature", "geometry": {"type": "Point", "coordinates": [29.883, 39.574]}, "properties": {"name": "", "v": 0}}, {"type": "Feature", "geometry": {"type": "Point", "coordinates": [29.883, 39.574]}, "properties": {"name": "", "v": 0}}, {"type": "Feature", "geometry": {"type": "Point", "coordinates": [30.435, 39.811]}, "properties": {"name": "", "v": 0}}, {"type": "Feature", "geometry": {"type": "Point", "coordinates": [30.476, 39.786]}, "properties": {"name": "", "v": 0}}, {"type": "Feature", "geometry": {"type": "Point", "coordinates": [30.476, 39.786]}, "properties": {"name": "", "v": 0}}, {"type": "Feature", "geometry": {"type": "Point", "coordinates": [30.484, 39.79]}, "properties": {"name": "", "v": 0}}, {"type": "Feature", "geometry": {"type": "Point", "coordinates": [30.494, 39.795]}, "properties": {"name": "TR 7", "v": 0}}, {"type": "Feature", "geometry": {"type": "Point", "coordinates": [30.495, 39.796]}, "properties": {"name": "", "v": 0}}, {"type": "Feature", "geometry": {"type": "Point", "coordinates": [30.497, 39.796]}, "properties": {"name": "", "v": 0}}, {"type": "Feature", "geometry": {"type": "Point", "coordinates": [30.526, 39.278]}, "properties": {"name": "", "v": 0}}, {"type": "Feature", "geometry": {"type": "Point", "coordinates": [30.53, 39.759]}, "properties": {"name": "", "v": 0}}, {"type": "Feature", "geometry": {"type": "Point", "coordinates": [30.533, 39.756]}, "properties": {"name": "", "v": 0}}, {"type": "Feature", "geometry": {"type": "Point", "coordinates": [30.536, 39.757]}, "properties": {"name": "", "v": 0}}, {"type": "Feature", "geometry": {"type": "Point", "coordinates": [30.538, 39.75]}, "properties": {"name": "", "v": 0}}, {"type": "Feature", "geometry": {"type": "Point", "coordinates": [30.741, 36.929]}, "properties": {"name": "", "v": 0}}, {"type": "Feature", "geometry": {"type": "Point", "coordinates": [30.524, 39.767]}, "properties": {"name": "", "v": 0}}, {"type": "Feature", "geometry": {"type": "Point", "coordinates": [30.523, 39.769]}, "properties": {"name": "", "v": 0}}, {"type": "Feature", "geometry": {"type": "Point", "coordinates": [30.538, 39.768]}, "properties": {"name": "TR 634 Cumhuriyetidir Blv. \u00d6zg\u00fcr St.", "v": 0}}, {"type": "Feature", "geometry": {"type": "Point", "coordinates": [30.572, 39.76]}, "properties": {"name": "", "v": 0}}, {"type": "Feature", "geometry": {"type": "Point", "coordinates": [30.52, 39.774]}, "properties": {"name": "", "v": 0}}, {"type": "Feature", "geometry": {"type": "Point", "coordinates": [30.499, 39.786]}, "properties": {"name": "", "v": 0}}, {"type": "Feature", "geometry": {"type": "Point", "coordinates": [30.507, 39.789]}, "properties": {"name": "", "v": 0}}, {"type": "Feature", "geometry": {"type": "Point", "coordinates": [30.514, 39.788]}, "properties": {"name": "TR 26010676", "v": 0}}, {"type": "Feature", "geometry": {"type": "Point", "coordinates": [30.51, 39.79]}, "properties": {"name": "", "v": 0}}, {"type": "Feature", "geometry": {"type": "Point", "coordinates": [30.519, 39.789]}, "properties": {"name": "TR26010690", "v": 0}}, {"type": "Feature", "geometry": {"type": "Point", "coordinates": [30.518, 39.792]}, "properties": {"name": "", "v": 0}}, {"type": "Feature", "geometry": {"type": "Point", "coordinates": [30.502, 39.794]}, "properties": {"name": "", "v": 0}}, {"type": "Feature", "geometry": {"type": "Point", "coordinates": [30.509, 39.795]}, "properties": {"name": "TR 2601526", "v": 0}}, {"type": "Feature", "geometry": {"type": "Point", "coordinates": [30.508, 39.797]}, "properties": {"name": "87/2", "v": 0}}, {"type": "Feature", "geometry": {"type": "Point", "coordinates": [30.511, 39.796]}, "properties": {"name": "", "v": 0}}, {"type": "Feature", "geometry": {"type": "Point", "coordinates": [30.518, 39.799]}, "properties": {"name": "TR 26010516", "v": 0}}, {"type": "Feature", "geometry": {"type": "Point", "coordinates": [30.519, 39.798]}, "properties": {"name": "", "v": 0}}, {"type": "Feature", "geometry": {"type": "Point", "coordinates": [30.505, 39.807]}, "properties": {"name": "", "v": 0}}, {"type": "Feature", "geometry": {"type": "Point", "coordinates": [30.534, 39.795]}, "properties": {"name": "", "v": 0}}, {"type": "Feature", "geometry": {"type": "Point", "coordinates": [30.554, 39.775]}, "properties": {"name": "", "v": 0}}, {"type": "Feature", "geometry": {"type": "Point", "coordinates": [30.554, 39.775]}, "properties": {"name": "", "v": 0}}, {"type": "Feature", "geometry": {"type": "Point", "coordinates": [30.185, 37.054]}, "properties": {"name": "", "v": 0}}, {"type": "Feature", "geometry": {"type": "Point", "coordinates": [22.969, 42.138]}, "properties": {"name": "", "v": 0}}, {"type": "Feature", "geometry": {"type": "Point", "coordinates": [23.024, 42.174]}, "properties": {"name": "", "v": 0}}, {"type": "Feature", "geometry": {"type": "Point", "coordinates": [23.134, 42.128]}, "properties": {"name": "", "v": 0}}, {"type": "Feature", "geometry": {"type": "Point", "coordinates": [23.18, 42.018]}, "properties": {"name": "", "v": 0}}, {"type": "Feature", "geometry": {"type": "Point", "coordinates": [23.184, 42.054]}, "properties": {"name": "", "v": 0}}, {"type": "Feature", "geometry": {"type": "Point", "coordinates": [24.309, 42.158]}, "properties": {"name": "", "v": 0}}, {"type": "Feature", "geometry": {"type": "Point", "coordinates": [24.313, 42.169]}, "properties": {"name": "", "v": 0}}, {"type": "Feature", "geometry": {"type": "Point", "coordinates": [24.316, 42.164]}, "properties": {"name": "", "v": 0}}, {"type": "Feature", "geometry": {"type": "Point", "coordinates": [24.319, 42.16]}, "properties": {"name": "", "v": 0}}, {"type": "Feature", "geometry": {"type": "Point", "coordinates": [24.417, 42.066]}, "properties": {"name": "", "v": 0}}, {"type": "Feature", "geometry": {"type": "Point", "coordinates": [24.749, 42.147]}, "properties": {"name": "", "v": 0}}, {"type": "Feature", "geometry": {"type": "Point", "coordinates": [24.793, 42.152]}, "properties": {"name": "", "v": 0}}, {"type": "Feature", "geometry": {"type": "Point", "coordinates": [25.297, 42.103]}, "properties": {"name": "", "v": 0}}, {"type": "Feature", "geometry": {"type": "Point", "coordinates": [25.607, 42.162]}, "properties": {"name": "", "v": 0}}, {"type": "Feature", "geometry": {"type": "Point", "coordinates": [25.609, 42.076]}, "properties": {"name": "", "v": 0}}, {"type": "Feature", "geometry": {"type": "Point", "coordinates": [25.636, 42.157]}, "properties": {"name": "", "v": 0}}, {"type": "Feature", "geometry": {"type": "Point", "coordinates": [27.372, 42.153]}, "properties": {"name": "", "v": 0}}, {"type": "Feature", "geometry": {"type": "Point", "coordinates": [23.613, 42.244]}, "properties": {"name": "", "v": 0}}, {"type": "Feature", "geometry": {"type": "Point", "coordinates": [25.837, 42.361]}, "properties": {"name": "", "v": 0}}, {"type": "Feature", "geometry": {"type": "Point", "coordinates": [25.97, 42.349]}, "properties": {"name": "", "v": 0}}, {"type": "Feature", "geometry": {"type": "Point", "coordinates": [26.429, 42.314]}, "properties": {"name": "", "v": 0}}, {"type": "Feature", "geometry": {"type": "Point", "coordinates": [27.98, 41.3]}, "properties": {"name": "", "v": 0}}, {"type": "Feature", "geometry": {"type": "Point", "coordinates": [28.002, 41.301]}, "properties": {"name": "", "v": 0}}, {"type": "Feature", "geometry": {"type": "Point", "coordinates": [27.968, 41.301]}, "properties": {"name": "1-DM-3.2", "v": 0}}, {"type": "Feature", "geometry": {"type": "Point", "coordinates": [27.966, 41.302]}, "properties": {"name": "", "v": 0}}, {"type": "Feature", "geometry": {"type": "Point", "coordinates": [27.966, 41.302]}, "properties": {"name": "1-DM-3.1", "v": 0}}, {"type": "Feature", "geometry": {"type": "Point", "coordinates": [27.999, 41.303]}, "properties": {"name": "", "v": 0}}, {"type": "Feature", "geometry": {"type": "Point", "coordinates": [27.98, 41.307]}, "properties": {"name": "", "v": 0}}, {"type": "Feature", "geometry": {"type": "Point", "coordinates": [27.97, 41.321]}, "properties": {"name": "", "v": 0}}, {"type": "Feature", "geometry": {"type": "Point", "coordinates": [27.99, 41.334]}, "properties": {"name": "", "v": 0}}, {"type": "Feature", "geometry": {"type": "Point", "coordinates": [27.926, 41.44]}, "properties": {"name": "TR-7", "v": 0}}, {"type": "Feature", "geometry": {"type": "Point", "coordinates": [27.919, 41.441]}, "properties": {"name": "A. Pa\u015fa Mah. Ye\u011fen Cad. TR1/11", "v": 0}}, {"type": "Feature", "geometry": {"type": "Point", "coordinates": [27.917, 41.445]}, "properties": {"name": "", "v": 0}}, {"type": "Feature", "geometry": {"type": "Point", "coordinates": [27.477, 42.498]}, "properties": {"name": "", "v": 0}}, {"type": "Feature", "geometry": {"type": "Point", "coordinates": [27.805, 42.206]}, "properties": {"name": "", "v": 0}}, {"type": "Feature", "geometry": {"type": "Point", "coordinates": [27.807, 42.209]}, "properties": {"name": "", "v": 0}}, {"type": "Feature", "geometry": {"type": "Point", "coordinates": [27.808, 42.209]}, "properties": {"name": "", "v": 0}}, {"type": "Feature", "geometry": {"type": "Point", "coordinates": [27.797, 42.215]}, "properties": {"name": "", "v": 0}}, {"type": "Feature", "geometry": {"type": "Point", "coordinates": [27.735, 42.658]}, "properties": {"name": "", "v": 0}}, {"type": "Feature", "geometry": {"type": "Point", "coordinates": [27.736, 42.66]}, "properties": {"name": "", "v": 0}}, {"type": "Feature", "geometry": {"type": "Point", "coordinates": [27.719, 42.705]}, "properties": {"name": "", "v": 0}}, {"type": "Feature", "geometry": {"type": "Point", "coordinates": [27.719, 42.705]}, "properties": {"name": "", "v": 0}}, {"type": "Feature", "geometry": {"type": "Point", "coordinates": [27.72, 42.707]}, "properties": {"name": "", "v": 0}}, {"type": "Feature", "geometry": {"type": "Point", "coordinates": [27.72, 42.707]}, "properties": {"name": "", "v": 0}}, {"type": "Feature", "geometry": {"type": "Point", "coordinates": [27.723, 42.708]}, "properties": {"name": "", "v": 0}}, {"type": "Feature", "geometry": {"type": "Point", "coordinates": [27.724, 42.707]}, "properties": {"name": "", "v": 0}}, {"type": "Feature", "geometry": {"type": "Point", "coordinates": [27.887, 43.237]}, "properties": {"name": "", "v": 0}}, {"type": "Feature", "geometry": {"type": "Point", "coordinates": [27.916, 43.2]}, "properties": {"name": "", "v": 0}}, {"type": "Feature", "geometry": {"type": "Point", "coordinates": [27.938, 43.219]}, "properties": {"name": "", "v": 0}}, {"type": "Feature", "geometry": {"type": "Point", "coordinates": [27.971, 43.243]}, "properties": {"name": "", "v": 0}}, {"type": "Feature", "geometry": {"type": "Point", "coordinates": [27.943, 43.225]}, "properties": {"name": "\u043f\u043e\u0434\u0441\u0442\u0430\u043d\u0446\u0438\u044f \u0421\u0442\u0430\u0434\u0438\u043e\u043d\u0430 20 \u043a\u0412", "v": 0}}, {"type": "Feature", "geometry": {"type": "Point", "coordinates": [26.907, 40.89]}, "properties": {"name": "", "v": 0}}, {"type": "Feature", "geometry": {"type": "Point", "coordinates": [27.025, 41.28]}, "properties": {"name": "\u00c7erkez M\u00fcsellim TR-7", "v": 0}}, {"type": "Feature", "geometry": {"type": "Point", "coordinates": [27.101, 41.2]}, "properties": {"name": "", "v": 0}}, {"type": "Feature", "geometry": {"type": "Point", "coordinates": [27.25, 40.845]}, "properties": {"name": "", "v": 0}}, {"type": "Feature", "geometry": {"type": "Point", "coordinates": [27.571, 41.445]}, "properties": {"name": "", "v": 0}}, {"type": "Feature", "geometry": {"type": "Point", "coordinates": [27.571, 41.445]}, "properties": {"name": "", "v": 0}}, {"type": "Feature", "geometry": {"type": "Point", "coordinates": [27.773, 41.184]}, "properties": {"name": "", "v": 0}}, {"type": "Feature", "geometry": {"type": "Point", "coordinates": [27.792, 40.396]}, "properties": {"name": "", "v": 0}}, {"type": "Feature", "geometry": {"type": "Point", "coordinates": [27.795, 41.165]}, "properties": {"name": "", "v": 0}}, {"type": "Feature", "geometry": {"type": "Point", "coordinates": [27.795, 41.143]}, "properties": {"name": "", "v": 0}}, {"type": "Feature", "geometry": {"type": "Point", "coordinates": [27.798, 41.165]}, "properties": {"name": "", "v": 0}}, {"type": "Feature", "geometry": {"type": "Point", "coordinates": [27.792, 41.402]}, "properties": {"name": "", "v": 0}}, {"type": "Feature", "geometry": {"type": "Point", "coordinates": [26.816, 41.544]}, "properties": {"name": "Eski Trafo Merkezi", "v": 0}}, {"type": "Feature", "geometry": {"type": "Point", "coordinates": [27.381, 41.485]}, "properties": {"name": "", "v": 0}}, {"type": "Feature", "geometry": {"type": "Point", "coordinates": [27.21, 41.735]}, "properties": {"name": "", "v": 0}}, {"type": "Feature", "geometry": {"type": "Point", "coordinates": [27.212, 41.736]}, "properties": {"name": "DM3TR19", "v": 0}}, {"type": "Feature", "geometry": {"type": "Point", "coordinates": [27.225, 41.733]}, "properties": {"name": "", "v": 0}}, {"type": "Feature", "geometry": {"type": "Point", "coordinates": [27.225, 41.734]}, "properties": {"name": "", "v": 0}}, {"type": "Feature", "geometry": {"type": "Point", "coordinates": [27.226, 41.741]}, "properties": {"name": "", "v": 0}}, {"type": "Feature", "geometry": {"type": "Point", "coordinates": [27.76, 41.579]}, "properties": {"name": "", "v": 0}}, {"type": "Feature", "geometry": {"type": "Point", "coordinates": [27.647, 41.033]}, "properties": {"name": "", "v": 0}}, {"type": "Feature", "geometry": {"type": "Point", "coordinates": [27.794, 41.169]}, "properties": {"name": "", "v": 0}}, {"type": "Feature", "geometry": {"type": "Point", "coordinates": [27.287, 41.497]}, "properties": {"name": "\u00d6zel Trafo", "v": 0}}, {"type": "Feature", "geometry": {"type": "Point", "coordinates": [27.374, 41.397]}, "properties": {"name": "", "v": 0}}, {"type": "Feature", "geometry": {"type": "Point", "coordinates": [27.529, 40.98]}, "properties": {"name": "K\u00fclt\u00fcr Merkezi RMU", "v": 0}}, {"type": "Feature", "geometry": {"type": "Point", "coordinates": [27.551, 40.982]}, "properties": {"name": "At\u0131c\u0131lar DM", "v": 0}}, {"type": "Feature", "geometry": {"type": "Point", "coordinates": [27.54, 40.979]}, "properties": {"name": "", "v": 0}}, {"type": "Feature", "geometry": {"type": "Point", "coordinates": [27.511, 40.984]}, "properties": {"name": "Kumluk Kabin", "v": 0}}, {"type": "Feature", "geometry": {"type": "Point", "coordinates": [27.536, 40.986]}, "properties": {"name": "", "v": 0}}, {"type": "Feature", "geometry": {"type": "Point", "coordinates": [27.543, 40.988]}, "properties": {"name": "", "v": 0}}, {"type": "Feature", "geometry": {"type": "Point", "coordinates": [27.54, 40.987]}, "properties": {"name": "", "v": 0}}, {"type": "Feature", "geometry": {"type": "Point", "coordinates": [23.194, 42.754]}, "properties": {"name": "", "v": 0}}, {"type": "Feature", "geometry": {"type": "Point", "coordinates": [23.195, 42.761]}, "properties": {"name": "", "v": 0}}, {"type": "Feature", "geometry": {"type": "Point", "coordinates": [23.195, 42.757]}, "properties": {"name": "", "v": 0}}, {"type": "Feature", "geometry": {"type": "Point", "coordinates": [23.202, 42.792]}, "properties": {"name": "", "v": 0}}, {"type": "Feature", "geometry": {"type": "Point", "coordinates": [23.203, 42.79]}, "properties": {"name": "", "v": 0}}, {"type": "Feature", "geometry": {"type": "Point", "coordinates": [23.206, 42.789]}, "properties": {"name": "", "v": 0}}, {"type": "Feature", "geometry": {"type": "Point", "coordinates": [23.207, 42.791]}, "properties": {"name": "", "v": 0}}, {"type": "Feature", "geometry": {"type": "Point", "coordinates": [23.209, 42.795]}, "properties": {"name": "\u0424\u0443\u0440\u0430\u0436\u0435\u043d \u0437\u0430\u0432\u043e\u0434", "v": 0}}, {"type": "Feature", "geometry": {"type": "Point", "coordinates": [23.214, 42.749]}, "properties": {"name": "", "v": 0}}, {"type": "Feature", "geometry": {"type": "Point", "coordinates": [23.25, 42.754]}, "properties": {"name": "", "v": 0}}, {"type": "Feature", "geometry": {"type": "Point", "coordinates": [23.273, 42.753]}, "properties": {"name": "", "v": 0}}, {"type": "Feature", "geometry": {"type": "Point", "coordinates": [23.289, 42.707]}, "properties": {"name": "", "v": 0}}, {"type": "Feature", "geometry": {"type": "Point", "coordinates": [23.291, 42.706]}, "properties": {"name": "", "v": 0}}, {"type": "Feature", "geometry": {"type": "Point", "coordinates": [23.294, 42.705]}, "properties": {"name": "", "v": 0}}, {"type": "Feature", "geometry": {"type": "Point", "coordinates": [23.31, 42.676]}, "properties": {"name": "", "v": 0}}, {"type": "Feature", "geometry": {"type": "Point", "coordinates": [23.32, 42.673]}, "properties": {"name": "", "v": 0}}, {"type": "Feature", "geometry": {"type": "Point", "coordinates": [23.365, 42.684]}, "properties": {"name": "", "v": 0}}, {"type": "Feature", "geometry": {"type": "Point", "coordinates": [23.381, 42.657]}, "properties": {"name": "", "v": 0}}, {"type": "Feature", "geometry": {"type": "Point", "coordinates": [23.557, 42.458]}, "properties": {"name": "", "v": 0}}, {"type": "Feature", "geometry": {"type": "Point", "coordinates": [23.278, 42.768]}, "properties": {"name": "", "v": 0}}, {"type": "Feature", "geometry": {"type": "Point", "coordinates": [23.299, 42.745]}, "properties": {"name": "", "v": 0}}, {"type": "Feature", "geometry": {"type": "Point", "coordinates": [23.31, 42.77]}, "properties": {"name": "", "v": 0}}, {"type": "Feature", "geometry": {"type": "Point", "coordinates": [23.32, 42.778]}, "properties": {"name": "", "v": 0}}, {"type": "Feature", "geometry": {"type": "Point", "coordinates": [23.306, 42.79]}, "properties": {"name": "", "v": 0}}, {"type": "Feature", "geometry": {"type": "Point", "coordinates": [23.312, 42.79]}, "properties": {"name": "", "v": 0}}, {"type": "Feature", "geometry": {"type": "Point", "coordinates": [23.331, 42.795]}, "properties": {"name": "", "v": 0}}, {"type": "Feature", "geometry": {"type": "Point", "coordinates": [23.336, 42.797]}, "properties": {"name": "", "v": 0}}, {"type": "Feature", "geometry": {"type": "Point", "coordinates": [23.34, 42.796]}, "properties": {"name": "", "v": 0}}, {"type": "Feature", "geometry": {"type": "Point", "coordinates": [23.288, 42.82]}, "properties": {"name": "", "v": 0}}, {"type": "Feature", "geometry": {"type": "Point", "coordinates": [23.3, 42.821]}, "properties": {"name": "", "v": 0}}, {"type": "Feature", "geometry": {"type": "Point", "coordinates": [23.341, 42.806]}, "properties": {"name": "", "v": 0}}, {"type": "Feature", "geometry": {"type": "Point", "coordinates": [23.362, 42.817]}, "properties": {"name": "", "v": 0}}, {"type": "Feature", "geometry": {"type": "Point", "coordinates": [23.466, 42.88]}, "properties": {"name": "", "v": 0}}, {"type": "Feature", "geometry": {"type": "Point", "coordinates": [23.578, 43.189]}, "properties": {"name": "", "v": 0}}, {"type": "Feature", "geometry": {"type": "Point", "coordinates": [23.568, 43.206]}, "properties": {"name": "", "v": 0}}, {"type": "Feature", "geometry": {"type": "Point", "coordinates": [23.534, 43.535]}, "properties": {"name": "", "v": 0}}, {"type": "Feature", "geometry": {"type": "Point", "coordinates": [23.927, 43.464]}, "properties": {"name": "\u0422\u041f1 \u0426\u041a", "v": 0}}, {"type": "Feature", "geometry": {"type": "Point", "coordinates": [23.279, 42.67]}, "properties": {"name": "", "v": 0}}, {"type": "Feature", "geometry": {"type": "Point", "coordinates": [23.309, 42.66]}, "properties": {"name": "", "v": 0}}, {"type": "Feature", "geometry": {"type": "Point", "coordinates": [23.288, 42.678]}, "properties": {"name": "", "v": 0}}, {"type": "Feature", "geometry": {"type": "Point", "coordinates": [23.292, 42.673]}, "properties": {"name": "", "v": 0}}, {"type": "Feature", "geometry": {"type": "Point", "coordinates": [23.294, 42.678]}, "properties": {"name": "", "v": 0}}, {"type": "Feature", "geometry": {"type": "Point", "coordinates": [28.882, 41.181]}, "properties": {"name": "", "v": 0}}, {"type": "Feature", "geometry": {"type": "Point", "coordinates": [29.094, 40.954]}, "properties": {"name": "", "v": 0}}, {"type": "Feature", "geometry": {"type": "Point", "coordinates": [29.21, 40.899]}, "properties": {"name": "", "v": 0}}, {"type": "Feature", "geometry": {"type": "Point", "coordinates": [29.258, 41.047]}, "properties": {"name": "", "v": 0}}, {"type": "Feature", "geometry": {"type": "Point", "coordinates": [29.273, 40.971]}, "properties": {"name": "Sultanbeyli GIS TM", "v": 0}}, {"type": "Feature", "geometry": {"type": "Point", "coordinates": [29.277, 40.924]}, "properties": {"name": "", "v": 0}}, {"type": "Feature", "geometry": {"type": "Point", "coordinates": [29.284, 40.919]}, "properties": {"name": "", "v": 0}}, {"type": "Feature", "geometry": {"type": "Point", "coordinates": [29.623, 41.175]}, "properties": {"name": "", "v": 0}}, {"type": "Feature", "geometry": {"type": "Point", "coordinates": [29.156, 40.938]}, "properties": {"name": "", "v": 0}}, {"type": "Feature", "geometry": {"type": "Point", "coordinates": [29.391, 40.908]}, "properties": {"name": "", "v": 0}}, {"type": "Feature", "geometry": {"type": "Point", "coordinates": [29.286, 40.817]}, "properties": {"name": "T13398", "v": 0}}, {"type": "Feature", "geometry": {"type": "Point", "coordinates": [29.294, 40.816]}, "properties": {"name": "", "v": 0}}, {"type": "Feature", "geometry": {"type": "Point", "coordinates": [29.188, 40.892]}, "properties": {"name": "Yunus TM", "v": 0}}, {"type": "Feature", "geometry": {"type": "Point", "coordinates": [29.236, 40.907]}, "properties": {"name": "", "v": 0}}, {"type": "Feature", "geometry": {"type": "Point", "coordinates": [29.227, 40.9]}, "properties": {"name": "", "v": 0}}, {"type": "Feature", "geometry": {"type": "Point", "coordinates": [29.153, 40.904]}, "properties": {"name": "", "v": 0}}, {"type": "Feature", "geometry": {"type": "Point", "coordinates": [29.163, 40.917]}, "properties": {"name": "Maltepe GIS TM", "v": 0}}, {"type": "Feature", "geometry": {"type": "Point", "coordinates": [27.801, 41.142]}, "properties": {"name": "TR 2/16", "v": 0}}, {"type": "Feature", "geometry": {"type": "Point", "coordinates": [27.804, 41.144]}, "properties": {"name": "TR 2/7", "v": 0}}, {"type": "Feature", "geometry": {"type": "Point", "coordinates": [27.804, 41.146]}, "properties": {"name": "TR-2/2", "v": 0}}, {"type": "Feature", "geometry": {"type": "Point", "coordinates": [27.815, 41.155]}, "properties": {"name": "", "v": 0}}, {"type": "Feature", "geometry": {"type": "Point", "coordinates": [27.82, 41.155]}, "properties": {"name": "", "v": 0}}, {"type": "Feature", "geometry": {"type": "Point", "coordinates": [27.824, 41.147]}, "properties": {"name": "", "v": 0}}, {"type": "Feature", "geometry": {"type": "Point", "coordinates": [27.83, 41.154]}, "properties": {"name": "", "v": 0}}, {"type": "Feature", "geometry": {"type": "Point", "coordinates": [27.83, 41.149]}, "properties": {"name": "", "v": 0}}, {"type": "Feature", "geometry": {"type": "Point", "coordinates": [27.83, 41.153]}, "properties": {"name": "", "v": 0}}, {"type": "Feature", "geometry": {"type": "Point", "coordinates": [27.832, 41.147]}, "properties": {"name": "", "v": 0}}, {"type": "Feature", "geometry": {"type": "Point", "coordinates": [27.833, 41.154]}, "properties": {"name": "", "v": 0}}, {"type": "Feature", "geometry": {"type": "Point", "coordinates": [27.838, 41.154]}, "properties": {"name": "", "v": 0}}, {"type": "Feature", "geometry": {"type": "Point", "coordinates": [27.841, 41.206]}, "properties": {"name": "", "v": 0}}, {"type": "Feature", "geometry": {"type": "Point", "coordinates": [27.843, 41.155]}, "properties": {"name": "", "v": 0}}, {"type": "Feature", "geometry": {"type": "Point", "coordinates": [27.882, 41.247]}, "properties": {"name": "TR-17", "v": 0}}, {"type": "Feature", "geometry": {"type": "Point", "coordinates": [27.886, 41.256]}, "properties": {"name": "", "v": 0}}, {"type": "Feature", "geometry": {"type": "Point", "coordinates": [27.887, 41.133]}, "properties": {"name": "", "v": 0}}, {"type": "Feature", "geometry": {"type": "Point", "coordinates": [27.889, 41.226]}, "properties": {"name": "", "v": 0}}, {"type": "Feature", "geometry": {"type": "Point", "coordinates": [27.892, 41.225]}, "properties": {"name": "", "v": 0}}, {"type": "Feature", "geometry": {"type": "Point", "coordinates": [27.807, 41.147]}, "properties": {"name": "TR-2/3", "v": 0}}, {"type": "Feature", "geometry": {"type": "Point", "coordinates": [22.896, 42.837]}, "properties": {"name": "", "v": 0}}, {"type": "Feature", "geometry": {"type": "Point", "coordinates": [22.897, 42.856]}, "properties": {"name": "", "v": 0}}, {"type": "Feature", "geometry": {"type": "Point", "coordinates": [22.909, 42.857]}, "properties": {"name": "", "v": 0}}, {"type": "Feature", "geometry": {"type": "Point", "coordinates": [22.935, 42.787]}, "properties": {"name": "", "v": 0}}, {"type": "Feature", "geometry": {"type": "Point", "coordinates": [22.979, 42.792]}, "properties": {"name": "", "v": 0}}, {"type": "Feature", "geometry": {"type": "Point", "coordinates": [22.982, 42.847]}, "properties": {"name": "", "v": 0}}, {"type": "Feature", "geometry": {"type": "Point", "coordinates": [22.986, 43.035]}, "properties": {"name": "", "v": 0}}, {"type": "Feature", "geometry": {"type": "Point", "coordinates": [23.006, 42.811]}, "properties": {"name": "", "v": 0}}, {"type": "Feature", "geometry": {"type": "Point", "coordinates": [23.007, 42.897]}, "properties": {"name": "", "v": 0}}, {"type": "Feature", "geometry": {"type": "Point", "coordinates": [23.028, 43.028]}, "properties": {"name": "", "v": 0}}, {"type": "Feature", "geometry": {"type": "Point", "coordinates": [23.028, 42.85]}, "properties": {"name": "", "v": 0}}, {"type": "Feature", "geometry": {"type": "Point", "coordinates": [23.039, 42.79]}, "properties": {"name": "", "v": 0}}, {"type": "Feature", "geometry": {"type": "Point", "coordinates": [23.04, 42.766]}, "properties": {"name": "", "v": 0}}, {"type": "Feature", "geometry": {"type": "Point", "coordinates": [23.056, 42.807]}, "properties": {"name": "", "v": 0}}, {"type": "Feature", "geometry": {"type": "Point", "coordinates": [23.056, 42.81]}, "properties": {"name": "", "v": 0}}, {"type": "Feature", "geometry": {"type": "Point", "coordinates": [23.058, 42.803]}, "properties": {"name": "", "v": 0}}, {"type": "Feature", "geometry": {"type": "Point", "coordinates": [23.06, 42.809]}, "properties": {"name": "", "v": 0}}, {"type": "Feature", "geometry": {"type": "Point", "coordinates": [23.077, 42.849]}, "properties": {"name": "", "v": 0}}, {"type": "Feature", "geometry": {"type": "Point", "coordinates": [23.088, 42.87]}, "properties": {"name": "", "v": 0}}, {"type": "Feature", "geometry": {"type": "Point", "coordinates": [23.089, 42.816]}, "properties": {"name": "", "v": 0}}, {"type": "Feature", "geometry": {"type": "Point", "coordinates": [23.098, 42.661]}, "properties": {"name": "", "v": 0}}, {"type": "Feature", "geometry": {"type": "Point", "coordinates": [23.099, 42.865]}, "properties": {"name": "", "v": 0}}, {"type": "Feature", "geometry": {"type": "Point", "coordinates": [23.102, 42.799]}, "properties": {"name": "", "v": 0}}, {"type": "Feature", "geometry": {"type": "Point", "coordinates": [23.11, 42.881]}, "properties": {"name": "", "v": 0}}, {"type": "Feature", "geometry": {"type": "Point", "coordinates": [23.122, 42.826]}, "properties": {"name": "", "v": 0}}, {"type": "Feature", "geometry": {"type": "Point", "coordinates": [23.122, 42.788]}, "properties": {"name": "", "v": 0}}, {"type": "Feature", "geometry": {"type": "Point", "coordinates": [23.127, 42.8]}, "properties": {"name": "", "v": 0}}, {"type": "Feature", "geometry": {"type": "Point", "coordinates": [23.128, 42.827]}, "properties": {"name": "", "v": 0}}, {"type": "Feature", "geometry": {"type": "Point", "coordinates": [23.131, 42.788]}, "properties": {"name": "", "v": 0}}, {"type": "Feature", "geometry": {"type": "Point", "coordinates": [23.135, 42.876]}, "properties": {"name": "", "v": 0}}, {"type": "Feature", "geometry": {"type": "Point", "coordinates": [23.159, 42.778]}, "properties": {"name": "", "v": 0}}, {"type": "Feature", "geometry": {"type": "Point", "coordinates": [23.163, 42.798]}, "properties": {"name": "", "v": 0}}, {"type": "Feature", "geometry": {"type": "Point", "coordinates": [23.175, 42.798]}, "properties": {"name": "", "v": 0}}, {"type": "Feature", "geometry": {"type": "Point", "coordinates": [23.181, 42.782]}, "properties": {"name": "", "v": 0}}, {"type": "Feature", "geometry": {"type": "Point", "coordinates": [23.184, 42.726]}, "properties": {"name": "", "v": 0}}, {"type": "Feature", "geometry": {"type": "Point", "coordinates": [44.804, 41.779]}, "properties": {"name": "", "v": 0}}, {"type": "Feature", "geometry": {"type": "Point", "coordinates": [49.49, 40.67]}, "properties": {"name": "Ya\u015fma Elektrik Yar\u0131mstansiyas\u0131", "v": 0}}, {"type": "Feature", "geometry": {"type": "Point", "coordinates": [27.954, 41.299]}, "properties": {"name": "1-DM-4.1", "v": 0}}, {"type": "Feature", "geometry": {"type": "Point", "coordinates": [27.96, 41.31]}, "properties": {"name": "1-DM-6.3", "v": 0}}, {"type": "Feature", "geometry": {"type": "Point", "coordinates": [27.961, 41.312]}, "properties": {"name": "TR 1234", "v": 0}}, {"type": "Feature", "geometry": {"type": "Point", "coordinates": [27.981, 41.284]}, "properties": {"name": "", "v": 0}}, {"type": "Feature", "geometry": {"type": "Point", "coordinates": [27.99, 41.285]}, "properties": {"name": "", "v": 0}}, {"type": "Feature", "geometry": {"type": "Point", "coordinates": [27.994, 41.325]}, "properties": {"name": "", "v": 0}}, {"type": "Feature", "geometry": {"type": "Point", "coordinates": [27.996, 41.281]}, "properties": {"name": "", "v": 0}}, {"type": "Feature", "geometry": {"type": "Point", "coordinates": [27.996, 41.281]}, "properties": {"name": "", "v": 0}}, {"type": "Feature", "geometry": {"type": "Point", "coordinates": [27.996, 41.277]}, "properties": {"name": "", "v": 0}}, {"type": "Feature", "geometry": {"type": "Point", "coordinates": [28.0, 41.289]}, "properties": {"name": "Tr-2/9 G.M.K.P. Mah.", "v": 0}}, {"type": "Feature", "geometry": {"type": "Point", "coordinates": [28.008, 41.283]}, "properties": {"name": "", "v": 0}}, {"type": "Feature", "geometry": {"type": "Point", "coordinates": [28.01, 41.29]}, "properties": {"name": "", "v": 0}}, {"type": "Feature", "geometry": {"type": "Point", "coordinates": [28.017, 41.091]}, "properties": {"name": "", "v": 0}}, {"type": "Feature", "geometry": {"type": "Point", "coordinates": [28.025, 41.266]}, "properties": {"name": "TR-2 Tepe Emlak Konutlar\u0131", "v": 0}}, {"type": "Feature", "geometry": {"type": "Point", "coordinates": [28.046, 41.287]}, "properties": {"name": "", "v": 0}}, {"type": "Feature", "geometry": {"type": "Point", "coordinates": [28.056, 41.289]}, "properties": {"name": "TR 6-10 Fatih Mah. Ambardere Deliorman", "v": 0}}, {"type": "Feature", "geometry": {"type": "Point", "coordinates": [28.162, 41.234]}, "properties": {"name": "", "v": 0}}, {"type": "Feature", "geometry": {"type": "Point", "coordinates": [28.163, 41.217]}, "properties": {"name": "", "v": 0}}, {"type": "Feature", "geometry": {"type": "Point", "coordinates": [28.166, 41.162]}, "properties": {"name": "", "v": 0}}, {"type": "Feature", "geometry": {"type": "Point", "coordinates": [28.192, 41.231]}, "properties": {"name": "", "v": 0}}, {"type": "Feature", "geometry": {"type": "Point", "coordinates": [28.264, 41.348]}, "properties": {"name": "", "v": 0}}, {"type": "Feature", "geometry": {"type": "Point", "coordinates": [27.984, 41.284]}, "properties": {"name": "", "v": 0}}, {"type": "Feature", "geometry": {"type": "Point", "coordinates": [27.605, 47.12]}, "properties": {"name": "", "v": 0}}, {"type": "Feature", "geometry": {"type": "Point", "coordinates": [24.479, 47.126]}, "properties": {"name": "", "v": 0}}, {"type": "Feature", "geometry": {"type": "Point", "coordinates": [27.545, 47.198]}, "properties": {"name": "", "v": 0}}, {"type": "Feature", "geometry": {"type": "Point", "coordinates": [27.578, 47.148]}, "properties": {"name": "", "v": 0}}, {"type": "Feature", "geometry": {"type": "Point", "coordinates": [27.293, 47.756]}, "properties": {"name": "", "v": 0}}, {"type": "Feature", "geometry": {"type": "Point", "coordinates": [27.427, 47.601]}, "properties": {"name": "", "v": 0}}, {"type": "Feature", "geometry": {"type": "Point", "coordinates": [24.161, 47.931]}, "properties": {"name": "", "v": 0}}, {"type": "Feature", "geometry": {"type": "Point", "coordinates": [24.214, 47.927]}, "properties": {"name": "", "v": 0}}]}