{"type": "FeatureCollection", "features": [{"type": "Feature", "geometry": {"type": "Point", "coordinates": [-64.3, -33.092]}, "properties": {"name": "EPEC", "v": 132000}}, {"type": "Feature", "geometry": {"type": "Point", "coordinates": [-55.918, -27.443]}, "properties": {"name": "Estaci\u00f3n Transformadora San Isidro", "v": 500000}}, {"type": "Feature", "geometry": {"type": "Point", "coordinates": [-55.998, -25.486]}, "properties": {"name": "ANDE", "v": 220000}}, {"type": "Feature", "geometry": {"type": "Point", "coordinates": [-67.851, -9.958]}, "properties": {"name": "Subesta\u00e7\u00e3o Tangar\u00e1", "v": 0}}, {"type": "Feature", "geometry": {"type": "Point", "coordinates": [-38.2, -9.397]}, "properties": {"name": "Subesta\u00e7\u00e3o Bondinho", "v": 0}}, {"type": "Feature", "geometry": {"type": "Point", "coordinates": [-41.421, -7.098]}, "properties": {"name": "Subesta\u00e7\u00e3o Junco", "v": 0}}, {"type": "Feature", "geometry": {"type": "Point", "coordinates": [-73.225, -39.798]}, "properties": {"name": "BVC Ingenier\u00eda El\u00e9ctrica", "v": 0}}, {"type": "Feature", "geometry": {"type": "Point", "coordinates": [-73.013, -36.821]}, "properties": {"name": "", "v": 0}}, {"type": "Feature", "geometry": {"type": "Point", "coordinates": [-72.727, -38.761]}, "properties": {"name": "Reconectador", "v": 0}}, {"type": "Feature", "geometry": {"type": "Point", "coordinates": [-72.723, -38.756]}, "properties": {"name": "", "v": 0}}, {"type": "Feature", "geometry": {"type": "Point", "coordinates": [-72.557, -38.708]}, "properties": {"name": "", "v": 0}}, {"type": "Feature", "geometry": {"type": "Point", "coordinates": [-72.396, -37.045]}, "properties": {"name": "", "v": 0}}, {"type": "Feature", "geometry": {"type": "Point", "coordinates": [-72.395, -37.045]}, "properties": {"name": "", "v": 0}}, {"type": "Feature", "geometry": {"type": "Point", "coordinates": [-71.516, -33.033]}, "properties": {"name": "TAP Achupallas", "v": 0}}, {"type": "Feature", "geometry": {"type": "Point", "coordinates": [-71.499, -32.982]}, "properties": {"name": "TAP Re\u00f1aca", "v": 0}}, {"type": "Feature", "geometry": {"type": "Point", "coordinates": [-71.434, -33.009]}, "properties": {"name": "TAP Quilpu\u00e9", "v": 0}}, {"type": "Feature", "geometry": {"type": "Point", "coordinates": [-71.066, -39.934]}, "properties": {"name": "", "v": 0}}, {"type": "Feature", "geometry": {"type": "Point", "coordinates": [-70.928, -33.859]}, "properties": {"name": "", "v": 0}}, {"type": "Feature", "geometry": {"type": "Point", "coordinates": [-70.894, -33.008]}, "properties": {"name": "Estaci\u00f3n El\u00e9ctrica Runge (abandonada)", "v": 0}}, {"type": "Feature", "geometry": {"type": "Point", "coordinates": [-70.828, -33.534]}, "properties": {"name": "", "v": 0}}, {"type": "Feature", "geometry": {"type": "Point", "coordinates": [-70.725, -34.184]}, "properties": {"name": "", "v": 0}}, {"type": "Feature", "geometry": {"type": "Point", "coordinates": [-70.42, -33.581]}, "properties": {"name": "Subestaci\u00f3n Las Lajas", "v": 0}}, {"type": "Feature", "geometry": {"type": "Point", "coordinates": [-69.06, -24.261]}, "properties": {"name": "", "v": 0}}, {"type": "Feature", "geometry": {"type": "Point", "coordinates": [-69.06, -24.261]}, "properties": {"name": "", "v": 0}}, {"type": "Feature", "geometry": {"type": "Point", "coordinates": [-69.06, -24.261]}, "properties": {"name": "", "v": 0}}, {"type": "Feature", "geometry": {"type": "Point", "coordinates": [-69.06, -24.261]}, "properties": {"name": "", "v": 0}}, {"type": "Feature", "geometry": {"type": "Point", "coordinates": [-68.798, -33.081]}, "properties": {"name": "", "v": 0}}, {"type": "Feature", "geometry": {"type": "Point", "coordinates": [-65.893, -47.744]}, "properties": {"name": "Servicios Publicos Sociedad del Estado", "v": 0}}, {"type": "Feature", "geometry": {"type": "Point", "coordinates": [-65.705, -43.31]}, "properties": {"name": "", "v": 0}}, {"type": "Feature", "geometry": {"type": "Point", "coordinates": [-65.297, -43.238]}, "properties": {"name": "", "v": 0}}, {"type": "Feature", "geometry": {"type": "Point", "coordinates": [-64.96, -40.73]}, "properties": {"name": "", "v": 0}}, {"type": "Feature", "geometry": {"type": "Point", "coordinates": [-64.197, -28.307]}, "properties": {"name": "", "v": 0}}, {"type": "Feature", "geometry": {"type": "Point", "coordinates": [-63.474, -29.385]}, "properties": {"name": "Usina El\u00e9ctrica", "v": 0}}, {"type": "Feature", "geometry": {"type": "Point", "coordinates": [-64.278, -30.96]}, "properties": {"name": "Usina", "v": 0}}, {"type": "Feature", "geometry": {"type": "Point", "coordinates": [-64.171, -31.393]}, "properties": {"name": "", "v": 0}}, {"type": "Feature", "geometry": {"type": "Point", "coordinates": [-68.518, -31.447]}, "properties": {"name": "Estaci\u00f3n Transformadora Albard\u00f3n", "v": 0}}, {"type": "Feature", "geometry": {"type": "Point", "coordinates": [-58.731, -38.56]}, "properties": {"name": "Usina Popular Cooperativa - Necochea", "v": 0}}, {"type": "Feature", "geometry": {"type": "Point", "coordinates": [-56.676, -36.727]}, "properties": {"name": "", "v": 0}}, {"type": "Feature", "geometry": {"type": "Point", "coordinates": [-56.674, -36.727]}, "properties": {"name": "", "v": 0}}, {"type": "Feature", "geometry": {"type": "Point", "coordinates": [-56.674, -36.724]}, "properties": {"name": "", "v": 0}}, {"type": "Feature", "geometry": {"type": "Point", "coordinates": [-56.676, -36.724]}, "properties": {"name": "", "v": 0}}, {"type": "Feature", "geometry": {"type": "Point", "coordinates": [-64.283, -36.648]}, "properties": {"name": "", "v": 0}}, {"type": "Feature", "geometry": {"type": "Point", "coordinates": [-59.503, -36.378]}, "properties": {"name": "", "v": 0}}, {"type": "Feature", "geometry": {"type": "Point", "coordinates": [-56.197, -34.885]}, "properties": {"name": "Estacion E", "v": 0}}, {"type": "Feature", "geometry": {"type": "Point", "coordinates": [-55.75, -34.763]}, "properties": {"name": "UTE estaci\u00f3n reductora", "v": 0}}, {"type": "Feature", "geometry": {"type": "Point", "coordinates": [-58.452, -34.675]}, "properties": {"name": "", "v": 0}}, {"type": "Feature", "geometry": {"type": "Point", "coordinates": [-58.452, -34.674]}, "properties": {"name": "", "v": 0}}, {"type": "Feature", "geometry": {"type": "Point", "coordinates": [-58.454, -34.673]}, "properties": {"name": "", "v": 0}}, {"type": "Feature", "geometry": {"type": "Point", "coordinates": [-58.449, -34.669]}, "properties": {"name": "", "v": 0}}, {"type": "Feature", "geometry": {"type": "Point", "coordinates": [-58.397, -34.643]}, "properties": {"name": "Medidores", "v": 0}}, {"type": "Feature", "geometry": {"type": "Point", "coordinates": [-58.485, -34.636]}, "properties": {"name": "", "v": 0}}, {"type": "Feature", "geometry": {"type": "Point", "coordinates": [-58.377, -34.604]}, "properties": {"name": "Subestaci\u00f3n 115 - Blanco", "v": 0}}, {"type": "Feature", "geometry": {"type": "Point", "coordinates": [-58.478, -34.592]}, "properties": {"name": "Subestacion Arata", "v": 0}}, {"type": "Feature", "geometry": {"type": "Point", "coordinates": [-58.442, -34.574]}, "properties": {"name": "Subestaci\u00f3n 235 Jorge Newbery", "v": 0}}, {"type": "Feature", "geometry": {"type": "Point", "coordinates": [-58.577, -34.417]}, "properties": {"name": "", "v": 0}}, {"type": "Feature", "geometry": {"type": "Point", "coordinates": [-58.971, -34.416]}, "properties": {"name": "Cartucho", "v": 0}}, {"type": "Feature", "geometry": {"type": "Point", "coordinates": [-60.558, -33.92]}, "properties": {"name": "", "v": 0}}, {"type": "Feature", "geometry": {"type": "Point", "coordinates": [-60.56, -33.92]}, "properties": {"name": "", "v": 0}}, {"type": "Feature", "geometry": {"type": "Point", "coordinates": [-60.598, -33.917]}, "properties": {"name": "", "v": 0}}, {"type": "Feature", "geometry": {"type": "Point", "coordinates": [-60.569, -33.916]}, "properties": {"name": "", "v": 0}}, {"type": "Feature", "geometry": {"type": "Point", "coordinates": [-60.462, -33.91]}, "properties": {"name": "", "v": 0}}, {"type": "Feature", "geometry": {"type": "Point", "coordinates": [-60.562, -33.899]}, "properties": {"name": "", "v": 0}}, {"type": "Feature", "geometry": {"type": "Point", "coordinates": [-60.561, -33.897]}, "properties": {"name": "", "v": 0}}, {"type": "Feature", "geometry": {"type": "Point", "coordinates": [-60.579, -33.879]}, "properties": {"name": "", "v": 0}}, {"type": "Feature", "geometry": {"type": "Point", "coordinates": [-60.582, -33.878]}, "properties": {"name": "", "v": 0}}, {"type": "Feature", "geometry": {"type": "Point", "coordinates": [-60.513, -33.86]}, "properties": {"name": "", "v": 0}}, {"type": "Feature", "geometry": {"type": "Point", "coordinates": [-54.401, -33.235]}, "properties": {"name": "Sub estacion UTE barrio sosa", "v": 0}}, {"type": "Feature", "geometry": {"type": "Point", "coordinates": [-57.53, -38.024]}, "properties": {"name": "EDEA", "v": 0}}, {"type": "Feature", "geometry": {"type": "Point", "coordinates": [-58.455, -34.674]}, "properties": {"name": "", "v": 0}}, {"type": "Feature", "geometry": {"type": "Point", "coordinates": [-58.453, -34.675]}, "properties": {"name": "", "v": 0}}, {"type": "Feature", "geometry": {"type": "Point", "coordinates": [-58.399, -34.741]}, "properties": {"name": "", "v": 0}}, {"type": "Feature", "geometry": {"type": "Point", "coordinates": [-64.443, -32.232]}, "properties": {"name": "", "v": 0}}, {"type": "Feature", "geometry": {"type": "Point", "coordinates": [-63.192, -32.431]}, "properties": {"name": "EPEC - Central T\u00e9rmica Las Playas Villa Mar\u00eda", "v": 0}}, {"type": "Feature", "geometry": {"type": "Point", "coordinates": [-61.273, -31.938]}, "properties": {"name": "", "v": 0}}, {"type": "Feature", "geometry": {"type": "Point", "coordinates": [-60.048, -26.93]}, "properties": {"name": "Secheep", "v": 0}}, {"type": "Feature", "geometry": {"type": "Point", "coordinates": [-59.063, -27.36]}, "properties": {"name": "", "v": 0}}, {"type": "Feature", "geometry": {"type": "Point", "coordinates": [-59.028, -27.453]}, "properties": {"name": "Centro de Distribuci\u00f3n N\u00ba 15", "v": 0}}, {"type": "Feature", "geometry": {"type": "Point", "coordinates": [-59.016, -27.438]}, "properties": {"name": "Centro de Distribuci\u00f3n N\u00ba 2", "v": 0}}, {"type": "Feature", "geometry": {"type": "Point", "coordinates": [-58.988, -27.437]}, "properties": {"name": "Centro de Distribuci\u00f3n N\u00ba 11", "v": 0}}, {"type": "Feature", "geometry": {"type": "Point", "coordinates": [-58.987, -27.412]}, "properties": {"name": "Centro de Distribuci\u00f3n N\u00ba 4", "v": 0}}, {"type": "Feature", "geometry": {"type": "Point", "coordinates": [-58.97, -27.439]}, "properties": {"name": "Centro de Distribuci\u00f3n N\u00ba 3", "v": 0}}, {"type": "Feature", "geometry": {"type": "Point", "coordinates": [-58.958, -26.803]}, "properties": {"name": "Secheep Selva Rio De Oro", "v": 0}}, {"type": "Feature", "geometry": {"type": "Point", "coordinates": [-58.853, -27.47]}, "properties": {"name": "Trasnea", "v": 0}}, {"type": "Feature", "geometry": {"type": "Point", "coordinates": [-58.834, -27.472]}, "properties": {"name": "", "v": 0}}, {"type": "Feature", "geometry": {"type": "Point", "coordinates": [-58.662, -26.936]}, "properties": {"name": "Secheep Gral. Vedia", "v": 0}}, {"type": "Feature", "geometry": {"type": "Point", "coordinates": [-57.979, -31.396]}, "properties": {"name": "", "v": 0}}, {"type": "Feature", "geometry": {"type": "Point", "coordinates": [-57.612, -25.289]}, "properties": {"name": "ANDE", "v": 0}}, {"type": "Feature", "geometry": {"type": "Point", "coordinates": [-57.527, -25.296]}, "properties": {"name": "SUBESTATICA MOLINO", "v": 0}}, {"type": "Feature", "geometry": {"type": "Point", "coordinates": [-57.642, -25.296]}, "properties": {"name": "SE Gral. Diaz", "v": 0}}, {"type": "Feature", "geometry": {"type": "Point", "coordinates": [-58.567, -27.323]}, "properties": {"name": "", "v": 0}}, {"type": "Feature", "geometry": {"type": "Point", "coordinates": [-61.087, -27.09]}, "properties": {"name": "Secheep Las Bre\u00f1as", "v": 0}}, {"type": "Feature", "geometry": {"type": "Point", "coordinates": [-61.285, -27.325]}, "properties": {"name": "Seecheep General Pinedo", "v": 0}}, {"type": "Feature", "geometry": {"type": "Point", "coordinates": [-55.786, -27.906]}, "properties": {"name": "", "v": 0}}, {"type": "Feature", "geometry": {"type": "Point", "coordinates": [-55.773, -27.762]}, "properties": {"name": "", "v": 0}}, {"type": "Feature", "geometry": {"type": "Point", "coordinates": [-54.992, -27.658]}, "properties": {"name": "", "v": 0}}, {"type": "Feature", "geometry": {"type": "Point", "coordinates": [-55.125, -27.501]}, "properties": {"name": "", "v": 0}}, {"type": "Feature", "geometry": {"type": "Point", "coordinates": [-55.829, -27.479]}, "properties": {"name": "", "v": 0}}, {"type": "Feature", "geometry": {"type": "Point", "coordinates": [-55.008, -27.459]}, "properties": {"name": "", "v": 0}}, {"type": "Feature", "geometry": {"type": "Point", "coordinates": [-55.865, -27.452]}, "properties": {"name": "Estaci\u00f3n Transformadora La Garita", "v": 0}}, {"type": "Feature", "geometry": {"type": "Point", "coordinates": [-55.085, -27.447]}, "properties": {"name": "", "v": 0}}, {"type": "Feature", "geometry": {"type": "Point", "coordinates": [-55.949, -27.441]}, "properties": {"name": "", "v": 0}}, {"type": "Feature", "geometry": {"type": "Point", "coordinates": [-55.881, -27.437]}, "properties": {"name": "", "v": 0}}, {"type": "Feature", "geometry": {"type": "Point", "coordinates": [-55.083, -27.43]}, "properties": {"name": "", "v": 0}}, {"type": "Feature", "geometry": {"type": "Point", "coordinates": [-55.911, -27.418]}, "properties": {"name": "", "v": 0}}, {"type": "Feature", "geometry": {"type": "Point", "coordinates": [-55.886, -27.378]}, "properties": {"name": "", "v": 0}}, {"type": "Feature", "geometry": {"type": "Point", "coordinates": [-55.907, -27.377]}, "properties": {"name": "", "v": 0}}, {"type": "Feature", "geometry": {"type": "Point", "coordinates": [-55.913, -27.365]}, "properties": {"name": "", "v": 0}}, {"type": "Feature", "geometry": {"type": "Point", "coordinates": [-55.053, -27.342]}, "properties": {"name": "", "v": 0}}, {"type": "Feature", "geometry": {"type": "Point", "coordinates": [-54.22, -27.288]}, "properties": {"name": "", "v": 0}}, {"type": "Feature", "geometry": {"type": "Point", "coordinates": [-55.464, -27.281]}, "properties": {"name": "", "v": 0}}, {"type": "Feature", "geometry": {"type": "Point", "coordinates": [-55.451, -27.267]}, "properties": {"name": "", "v": 0}}, {"type": "Feature", "geometry": {"type": "Point", "coordinates": [-55.526, -27.256]}, "properties": {"name": "", "v": 0}}, {"type": "Feature", "geometry": {"type": "Point", "coordinates": [-54.136, -27.17]}, "properties": {"name": "", "v": 0}}, {"type": "Feature", "geometry": {"type": "Point", "coordinates": [-55.39, -27.13]}, "properties": {"name": "", "v": 0}}, {"type": "Feature", "geometry": {"type": "Point", "coordinates": [-54.863, -27.092]}, "properties": {"name": "", "v": 0}}, {"type": "Feature", "geometry": {"type": "Point", "coordinates": [-54.774, -27.085]}, "properties": {"name": "", "v": 0}}, {"type": "Feature", "geometry": {"type": "Point", "coordinates": [-54.613, -27.081]}, "properties": {"name": "", "v": 0}}, {"type": "Feature", "geometry": {"type": "Point", "coordinates": [-55.247, -27.049]}, "properties": {"name": "", "v": 0}}, {"type": "Feature", "geometry": {"type": "Point", "coordinates": [-54.684, -27.045]}, "properties": {"name": "", "v": 0}}, {"type": "Feature", "geometry": {"type": "Point", "coordinates": [-54.438, -27.044]}, "properties": {"name": "", "v": 0}}, {"type": "Feature", "geometry": {"type": "Point", "coordinates": [-54.461, -27.017]}, "properties": {"name": "", "v": 0}}, {"type": "Feature", "geometry": {"type": "Point", "coordinates": [-55.164, -27.007]}, "properties": {"name": "", "v": 0}}, {"type": "Feature", "geometry": {"type": "Point", "coordinates": [-54.497, -27.001]}, "properties": {"name": "", "v": 0}}, {"type": "Feature", "geometry": {"type": "Point", "coordinates": [-55.082, -26.943]}, "properties": {"name": "", "v": 0}}, {"type": "Feature", "geometry": {"type": "Point", "coordinates": [-54.11, -26.625]}, "properties": {"name": "", "v": 0}}, {"type": "Feature", "geometry": {"type": "Point", "coordinates": [-54.754, -26.651]}, "properties": {"name": "", "v": 0}}, {"type": "Feature", "geometry": {"type": "Point", "coordinates": [-54.935, -26.81]}, "properties": {"name": "", "v": 0}}, {"type": "Feature", "geometry": {"type": "Point", "coordinates": [-57.027, -26.886]}, "properties": {"name": "Oficina Regional de la Administraci\u00f3n Nacional de Electricidad", "v": 0}}, {"type": "Feature", "geometry": {"type": "Point", "coordinates": [-54.724, -26.571]}, "properties": {"name": "", "v": 0}}, {"type": "Feature", "geometry": {"type": "Point", "coordinates": [-54.674, -26.492]}, "properties": {"name": "", "v": 0}}, {"type": "Feature", "geometry": {"type": "Point", "coordinates": [-54.694, -26.482]}, "properties": {"name": "", "v": 0}}, {"type": "Feature", "geometry": {"type": "Point", "coordinates": [-54.644, -26.431]}, "properties": {"name": "", "v": 0}}, {"type": "Feature", "geometry": {"type": "Point", "coordinates": [-54.151, -26.347]}, "properties": {"name": "", "v": 0}}, {"type": "Feature", "geometry": {"type": "Point", "coordinates": [-53.647, -26.254]}, "properties": {"name": "", "v": 0}}, {"type": "Feature", "geometry": {"type": "Point", "coordinates": [-53.737, -26.069]}, "properties": {"name": "", "v": 0}}, {"type": "Feature", "geometry": {"type": "Point", "coordinates": [-54.579, -25.975]}, "properties": {"name": "", "v": 0}}, {"type": "Feature", "geometry": {"type": "Point", "coordinates": [-53.912, -25.934]}, "properties": {"name": "", "v": 0}}, {"type": "Feature", "geometry": {"type": "Point", "coordinates": [-54.567, -25.876]}, "properties": {"name": "", "v": 0}}, {"type": "Feature", "geometry": {"type": "Point", "coordinates": [-54.584, -25.619]}, "properties": {"name": "", "v": 0}}, {"type": "Feature", "geometry": {"type": "Point", "coordinates": [-57.163, -25.614]}, "properties": {"name": "", "v": 0}}, {"type": "Feature", "geometry": {"type": "Point", "coordinates": [-54.58, -25.597]}, "properties": {"name": "", "v": 0}}, {"type": "Feature", "geometry": {"type": "Point", "coordinates": [-54.248, -25.093]}, "properties": {"name": "", "v": 0}}, {"type": "Feature", "geometry": {"type": "Point", "coordinates": [-56.875, -24.489]}, "properties": {"name": "", "v": 0}}, {"type": "Feature", "geometry": {"type": "Point", "coordinates": [-60.034, -22.381]}, "properties": {"name": "Subestacion Coop. Fernheim", "v": 0}}, {"type": "Feature", "geometry": {"type": "Point", "coordinates": [-57.542, -38.047]}, "properties": {"name": "SE EdEA", "v": 0}}, {"type": "Feature", "geometry": {"type": "Point", "coordinates": [-60.566, -33.924]}, "properties": {"name": "", "v": 0}}, {"type": "Feature", "geometry": {"type": "Point", "coordinates": [-52.434, -26.566]}, "properties": {"name": "", "v": 0}}]}