{"type":"FeatureCollection","features":[{"type":"Feature","id":0,"geometry":{"type":"Point","coordinates":[29.12,-2.89]},"properties":{"name":"Kabu","fuel":"hydro","mw":20.0,"country":"BDI","status":"operating"}},{"type":"Feature","id":1,"geometry":{"type":"Point","coordinates":[29.394,-3.083]},"properties":{"name":"Mpanda Burundi","fuel":"hydro","mw":10.4,"country":"BDI","status":"operating"}},{"type":"Feature","id":2,"geometry":{"type":"Point","coordinates":[30.03,-3.42]},"properties":{"name":"Mubuga GWG","fuel":"solar","mw":7.6,"country":"BDI","status":"operating"}},{"type":"Feature","id":3,"geometry":{"type":"Point","coordinates":[29.519,-2.932]},"properties":{"name":"Rwegura","fuel":"hydro","mw":19.2,"country":"BDI","status":"operating"}},{"type":"Feature","id":4,"geometry":{"type":"Point","coordinates":[11.936,-4.915]},"properties":{"name":"Djeno Total","fuel":"gas","mw":25.0,"country":"COD","status":"operating"}},{"type":"Feature","id":5,"geometry":{"type":"Point","coordinates":[16.128,-2.935]},"properties":{"name":"Imboulou","fuel":"hydro","mw":120.0,"country":"COD","status":"operating"}},{"type":"Feature","id":6,"geometry":{"type":"Point","coordinates":[13.621,-5.527]},"properties":{"name":"Inga II","fuel":"hydro","mw":1775.0,"country":"COD","status":"operating"}},{"type":"Feature","id":7,"geometry":{"type":"Point","coordinates":[22.447,-6.358]},"properties":{"name":"Katende","fuel":"hydro","mw":64.0,"country":"COD","status":"operating"}},{"type":"Feature","id":8,"geometry":{"type":"Point","coordinates":[27.284,-10.718]},"properties":{"name":"Koni","fuel":"hydro","mw":42.0,"country":"COD","status":"operating"}},{"type":"Feature","id":9,"geometry":{"type":"Point","coordinates":[27.245,-10.752]},"properties":{"name":"M'Sha","fuel":"hydro","mw":68.0,"country":"COD","status":"operating"}},{"type":"Feature","id":10,"geometry":{"type":"Point","coordinates":[13.764,-3.894]},"properties":{"name":"Moukoukoulou","fuel":"hydro","mw":74.0,"country":"COD","status":"operating"}},{"type":"Feature","id":11,"geometry":{"type":"Point","coordinates":[27.245,-10.745]},"properties":{"name":"Mwadingusha","fuel":"hydro","mw":68.0,"country":"COD","status":"operating"}},{"type":"Feature","id":12,"geometry":{"type":"Point","coordinates":[25.407,-10.304]},"properties":{"name":"Nseke","fuel":"hydro","mw":260.0,"country":"COD","status":"operating"}},{"type":"Feature","id":13,"geometry":{"type":"Point","coordinates":[25.446,-10.502]},"properties":{"name":"Nzilo","fuel":"hydro","mw":228.0,"country":"COD","status":"operating"}},{"type":"Feature","id":14,"geometry":{"type":"Point","coordinates":[11.846,-4.795]},"properties":{"name":"Pointe-Noire","fuel":"oil","mw":13.2,"country":"COD","status":"operating"}},{"type":"Feature","id":15,"geometry":{"type":"Point","coordinates":[29.46,-1.226]},"properties":{"name":"Rutshuru","fuel":"hydro","mw":13.8,"country":"COD","status":"operating"}},{"type":"Feature","id":16,"geometry":{"type":"Point","coordinates":[28.903,-2.633]},"properties":{"name":"Ruzizi I","fuel":"hydro","mw":81.0,"country":"COD","status":"operating"}},{"type":"Feature","id":17,"geometry":{"type":"Point","coordinates":[14.906,-4.778]},"properties":{"name":"Zongo 1","fuel":"hydro","mw":75.0,"country":"COD","status":"operating"}},{"type":"Feature","id":18,"geometry":{"type":"Point","coordinates":[14.906,-4.778]},"properties":{"name":"Zongo II","fuel":"hydro","mw":150.0,"country":"COD","status":"operating"}},{"type":"Feature","id":19,"geometry":{"type":"Point","coordinates":[43.157,11.576]},"properties":{"name":"Boulaos","fuel":"oil","mw":107.3,"country":"DJI","status":"operating"}},{"type":"Feature","id":20,"geometry":{"type":"Point","coordinates":[30.141,31.269]},"properties":{"name":"Abu Kir","fuel":"gas","mw":2236.0,"country":"EGY","status":"operating"}},{"type":"Feature","id":21,"geometry":{"type":"Point","coordinates":[32.309,30.402]},"properties":{"name":"Abu Sultan","fuel":"gas","mw":600.0,"country":"EGY","status":"operating"}},{"type":"Feature","id":22,"geometry":{"type":"Point","coordinates":[33.682,31.116]},"properties":{"name":"Arish","fuel":"gas","mw":66.0,"country":"EGY","status":"operating"}},{"type":"Feature","id":23,"geometry":{"type":"Point","coordinates":[31.201,27.176]},"properties":{"name":"Assiut","fuel":"oil","mw":90.0,"country":"EGY","status":"operating"}},{"type":"Feature","id":24,"geometry":{"type":"Point","coordinates":[32.883,23.972]},"properties":{"name":"Aswan Dam II","fuel":"hydro","mw":550.0,"country":"EGY","status":"operating"}},{"type":"Feature","id":25,"geometry":{"type":"Point","coordinates":[32.472,29.936]},"properties":{"name":"Ataka","fuel":"gas","mw":900.0,"country":"EGY","status":"operating"}},{"type":"Feature","id":26,"geometry":{"type":"Point","coordinates":[31.223,30.497]},"properties":{"name":"Banha","fuel":"gas","mw":500.0,"country":"EGY","status":"operating"}},{"type":"Feature","id":27,"geometry":{"type":"Point","coordinates":[32.699,24.433]},"properties":{"name":"BbSP} Acciona I","fuel":"solar","mw":50.0,"country":"EGY","status":"operating"}},{"type":"Feature","id":28,"geometry":{"type":"Point","coordinates":[32.699,24.418]},"properties":{"name":"BbSP} Acciona II","fuel":"solar","mw":50.0,"country":"EGY","status":"operating"}},{"type":"Feature","id":29,"geometry":{"type":"Point","coordinates":[32.705,24.448]},"properties":{"name":"BbSP} Alcazar","fuel":"solar","mw":50.0,"country":"EGY","status":"operating"}},{"type":"Feature","id":30,"geometry":{"type":"Point","coordinates":[32.729,24.418]},"properties":{"name":"BbSP} Alfanar","fuel":"solar","mw":50.0,"country":"EGY","status":"operating"}},{"type":"Feature","id":31,"geometry":{"type":"Point","coordinates":[32.691,24.448]},"properties":{"name":"BbSP} DT I","fuel":"solar","mw":20.0,"country":"EGY","status":"operating"}},{"type":"Feature","id":32,"geometry":{"type":"Point","coordinates":[32.723,24.433]},"properties":{"name":"BbSP} FAS","fuel":"solar","mw":50.0,"country":"EGY","status":"operating"}},{"type":"Feature","id":33,"geometry":{"type":"Point","coordinates":[32.717,24.448]},"properties":{"name":"BbSP} Infinity 1","fuel":"solar","mw":50.0,"country":"EGY","status":"operating"}},{"type":"Feature","id":34,"geometry":{"type":"Point","coordinates":[32.735,24.418]},"properties":{"name":"BbSP} Infinity 2","fuel":"solar","mw":50.0,"country":"EGY","status":"operating"}},{"type":"Feature","id":35,"geometry":{"type":"Point","coordinates":[32.735,24.448]},"properties":{"name":"BbSP} SP I","fuel":"solar","mw":50.0,"country":"EGY","status":"operating"}},{"type":"Feature","id":36,"geometry":{"type":"Point","coordinates":[32.729,24.448]},"properties":{"name":"BbSP} SP II","fuel":"solar","mw":150.0,"country":"EGY","status":"operating"}},{"type":"Feature","id":37,"geometry":{"type":"Point","coordinates":[32.723,24.417]},"properties":{"name":"BbSP} Vogt/Hareon","fuel":"solar","mw":50.0,"country":"EGY","status":"operating"}},{"type":"Feature","id":38,"geometry":{"type":"Point","coordinates":[32.729,24.433]},"properties":{"name":"BbSP} Vogt/Lekela","fuel":"solar","mw":50.0,"country":"EGY","status":"operating"}},{"type":"Feature","id":39,"geometry":{"type":"Point","coordinates":[32.741,24.43]},"properties":{"name":"BbSP} Voltalia","fuel":"solar","mw":25.0,"country":"EGY","status":"operating"}},{"type":"Feature","id":40,"geometry":{"type":"Point","coordinates":[31.266,30.108]},"properties":{"name":"Cairo North","fuel":"gas","mw":1500.0,"country":"EGY","status":"operating"}},{"type":"Feature","id":41,"geometry":{"type":"Point","coordinates":[31.291,29.867]},"properties":{"name":"Cairo South","fuel":"gas","mw":715.0,"country":"EGY","status":"operating"}},{"type":"Feature","id":42,"geometry":{"type":"Point","coordinates":[31.167,30.139]},"properties":{"name":"Cairo West","fuel":"gas","mw":1360.0,"country":"EGY","status":"operating"}},{"type":"Feature","id":43,"geometry":{"type":"Point","coordinates":[30.429,31.082]},"properties":{"name":"Damanhour","fuel":"gas","mw":458.0,"country":"EGY","status":"operating"}},{"type":"Feature","id":44,"geometry":{"type":"Point","coordinates":[31.724,31.381]},"properties":{"name":"Damietta","fuel":"gas","mw":1200.0,"country":"EGY","status":"operating"}},{"type":"Feature","id":45,"geometry":{"type":"Point","coordinates":[31.606,31.442]},"properties":{"name":"Damietta West","fuel":"gas","mw":500.0,"country":"EGY","status":"operating"}},{"type":"Feature","id":46,"geometry":{"type":"Point","coordinates":[30.529,31.185]},"properties":{"name":"El-Atf","fuel":"gas","mw":750.0,"country":"EGY","status":"operating"}},{"type":"Feature","id":47,"geometry":{"type":"Point","coordinates":[29.995,31.216]},"properties":{"name":"El-Seiuf","fuel":"gas","mw":200.0,"country":"EGY","status":"operating"}},{"type":"Feature","id":48,"geometry":{"type":"Point","coordinates":[31.298,29.776]},"properties":{"name":"El-Tebeen","fuel":"gas","mw":700.0,"country":"EGY","status":"operating"}},{"type":"Feature","id":49,"geometry":{"type":"Point","coordinates":[32.554,25.318]},"properties":{"name":"Esna","fuel":"hydro","mw":86.0,"country":"EGY","status":"operating"}},{"type":"Feature","id":50,"geometry":{"type":"Point","coordinates":[32.883,23.972]},"properties":{"name":"High Dam","fuel":"hydro","mw":2100.0,"country":"EGY","status":"operating"}},{"type":"Feature","id":51,"geometry":{"type":"Point","coordinates":[33.82,27.122]},"properties":{"name":"Hurghada","fuel":"oil","mw":143.0,"country":"EGY","status":"operating"}},{"type":"Feature","id":52,"geometry":{"type":"Point","coordinates":[30.193,31.129]},"properties":{"name":"Kafr El-Dawar","fuel":"gas","mw":440.0,"country":"EGY","status":"operating"}},{"type":"Feature","id":53,"geometry":{"type":"Point","coordinates":[29.914,31.176]},"properties":{"name":"Karmouz","fuel":"oil","mw":23.0,"country":"EGY","status":"operating"}},{"type":"Feature","id":54,"geometry":{"type":"Point","coordinates":[31.249,29.278]},"properties":{"name":"Kuraymat ISCC","fuel":"solar","mw":20.0,"country":"EGY","status":"operating"}},{"type":"Feature","id":55,"geometry":{"type":"Point","coordinates":[31.224,29.269]},"properties":{"name":"Kuriemat 2","fuel":"gas","mw":2754.0,"country":"EGY","status":"operating"}},{"type":"Feature","id":56,"geometry":{"type":"Point","coordinates":[31.249,29.279]},"properties":{"name":"Kuriemat Solar/Thermal","fuel":"gas","mw":120.0,"country":"EGY","status":"operating"}},{"type":"Feature","id":57,"geometry":{"type":"Point","coordinates":[30.529,31.176]},"properties":{"name":"Mahmoudia","fuel":"gas","mw":317.0,"country":"EGY","status":"operating"}},{"type":"Feature","id":58,"geometry":{"type":"Point","coordinates":[34.873,25.063]},"properties":{"name":"Marsa Alam A","fuel":"solar","mw":5.0,"country":"EGY","status":"operating"}},{"type":"Feature","id":59,"geometry":{"type":"Point","coordinates":[27.245,31.352]},"properties":{"name":"Matrouh","fuel":"gas","mw":60.0,"country":"EGY","status":"operating"}},{"type":"Feature","id":60,"geometry":{"type":"Point","coordinates":[32.145,26.152]},"properties":{"name":"Naga Hamadi","fuel":"hydro","mw":64.0,"country":"EGY","status":"operating"}},{"type":"Feature","id":61,"geometry":{"type":"Point","coordinates":[31.72,31.382]},"properties":{"name":"New Gas Damietta","fuel":"gas","mw":500.0,"country":"EGY","status":"operating"}},{"type":"Feature","id":62,"geometry":{"type":"Point","coordinates":[31.923,30.465]},"properties":{"name":"New Gas Shabab","fuel":"gas","mw":1000.0,"country":"EGY","status":"operating"}},{"type":"Feature","id":63,"geometry":{"type":"Point","coordinates":[30.947,30.248]},"properties":{"name":"North Giza","fuel":"gas","mw":2250.0,"country":"EGY","status":"operating"}},{"type":"Feature","id":64,"geometry":{"type":"Point","coordinates":[30.667,30.699]},"properties":{"name":"Nubaria","fuel":"gas","mw":2250.0,"country":"EGY","status":"operating"}},{"type":"Feature","id":65,"geometry":{"type":"Point","coordinates":[31.046,30.054]},"properties":{"name":"October 6th","fuel":"gas","mw":600.0,"country":"EGY","status":"operating"}},{"type":"Feature","id":66,"geometry":{"type":"Point","coordinates":[32.595,29.912]},"properties":{"name":"Oyoun Mousa","fuel":"gas","mw":640.0,"country":"EGY","status":"operating"}},{"type":"Feature","id":67,"geometry":{"type":"Point","coordinates":[32.317,31.256]},"properties":{"name":"Port Said","fuel":"gas","mw":48.0,"country":"EGY","status":"operating"}},{"type":"Feature","id":68,"geometry":{"type":"Point","coordinates":[32.52,31.099]},"properties":{"name":"PortSaid East","fuel":"gas","mw":683.0,"country":"EGY","status":"operating"}},{"type":"Feature","id":69,"geometry":{"type":"Point","coordinates":[31.927,30.466]},"properties":{"name":"Shabab","fuel":"gas","mw":100.0,"country":"EGY","status":"operating"}},{"type":"Feature","id":70,"geometry":{"type":"Point","coordinates":[35.612,23.127]},"properties":{"name":"Shalateen A","fuel":"solar","mw":4.5,"country":"EGY","status":"operating"}},{"type":"Feature","id":71,"geometry":{"type":"Point","coordinates":[34.305,27.877]},"properties":{"name":"Sharm El-Sheikh","fuel":"oil","mw":144.0,"country":"EGY","status":"operating"}},{"type":"Feature","id":72,"geometry":{"type":"Point","coordinates":[34.299,27.933]},"properties":{"name":"Sharm el Sheikh","fuel":"solar","mw":5.0,"country":"EGY","status":"operating"}},{"type":"Feature","id":73,"geometry":{"type":"Point","coordinates":[31.238,30.124]},"properties":{"name":"Shoubra El-Kheima","fuel":"gas","mw":1295.0,"country":"EGY","status":"operating"}},{"type":"Feature","id":74,"geometry":{"type":"Point","coordinates":[29.665,31.043]},"properties":{"name":"Sidi Krir","fuel":"gas","mw":2092.0,"country":"EGY","status":"operating"}},{"type":"Feature","id":75,"geometry":{"type":"Point","coordinates":[25.516,29.178]},"properties":{"name":"Siwa","fuel":"solar","mw":10.0,"country":"EGY","status":"operating"}},{"type":"Feature","id":76,"geometry":{"type":"Point","coordinates":[32.353,29.619]},"properties":{"name":"Suez Gulf","fuel":"gas","mw":683.0,"country":"EGY","status":"operating"}},{"type":"Feature","id":77,"geometry":{"type":"Point","coordinates":[31.392,31.062]},"properties":{"name":"Talkha","fuel":"gas","mw":1460.0,"country":"EGY","status":"operating"}},{"type":"Feature","id":78,"geometry":{"type":"Point","coordinates":[30.21,23.54]},"properties":{"name":"Toshka","fuel":"solar","mw":20.0,"country":"EGY","status":"operating"}},{"type":"Feature","id":79,"geometry":{"type":"Point","coordinates":[31.319,29.876]},"properties":{"name":"Wadi Hof","fuel":"gas","mw":100.0,"country":"EGY","status":"operating"}},{"type":"Feature","id":80,"geometry":{"type":"Point","coordinates":[31.161,27.211]},"properties":{"name":"Walidia","fuel":"oil","mw":600.0,"country":"EGY","status":"operating"}},{"type":"Feature","id":81,"geometry":{"type":"Point","coordinates":[32.598,29.239]},"properties":{"name":"Zafarana","fuel":"wind","mw":547.0,"country":"EGY","status":"operating"}},{"type":"Feature","id":82,"geometry":{"type":"Point","coordinates":[39.249,8.591]},"properties":{"name":"Adama","fuel":"wind","mw":204.0,"country":"ETH","status":"operating"}},{"type":"Feature","id":83,"geometry":{"type":"Point","coordinates":[38.795,7.789]},"properties":{"name":"Aluto-Langano","fuel":"geothermal","mw":7.3,"country":"ETH","status":"operating"}},{"type":"Feature","id":84,"geometry":{"type":"Point","coordinates":[39.352,8.393]},"properties":{"name":"Awash II","fuel":"hydro","mw":64.0,"country":"ETH","status":"operating"}},{"type":"Feature","id":85,"geometry":{"type":"Point","coordinates":[36.918,11.82]},"properties":{"name":"Beles","fuel":"hydro","mw":460.0,"country":"ETH","status":"operating"}},{"type":"Feature","id":86,"geometry":{"type":"Point","coordinates":[37.366,9.558]},"properties":{"name":"Fincha","fuel":"hydro","mw":134.0,"country":"ETH","status":"operating"}},{"type":"Feature","id":87,"geometry":{"type":"Point","coordinates":[37.366,9.558]},"properties":{"name":"Fincha Amerti Nesha","fuel":"hydro","mw":100.0,"country":"ETH","status":"operating"}},{"type":"Feature","id":88,"geometry":{"type":"Point","coordinates":[37.324,7.835]},"properties":{"name":"Gilgel Gibe I","fuel":"hydro","mw":184.0,"country":"ETH","status":"operating"}},{"type":"Feature","id":89,"geometry":{"type":"Point","coordinates":[37.562,7.757]},"properties":{"name":"Gilgel Gibe II","fuel":"hydro","mw":420.0,"country":"ETH","status":"operating"}},{"type":"Feature","id":90,"geometry":{"type":"Point","coordinates":[37.302,6.848]},"properties":{"name":"Gilgel Gibe III","fuel":"hydro","mw":1870.0,"country":"ETH","status":"operating"}},{"type":"Feature","id":91,"geometry":{"type":"Point","coordinates":[39.159,8.468]},"properties":{"name":"Koka","fuel":"hydro","mw":43.2,"country":"ETH","status":"operating"}},{"type":"Feature","id":92,"geometry":{"type":"Point","coordinates":[39.431,7.176]},"properties":{"name":"Melka Wekana","fuel":"hydro","mw":153.0,"country":"ETH","status":"operating"}},{"type":"Feature","id":93,"geometry":{"type":"Point","coordinates":[38.74,13.349]},"properties":{"name":"Tekeze","fuel":"hydro","mw":300.0,"country":"ETH","status":"operating"}},{"type":"Feature","id":94,"geometry":{"type":"Point","coordinates":[37.6,11.489]},"properties":{"name":"Tis Abay I","fuel":"hydro","mw":84.4,"country":"ETH","status":"operating"}},{"type":"Feature","id":95,"geometry":{"type":"Point","coordinates":[39.605,-0.35]},"properties":{"name":"Garissa","fuel":"solar","mw":55.7,"country":"KEN","status":"operating"}},{"type":"Feature","id":96,"geometry":{"type":"Point","coordinates":[37.75,-0.797]},"properties":{"name":"Gitaru","fuel":"hydro","mw":225.0,"country":"KEN","status":"operating"}},{"type":"Feature","id":97,"geometry":{"type":"Point","coordinates":[36.891,-1.243]},"properties":{"name":"Iberafrica I & II (Nairobi south diesel PP)","fuel":"oil","mw":109.0,"country":"KEN","status":"operating"}},{"type":"Feature","id":98,"geometry":{"type":"Point","coordinates":[37.687,-0.809]},"properties":{"name":"Kamburu","fuel":"hydro","mw":94.2,"country":"KEN","status":"operating"}},{"type":"Feature","id":99,"geometry":{"type":"Point","coordinates":[37.91,-0.64]},"properties":{"name":"Kiambere","fuel":"hydro","mw":168.0,"country":"KEN","status":"operating"}},{"type":"Feature","id":100,"geometry":{"type":"Point","coordinates":[37.811,-0.806]},"properties":{"name":"Kindaruma","fuel":"hydro","mw":72.0,"country":"KEN","status":"operating"}},{"type":"Feature","id":101,"geometry":{"type":"Point","coordinates":[39.638,-4.04]},"properties":{"name":"Kipevu I","fuel":"oil","mw":74.0,"country":"KEN","status":"operating"}},{"type":"Feature","id":102,"geometry":{"type":"Point","coordinates":[39.633,-4.038]},"properties":{"name":"Kipevu II (Tsavo)","fuel":"oil","mw":74.5,"country":"KEN","status":"operating"}},{"type":"Feature","id":103,"geometry":{"type":"Point","coordinates":[39.633,-4.038]},"properties":{"name":"Kipevu III","fuel":"oil","mw":120.0,"country":"KEN","status":"operating"}},{"type":"Feature","id":104,"geometry":{"type":"Point","coordinates":[36.738,2.645]},"properties":{"name":"Lake Turkana","fuel":"wind","mw":310.0,"country":"KEN","status":"operating"}},{"type":"Feature","id":105,"geometry":{"type":"Point","coordinates":[37.588,-0.879]},"properties":{"name":"Masinga","fuel":"hydro","mw":40.0,"country":"KEN","status":"operating"}},{"type":"Feature","id":106,"geometry":{"type":"Point","coordinates":[36.636,-1.381]},"properties":{"name":"Ngong","fuel":"wind","mw":25.5,"country":"KEN","status":"operating"}},{"type":"Feature","id":107,"geometry":{"type":"Point","coordinates":[36.256,-0.889]},"properties":{"name":"Olkaria I","fuel":"geothermal","mw":45.0,"country":"KEN","status":"operating"}},{"type":"Feature","id":108,"geometry":{"type":"Point","coordinates":[36.309,-0.893]},"properties":{"name":"Olkaria I","fuel":"geothermal","mw":185.0,"country":"KEN","status":"operating"}},{"type":"Feature","id":109,"geometry":{"type":"Point","coordinates":[36.296,-0.891]},"properties":{"name":"Olkaria I units 4 & 5","fuel":"geothermal","mw":140.0,"country":"KEN","status":"operating"}},{"type":"Feature","id":110,"geometry":{"type":"Point","coordinates":[36.298,-0.864]},"properties":{"name":"Olkaria II","fuel":"geothermal","mw":105.0,"country":"KEN","status":"operating"}},{"type":"Feature","id":111,"geometry":{"type":"Point","coordinates":[36.289,-0.89]},"properties":{"name":"Olkaria III (Orpower 4)","fuel":"geothermal","mw":139.0,"country":"KEN","status":"operating"}},{"type":"Feature","id":112,"geometry":{"type":"Point","coordinates":[36.334,-0.919]},"properties":{"name":"Olkaria IV","fuel":"geothermal","mw":140.0,"country":"KEN","status":"operating"}},{"type":"Feature","id":113,"geometry":{"type":"Point","coordinates":[39.563,-3.933]},"properties":{"name":"Rabai","fuel":"oil","mw":90.0,"country":"KEN","status":"operating"}},{"type":"Feature","id":114,"geometry":{"type":"Point","coordinates":[34.852,-0.343]},"properties":{"name":"Sondu Miru","fuel":"hydro","mw":60.0,"country":"KEN","status":"operating"}},{"type":"Feature","id":115,"geometry":{"type":"Point","coordinates":[37.265,-0.785]},"properties":{"name":"Tana","fuel":"hydro","mw":20.0,"country":"KEN","status":"operating"}},{"type":"Feature","id":116,"geometry":{"type":"Point","coordinates":[37.051,1.06]},"properties":{"name":"Thika","fuel":"oil","mw":88.0,"country":"KEN","status":"operating"}},{"type":"Feature","id":117,"geometry":{"type":"Point","coordinates":[35.344,1.914]},"properties":{"name":"Turkwel","fuel":"hydro","mw":106.0,"country":"KEN","status":"operating"}},{"type":"Feature","id":118,"geometry":{"type":"Point","coordinates":[14.331,32.62]},"properties":{"name":"Al Khums","fuel":"gas","mw":1000.0,"country":"LBY","status":"operating"}},{"type":"Feature","id":119,"geometry":{"type":"Point","coordinates":[12.674,32.788]},"properties":{"name":"Az Zawiyah","fuel":"gas","mw":1440.0,"country":"LBY","status":"operating"}},{"type":"Feature","id":120,"geometry":{"type":"Point","coordinates":[22.587,32.781]},"properties":{"name":"Derna Steam Station","fuel":"oil","mw":65.0,"country":"LBY","status":"operating"}},{"type":"Feature","id":121,"geometry":{"type":"Point","coordinates":[12.67,32.79]},"properties":{"name":"Double Corner Power Station 1","fuel":"gas","mw":480.0,"country":"LBY","status":"operating"}},{"type":"Feature","id":122,"geometry":{"type":"Point","coordinates":[16.347,31.217]},"properties":{"name":"Gulf of Sirte","fuel":"gas","mw":350.0,"country":"LBY","status":"operating"}},{"type":"Feature","id":123,"geometry":{"type":"Point","coordinates":[15.232,32.333]},"properties":{"name":"Misrata","fuel":"gas","mw":500.0,"country":"LBY","status":"operating"}},{"type":"Feature","id":124,"geometry":{"type":"Point","coordinates":[20.133,32.203]},"properties":{"name":"North Benghazi Station 1","fuel":"gas","mw":1040.0,"country":"LBY","status":"operating"}},{"type":"Feature","id":125,"geometry":{"type":"Point","coordinates":[13.098,32.776]},"properties":{"name":"South Tripoli","fuel":"gas","mw":147.0,"country":"LBY","status":"operating"}},{"type":"Feature","id":126,"geometry":{"type":"Point","coordinates":[23.981,32.058]},"properties":{"name":"Tobruk Steam Station","fuel":"oil","mw":65.0,"country":"LBY","status":"operating"}},{"type":"Feature","id":127,"geometry":{"type":"Point","coordinates":[12.974,32.825]},"properties":{"name":"West Tripoli","fuel":"oil","mw":185.0,"country":"LBY","status":"operating"}},{"type":"Feature","id":128,"geometry":{"type":"Point","coordinates":[11.145,31.956]},"properties":{"name":"Western Mountain Station- Ruwais","fuel":"gas","mw":624.0,"country":"LBY","status":"operating"}},{"type":"Feature","id":129,"geometry":{"type":"Point","coordinates":[20.116,30.956]},"properties":{"name":"Zuenita","fuel":"gas","mw":335.0,"country":"LBY","status":"operating"}},{"type":"Feature","id":130,"geometry":{"type":"Point","coordinates":[29.256,-1.727]},"properties":{"name":"Gisenyi","fuel":"waste","mw":3.8,"country":"RWA","status":"operating"}},{"type":"Feature","id":131,"geometry":{"type":"Point","coordinates":[30.066,-1.891]},"properties":{"name":"Jabana 1","fuel":"oil","mw":7.8,"country":"RWA","status":"operating"}},{"type":"Feature","id":132,"geometry":{"type":"Point","coordinates":[30.074,-1.882]},"properties":{"name":"Jabana 2","fuel":"oil","mw":20.0,"country":"RWA","status":"operating"}},{"type":"Feature","id":133,"geometry":{"type":"Point","coordinates":[29.32,-2.068]},"properties":{"name":"KivuWatt","fuel":"gas","mw":26.0,"country":"RWA","status":"operating"}},{"type":"Feature","id":134,"geometry":{"type":"Point","coordinates":[29.655,-1.582]},"properties":{"name":"Mukungwa","fuel":"hydro","mw":12.0,"country":"RWA","status":"operating"}},{"type":"Feature","id":135,"geometry":{"type":"Point","coordinates":[29.655,-1.582]},"properties":{"name":"Mukungwa II","fuel":"hydro","mw":2.5,"country":"RWA","status":"operating"}},{"type":"Feature","id":136,"geometry":{"type":"Point","coordinates":[29.75,-1.477]},"properties":{"name":"Ntaruka","fuel":"hydro","mw":11.5,"country":"RWA","status":"operating"}},{"type":"Feature","id":137,"geometry":{"type":"Point","coordinates":[29.633,-1.989]},"properties":{"name":"Nyabarongo I","fuel":"hydro","mw":28.0,"country":"RWA","status":"operating"}},{"type":"Feature","id":138,"geometry":{"type":"Point","coordinates":[28.875,-2.509]},"properties":{"name":"Rusizi I","fuel":"hydro","mw":29.8,"country":"RWA","status":"operating"}},{"type":"Feature","id":139,"geometry":{"type":"Point","coordinates":[28.903,-2.633]},"properties":{"name":"Rusizi II","fuel":"hydro","mw":43.8,"country":"RWA","status":"operating"}},{"type":"Feature","id":140,"geometry":{"type":"Point","coordinates":[30.377,-2.026]},"properties":{"name":"Rwamagana solar","fuel":"solar","mw":8.5,"country":"RWA","status":"operating"}},{"type":"Feature","id":141,"geometry":{"type":"Point","coordinates":[34.0,17.7]},"properties":{"name":"Atbara","fuel":"oil","mw":15.1,"country":"SDN","status":"operating"}},{"type":"Feature","id":142,"geometry":{"type":"Point","coordinates":[32.692,16.12]},"properties":{"name":"El Jaili","fuel":"gas","mw":319.0,"country":"SDN","status":"operating"}},{"type":"Feature","id":143,"geometry":{"type":"Point","coordinates":[30.217,13.183]},"properties":{"name":"El Obeid","fuel":"oil","mw":14.3,"country":"SDN","status":"operating"}},{"type":"Feature","id":144,"geometry":{"type":"Point","coordinates":[32.465,15.24]},"properties":{"name":"Jebel Aulia Dam","fuel":"hydro","mw":15.2,"country":"SDN","status":"operating"}},{"type":"Feature","id":145,"geometry":{"type":"Point","coordinates":[32.486,15.238]},"properties":{"name":"Jebel Aulia Dam","fuel":"hydro","mw":15.2,"country":"SDN","status":"operating"}},{"type":"Feature","id":146,"geometry":{"type":"Point","coordinates":[33.167,14.033]},"properties":{"name":"Kenana","fuel":"oil","mw":50.0,"country":"SDN","status":"operating"}},{"type":"Feature","id":147,"geometry":{"type":"Point","coordinates":[32.563,15.65]},"properties":{"name":"Khartoum North","fuel":"oil","mw":351.0,"country":"SDN","status":"operating"}},{"type":"Feature","id":148,"geometry":{"type":"Point","coordinates":[35.908,14.922]},"properties":{"name":"Khasm El Girba","fuel":"hydro","mw":11.0,"country":"SDN","status":"operating"}},{"type":"Feature","id":149,"geometry":{"type":"Point","coordinates":[32.534,15.588]},"properties":{"name":"Kilo-X Dit","fuel":"oil","mw":260.0,"country":"SDN","status":"operating"}},{"type":"Feature","id":150,"geometry":{"type":"Point","coordinates":[32.563,15.648]},"properties":{"name":"Kilo-X Nec","fuel":"oil","mw":33.5,"country":"SDN","status":"operating"}},{"type":"Feature","id":151,"geometry":{"type":"Point","coordinates":[31.686,5.886]},"properties":{"name":"Kuku","fuel":"oil","mw":23.0,"country":"SDN","status":"operating"}},{"type":"Feature","id":152,"geometry":{"type":"Point","coordinates":[32.2,10.433]},"properties":{"name":"Melut Sugar Factory","fuel":"biomass","mw":26.0,"country":"SDN","status":"operating"}},{"type":"Feature","id":153,"geometry":{"type":"Point","coordinates":[32.05,18.667]},"properties":{"name":"Merowe","fuel":"hydro","mw":1250.0,"country":"SDN","status":"operating"}},{"type":"Feature","id":154,"geometry":{"type":"Point","coordinates":[24.883,12.05]},"properties":{"name":"Nyala","fuel":"oil","mw":15.5,"country":"SDN","status":"operating"}},{"type":"Feature","id":155,"geometry":{"type":"Point","coordinates":[37.216,19.616]},"properties":{"name":"Port Sudan","fuel":"oil","mw":38.1,"country":"SDN","status":"operating"}},{"type":"Feature","id":156,"geometry":{"type":"Point","coordinates":[30.65,12.717]},"properties":{"name":"Rahad","fuel":"oil","mw":12.6,"country":"SDN","status":"operating"}},{"type":"Feature","id":157,"geometry":{"type":"Point","coordinates":[34.388,11.799]},"properties":{"name":"Roseires","fuel":"hydro","mw":233.6,"country":"SDN","status":"operating"}},{"type":"Feature","id":158,"geometry":{"type":"Point","coordinates":[33.633,13.567]},"properties":{"name":"Sennar","fuel":"hydro","mw":15.0,"country":"SDN","status":"operating"}},{"type":"Feature","id":159,"geometry":{"type":"Point","coordinates":[32.467,14.072]},"properties":{"name":"White Nile State","fuel":"biomass","mw":100.0,"country":"SDN","status":"operating"}},{"type":"Feature","id":160,"geometry":{"type":"Point","coordinates":[38.604,-5.298]},"properties":{"name":"Hale","fuel":"hydro","mw":21.0,"country":"TZA","status":"operating"}},{"type":"Feature","id":161,"geometry":{"type":"Point","coordinates":[39.187,-6.674]},"properties":{"name":"IPTL Tanzania","fuel":"oil","mw":100.0,"country":"TZA","status":"operating"}},{"type":"Feature","id":162,"geometry":{"type":"Point","coordinates":[36.884,-7.635]},"properties":{"name":"Kidatu","fuel":"hydro","mw":204.0,"country":"TZA","status":"operating"}},{"type":"Feature","id":163,"geometry":{"type":"Point","coordinates":[35.851,-8.575]},"properties":{"name":"Kihansi","fuel":"hydro","mw":180.0,"country":"TZA","status":"operating"}},{"type":"Feature","id":164,"geometry":{"type":"Point","coordinates":[35.984,-7.136]},"properties":{"name":"Mtera","fuel":"hydro","mw":80.0,"country":"TZA","status":"operating"}},{"type":"Feature","id":165,"geometry":{"type":"Point","coordinates":[40.041,-10.26]},"properties":{"name":"Mtwara","fuel":"gas","mw":18.0,"country":"TZA","status":"operating"}},{"type":"Feature","id":166,"geometry":{"type":"Point","coordinates":[32.966,-2.524]},"properties":{"name":"Nyakato","fuel":"gas","mw":63.0,"country":"TZA","status":"operating"}},{"type":"Feature","id":167,"geometry":{"type":"Point","coordinates":[37.468,-3.821]},"properties":{"name":"Nyumba ya Mungu","fuel":"hydro","mw":8.0,"country":"TZA","status":"operating"}},{"type":"Feature","id":168,"geometry":{"type":"Point","coordinates":[38.65,-5.349]},"properties":{"name":"Pangani Falls","fuel":"hydro","mw":68.0,"country":"TZA","status":"operating"}},{"type":"Feature","id":169,"geometry":{"type":"Point","coordinates":[39.184,-6.674]},"properties":{"name":"Tegeta","fuel":"gas","mw":45.0,"country":"TZA","status":"operating"}},{"type":"Feature","id":170,"geometry":{"type":"Point","coordinates":[39.209,-6.795]},"properties":{"name":"Ubungo Gas (Songas)","fuel":"gas","mw":207.5,"country":"TZA","status":"operating"}},{"type":"Feature","id":171,"geometry":{"type":"Point","coordinates":[30.098,0.305]},"properties":{"name":"Bugoye","fuel":"hydro","mw":11.0,"country":"UGA","status":"operating"}},{"type":"Feature","id":172,"geometry":{"type":"Point","coordinates":[33.137,0.498]},"properties":{"name":"Bujagali Falls","fuel":"hydro","mw":250.0,"country":"UGA","status":"operating"}},{"type":"Feature","id":173,"geometry":{"type":"Point","coordinates":[29.671,-0.881]},"properties":{"name":"Ishasha River","fuel":"hydro","mw":10.0,"country":"UGA","status":"operating"}},{"type":"Feature","id":174,"geometry":{"type":"Point","coordinates":[31.795,0.15]},"properties":{"name":"Kabulasoke","fuel":"solar","mw":24.0,"country":"UGA","status":"operating"}},{"type":"Feature","id":175,"geometry":{"type":"Point","coordinates":[33.2,0.44]},"properties":{"name":"Kakira Sugar Works","fuel":"biomass","mw":12.0,"country":"UGA","status":"operating"}},{"type":"Feature","id":176,"geometry":{"type":"Point","coordinates":[33.186,0.45]},"properties":{"name":"Kiira","fuel":"hydro","mw":205.0,"country":"UGA","status":"operating"}},{"type":"Feature","id":177,"geometry":{"type":"Point","coordinates":[32.694,0.358]},"properties":{"name":"Lugogo Substation","fuel":"oil","mw":50.0,"country":"UGA","status":"operating"}},{"type":"Feature","id":178,"geometry":{"type":"Point","coordinates":[30.046,0.324]},"properties":{"name":"Mubuku-3","fuel":"hydro","mw":10.5,"country":"UGA","status":"operating"}},{"type":"Feature","id":179,"geometry":{"type":"Point","coordinates":[33.185,0.443]},"properties":{"name":"Narubale","fuel":"hydro","mw":180.0,"country":"UGA","status":"operating"}},{"type":"Feature","id":180,"geometry":{"type":"Point","coordinates":[33.59,1.72]},"properties":{"name":"Soroti","fuel":"solar","mw":10.0,"country":"UGA","status":"operating"}},{"type":"Feature","id":181,"geometry":{"type":"Point","coordinates":[34.111,0.631]},"properties":{"name":"Tororo","fuel":"solar","mw":10.0,"country":"UGA","status":"operating"}},{"type":"Feature","id":182,"geometry":{"type":"Point","coordinates":[13.732,-12.471]},"properties":{"name":"Biopio","fuel":"oil","mw":22.8,"country":"AGO","status":"operating"}},{"type":"Feature","id":183,"geometry":{"type":"Point","coordinates":[13.732,-12.471]},"properties":{"name":"Biopio (hydro)","fuel":"hydro","mw":14.6,"country":"AGO","status":"operating"}},{"type":"Feature","id":184,"geometry":{"type":"Point","coordinates":[14.481,-9.752]},"properties":{"name":"Cambambe","fuel":"hydro","mw":180.0,"country":"AGO","status":"operating"}},{"type":"Feature","id":185,"geometry":{"type":"Point","coordinates":[15.467,-9.796]},"properties":{"name":"Capanda","fuel":"hydro","mw":520.0,"country":"AGO","status":"operating"}},{"type":"Feature","id":186,"geometry":{"type":"Point","coordinates":[13.234,-8.838]},"properties":{"name":"Cazenga","fuel":"gas","mw":132.0,"country":"AGO","status":"operating"}},{"type":"Feature","id":187,"geometry":{"type":"Point","coordinates":[15.75,-12.76]},"properties":{"name":"Huambo","fuel":"oil","mw":16.3,"country":"AGO","status":"operating"}},{"type":"Feature","id":188,"geometry":{"type":"Point","coordinates":[13.57,-12.37]},"properties":{"name":"Lobito","fuel":"gas","mw":20.0,"country":"AGO","status":"operating"}},{"type":"Feature","id":189,"geometry":{"type":"Point","coordinates":[13.234,-8.838]},"properties":{"name":"Luanda Diesel","fuel":"oil","mw":58.0,"country":"AGO","status":"operating"}},{"type":"Feature","id":190,"geometry":{"type":"Point","coordinates":[13.234,-8.838]},"properties":{"name":"Luanda Refinery","fuel":"oil","mw":18.5,"country":"AGO","status":"operating"}},{"type":"Feature","id":191,"geometry":{"type":"Point","coordinates":[12.2,-5.55]},"properties":{"name":"Malongo","fuel":"oil","mw":10.0,"country":"AGO","status":"operating"}},{"type":"Feature","id":192,"geometry":{"type":"Point","coordinates":[15.033,-14.733]},"properties":{"name":"Matala","fuel":"hydro","mw":40.0,"country":"AGO","status":"operating"}},{"type":"Feature","id":193,"geometry":{"type":"Point","coordinates":[12.152,-15.196]},"properties":{"name":"Namibe","fuel":"gas","mw":11.7,"country":"AGO","status":"operating"}},{"type":"Feature","id":194,"geometry":{"type":"Point","coordinates":[20.85,-7.3]},"properties":{"name":"Rio Luachimo","fuel":"hydro","mw":16.0,"country":"AGO","status":"operating"}},{"type":"Feature","id":195,"geometry":{"type":"Point","coordinates":[15.0,-15.333]},"properties":{"name":"Xitoto","fuel":"oil","mw":11.3,"country":"AGO","status":"operating"}},{"type":"Feature","id":196,"geometry":{"type":"Point","coordinates":[27.049,-22.522]},"properties":{"name":"Morpule","fuel":"coal","mw":732.0,"country":"BWA","status":"operating"}},{"type":"Feature","id":197,"geometry":{"type":"Point","coordinates":[27.517,-21.167]},"properties":{"name":"Sua Pan Soda Ash","fuel":"coal","mw":14.0,"country":"BWA","status":"operating"}},{"type":"Feature","id":198,"geometry":{"type":"Point","coordinates":[28.453,-28.78]},"properties":{"name":"'Muela","fuel":"hydro","mw":72.0,"country":"LSO","status":"operating"}},{"type":"Feature","id":199,"geometry":{"type":"Point","coordinates":[47.445,-19.489]},"properties":{"name":"Ambatolampy","fuel":"solar","mw":25.0,"country":"MDG","status":"operating"}},{"type":"Feature","id":200,"geometry":{"type":"Point","coordinates":[48.312,-18.836]},"properties":{"name":"Ambatovy","fuel":"coal","mw":120.0,"country":"MDG","status":"operating"}},{"type":"Feature","id":201,"geometry":{"type":"Point","coordinates":[46.617,-19.8]},"properties":{"name":"Ambohimanambola","fuel":"oil","mw":19.7,"country":"MDG","status":"operating"}},{"type":"Feature","id":202,"geometry":{"type":"Point","coordinates":[48.619,-18.794]},"properties":{"name":"Andekaleka","fuel":"hydro","mw":58.0,"country":"MDG","status":"operating"}},{"type":"Feature","id":203,"geometry":{"type":"Point","coordinates":[47.703,-19.012]},"properties":{"name":"Antelomita","fuel":"hydro","mw":8.9,"country":"MDG","status":"operating"}},{"type":"Feature","id":204,"geometry":{"type":"Point","coordinates":[47.929,-18.921]},"properties":{"name":"La Mandraka","fuel":"hydro","mw":24.0,"country":"MDG","status":"operating"}},{"type":"Feature","id":205,"geometry":{"type":"Point","coordinates":[46.403,-15.702]},"properties":{"name":"Majunga","fuel":"oil","mw":13.0,"country":"MDG","status":"operating"}},{"type":"Feature","id":206,"geometry":{"type":"Point","coordinates":[47.481,-18.849]},"properties":{"name":"Mandroseza","fuel":"oil","mw":40.0,"country":"MDG","status":"operating"}},{"type":"Feature","id":207,"geometry":{"type":"Point","coordinates":[47.133,-20.2]},"properties":{"name":"Sahanivotry","fuel":"hydro","mw":16.5,"country":"MDG","status":"operating"}},{"type":"Feature","id":208,"geometry":{"type":"Point","coordinates":[49.383,-18.167]},"properties":{"name":"Tamatave","fuel":"gas","mw":16.6,"country":"MDG","status":"operating"}},{"type":"Feature","id":209,"geometry":{"type":"Point","coordinates":[43.667,-23.35]},"properties":{"name":"Toliary (Tulear)","fuel":"gas","mw":13.0,"country":"MDG","status":"operating"}},{"type":"Feature","id":210,"geometry":{"type":"Point","coordinates":[47.834,-19.248]},"properties":{"name":"Tsiazompaniry","fuel":"hydro","mw":5.2,"country":"MDG","status":"operating"}},{"type":"Feature","id":211,"geometry":{"type":"Point","coordinates":[35.0,-15.783]},"properties":{"name":"Chichiri (Blantyre)","fuel":"gas","mw":15.5,"country":"MWI","status":"operating"}},{"type":"Feature","id":212,"geometry":{"type":"Point","coordinates":[34.754,-15.896]},"properties":{"name":"Kapichira","fuel":"hydro","mw":128.0,"country":"MWI","status":"operating"}},{"type":"Feature","id":213,"geometry":{"type":"Point","coordinates":[35.0,-15.783]},"properties":{"name":"Nchalo Mill","fuel":"biomass","mw":10.0,"country":"MWI","status":"operating"}},{"type":"Feature","id":214,"geometry":{"type":"Point","coordinates":[34.787,-15.558]},"properties":{"name":"Nkula","fuel":"hydro","mw":124.0,"country":"MWI","status":"operating"}},{"type":"Feature","id":215,"geometry":{"type":"Point","coordinates":[34.783,-15.55]},"properties":{"name":"Tedzani Falls","fuel":"hydro","mw":91.6,"country":"MWI","status":"operating"}},{"type":"Feature","id":216,"geometry":{"type":"Point","coordinates":[32.705,-15.586]},"properties":{"name":"Cahora Bassa","fuel":"hydro","mw":2075.0,"country":"MOZ","status":"operating"}},{"type":"Feature","id":217,"geometry":{"type":"Point","coordinates":[33.145,-19.156]},"properties":{"name":"Chicamba","fuel":"hydro","mw":44.0,"country":"MOZ","status":"operating"}},{"type":"Feature","id":218,"geometry":{"type":"Point","coordinates":[32.134,-25.218]},"properties":{"name":"Corumana","fuel":"hydro","mw":166.0,"country":"MOZ","status":"operating"}},{"type":"Feature","id":219,"geometry":{"type":"Point","coordinates":[14.505,-22.957]},"properties":{"name":"Anixas","fuel":"oil","mw":24.3,"country":"NAM","status":"operating"}},{"type":"Feature","id":220,"geometry":{"type":"Point","coordinates":[14.964,-22.43]},"properties":{"name":"Arandis","fuel":"solar","mw":50.0,"country":"NAM","status":"operating"}},{"type":"Feature","id":221,"geometry":{"type":"Point","coordinates":[17.445,-28.41]},"properties":{"name":"Aussenkehr","fuel":"solar","mw":5.0,"country":"NAM","status":"operating"}},{"type":"Feature","id":222,"geometry":{"type":"Point","coordinates":[15.325,-22.814]},"properties":{"name":"Langer-Heinrich","fuel":"oil","mw":10.0,"country":"NAM","status":"operating"}},{"type":"Feature","id":223,"geometry":{"type":"Point","coordinates":[17.079,-22.524]},"properties":{"name":"Namibia Breweries","fuel":"solar","mw":1.1,"country":"NAM","status":"operating"}},{"type":"Feature","id":224,"geometry":{"type":"Point","coordinates":[17.44,-19.53]},"properties":{"name":"Ohorongo","fuel":"solar","mw":5.0,"country":"NAM","status":"operating"}},{"type":"Feature","id":225,"geometry":{"type":"Point","coordinates":[15.973,-21.415]},"properties":{"name":"Omburu","fuel":"solar","mw":4.5,"country":"NAM","status":"operating"}},{"type":"Feature","id":226,"geometry":{"type":"Point","coordinates":[16.93,-22.05]},"properties":{"name":"Osona","fuel":"solar","mw":5.0,"country":"NAM","status":"operating"}},{"type":"Feature","id":227,"geometry":{"type":"Point","coordinates":[19.56,-23.195]},"properties":{"name":"Otjikoto","fuel":"solar","mw":7.0,"country":"NAM","status":"operating"}},{"type":"Feature","id":228,"geometry":{"type":"Point","coordinates":[16.625,-20.447]},"properties":{"name":"Otjiwarongo Pv","fuel":"solar","mw":5.0,"country":"NAM","status":"operating"}},{"type":"Feature","id":229,"geometry":{"type":"Point","coordinates":[14.505,-22.957]},"properties":{"name":"Paratus (Walvis)","fuel":"oil","mw":25.6,"country":"NAM","status":"operating"}},{"type":"Feature","id":230,"geometry":{"type":"Point","coordinates":[14.214,-17.386]},"properties":{"name":"Ruacana","fuel":"hydro","mw":240.0,"country":"NAM","status":"operating"}},{"type":"Feature","id":231,"geometry":{"type":"Point","coordinates":[17.079,-22.514]},"properties":{"name":"Van Eck","fuel":"coal","mw":120.0,"country":"NAM","status":"operating"}},{"type":"Feature","id":232,"geometry":{"type":"Point","coordinates":[18.534,-33.884]},"properties":{"name":"Acacia","fuel":"gas","mw":171.0,"country":"ZAF","status":"operating"}},{"type":"Feature","id":233,"geometry":{"type":"Point","coordinates":[23.008,-27.374]},"properties":{"name":"Adams Solar PV Project","fuel":"solar","mw":82.5,"country":"ZAF","status":"operating"}},{"type":"Feature","id":234,"geometry":{"type":"Point","coordinates":[25.998,-32.875]},"properties":{"name":"Amakhala Emoyeni Wind Farm","fuel":"wind","mw":134.4,"country":"ZAF","status":"operating"}},{"type":"Feature","id":235,"geometry":{"type":"Point","coordinates":[18.461,-33.592]},"properties":{"name":"Ankerlig","fuel":"oil","mw":1327.0,"country":"ZAF","status":"operating"}},{"type":"Feature","id":236,"geometry":{"type":"Point","coordinates":[20.785,-29.497]},"properties":{"name":"Aries Solar Power Plant","fuel":"solar","mw":10.7,"country":"ZAF","status":"operating"}},{"type":"Feature","id":237,"geometry":{"type":"Point","coordinates":[29.792,-25.944]},"properties":{"name":"Arnot power station","fuel":"coal","mw":2352.0,"country":"ZAF","status":"operating"}},{"type":"Feature","id":238,"geometry":{"type":"Point","coordinates":[18.497,-32.642]},"properties":{"name":"Aurora Solar Power Plant","fuel":"solar","mw":10.3,"country":"ZAF","status":"operating"}},{"type":"Feature","id":239,"geometry":{"type":"Point","coordinates":[28.363,-28.217]},"properties":{"name":"Bethlehem Hydro","fuel":"hydro","mw":7.0,"country":"ZAF","status":"operating"}},{"type":"Feature","id":240,"geometry":{"type":"Point","coordinates":[30.982,-29.813]},"properties":{"name":"Bisasar Road Landfill","fuel":"waste","mw":6.5,"country":"ZAF","status":"operating"}},{"type":"Feature","id":241,"geometry":{"type":"Point","coordinates":[21.995,-28.727]},"properties":{"name":"Bokpoort Solar Power Plant","fuel":"solar","mw":50.0,"country":"ZAF","status":"operating"}},{"type":"Feature","id":242,"geometry":{"type":"Point","coordinates":[25.195,-28.466]},"properties":{"name":"Boshoff Solar Power Plant","fuel":"solar","mw":60.0,"country":"ZAF","status":"operating"}},{"type":"Feature","id":243,"geometry":{"type":"Point","coordinates":[30.091,-26.62]},"properties":{"name":"Camden power station","fuel":"coal","mw":1600.0,"country":"ZAF","status":"operating"}},{"type":"Feature","id":244,"geometry":{"type":"Point","coordinates":[27.963,-32.591]},"properties":{"name":"Chaba Wind Farm","fuel":"wind","mw":21.0,"country":"ZAF","status":"operating"}},{"type":"Feature","id":245,"geometry":{"type":"Point","coordinates":[25.603,-33.676]},"properties":{"name":"Coega IDZ Windfarm","fuel":"wind","mw":73.8,"country":"ZAF","status":"operating"}},{"type":"Feature","id":246,"geometry":{"type":"Point","coordinates":[25.924,-32.742]},"properties":{"name":"Cookhouse","fuel":"wind","mw":138.6,"country":"ZAF","status":"operating"}},{"type":"Feature","id":247,"geometry":{"type":"Point","coordinates":[18.259,-33.317]},"properties":{"name":"Darling Wind Farm","fuel":"wind","mw":5.2,"country":"ZAF","status":"operating"}},{"type":"Feature","id":248,"geometry":{"type":"Point","coordinates":[19.373,-34.227]},"properties":{"name":"Dassieklip","fuel":"wind","mw":27.0,"country":"ZAF","status":"operating"}},{"type":"Feature","id":249,"geometry":{"type":"Point","coordinates":[24.035,-30.617]},"properties":{"name":"De Aar - Mainstream Solar Power Plant","fuel":"solar","mw":50.0,"country":"ZAF","status":"operating"}},{"type":"Feature","id":250,"geometry":{"type":"Point","coordinates":[24.005,-30.628]},"properties":{"name":"De Aar - Mulilo Solar Power Plant","fuel":"solar","mw":9.7,"country":"ZAF","status":"operating"}},{"type":"Feature","id":251,"geometry":{"type":"Point","coordinates":[24.103,-30.596]},"properties":{"name":"De Aar 3 Solar Power Plant","fuel":"solar","mw":75.0,"country":"ZAF","status":"operating"}},{"type":"Feature","id":252,"geometry":{"type":"Point","coordinates":[24.034,-30.62]},"properties":{"name":"De Aar Solar Power","fuel":"solar","mw":48.0,"country":"ZAF","status":"operating"}},{"type":"Feature","id":253,"geometry":{"type":"Point","coordinates":[26.441,-31.48]},"properties":{"name":"Dorper Wind Farm","fuel":"wind","mw":100.0,"country":"ZAF","status":"operating"}},{"type":"Feature","id":254,"geometry":{"type":"Point","coordinates":[29.084,-28.565]},"properties":{"name":"Drakensberg","fuel":"hydro","mw":1000.0,"country":"ZAF","status":"operating"}},{"type":"Feature","id":255,"geometry":{"type":"Point","coordinates":[26.226,-30.838]},"properties":{"name":"Dreunberg Solar Power Plant","fuel":"solar","mw":75.0,"country":"ZAF","status":"operating"}},{"type":"Feature","id":256,"geometry":{"type":"Point","coordinates":[24.752,-28.612]},"properties":{"name":"Droogfontein Solar Power Plant","fuel":"solar","mw":50.0,"country":"ZAF","status":"operating"}},{"type":"Feature","id":257,"geometry":{"type":"Point","coordinates":[30.358,-28.119]},"properties":{"name":"Dundee Biogas","fuel":"waste","mw":2.2,"country":"ZAF","status":"operating"}},{"type":"Feature","id":258,"geometry":{"type":"Point","coordinates":[29.341,-25.959]},"properties":{"name":"Duvha power station","fuel":"coal","mw":3600.0,"country":"ZAF","status":"operating"}},{"type":"Feature","id":259,"geometry":{"type":"Point","coordinates":[27.611,-25.725]},"properties":{"name":"Ferro Waste Heat Plant","fuel":"waste","mw":2.2,"country":"ZAF","status":"operating"}},{"type":"Feature","id":260,"geometry":{"type":"Point","coordinates":[25.504,-30.624]},"properties":{"name":"Gariep","fuel":"hydro","mw":360.0,"country":"ZAF","status":"operating"}},{"type":"Feature","id":261,"geometry":{"type":"Point","coordinates":[19.023,-33.267]},"properties":{"name":"Gouda Wind Farm","fuel":"wind","mw":138.0,"country":"ZAF","status":"operating"}},{"type":"Feature","id":262,"geometry":{"type":"Point","coordinates":[21.961,-34.165]},"properties":{"name":"Gourikwa","fuel":"oil","mw":740.0,"country":"ZAF","status":"operating"}},{"type":"Feature","id":263,"geometry":{"type":"Point","coordinates":[26.491,-33.315]},"properties":{"name":"Grahamstown","fuel":"biomass","mw":3.5,"country":"ZAF","status":"operating"}},{"type":"Feature","id":264,"geometry":{"type":"Point","coordinates":[25.603,-33.676]},"properties":{"name":"Grassridge Wind Farm","fuel":"wind","mw":61.5,"country":"ZAF","status":"operating"}},{"type":"Feature","id":265,"geometry":{"type":"Point","coordinates":[23.312,-29.391]},"properties":{"name":"Greefspan Solar Power Plant","fuel":"solar","mw":10.0,"country":"ZAF","status":"operating"}},{"type":"Feature","id":266,"geometry":{"type":"Point","coordinates":[28.5,-26.77]},"properties":{"name":"Grootvlei power station","fuel":"coal","mw":1190.0,"country":"ZAF","status":"operating"}},{"type":"Feature","id":267,"geometry":{"type":"Point","coordinates":[29.601,-26.031]},"properties":{"name":"Hendrina power station","fuel":"coal","mw":2000.0,"country":"ZAF","status":"operating"}},{"type":"Feature","id":268,"geometry":{"type":"Point","coordinates":[23.8,-29.001]},"properties":{"name":"Herbert Solar Power Plant","fuel":"solar","mw":19.0,"country":"ZAF","status":"operating"}},{"type":"Feature","id":269,"geometry":{"type":"Point","coordinates":[27.837,-25.662]},"properties":{"name":"Hernic Waste Heat Plant","fuel":"waste","mw":25.5,"country":"ZAF","status":"operating"}},{"type":"Feature","id":270,"geometry":{"type":"Point","coordinates":[18.399,-33.093]},"properties":{"name":"Hopefield","fuel":"wind","mw":66.6,"country":"ZAF","status":"operating"}},{"type":"Feature","id":271,"geometry":{"type":"Point","coordinates":[23.367,-28.312]},"properties":{"name":"Jasper Solar Power Plant","fuel":"solar","mw":96.0,"country":"ZAF","status":"operating"}},{"type":"Feature","id":272,"geometry":{"type":"Point","coordinates":[24.843,-33.996]},"properties":{"name":"Jeffrey's Bay Wind Farm","fuel":"wind","mw":138.0,"country":"ZAF","status":"operating"}},{"type":"Feature","id":273,"geometry":{"type":"Point","coordinates":[24.137,-30.16]},"properties":{"name":"KaXu Solar Power Plant","fuel":"solar","mw":100.0,"country":"ZAF","status":"operating"}},{"type":"Feature","id":274,"geometry":{"type":"Point","coordinates":[23.192,-31.727]},"properties":{"name":"Kalkbult Solar Power Plant","fuel":"solar","mw":75.0,"country":"ZAF","status":"operating"}},{"type":"Feature","id":275,"geometry":{"type":"Point","coordinates":[23.163,-31.732]},"properties":{"name":"Karoo","fuel":"solar","mw":50.4,"country":"ZAF","status":"operating"}},{"type":"Feature","id":276,"geometry":{"type":"Point","coordinates":[22.92,-27.602]},"properties":{"name":"Karoo Renewable Energy Facility (Nobelsfontein Wind)","fuel":"wind","mw":73.8,"country":"ZAF","status":"operating"}},{"type":"Feature","id":277,"geometry":{"type":"Point","coordinates":[23.025,-27.613]},"properties":{"name":"Kathu CSP","fuel":"solar","mw":100.0,"country":"ZAF","status":"operating"}},{"type":"Feature","id":278,"geometry":{"type":"Point","coordinates":[22.929,-27.595]},"properties":{"name":"Kathu Solar Park","fuel":"solar","mw":100.0,"country":"ZAF","status":"operating"}},{"type":"Feature","id":279,"geometry":{"type":"Point","coordinates":[28.194,-26.116]},"properties":{"name":"Kelvin power station","fuel":"coal","mw":600.0,"country":"ZAF","status":"operating"}},{"type":"Feature","id":280,"geometry":{"type":"Point","coordinates":[28.969,-26.088]},"properties":{"name":"Kendal power station","fuel":"coal","mw":4116.0,"country":"ZAF","status":"operating"}},{"type":"Feature","id":281,"geometry":{"type":"Point","coordinates":[21.078,-28.538]},"properties":{"name":"Khi Solar Power Plant","fuel":"solar","mw":50.0,"country":"ZAF","status":"operating"}},{"type":"Feature","id":282,"geometry":{"type":"Point","coordinates":[19.523,-30.464]},"properties":{"name":"Khobab Wind","fuel":"wind","mw":140.0,"country":"ZAF","status":"operating"}},{"type":"Feature","id":283,"geometry":{"type":"Point","coordinates":[18.564,-31.839]},"properties":{"name":"Klawer Wind Farm","fuel":"wind","mw":30.0,"country":"ZAF","status":"operating"}},{"type":"Feature","id":284,"geometry":{"type":"Point","coordinates":[18.428,-33.674]},"properties":{"name":"Koeberg","fuel":"nuclear","mw":1800.0,"country":"ZAF","status":"operating"}},{"type":"Feature","id":285,"geometry":{"type":"Point","coordinates":[29.473,-26.09]},"properties":{"name":"Komati Power Station","fuel":"coal","mw":1000.0,"country":"ZAF","status":"operating"}},{"type":"Feature","id":286,"geometry":{"type":"Point","coordinates":[19.554,-28.887]},"properties":{"name":"Konkoonsies II Solar Facility","fuel":"solar","mw":75.0,"country":"ZAF","status":"operating"}},{"type":"Feature","id":287,"geometry":{"type":"Point","coordinates":[19.555,-28.889]},"properties":{"name":"Konkoonsies Solar Power Plant","fuel":"solar","mw":11.0,"country":"ZAF","status":"operating"}},{"type":"Feature","id":288,"geometry":{"type":"Point","coordinates":[29.18,-26.254]},"properties":{"name":"Kriel power station","fuel":"coal","mw":3000.0,"country":"ZAF","status":"operating"}},{"type":"Feature","id":289,"geometry":{"type":"Point","coordinates":[28.916,-25.919]},"properties":{"name":"Kusile Power Station","fuel":"coal","mw":794.0,"country":"ZAF","status":"operating"}},{"type":"Feature","id":290,"geometry":{"type":"Point","coordinates":[23.354,-28.315]},"properties":{"name":"Lesedi Solar Power Plant","fuel":"solar","mw":75.0,"country":"ZAF","status":"operating"}},{"type":"Feature","id":291,"geometry":{"type":"Point","coordinates":[27.975,-26.74]},"properties":{"name":"Lethabo power station","fuel":"coal","mw":3708.0,"country":"ZAF","status":"operating"}},{"type":"Feature","id":292,"geometry":{"type":"Point","coordinates":[25.92,-28.915]},"properties":{"name":"Letsatsi Solar Power Plant","fuel":"solar","mw":75.0,"country":"ZAF","status":"operating"}},{"type":"Feature","id":293,"geometry":{"type":"Point","coordinates":[24.651,-31.0]},"properties":{"name":"Linde Solar Power Plant","fuel":"solar","mw":40.0,"country":"ZAF","status":"operating"}},{"type":"Feature","id":294,"geometry":{"type":"Point","coordinates":[19.589,-30.404]},"properties":{"name":"Loeriesfontein 2","fuel":"wind","mw":140.0,"country":"ZAF","status":"operating"}},{"type":"Feature","id":295,"geometry":{"type":"Point","coordinates":[31.041,-25.772]},"properties":{"name":"Lomati","fuel":"biomass","mw":10.1,"country":"ZAF","status":"operating"}},{"type":"Feature","id":296,"geometry":{"type":"Point","coordinates":[23.914,-30.726]},"properties":{"name":"Longyuan Mulilo De Aar Maanhaarberg Wind Energy Facility","fuel":"wind","mw":100.0,"country":"ZAF","status":"operating"}},{"type":"Feature","id":297,"geometry":{"type":"Point","coordinates":[24.26,-30.541]},"properties":{"name":"Longyuan Mulilo Green Energy De Aar 2 North Wind Energy Facility","fuel":"wind","mw":144.0,"country":"ZAF","status":"operating"}},{"type":"Feature","id":298,"geometry":{"type":"Point","coordinates":[29.771,-27.096]},"properties":{"name":"Majuba power station","fuel":"coal","mw":4110.0,"country":"ZAF","status":"operating"}},{"type":"Feature","id":299,"geometry":{"type":"Point","coordinates":[30.836,-29.848]},"properties":{"name":"Mariannhill Landfill","fuel":"waste","mw":2.0,"country":"ZAF","status":"operating"}},{"type":"Feature","id":300,"geometry":{"type":"Point","coordinates":[27.613,-23.668]},"properties":{"name":"Matimba power station","fuel":"coal","mw":3990.0,"country":"ZAF","status":"operating"}},{"type":"Feature","id":301,"geometry":{"type":"Point","coordinates":[29.142,-26.28]},"properties":{"name":"Matla power station","fuel":"coal","mw":3600.0,"country":"ZAF","status":"operating"}},{"type":"Feature","id":302,"geometry":{"type":"Point","coordinates":[24.005,-30.628]},"properties":{"name":"Mulilo Renewable Energy Solar PV De Aar","fuel":"solar","mw":9.7,"country":"ZAF","status":"operating"}},{"type":"Feature","id":303,"geometry":{"type":"Point","coordinates":[22.339,-30.025]},"properties":{"name":"Mulilo Sonnedix Prieska","fuel":"solar","mw":86.0,"country":"ZAF","status":"operating"}},{"type":"Feature","id":304,"geometry":{"type":"Point","coordinates":[20.743,-28.772]},"properties":{"name":"Neusberg","fuel":"hydro","mw":12.6,"country":"ZAF","status":"operating"}},{"type":"Feature","id":305,"geometry":{"type":"Point","coordinates":[25.022,-31.176]},"properties":{"name":"Nouport Wind Farm","fuel":"wind","mw":80.0,"country":"ZAF","status":"operating"}},{"type":"Feature","id":306,"geometry":{"type":"Point","coordinates":[18.736,-32.423]},"properties":{"name":"Paleisheuwel Solar Power Plant","fuel":"solar","mw":82.5,"country":"ZAF","status":"operating"}},{"type":"Feature","id":307,"geometry":{"type":"Point","coordinates":[18.974,-34.197]},"properties":{"name":"Palmiet","fuel":"hydro","mw":400.0,"country":"ZAF","status":"operating"}},{"type":"Feature","id":308,"geometry":{"type":"Point","coordinates":[22.105,-34.145]},"properties":{"name":"PetroSA Biogas Plant","fuel":"waste","mw":4.2,"country":"ZAF","status":"operating"}},{"type":"Feature","id":309,"geometry":{"type":"Point","coordinates":[27.884,-33.027]},"properties":{"name":"Port Rex","fuel":"gas","mw":171.0,"country":"ZAF","status":"operating"}},{"type":"Feature","id":310,"geometry":{"type":"Point","coordinates":[28.147,-25.758]},"properties":{"name":"Pretoria West power station","fuel":"coal","mw":180.0,"country":"ZAF","status":"operating"}},{"type":"Feature","id":311,"geometry":{"type":"Point","coordinates":[22.32,-29.968]},"properties":{"name":"Prieska - Mulilo Solar Power Plant","fuel":"solar","mw":19.9,"country":"ZAF","status":"operating"}},{"type":"Feature","id":312,"geometry":{"type":"Point","coordinates":[22.356,-30.022]},"properties":{"name":"Prieska Solar Plant","fuel":"solar","mw":86.0,"country":"ZAF","status":"operating"}},{"type":"Feature","id":313,"geometry":{"type":"Point","coordinates":[24.933,-29.039]},"properties":{"name":"Pulida Solar Park","fuel":"solar","mw":82.5,"country":"ZAF","status":"operating"}},{"type":"Feature","id":314,"geometry":{"type":"Point","coordinates":[24.71,-34.136]},"properties":{"name":"Red Cap","fuel":"wind","mw":80.0,"country":"ZAF","status":"operating"}},{"type":"Feature","id":315,"geometry":{"type":"Point","coordinates":[28.238,-25.555]},"properties":{"name":"Rooiwal power station","fuel":"coal","mw":300.0,"country":"ZAF","status":"operating"}},{"type":"Feature","id":316,"geometry":{"type":"Point","coordinates":[27.418,-25.738]},"properties":{"name":"RustMo1 Solar Power Plant","fuel":"solar","mw":7.0,"country":"ZAF","status":"operating"}},{"type":"Feature","id":317,"geometry":{"type":"Point","coordinates":[18.091,-31.513]},"properties":{"name":"Sere","fuel":"wind","mw":100.0,"country":"ZAF","status":"operating"}},{"type":"Feature","id":318,"geometry":{"type":"Point","coordinates":[22.927,-27.584]},"properties":{"name":"Sishen Solar Power Plant","fuel":"solar","mw":94.3,"country":"ZAF","status":"operating"}},{"type":"Feature","id":319,"geometry":{"type":"Point","coordinates":[18.529,-33.35]},"properties":{"name":"SlimSun Swartland Solar Park","fuel":"solar","mw":5.0,"country":"ZAF","status":"operating"}},{"type":"Feature","id":320,"geometry":{"type":"Point","coordinates":[24.079,-30.579]},"properties":{"name":"Solar Capital De Aar I","fuel":"solar","mw":75.0,"country":"ZAF","status":"operating"}},{"type":"Feature","id":321,"geometry":{"type":"Point","coordinates":[24.103,-30.596]},"properties":{"name":"Solar Capital De Aar III","fuel":"solar","mw":75.0,"country":"ZAF","status":"operating"}},{"type":"Feature","id":322,"geometry":{"type":"Point","coordinates":[29.252,-22.993]},"properties":{"name":"Soutpan Solar Power Plant","fuel":"solar","mw":28.0,"country":"ZAF","status":"operating"}},{"type":"Feature","id":323,"geometry":{"type":"Point","coordinates":[18.53,-33.35]},"properties":{"name":"Swartland Solar Power Plant","fuel":"solar","mw":5.0,"country":"ZAF","status":"operating"}},{"type":"Feature","id":324,"geometry":{"type":"Point","coordinates":[27.991,-23.075]},"properties":{"name":"Tom Burke Solar Park","fuel":"solar","mw":66.0,"country":"ZAF","status":"operating"}},{"type":"Feature","id":325,"geometry":{"type":"Point","coordinates":[19.939,-33.406]},"properties":{"name":"Touwsrivier Solar Power Plant","fuel":"solar","mw":44.2,"country":"ZAF","status":"operating"}},{"type":"Feature","id":326,"geometry":{"type":"Point","coordinates":[24.506,-34.073]},"properties":{"name":"Tsitsikamma Community Wind Farm","fuel":"wind","mw":95.0,"country":"ZAF","status":"operating"}},{"type":"Feature","id":327,"geometry":{"type":"Point","coordinates":[29.353,-26.777]},"properties":{"name":"Tutuka power station","fuel":"coal","mw":3654.0,"country":"ZAF","status":"operating"}},{"type":"Feature","id":328,"geometry":{"type":"Point","coordinates":[21.269,-28.419]},"properties":{"name":"Upington Solar Power Plant","fuel":"solar","mw":8.9,"country":"ZAF","status":"operating"}},{"type":"Feature","id":329,"geometry":{"type":"Point","coordinates":[25.242,-33.963]},"properties":{"name":"Van Stadens","fuel":"wind","mw":27.0,"country":"ZAF","status":"operating"}},{"type":"Feature","id":330,"geometry":{"type":"Point","coordinates":[24.734,-29.993]},"properties":{"name":"Vanderkloof","fuel":"hydro","mw":240.0,"country":"ZAF","status":"operating"}},{"type":"Feature","id":331,"geometry":{"type":"Point","coordinates":[18.505,-31.634]},"properties":{"name":"Vredendal Solar Power Plant","fuel":"solar","mw":10.5,"country":"ZAF","status":"operating"}},{"type":"Feature","id":332,"geometry":{"type":"Point","coordinates":[26.464,-33.324]},"properties":{"name":"Waainek Wind Farm","fuel":"wind","mw":23.0,"country":"ZAF","status":"operating"}},{"type":"Feature","id":333,"geometry":{"type":"Point","coordinates":[18.006,-32.834]},"properties":{"name":"West Coast 1","fuel":"wind","mw":94.0,"country":"ZAF","status":"operating"}},{"type":"Feature","id":334,"geometry":{"type":"Point","coordinates":[29.369,-24.042]},"properties":{"name":"Witkop Solar Power Plant","fuel":"solar","mw":30.0,"country":"ZAF","status":"operating"}},{"type":"Feature","id":335,"geometry":{"type":"Point","coordinates":[19.592,-28.895]},"properties":{"name":"Xina One","fuel":"solar","mw":100.0,"country":"ZAF","status":"operating"}},{"type":"Feature","id":336,"geometry":{"type":"Point","coordinates":[31.324,-26.59]},"properties":{"name":"Edwaleni","fuel":"hydro","mw":15.0,"country":"SWZ","status":"operating"}},{"type":"Feature","id":337,"geometry":{"type":"Point","coordinates":[31.155,-26.376]},"properties":{"name":"Lupohlo","fuel":"hydro","mw":20.8,"country":"SWZ","status":"operating"}},{"type":"Feature","id":338,"geometry":{"type":"Point","coordinates":[31.262,-26.078]},"properties":{"name":"Maguga Dam","fuel":"hydro","mw":15.0,"country":"SWZ","status":"operating"}},{"type":"Feature","id":339,"geometry":{"type":"Point","coordinates":[31.85,-26.033]},"properties":{"name":"Mhlume Mill","fuel":"biomass","mw":14.0,"country":"SWZ","status":"operating"}},{"type":"Feature","id":340,"geometry":{"type":"Point","coordinates":[31.907,-26.178]},"properties":{"name":"Simunye Mill","fuel":"biomass","mw":17.0,"country":"SWZ","status":"operating"}},{"type":"Feature","id":341,"geometry":{"type":"Point","coordinates":[31.942,-26.773]},"properties":{"name":"Ubombo Mill","fuel":"biomass","mw":13.0,"country":"SWZ","status":"operating"}},{"type":"Feature","id":342,"geometry":{"type":"Point","coordinates":[27.832,-12.379]},"properties":{"name":"Bancroft Copperbelt","fuel":"oil","mw":20.0,"country":"ZMB","status":"operating"}},{"type":"Feature","id":343,"geometry":{"type":"Point","coordinates":[26.02,-15.769]},"properties":{"name":"Itezhi- Tezhi","fuel":"hydro","mw":120.0,"country":"ZMB","status":"operating"}},{"type":"Feature","id":344,"geometry":{"type":"Point","coordinates":[28.35,-15.55]},"properties":{"name":"Kafue","fuel":"solar","mw":47.5,"country":"ZMB","status":"operating"}},{"type":"Feature","id":345,"geometry":{"type":"Point","coordinates":[28.42,-15.809]},"properties":{"name":"Kafue Gorge","fuel":"hydro","mw":990.0,"country":"ZMB","status":"operating"}},{"type":"Feature","id":346,"geometry":{"type":"Point","coordinates":[28.762,-16.522]},"properties":{"name":"Kariba","fuel":"hydro","mw":930.0,"country":"ZMB","status":"operating"}},{"type":"Feature","id":347,"geometry":{"type":"Point","coordinates":[24.133,-11.567]},"properties":{"name":"Luano","fuel":"oil","mw":40.0,"country":"ZMB","status":"operating"}},{"type":"Feature","id":348,"geometry":{"type":"Point","coordinates":[28.4,-13.133]},"properties":{"name":"Luanshya Nchanga","fuel":"oil","mw":14.6,"country":"ZMB","status":"operating"}},{"type":"Feature","id":349,"geometry":{"type":"Point","coordinates":[28.333,-15.433]},"properties":{"name":"Lusaka","fuel":"oil","mw":15.0,"country":"ZMB","status":"operating"}},{"type":"Feature","id":350,"geometry":{"type":"Point","coordinates":[30.865,-12.988]},"properties":{"name":"Lusiwasi","fuel":"hydro","mw":12.0,"country":"ZMB","status":"operating"}},{"type":"Feature","id":351,"geometry":{"type":"Point","coordinates":[27.186,-17.353]},"properties":{"name":"Maamba plant","fuel":"coal","mw":300.0,"country":"ZMB","status":"operating"}},{"type":"Feature","id":352,"geometry":{"type":"Point","coordinates":[28.233,-12.55]},"properties":{"name":"Mufulira Nchanga","fuel":"oil","mw":10.0,"country":"ZMB","status":"operating"}},{"type":"Feature","id":353,"geometry":{"type":"Point","coordinates":[27.767,-15.833]},"properties":{"name":"Nakambala Sugar","fuel":"biomass","mw":12.2,"country":"ZMB","status":"operating"}},{"type":"Feature","id":354,"geometry":{"type":"Point","coordinates":[28.633,-12.967]},"properties":{"name":"Ndola","fuel":"oil","mw":50.0,"country":"ZMB","status":"operating"}},{"type":"Feature","id":355,"geometry":{"type":"Point","coordinates":[28.2,-12.817]},"properties":{"name":"Nkana","fuel":"oil","mw":20.0,"country":"ZMB","status":"operating"}},{"type":"Feature","id":356,"geometry":{"type":"Point","coordinates":[25.85,-17.917]},"properties":{"name":"Victoria Falls","fuel":"hydro","mw":108.0,"country":"ZMB","status":"operating"}},{"type":"Feature","id":357,"geometry":{"type":"Point","coordinates":[26.47,-18.384]},"properties":{"name":"Hwange Coal Power Plant Zimbabwe","fuel":"coal","mw":920.0,"country":"ZWE","status":"operating"}},{"type":"Feature","id":358,"geometry":{"type":"Point","coordinates":[28.762,-16.522]},"properties":{"name":"Kariba Dam South Hydroelectric Power Station Zimbabwe","fuel":"hydro","mw":750.0,"country":"ZWE","status":"operating"}}]}