{"type": "FeatureCollection", "features": [{"type": "Feature", "id": 0, "geometry": {"type": "Point", "coordinates": [147.143, -9.432]}, "properties": {"name": "Kanudi Hanjung power station", "fuel": "diesel", "mw": 24.0, "country": "PNG", "status": "operating"}}, {"type": "Feature", "id": 1, "geometry": {"type": "Point", "coordinates": [147.204, -9.404]}, "properties": {"name": "Moitaka Power Station", "fuel": "diesel", "mw": 26.0, "country": "PNG", "status": "operating"}}, {"type": "Feature", "id": 2, "geometry": {"type": "Point", "coordinates": [146.99, -6.728]}, "properties": {"name": "Elcom Power Station", "fuel": "oil", "mw": 12.0, "country": "", "status": "operating"}}, {"type": "Feature", "id": 3, "geometry": {"type": "Point", "coordinates": [146.987, -6.681]}, "properties": {"name": "Taraki (Lae)", "fuel": "oil", "mw": 12.0, "country": "PNG", "status": "operating"}}, {"type": "Feature", "id": 4, "geometry": {"type": "Point", "coordinates": [146.853, -6.594]}, "properties": {"name": "Munum Power Plant", "fuel": "oil", "mw": 30.0, "country": "PNG", "status": "operating"}}, {"type": "Feature", "id": 5, "geometry": {"type": "Point", "coordinates": [145.976, -6.249]}, "properties": {"name": "Ramu 1 Hydropower Plant", "fuel": "hydro", "mw": 77.0, "country": "PNG", "status": "operating"}}, {"type": "Feature", "id": 6, "geometry": {"type": "Point", "coordinates": [145.967, -6.24]}, "properties": {"name": "", "fuel": "hydro", "mw": 0.0, "country": "PNG", "status": "operating"}}, {"type": "Feature", "id": 7, "geometry": {"type": "Point", "coordinates": [145.805, -5.218]}, "properties": {"name": "Madang Power Plant", "fuel": "diesel", "mw": 0.0, "country": "PNG", "status": "operating"}}, {"type": "Feature", "id": 8, "geometry": {"type": "Point", "coordinates": [150.459, -10.315]}, "properties": {"name": "Alotau Power Station", "fuel": "diesel", "mw": 0.0, "country": "PNG", "status": "operating"}}, {"type": "Feature", "id": 9, "geometry": {"type": "Point", "coordinates": [147.342, -9.411]}, "properties": {"name": "Rouna 4 Power Station", "fuel": "hydro", "mw": 13.2, "country": "PNG", "status": "operating"}}, {"type": "Feature", "id": 10, "geometry": {"type": "Point", "coordinates": [147.365, -9.418]}, "properties": {"name": "Rouna 1 & 3 Power Station", "fuel": "hydro", "mw": 12.0, "country": "PNG", "status": "operating"}}, {"type": "Feature", "id": 11, "geometry": {"type": "Point", "coordinates": [147.39, -9.426]}, "properties": {"name": "Rouna 2 Power Station", "fuel": "hydro", "mw": 36.0, "country": "PNG", "status": "operating"}}, {"type": "Feature", "id": 12, "geometry": {"type": "Point", "coordinates": [146.996, -6.726]}, "properties": {"name": "Hospital Power Plant", "fuel": "oil", "mw": 0.0, "country": "", "status": "operating"}}, {"type": "Feature", "id": 13, "geometry": {"type": "Point", "coordinates": [148.254, -8.747]}, "properties": {"name": "Popondetta Power Station", "fuel": "oil", "mw": 0.0, "country": "PNG", "status": "operating"}}, {"type": "Feature", "id": 14, "geometry": {"type": "Point", "coordinates": [150.797, -2.587]}, "properties": {"name": "Kavieng Power Station", "fuel": "oil", "mw": 0.0, "country": "", "status": "operating"}}, {"type": "Feature", "id": 15, "geometry": {"type": "Point", "coordinates": [126.275, -8.483]}, "properties": {"name": "", "fuel": "gas", "mw": 0.0, "country": "TLS", "status": "operating"}}, {"type": "Feature", "id": 16, "geometry": {"type": "Point", "coordinates": [125.69, -8.54]}, "properties": {"name": "Usina de Petr\u00f3leo de Hera", "fuel": "oil", "mw": 119.0, "country": "TLS", "status": "operating"}}, {"type": "Feature", "id": 17, "geometry": {"type": "Point", "coordinates": [125.735, -9.154]}, "properties": {"name": "Betano Power Plant", "fuel": "oil", "mw": 136.0, "country": "TLS", "status": "operating"}}, {"type": "Feature", "id": 18, "geometry": {"type": "Point", "coordinates": [141.304, -5.341]}, "properties": {"name": "Ok Menga", "fuel": "hydro", "mw": 57.0, "country": "PNG", "status": "operating"}}, {"type": "Feature", "id": 19, "geometry": {"type": "Point", "coordinates": [142.771, -5.912]}, "properties": {"name": "Hides GTE", "fuel": "gas", "mw": 0.0, "country": "PNG", "status": "operating"}}, {"type": "Feature", "id": 20, "geometry": {"type": "Point", "coordinates": [143.657, -6.134]}, "properties": {"name": "", "fuel": "biomass", "mw": 0.0, "country": "PNG", "status": "operating"}}, {"type": "Feature", "id": 21, "geometry": {"type": "Point", "coordinates": [167.114, -15.428]}, "properties": {"name": "Sarakata river hydroelectric power station", "fuel": "hydro", "mw": 1.4, "country": "VUT", "status": "operating"}}, {"type": "Feature", "id": 22, "geometry": {"type": "Point", "coordinates": [160.063, -9.438]}, "properties": {"name": "", "fuel": "solar", "mw": 0.0, "country": "SLB", "status": "operating"}}, {"type": "Feature", "id": 23, "geometry": {"type": "Point", "coordinates": [160.063, -9.438]}, "properties": {"name": "", "fuel": "unknown", "mw": 0.0, "country": "SLB", "status": "operating"}}, {"type": "Feature", "id": 24, "geometry": {"type": "Point", "coordinates": [160.002, -9.432]}, "properties": {"name": "Solomon Power", "fuel": "unknown", "mw": 0.0, "country": "SLB", "status": "operating"}}, {"type": "Feature", "id": 25, "geometry": {"type": "Point", "coordinates": [151.112, -5.244]}, "properties": {"name": "", "fuel": "unknown", "mw": 0.0, "country": "PNG", "status": "operating"}}, {"type": "Feature", "id": 26, "geometry": {"type": "Point", "coordinates": [152.247, -4.331]}, "properties": {"name": "Kokopo Power Plant", "fuel": "diesel", "mw": 0.0, "country": "PNG", "status": "operating"}}, {"type": "Feature", "id": 27, "geometry": {"type": "Point", "coordinates": [147.043, -9.322]}, "properties": {"name": "Port Moresby Power Station", "fuel": "gas", "mw": 58.0, "country": "PNG", "status": "operating"}}, {"type": "Feature", "id": 28, "geometry": {"type": "Point", "coordinates": [147.046, -9.321]}, "properties": {"name": "Dirio Central Province Power Station", "fuel": "gas", "mw": 45.0, "country": "PNG", "status": "operating"}}, {"type": "Feature", "id": 29, "geometry": {"type": "Point", "coordinates": [178.093, -18.238]}, "properties": {"name": "Deuba Powerstation", "fuel": "unknown", "mw": 0.0, "country": "FJI", "status": "operating"}}, {"type": "Feature", "id": 30, "geometry": {"type": "Point", "coordinates": [177.499, -18.15]}, "properties": {"name": "Sigatoka EFL Power Station", "fuel": "unknown", "mw": 0.0, "country": "FJI", "status": "operating"}}, {"type": "Feature", "id": 31, "geometry": {"type": "Point", "coordinates": [178.479, -18.112]}, "properties": {"name": "Kinoya Power Plant", "fuel": "oil", "mw": 0.0, "country": "FJI", "status": "operating"}}, {"type": "Feature", "id": 32, "geometry": {"type": "Point", "coordinates": [178.536, -17.804]}, "properties": {"name": "Korovou Power Station", "fuel": "diesel", "mw": 10.0, "country": "FJI", "status": "operating"}}, {"type": "Feature", "id": 33, "geometry": {"type": "Point", "coordinates": [177.43, -17.681]}, "properties": {"name": "EFL National Control Centre", "fuel": "diesel", "mw": 40.0, "country": "FJI", "status": "operating"}}, {"type": "Feature", "id": 34, "geometry": {"type": "Point", "coordinates": [177.431, -17.682]}, "properties": {"name": "EFL NCC", "fuel": "unknown", "mw": 0.0, "country": "FJI", "status": "operating"}}, {"type": "Feature", "id": 35, "geometry": {"type": "Point", "coordinates": [179.815, -16.644]}, "properties": {"name": "Buca Hydroelectric Power House", "fuel": "hydro", "mw": 0.0, "country": "", "status": "operating"}}, {"type": "Feature", "id": 36, "geometry": {"type": "Point", "coordinates": [177.436, -17.622]}, "properties": {"name": "EFL Pineapple Corner  Power Generation", "fuel": "oil", "mw": 0.0, "country": "FJI", "status": "operating"}}, {"type": "Feature", "id": 37, "geometry": {"type": "Point", "coordinates": [177.436, -17.623]}, "properties": {"name": "Pineapple Corner EFL 33kV Substation", "fuel": "unknown", "mw": 0.0, "country": "FJI", "status": "operating"}}, {"type": "Feature", "id": 38, "geometry": {"type": "Point", "coordinates": [177.43, -17.681]}, "properties": {"name": "Vuda EFL Power Station", "fuel": "oil", "mw": 20.0, "country": "FJI", "status": "operating"}}, {"type": "Feature", "id": 39, "geometry": {"type": "Point", "coordinates": [177.456, -17.743]}, "properties": {"name": "Nasoso EFL 33kV Substation", "fuel": "unknown", "mw": 0.0, "country": "FJI", "status": "operating"}}, {"type": "Feature", "id": 40, "geometry": {"type": "Point", "coordinates": [177.913, -17.678]}, "properties": {"name": "Nadarivatu Hydroelectric Power Plant", "fuel": "hydro", "mw": 42.0, "country": "FJI", "status": "operating"}}, {"type": "Feature", "id": 41, "geometry": {"type": "Point", "coordinates": [178.101, -17.737]}, "properties": {"name": "Wailoa Hydro Power Station", "fuel": "hydro", "mw": 80.0, "country": "FJI", "status": "operating"}}, {"type": "Feature", "id": 42, "geometry": {"type": "Point", "coordinates": [177.856, -17.507]}, "properties": {"name": "Korowere Powerstation", "fuel": "unknown", "mw": 0.0, "country": "FJI", "status": "operating"}}, {"type": "Feature", "id": 43, "geometry": {"type": "Point", "coordinates": [177.509, -18.108]}, "properties": {"name": "Butoni Wind Farm", "fuel": "wind", "mw": 10.0, "country": "FJI", "status": "operating"}}, {"type": "Feature", "id": 44, "geometry": {"type": "Point", "coordinates": [143.583, -4.071]}, "properties": {"name": "", "fuel": "solar", "mw": 0.0, "country": "PNG", "status": "operating"}}, {"type": "Feature", "id": 45, "geometry": {"type": "Point", "coordinates": [143.659, -3.573]}, "properties": {"name": "Wewak Power Plant", "fuel": "oil", "mw": 0.0, "country": "", "status": "operating"}}, {"type": "Feature", "id": 46, "geometry": {"type": "Point", "coordinates": [141.297, -6.123]}, "properties": {"name": "Kiunga Power Station", "fuel": "oil", "mw": 0.0, "country": "PNG", "status": "operating"}}, {"type": "Feature", "id": 47, "geometry": {"type": "Point", "coordinates": [141.229, -5.27]}, "properties": {"name": "Tabubil Power House", "fuel": "oil", "mw": 0.0, "country": "PNG", "status": "operating"}}]}