{"type":"FeatureCollection","features":[{"type":"Feature","properties":{"ISO_A3":"BOL","WB_A3":"BOL","WB_NAME":"Bolivia","WB_REGION":"LCN"},"geometry":{"type":"MultiPolygon","coordinates":[[[[-57.7559,-17.56504],[-57.75475,-17.56707],[-57.76045,-17.56866],[-57.76708,-17.56778],[-57.76957,-17.56146],[-57.77971,-17.56243],[-57.79334,-17.55898],[-57.79775,-17.55938],[-57.79823,-17.56219],[-57.7815,-17.57673],[-57.79141,-17.58611],[-57.7894,-17.58843],[-57.77826,-17.58599],[-57.784,-17.59654],[-57.77479,-17.59924],[-57.78431,-17.61156],[-57.78234,-17.61572],[-57.7719,-17.61408],[-57.77444,-17.62678],[-57.78234,-17.63574],[-57.77637,-17.65684],[-57.76273,-17.66096],[-57.75129,-17.69573],[-57.74094,-17.69455],[-57.73138,-17.71939],[-57.72116,-17.72116],[-57.71132,-17.72884],[-57.71928,-17.77312],[-57.68493,-17.80992],[-57.68492,-17.83061],[-57.72271,-17.8306],[-57.60043,-18.04269],[-57.57486,-18.13189],[-57.50715,-18.19837],[-57.5034,-18.19878],[-57.50223,-18.19581],[-57.49052,-18.20272],[-57.48135,-18.19738],[-57.4775,-18.2032],[-57.48025,-18.20858],[-57.47244,-18.21369],[-57.47531,-18.21657],[-57.46799,-18.22318],[-57.45701,-18.2253],[-57.45725,-18.22904],[-57.45361,-18.23004],[-57.45435,-18.2333],[-57.56001,-18.24152],[-57.76667,-18.89929],[-57.71984,-18.89906],[-57.71925,-18.97809],[-57.71365,-18.97742],[-57.70263,-18.98807],[-57.69676,-18.99956],[-57.69945,-19.00624],[-57.69171,-19.01069],[-57.69696,-19.01107],[-57.70212,-19.01685],[-57.71036,-19.0347],[-57.78332,-19.03509],[-58.13097,-19.75848],[-57.85868,-19.97087],[-57.86682,-19.9896],[-57.892,-20.02187],[-57.9026,-20.04242],[-57.90636,-20.0429],[-57.93402,-20.02031],[-57.94638,-20.01904],[-57.9581,-20.02306],[-57.96581,-20.02999],[-57.97108,-20.04552],[-57.97895,-20.05539],[-57.98567,-20.05833],[-58.00043,-20.05635],[-58.02421,-20.05893],[-58.03235,-20.06305],[-58.04805,-20.10538],[-58.05387,-20.10824],[-58.07554,-20.10536],[-58.09212,-20.10824],[-58.11621,-20.14593],[-58.13209,-20.15206],[-58.15274,-20.15301],[-58.16529,-20.16132],[-58.16931,-20.17017],[-58.16828,-20.15365],[-58.15962,-20.14406],[-58.14507,-20.13836],[-58.14308,-20.12847],[-58.13765,-20.12144],[-58.14527,-20.09849],[-58.15531,-20.0863],[-58.1553,-20.07585],[-58.16328,-20.07663],[-58.1609,-20.07206],[-58.16502,-20.066],[-58.16287,-20.05926],[-58.16739,-20.04953],[-58.16022,-20.04795],[-58.15774,-20.04235],[-58.17537,-20.02975],[-58.17356,-20.01953],[-58.17761,-20.01477],[-58.17706,-20.0012],[-58.18584,-19.97142],[-58.19349,-19.96016],[-58.20193,-19.96159],[-58.21368,-19.95203],[-58.19638,-19.9262],[-58.20014,-19.90275],[-58.2053,-19.8936],[-58.20193,-19.86333],[-58.19176,-19.85194],[-58.17927,-19.84583],[-58.17332,-19.83352],[-58.1639,-19.82724],[-58.23581,-19.77547],[-59.06906,-19.2877],[-59.97489,-19.29447],[-60.60425,-19.4566],[-61.73509,-19.63448],[-61.92269,-20.08921],[-62.26633,-20.56315],[-62.26088,-21.05868],[-62.63994,-22.2363],[-62.64697,-22.23692],[-62.65409,-22.25128],[-62.66311,-22.25007],[-62.68706,-22.20993],[-62.72478,-22.20022],[-62.73266,-22.18202],[-62.75263,-22.16137],[-62.7723,-22.15012],[-62.78007,-22.15436],[-62.7821,-22.16612],[-62.79114,-22.16634],[-62.8089,-22.14272],[-62.81741,-22.09778],[-62.81679,-22.09358],[-62.80507,-22.08231],[-62.8003,-22.0668],[-62.80251,-22.06067],[-62.81751,-22.04612],[-62.81655,-22.01777],[-62.81115,-22.00512],[-62.81337,-21.99875],[-63.66541,-21.99941],[-63.67011,-22.01182],[-63.66596,-22.01667],[-63.67096,-22.02387],[-63.66922,-22.02867],[-63.67392,-22.03301],[-63.67395,-22.04107],[-63.67699,-22.04112],[-63.67912,-22.05141],[-63.68291,-22.05399],[-63.68673,-22.03912],[-63.68201,-22.03237],[-63.68736,-22.02532],[-63.68866,-22.01146],[-63.70256,-22.01541],[-63.70681,-22.01213],[-63.70894,-21.99942],[-63.93141,-21.99934],[-63.9403,-22.00879],[-63.94425,-22.00919],[-63.93805,-22.01689],[-63.9451,-22.02452],[-63.94124,-22.0293],[-63.94676,-22.03642],[-63.95307,-22.03611],[-63.9498,-22.0435],[-63.95499,-22.04463],[-63.95003,-22.04898],[-63.95673,-22.05721],[-63.95066,-22.05905],[-63.9625,-22.06548],[-63.95725,-22.0674],[-63.9601,-22.0777],[-63.95719,-22.07955],[-63.96182,-22.08286],[-63.96292,-22.09195],[-63.97429,-22.08717],[-63.9747,-22.08037],[-63.97999,-22.08118],[-63.98273,-22.08665],[-63.97675,-22.08667],[-63.97688,-22.0924],[-63.98501,-22.09269],[-63.99088,-22.10385],[-63.98597,-22.10502],[-63.98541,-22.10841],[-63.98878,-22.10979],[-63.99163,-22.10536],[-63.99836,-22.10534],[-64.00008,-22.10867],[-63.99747,-22.11092],[-63.99392,-22.10845],[-63.99321,-22.11395],[-63.98979,-22.11389],[-63.99059,-22.11871],[-63.9987,-22.12466],[-63.99851,-22.12839],[-63.99227,-22.13336],[-63.99586,-22.13333],[-63.99923,-22.1381],[-63.99679,-22.14228],[-64.00511,-22.15335],[-64.00071,-22.15807],[-64.02354,-22.17568],[-64.01631,-22.18662],[-64.02517,-22.18823],[-64.03348,-22.1977],[-64.02585,-22.21013],[-64.03351,-22.21974],[-64.03912,-22.22127],[-64.03838,-22.22581],[-64.03211,-22.2266],[-64.03248,-22.23508],[-64.03983,-22.23572],[-64.03313,-22.2417],[-64.04106,-22.24167],[-64.04316,-22.2474],[-64.05684,-22.24561],[-64.05713,-22.23863],[-64.06233,-22.23839],[-64.07339,-22.25765],[-64.07329,-22.26806],[-64.07657,-22.27414],[-64.07346,-22.28049],[-64.07643,-22.28461],[-64.08325,-22.28575],[-64.09247,-22.30091],[-64.0947,-22.31371],[-64.09899,-22.31704],[-64.10161,-22.33015],[-64.09701,-22.33949],[-64.09859,-22.34416],[-64.10644,-22.35835],[-64.11803,-22.36434],[-64.1087,-22.38257],[-64.12127,-22.38368],[-64.11668,-22.4033],[-64.11849,-22.40682],[-64.14222,-22.40733],[-64.1456,-22.41779],[-64.14401,-22.42845],[-64.14666,-22.43501],[-64.15283,-22.43924],[-64.15209,-22.4522],[-64.15487,-22.45545],[-64.166,-22.45489],[-64.16945,-22.46814],[-64.1832,-22.47468],[-64.19006,-22.49463],[-64.20147,-22.50288],[-64.19712,-22.51283],[-64.19929,-22.51768],[-64.21677,-22.51719],[-64.2168,-22.52739],[-64.22553,-22.54471],[-64.21592,-22.56207],[-64.21893,-22.56497],[-64.23019,-22.56259],[-64.24398,-22.56638],[-64.23895,-22.57834],[-64.24921,-22.58824],[-64.23676,-22.60301],[-64.2378,-22.60574],[-64.25241,-22.61009],[-64.25116,-22.62652],[-64.26236,-22.63847],[-64.26118,-22.64573],[-64.2682,-22.6541],[-64.26851,-22.66666],[-64.2592,-22.68121],[-64.2695,-22.70003],[-64.26877,-22.72933],[-64.28091,-22.74137],[-64.27562,-22.7588],[-64.2784,-22.77208],[-64.27691,-22.77667],[-64.26988,-22.78128],[-64.2752,-22.78628],[-64.28561,-22.78651],[-64.28845,-22.79212],[-64.29203,-22.81268],[-64.28066,-22.81706],[-64.28409,-22.82048],[-64.28358,-22.82715],[-64.30808,-22.84021],[-64.30734,-22.84584],[-64.30024,-22.84715],[-64.29754,-22.85156],[-64.30404,-22.86972],[-64.30891,-22.87334],[-64.30935,-22.8664],[-64.31299,-22.86495],[-64.32604,-22.8697],[-64.33304,-22.86907],[-64.33877,-22.8637],[-64.32449,-22.85266],[-64.32387,-22.8492],[-64.3302,-22.84318],[-64.32744,-22.83572],[-64.3291,-22.8311],[-64.32618,-22.82786],[-64.32819,-22.81579],[-64.33084,-22.81068],[-64.34119,-22.80414],[-64.33704,-22.79126],[-64.3346,-22.75931],[-64.35092,-22.73155],[-64.36203,-22.72345],[-64.37329,-22.72654],[-64.37258,-22.72308],[-64.38174,-22.71695],[-64.38841,-22.72337],[-64.394,-22.718],[-64.39752,-22.72077],[-64.40425,-22.71798],[-64.39079,-22.71229],[-64.39198,-22.70954],[-64.39611,-22.71129],[-64.40382,-22.69821],[-64.3933,-22.69024],[-64.40139,-22.68229],[-64.41504,-22.67976],[-64.41849,-22.67188],[-64.41393,-22.6565],[-64.43389,-22.6491],[-64.43517,-22.64232],[-64.44223,-22.63797],[-64.43459,-22.63454],[-64.42706,-22.63898],[-64.42327,-22.6342],[-64.42471,-22.62966],[-64.43114,-22.63287],[-64.43483,-22.63139],[-64.43257,-22.62845],[-64.43548,-22.62322],[-64.42758,-22.61412],[-64.42566,-22.60262],[-64.42998,-22.60017],[-64.42399,-22.58672],[-64.42966,-22.58663],[-64.43024,-22.58039],[-64.42158,-22.57927],[-64.4105,-22.56682],[-64.4086,-22.55906],[-64.41786,-22.55692],[-64.41805,-22.55302],[-64.41031,-22.54174],[-64.42363,-22.53339],[-64.42706,-22.5224],[-64.4499,-22.52098],[-64.45302,-22.51405],[-64.44357,-22.50742],[-64.4477,-22.50338],[-64.45607,-22.50468],[-64.45952,-22.50237],[-64.45867,-22.49511],[-64.46182,-22.49085],[-64.46959,-22.49173],[-64.46844,-22.48787],[-64.47572,-22.48818],[-64.47719,-22.48212],[-64.48348,-22.48004],[-64.48332,-22.47176],[-64.47476,-22.46813],[-64.47908,-22.4608],[-64.48991,-22.45826],[-64.49132,-22.43672],[-64.49481,-22.43458],[-64.50028,-22.4406],[-64.50846,-22.44207],[-64.51645,-22.44844],[-64.52643,-22.44119],[-64.51135,-22.41867],[-64.51221,-22.41487],[-64.53674,-22.39569],[-64.54367,-22.39574],[-64.56423,-22.38053],[-64.56886,-22.36949],[-64.56389,-22.36233],[-64.56727,-22.35734],[-64.56164,-22.3536],[-64.56753,-22.33923],[-64.56396,-22.32015],[-64.54768,-22.31938],[-64.5463,-22.31036],[-64.53928,-22.30576],[-64.53655,-22.29967],[-64.5367,-22.2933],[-64.54702,-22.27743],[-64.5636,-22.26123],[-64.59752,-22.24236],[-64.60209,-22.2264],[-64.61381,-22.21679],[-64.61705,-22.21203],[-64.61633,-22.20647],[-64.62023,-22.20524],[-64.62231,-22.20817],[-64.62687,-22.20282],[-64.63569,-22.2004],[-64.6382,-22.19462],[-64.64951,-22.19041],[-64.66082,-22.19595],[-64.66502,-22.19161],[-64.68252,-22.18633],[-64.70078,-22.19078],[-64.71214,-22.18961],[-64.71257,-22.19254],[-64.72169,-22.19641],[-64.7372,-22.1936],[-64.74415,-22.18968],[-64.7461,-22.18251],[-64.75338,-22.17881],[-64.75801,-22.18086],[-64.76447,-22.17713],[-64.77878,-22.17732],[-64.79087,-22.16406],[-64.79371,-22.16441],[-64.79332,-22.16117],[-64.80748,-22.15576],[-64.81856,-22.14501],[-64.83021,-22.14143],[-64.83248,-22.14396],[-64.836,-22.13893],[-64.84003,-22.13917],[-64.87496,-22.11711],[-64.8782,-22.11744],[-64.88624,-22.12925],[-64.90287,-22.11957],[-64.92379,-22.12124],[-64.93471,-22.11642],[-64.93766,-22.1102],[-64.95263,-22.10694],[-64.95602,-22.10281],[-64.96929,-22.10329],[-64.97054,-22.10004],[-64.98132,-22.09783],[-64.98722,-22.09402],[-64.98885,-22.0886],[-64.99513,-22.08596],[-64.9934,-22.08242],[-65.47311,-22.08864],[-65.48484,-22.09555],[-65.57439,-22.07623],[-65.58336,-22.08487],[-65.58225,-22.09396],[-65.59116,-22.0989],[-65.59352,-22.09592],[-65.60312,-22.09755],[-65.60643,-22.0944],[-65.61253,-22.09517],[-65.62814,-22.10406],[-65.63953,-22.10715],[-65.65058,-22.10499],[-65.65597,-22.11075],[-65.6709,-22.10973],[-65.676,-22.11274],[-65.68549,-22.11048],[-65.70274,-22.09886],[-65.71542,-22.09734],[-65.72431,-22.10717],[-65.74751,-22.1093],[-65.75649,-22.10167],[-65.77381,-22.09504],[-65.79367,-22.07588],[-65.80484,-22.07527],[-65.92477,-21.93357],[-66.04817,-21.91903],[-66.04326,-21.87188],[-66.0763,-21.83495],[-66.19412,-21.796],[-66.22142,-21.78105],[-66.22524,-21.78826],[-66.2371,-21.78741],[-66.24127,-21.78904],[-66.24304,-21.79424],[-66.23669,-21.81808],[-66.24236,-21.83267],[-66.23815,-21.84097],[-66.23857,-21.84744],[-66.23467,-21.8515],[-66.23975,-21.85567],[-66.24059,-21.86755],[-66.24492,-21.87231],[-66.24504,-21.88156],[-66.24983,-21.88915],[-66.24797,-21.8984],[-66.25256,-21.90432],[-66.25875,-21.90413],[-66.26161,-21.9085],[-66.25954,-21.91293],[-66.26251,-21.92749],[-66.25948,-21.93618],[-66.26538,-21.93658],[-66.27428,-21.94411],[-66.27472,-21.96502],[-66.2724,-21.96811],[-66.27556,-21.96838],[-66.27681,-21.97868],[-66.28235,-21.98111],[-66.28472,-21.98813],[-66.28118,-21.9903],[-66.27951,-21.99764],[-66.28249,-22.01614],[-66.27919,-22.02325],[-66.28516,-22.02997],[-66.2923,-22.03203],[-66.2929,-22.03542],[-66.28672,-22.03973],[-66.28659,-22.04398],[-66.29263,-22.05056],[-66.28731,-22.0483],[-66.28454,-22.05273],[-66.29326,-22.0639],[-66.28773,-22.06839],[-66.28478,-22.0673],[-66.29048,-22.07493],[-66.28773,-22.08631],[-66.30825,-22.09472],[-66.31324,-22.08903],[-66.31599,-22.08991],[-66.31781,-22.08469],[-66.32521,-22.08827],[-66.3232,-22.09613],[-66.32853,-22.10384],[-66.32798,-22.11108],[-66.33123,-22.1118],[-66.33217,-22.11899],[-66.33617,-22.12013],[-66.34111,-22.11687],[-66.34872,-22.12067],[-66.34784,-22.12819],[-66.62315,-22.19746],[-66.63823,-22.22557],[-66.65247,-22.21656],[-66.68613,-22.20968],[-66.73918,-22.23839],[-66.7596,-22.32535],[-66.76157,-22.34587],[-66.78428,-22.40175],[-66.78242,-22.43808],[-66.92852,-22.49222],[-66.97291,-22.54049],[-67.02721,-22.54078],[-67.01395,-22.65469],[-67.12773,-22.72206],[-67.1805,-22.81413],[-67.56828,-22.89803],[-67.79846,-22.88122],[-67.82878,-22.85696],[-67.82495,-22.85121],[-67.82623,-22.84527],[-67.83473,-22.84463],[-67.84217,-22.84805],[-67.86836,-22.8337],[-67.88238,-22.83393],[-67.88362,-22.82956],[-67.87922,-22.81384],[-67.88208,-22.80688],[-67.87382,-22.77841],[-67.87407,-22.75997],[-67.8766,-22.75584],[-67.86741,-22.74356],[-67.87513,-22.7384],[-67.89035,-22.71872],[-67.88665,-22.71535],[-67.88724,-22.70425],[-67.88458,-22.7001],[-67.87051,-22.69329],[-67.86801,-22.68064],[-67.87208,-22.6717],[-67.8888,-22.66593],[-67.87843,-22.66614],[-67.87512,-22.66095],[-67.87501,-22.63865],[-67.8798,-22.63826],[-67.87863,-22.63387],[-67.88378,-22.62701],[-67.877,-22.62474],[-67.86626,-22.62709],[-67.85937,-22.62195],[-67.85862,-22.61669],[-67.8549,-22.61496],[-67.86316,-22.60811],[-67.86158,-22.59759],[-67.84346,-22.59382],[-67.8319,-22.58131],[-67.84013,-22.57795],[-67.84585,-22.56954],[-67.84325,-22.56129],[-67.85249,-22.55649],[-67.84321,-22.54692],[-67.84675,-22.54381],[-67.83935,-22.53683],[-67.84109,-22.53278],[-67.85174,-22.53001],[-67.86072,-22.53447],[-67.87113,-22.53135],[-67.87717,-22.52033],[-67.87666,-22.515],[-67.88673,-22.50814],[-67.89261,-22.49918],[-67.89247,-22.44722],[-67.88372,-22.4422],[-67.88805,-22.43699],[-67.89816,-22.43371],[-67.89731,-22.42843],[-67.90022,-22.4266],[-67.89805,-22.42008],[-67.90479,-22.41891],[-67.9039,-22.41143],[-67.89969,-22.40902],[-67.90279,-22.4022],[-67.92259,-22.39245],[-67.93349,-22.39046],[-67.94247,-22.3808],[-67.93326,-22.37537],[-67.93257,-22.36545],[-67.94065,-22.35848],[-67.93083,-22.34461],[-67.93136,-22.34138],[-67.94193,-22.33658],[-67.93937,-22.313],[-67.93245,-22.30534],[-67.93853,-22.29347],[-67.93272,-22.28847],[-67.93236,-22.2812],[-67.93691,-22.27422],[-67.92702,-22.27274],[-67.92135,-22.27572],[-67.91576,-22.27289],[-67.92466,-22.26074],[-67.9212,-22.24126],[-67.92601,-22.2373],[-67.93539,-22.21397],[-67.932,-22.20319],[-67.94033,-22.1967],[-67.93933,-22.18863],[-67.95095,-22.17634],[-67.95552,-22.17698],[-67.9576,-22.16616],[-67.9574,-22.15176],[-67.94918,-22.14813],[-67.94689,-22.13736],[-67.94103,-22.1294],[-67.93917,-22.10748],[-67.94859,-22.09462],[-67.94863,-22.0877],[-67.96238,-22.08185],[-67.9643,-22.07797],[-67.96736,-22.06645],[-67.96535,-22.05374],[-67.97549,-22.0532],[-67.98798,-22.04292],[-68.00738,-22.03956],[-68.01459,-22.02404],[-68.07133,-21.98204],[-68.06073,-21.76958],[-68.07202,-21.76192],[-68.07158,-21.75433],[-68.08667,-21.74735],[-68.11793,-21.68418],[-68.11807,-21.67801],[-68.18061,-21.60406],[-68.17917,-21.30188],[-68.29502,-21.09778],[-68.41249,-20.93453],[-68.41522,-20.94113],[-68.42717,-20.94587],[-68.45916,-20.94412],[-68.47457,-20.9463],[-68.48056,-20.94113],[-68.48429,-20.94696],[-68.49315,-20.94577],[-68.51398,-20.93531],[-68.51421,-20.92997],[-68.52724,-20.91619],[-68.53401,-20.90979],[-68.5415,-20.90776],[-68.54118,-20.89101],[-68.55299,-20.87629],[-68.55533,-20.86667],[-68.54895,-20.85411],[-68.54761,-20.84193],[-68.55547,-20.83356],[-68.5472,-20.8313],[-68.54607,-20.81817],[-68.5408,-20.80773],[-68.54101,-20.79619],[-68.54559,-20.78393],[-68.54145,-20.77597],[-68.55255,-20.75152],[-68.55311,-20.72868],[-68.5319,-20.72244],[-68.52582,-20.6964],[-68.50273,-20.67669],[-68.50154,-20.66918],[-68.47647,-20.66524],[-68.45031,-20.64767],[-68.43902,-20.64396],[-68.44249,-20.63493],[-68.4587,-20.6314],[-68.46134,-20.62312],[-68.47377,-20.61945],[-68.48197,-20.61195],[-68.48371,-20.60626],[-68.51411,-20.60526],[-68.52124,-20.58501],[-68.53522,-20.56959],[-68.54837,-20.57334],[-68.55486,-20.57043],[-68.57042,-20.5754],[-68.57708,-20.57233],[-68.5827,-20.55868],[-68.58954,-20.55582],[-68.5935,-20.54797],[-68.59885,-20.55041],[-68.60864,-20.54541],[-68.61331,-20.53643],[-68.6222,-20.53182],[-68.64177,-20.52388],[-68.64962,-20.52403],[-68.66137,-20.51537],[-68.66633,-20.51643],[-68.73873,-20.45684],[-68.74152,-20.36842],[-68.73372,-20.37363],[-68.71523,-20.36536],[-68.7067,-20.36568],[-68.6749,-20.3571],[-68.66083,-20.33891],[-68.66152,-20.31818],[-68.66923,-20.31307],[-68.66944,-20.30685],[-68.67737,-20.30266],[-68.68011,-20.29525],[-68.69307,-20.2951],[-68.69738,-20.28937],[-68.69384,-20.27507],[-68.69717,-20.25756],[-68.70055,-20.24998],[-68.70669,-20.25246],[-68.71284,-20.24757],[-68.71061,-20.24075],[-68.71494,-20.22724],[-68.6988,-20.21384],[-68.69908,-20.21141],[-68.70887,-20.20937],[-68.71376,-20.1975],[-68.70895,-20.19134],[-68.71063,-20.18794],[-68.70629,-20.17832],[-68.69429,-20.17791],[-68.69403,-20.17461],[-68.7034,-20.15924],[-68.7002,-20.14933],[-68.70517,-20.1326],[-68.71892,-20.13644],[-68.7347,-20.13426],[-68.74596,-20.12345],[-68.7561,-20.12665],[-68.76239,-20.13399],[-68.7737,-20.12969],[-68.76219,-20.07818],[-68.6929,-20.06831],[-68.64019,-20.04879],[-68.56626,-20.05002],[-68.55133,-20.02171],[-68.52159,-19.92427],[-68.5423,-19.89],[-68.52827,-19.84551],[-68.59935,-19.82804],[-68.6265,-19.78354],[-68.65721,-19.76776],[-68.65798,-19.75798],[-68.66617,-19.75214],[-68.68081,-19.74879],[-68.69238,-19.74983],[-68.69558,-19.73887],[-68.68669,-19.7404],[-68.68347,-19.73574],[-68.68555,-19.73073],[-68.68175,-19.71828],[-68.65864,-19.70934],[-68.62518,-19.70215],[-68.61794,-19.69462],[-68.62213,-19.69103],[-68.61886,-19.67602],[-68.61477,-19.67263],[-68.60839,-19.67335],[-68.59979,-19.66148],[-68.59697,-19.65341],[-68.60131,-19.64386],[-68.57239,-19.6056],[-68.55681,-19.59644],[-68.4409,-19.44035],[-68.41247,-19.43098],[-68.41257,-19.42188],[-68.40493,-19.41617],[-68.45145,-19.36811],[-68.5426,-19.29666],[-68.61976,-19.27639],[-68.62828,-19.25107],[-68.71308,-19.17026],[-68.73637,-19.15563],[-68.75093,-19.13298],[-68.80587,-19.08348],[-68.85231,-19.06428],[-68.8709,-19.0604],[-68.88961,-19.04326],[-68.92,-18.97676],[-68.9503,-18.93663],[-68.94182,-18.92965],[-68.93984,-18.91873],[-68.93204,-18.9155],[-68.92528,-18.908],[-68.92404,-18.89866],[-68.91565,-18.89006],[-68.92021,-18.88488],[-68.91871,-18.87276],[-68.9257,-18.84272],[-68.97761,-18.73903],[-68.97541,-18.73743],[-68.97731,-18.7212],[-68.98701,-18.70537],[-68.98303,-18.69801],[-68.98425,-18.67815],[-69.00464,-18.64749],[-69.00888,-18.64569],[-69.01014,-18.63692],[-69.02689,-18.6283],[-69.03352,-18.62886],[-69.03686,-18.62185],[-69.03661,-18.61288],[-69.02896,-18.60932],[-69.02781,-18.60096],[-69.0155,-18.59871],[-69.0074,-18.60142],[-69.01691,-18.57239],[-69.01125,-18.54518],[-69.01297,-18.54187],[-69.00558,-18.52397],[-69.0094,-18.51525],[-69.00868,-18.48901],[-69.00321,-18.48257],[-69.0043,-18.47611],[-69.02973,-18.4562],[-69.02834,-18.44609],[-69.03557,-18.44567],[-69.03984,-18.43228],[-69.04812,-18.4263],[-69.04609,-18.38518],[-69.05275,-18.38167],[-69.05672,-18.37512],[-69.04745,-18.36702],[-69.05393,-18.34732],[-69.0512,-18.33759],[-69.03798,-18.32301],[-69.04577,-18.3121],[-69.05882,-18.30754],[-69.07296,-18.29166],[-69.07254,-18.26492],[-69.06276,-18.23535],[-69.07354,-18.22225],[-69.10581,-18.20726],[-69.119,-18.18844],[-69.13735,-18.17551],[-69.14613,-18.16348],[-69.14244,-18.16004],[-69.14043,-18.14484],[-69.12871,-18.13759],[-69.12796,-18.1279],[-69.10174,-18.11788],[-69.09776,-18.11334],[-69.10057,-18.10468],[-69.08189,-18.09712],[-69.08042,-18.08602],[-69.07588,-18.08822],[-69.07419,-18.08544],[-69.07452,-18.07625],[-69.05708,-18.06122],[-69.06535,-18.04878],[-69.07533,-18.04123],[-69.07983,-18.04382],[-69.0871,-18.04018],[-69.08671,-18.03574],[-69.09574,-18.02229],[-69.10531,-18.02116],[-69.12121,-18.00462],[-69.15207,-17.99937],[-69.16511,-18.00139],[-69.17086,-17.99219],[-69.19974,-17.99069],[-69.22088,-17.98033],[-69.23123,-17.98861],[-69.23535,-17.98383],[-69.2463,-17.98288],[-69.25629,-17.97489],[-69.25344,-17.96771],[-69.25612,-17.954],[-69.26038,-17.96136],[-69.27046,-17.96853],[-69.28099,-17.9698],[-69.28855,-17.96105],[-69.30304,-17.92334],[-69.30212,-17.90792],[-69.30852,-17.89532],[-69.30486,-17.88011],[-69.30695,-17.86974],[-69.29968,-17.85999],[-69.30012,-17.85068],[-69.30656,-17.84099],[-69.30662,-17.82628],[-69.31083,-17.81893],[-69.30957,-17.80004],[-69.31312,-17.78945],[-69.33356,-17.76545],[-69.33938,-17.744],[-69.33541,-17.73875],[-69.33677,-17.73203],[-69.46787,-17.60483],[-69.4693,-17.37344],[-69.57573,-17.29178],[-69.64174,-17.28707],[-69.64498,-17.28121],[-69.63585,-17.27138],[-69.62824,-17.2746],[-69.61648,-17.26237],[-69.60291,-17.21976],[-69.5919,-17.20951],[-69.57745,-17.20647],[-69.56875,-17.1942],[-69.57232,-17.18595],[-69.56146,-17.17607],[-69.55602,-17.16512],[-69.51465,-17.14983],[-69.44985,-17.09582],[-69.43212,-17.10993],[-69.40749,-17.10017],[-69.37368,-17.07253],[-69.37301,-17.04863],[-69.38429,-17.03154],[-69.39443,-17.02281],[-69.36892,-16.98952],[-69.33405,-16.98599],[-69.31995,-16.961],[-69.32442,-16.95193],[-69.30478,-16.91642],[-69.2531,-16.86006],[-69.21939,-16.83673],[-69.19764,-16.79894],[-69.18833,-16.79791],[-69.18622,-16.77717],[-69.18204,-16.77611],[-69.18083,-16.77151],[-69.18343,-16.76468],[-69.17993,-16.75496],[-69.18132,-16.74993],[-69.17158,-16.72618],[-69.16609,-16.72708],[-69.15732,-16.72022],[-69.14612,-16.71855],[-69.13181,-16.70999],[-69.12136,-16.71657],[-69.10078,-16.7116],[-69.08724,-16.70196],[-69.05761,-16.69163],[-69.05419,-16.68689],[-69.04407,-16.68865],[-69.03491,-16.68428],[-69.02395,-16.67202],[-68.99823,-16.66398],[-68.99499,-16.65324],[-68.99731,-16.642],[-69.00199,-16.63731],[-69.00607,-16.63839],[-69.02075,-16.61795],[-69.03263,-16.60818],[-69.03461,-16.58557],[-69.0401,-16.57385],[-68.98865,-16.42539],[-68.80022,-16.34925],[-68.79572,-16.33105],[-68.88827,-16.26433],[-68.96266,-16.19354],[-68.98524,-16.19153],[-69.00783,-16.20839],[-69.00803,-16.218],[-69.01432,-16.21833],[-69.02932,-16.20766],[-69.05511,-16.19774],[-69.0618,-16.20768],[-69.07792,-16.21993],[-69.10231,-16.22512],[-69.27552,-16.11857],[-69.41165,-15.62176],[-69.3141,-15.51836],[-69.30845,-15.50151],[-69.31363,-15.49331],[-69.3001,-15.48623],[-69.31134,-15.47301],[-69.30853,-15.46376],[-69.30303,-15.45968],[-69.28958,-15.43667],[-69.25303,-15.46937],[-69.24022,-15.46041],[-69.23165,-15.44192],[-69.24922,-15.42678],[-69.25969,-15.3741],[-69.24773,-15.37106],[-69.23019,-15.33574],[-69.21482,-15.31723],[-69.20573,-15.32436],[-69.19389,-15.31495],[-69.1924,-15.29524],[-69.17701,-15.27926],[-69.17535,-15.26128],[-69.15589,-15.26832],[-69.13628,-15.25484],[-69.13287,-15.25832],[-69.12162,-15.26024],[-69.12034,-15.25691],[-69.12623,-15.24762],[-69.13238,-15.24625],[-69.13261,-15.22257],[-69.15028,-15.21261],[-69.15293,-15.19866],[-69.16552,-15.19381],[-69.17439,-15.18024],[-69.19126,-15.16568],[-69.18979,-15.15941],[-69.19592,-15.15876],[-69.21522,-15.14212],[-69.21706,-15.13621],[-69.22383,-15.13689],[-69.2247,-15.13259],[-69.22936,-15.13257],[-69.22954,-15.12869],[-69.23679,-15.12369],[-69.2362,-15.12027],[-69.2439,-15.1227],[-69.24087,-15.11806],[-69.2426,-15.11354],[-69.24636,-15.11539],[-69.25288,-15.11157],[-69.25613,-15.11369],[-69.26055,-15.1098],[-69.26874,-15.11745],[-69.26813,-15.10616],[-69.28577,-15.09691],[-69.2861,-15.08479],[-69.28937,-15.08288],[-69.29058,-15.0744],[-69.29846,-15.06949],[-69.29916,-15.06182],[-69.30416,-15.05516],[-69.29926,-15.0488],[-69.3059,-15.04485],[-69.30464,-15.04157],[-69.31487,-15.04173],[-69.32913,-14.99678],[-69.33728,-14.99224],[-69.35468,-14.97248],[-69.35413,-14.96729],[-69.36014,-14.96056],[-69.36181,-14.95009],[-69.36049,-14.93435],[-69.35595,-14.92842],[-69.34399,-14.88258],[-69.35477,-14.8572],[-69.35754,-14.81066],[-69.33587,-14.7917],[-69.33137,-14.78412],[-69.30793,-14.76922],[-69.28349,-14.76439],[-69.2705,-14.76796],[-69.23685,-14.75789],[-69.23123,-14.75229],[-69.22749,-14.74667],[-69.22889,-14.7423],[-69.24017,-14.73013],[-69.23339,-14.72534],[-69.2371,-14.71729],[-69.24476,-14.71354],[-69.25656,-14.68368],[-69.25129,-14.66695],[-69.2359,-14.65717],[-69.22778,-14.65604],[-69.23097,-14.59893],[-69.22346,-14.59306],[-69.2214,-14.58255],[-69.19962,-14.58502],[-69.18847,-14.57888],[-69.17758,-14.58352],[-69.16801,-14.58147],[-69.16393,-14.58446],[-69.15381,-14.5745],[-69.14328,-14.5748],[-69.13773,-14.56246],[-69.14392,-14.54857],[-69.13942,-14.54247],[-69.14267,-14.53176],[-69.14125,-14.52572],[-69.14922,-14.5137],[-69.14698,-14.51062],[-69.13766,-14.50419],[-69.1205,-14.50851],[-69.1162,-14.50359],[-69.113,-14.48635],[-69.10771,-14.4836],[-69.09574,-14.48434],[-69.09216,-14.47951],[-69.09073,-14.4648],[-69.08191,-14.44416],[-69.07408,-14.44617],[-69.06001,-14.44175],[-69.04922,-14.42734],[-69.02797,-14.42544],[-69.02564,-14.40955],[-69.02206,-14.40493],[-69.0042,-14.40348],[-69.0036,-14.38944],[-68.99657,-14.38884],[-68.98637,-14.37737],[-68.98427,-14.3726],[-68.98872,-14.37078],[-68.99364,-14.3622],[-68.99778,-14.34604],[-69.01037,-14.32813],[-69.01501,-14.31356],[-69.00595,-14.30279],[-69.00392,-14.29125],[-68.98935,-14.28117],[-68.99012,-14.27776],[-68.98563,-14.27648],[-68.98484,-14.27084],[-68.9791,-14.26635],[-68.98799,-14.2495],[-68.98544,-14.23777],[-68.97492,-14.23266],[-68.96934,-14.23433],[-68.96938,-14.22498],[-68.96242,-14.21979],[-68.82823,-14.21979],[-68.82685,-14.21567],[-68.83591,-14.20193],[-68.84712,-14.19679],[-68.84609,-14.18933],[-68.85119,-14.18611],[-68.85252,-14.18196],[-68.84992,-14.17859],[-68.85405,-14.17568],[-68.85279,-14.16656],[-68.85618,-14.16456],[-68.84704,-14.15296],[-68.83299,-14.15318],[-68.83608,-14.14724],[-68.83435,-14.14376],[-68.85321,-14.135],[-68.87211,-14.11071],[-68.87594,-14.08713],[-68.88077,-14.0884],[-68.88456,-14.08467],[-68.88294,-14.07549],[-68.87948,-14.07407],[-68.88289,-14.07095],[-68.8802,-14.06554],[-68.8843,-14.05726],[-68.89275,-14.05324],[-68.89063,-14.04673],[-68.89831,-14.04034],[-68.90969,-14.04016],[-68.90975,-14.03609],[-68.91606,-14.03418],[-68.91814,-14.02796],[-68.92338,-14.03013],[-68.93765,-14.0257],[-68.94203,-14.02135],[-68.93905,-14.01535],[-68.94742,-14.01212],[-68.94701,-14.00314],[-68.95424,-14.00463],[-68.96125,-13.99927],[-68.96369,-13.98977],[-68.96771,-13.98483],[-68.97544,-13.98248],[-68.97968,-13.97485],[-68.97199,-13.96433],[-68.97098,-13.95519],[-68.96402,-13.95048],[-68.97385,-13.94459],[-68.98378,-13.92868],[-68.98062,-13.91989],[-68.98506,-13.91203],[-68.9834,-13.89527],[-68.973,-13.88225],[-68.96505,-13.88565],[-68.94791,-13.87144],[-68.94263,-13.84064],[-68.9351,-13.83221],[-68.9243,-13.82865],[-68.92097,-13.81289],[-68.95111,-13.80027],[-68.95336,-13.79309],[-68.95939,-13.79089],[-68.97122,-13.79312],[-68.97384,-13.7967],[-68.99513,-13.78736],[-68.99557,-13.78503],[-68.98455,-13.78636],[-68.97965,-13.7825],[-68.97727,-13.75838],[-68.98948,-13.75272],[-68.99351,-13.74604],[-69.00891,-13.73709],[-69.01396,-13.73995],[-69.02165,-13.73712],[-69.02568,-13.73894],[-69.03382,-13.72863],[-69.03189,-13.72517],[-69.03582,-13.71569],[-69.04167,-13.71717],[-69.0416,-13.714],[-69.04956,-13.71003],[-69.05053,-13.70383],[-69.05597,-13.70238],[-69.05388,-13.70025],[-69.05572,-13.69283],[-69.06698,-13.68791],[-69.06741,-13.67352],[-69.06362,-13.67317],[-69.06376,-13.65898],[-69.03507,-13.63951],[-69.03267,-13.64021],[-69.03332,-13.64422],[-69.03718,-13.64672],[-69.03243,-13.65475],[-69.02947,-13.65518],[-69.02665,-13.64975],[-69.01923,-13.65769],[-69.01623,-13.65339],[-68.9935,-13.65151],[-68.99688,-13.63992],[-68.99039,-13.63527],[-69.00138,-13.63019],[-69.00573,-13.62492],[-69.00455,-13.62234],[-69.00029,-13.62384],[-68.9997,-13.61909],[-68.9924,-13.61862],[-68.98537,-13.61106],[-68.97861,-13.60895],[-68.973,-13.61138],[-68.97387,-13.60164],[-68.96479,-13.60539],[-68.96251,-13.60299],[-68.95264,-13.6044],[-68.95887,-13.58836],[-68.95112,-13.58169],[-68.95084,-13.57233],[-68.94602,-13.56973],[-68.9473,-13.55367],[-68.94156,-13.53946],[-68.94359,-13.53425],[-68.93706,-13.53215],[-68.93724,-13.52965],[-68.93271,-13.53036],[-68.93413,-13.52358],[-68.93128,-13.51933],[-68.92168,-13.51498],[-68.91776,-13.52087],[-68.91475,-13.51894],[-68.91757,-13.5153],[-68.916,-13.50973],[-68.92432,-13.51169],[-68.92293,-13.5078],[-68.91008,-13.50231],[-68.91636,-13.49631],[-68.91004,-13.49756],[-68.90804,-13.49346],[-68.91547,-13.49174],[-68.9178,-13.48512],[-68.9013,-13.47054],[-68.90308,-13.46115],[-68.89673,-13.46044],[-68.89976,-13.45059],[-68.90769,-13.44566],[-68.90504,-13.43881],[-68.90183,-13.43917],[-68.9033,-13.44377],[-68.89684,-13.44659],[-68.90126,-13.43453],[-68.89113,-13.42932],[-68.89737,-13.42104],[-68.8949,-13.41644],[-68.89744,-13.40944],[-68.88656,-13.40405],[-68.88459,-13.39077],[-68.88656,-13.38253],[-68.89195,-13.3862],[-68.89166,-13.38213],[-68.88192,-13.37981],[-68.88894,-13.37262],[-68.87753,-13.37039],[-68.88102,-13.36264],[-68.87299,-13.36254],[-68.87353,-13.35886],[-68.86807,-13.35551],[-68.87522,-13.35614],[-68.87713,-13.35326],[-68.86685,-13.35154],[-68.88095,-13.34248],[-68.86885,-13.33391],[-68.86896,-13.33081],[-68.87656,-13.33041],[-68.87803,-13.33281],[-68.88024,-13.33009],[-68.87274,-13.32553],[-68.87014,-13.31792],[-68.86161,-13.3191],[-68.86143,-13.30143],[-68.86721,-13.3025],[-68.86982,-13.29851],[-68.86743,-13.29508],[-68.86221,-13.29747],[-68.85732,-13.29526],[-68.86161,-13.28594],[-68.85458,-13.28402],[-68.85468,-13.28098],[-68.85819,-13.28049],[-68.86282,-13.27145],[-68.85993,-13.26895],[-68.85197,-13.27449],[-68.84962,-13.27006],[-68.86136,-13.26663],[-68.85922,-13.26292],[-68.85265,-13.26157],[-68.85443,-13.25853],[-68.86139,-13.25846],[-68.85508,-13.24864],[-68.84824,-13.24914],[-68.8449,-13.24483],[-68.85208,-13.23444],[-68.85907,-13.23526],[-68.85386,-13.22694],[-68.85535,-13.22092],[-68.86332,-13.22594],[-68.86211,-13.21163],[-68.85854,-13.21093],[-68.85574,-13.21767],[-68.85261,-13.21674],[-68.85219,-13.21163],[-68.86061,-13.19807],[-68.86179,-13.19011],[-68.86763,-13.19094],[-68.86844,-13.18475],[-68.87372,-13.1809],[-68.86801,-13.17966],[-68.86115,-13.18529],[-68.86001,-13.18156],[-68.86415,-13.17599],[-68.8563,-13.17142],[-68.8583,-13.16881],[-68.86663,-13.17242],[-68.87191,-13.16709],[-68.86715,-13.16657],[-68.86668,-13.15582],[-68.85859,-13.14882],[-68.86315,-13.15039],[-68.86834,-13.14563],[-68.87153,-13.1482],[-68.86641,-13.13604],[-68.87259,-13.13441],[-68.87361,-13.14123],[-68.87656,-13.14067],[-68.87841,-13.13485],[-68.87314,-13.13129],[-68.87124,-13.12313],[-68.86639,-13.11871],[-68.86886,-13.11547],[-68.87542,-13.11755],[-68.87581,-13.11409],[-68.86429,-13.108],[-68.86006,-13.09548],[-68.87029,-13.08125],[-68.87019,-13.07859],[-68.85977,-13.07326],[-68.85511,-13.0646],[-68.85658,-13.05732],[-68.86339,-13.05736],[-68.86291,-13.0458],[-68.84897,-13.04704],[-68.85506,-13.04332],[-68.85506,-13.03928],[-68.85083,-13.03738],[-68.8533,-13.03152],[-68.86317,-13.03565],[-68.86786,-13.02952],[-68.85907,-13.02737],[-68.8582,-13.01901],[-68.8533,-13.01539],[-68.85877,-13.01277],[-68.8741,-13.01829],[-68.87629,-13.01196],[-68.86752,-13.0104],[-68.87381,-13.00185],[-68.86615,-12.99461],[-68.8701,-12.98722],[-68.87976,-12.98874],[-68.87633,-12.98455],[-68.86582,-12.98555],[-68.86172,-12.97903],[-68.8682,-12.96904],[-68.87267,-12.97408],[-68.87043,-12.9807],[-68.87495,-12.98017],[-68.8769,-12.97599],[-68.87445,-12.96467],[-68.87762,-12.95671],[-68.88361,-12.95552],[-68.88252,-12.95286],[-68.87529,-12.95224],[-68.87314,-12.94329],[-68.8701,-12.94719],[-68.86101,-12.94886],[-68.85911,-12.94543],[-68.87543,-12.93734],[-68.86501,-12.93092],[-68.86058,-12.92359],[-68.8751,-12.91993],[-68.87548,-12.9154],[-68.86765,-12.90315],[-68.87281,-12.89941],[-68.86515,-12.89356],[-68.87243,-12.88956],[-68.86448,-12.87262],[-68.87148,-12.86948],[-68.85996,-12.86496],[-68.85796,-12.85792],[-68.85216,-12.86653],[-68.84668,-12.86358],[-68.84497,-12.85716],[-68.83721,-12.85915],[-68.83398,-12.85711],[-68.84221,-12.8434],[-68.84078,-12.84069],[-68.83231,-12.84397],[-68.83945,-12.82808],[-68.83303,-12.83112],[-68.82974,-12.83027],[-68.82993,-12.82675],[-68.84026,-12.82389],[-68.83298,-12.80923],[-68.82603,-12.81328],[-68.82503,-12.80504],[-68.81371,-12.80524],[-68.80909,-12.80961],[-68.81137,-12.799],[-68.81737,-12.79729],[-68.81904,-12.79105],[-68.81247,-12.78368],[-68.80528,-12.78411],[-68.80971,-12.77687],[-68.80481,-12.76921],[-68.80776,-12.76374],[-68.803,-12.7616],[-68.8049,-12.75527],[-68.7931,-12.76012],[-68.78967,-12.75812],[-68.78068,-12.73295],[-68.77711,-12.73832],[-68.77126,-12.73799],[-68.76788,-12.74256],[-68.7527,-12.731],[-68.74784,-12.7309],[-68.73985,-12.71691],[-68.72923,-12.71315],[-68.73661,-12.70949],[-68.74135,-12.71331],[-68.74218,-12.70663],[-68.72833,-12.69997],[-68.72538,-12.69545],[-68.72866,-12.68845],[-68.72233,-12.68826],[-68.71301,-12.68179],[-68.71815,-12.67746],[-68.72029,-12.66817],[-68.72481,-12.66799],[-68.72789,-12.67443],[-68.73057,-12.66699],[-68.73577,-12.66614],[-68.73752,-12.65652],[-68.73166,-12.65171],[-68.74151,-12.6332],[-68.73456,-12.62444],[-68.73318,-12.61117],[-68.72243,-12.6027],[-68.71477,-12.60522],[-68.71025,-12.58994],[-68.70435,-12.58671],[-68.70182,-12.58009],[-68.69963,-12.57995],[-68.69916,-12.5869],[-68.69573,-12.58799],[-68.69302,-12.58471],[-68.70006,-12.57281],[-68.69269,-12.5642],[-68.69216,-12.55768],[-68.67555,-12.55373],[-68.67313,-12.54112],[-68.67541,-12.52941],[-68.68193,-12.52789],[-68.68182,-12.52195],[-68.66375,-12.52498],[-68.66175,-12.53521],[-68.65542,-12.53383],[-68.65619,-12.5237],[-68.66094,-12.51818],[-68.65366,-12.51023],[-68.65233,-12.49812],[-68.97008,-11.91815],[-69.56565,-10.96648],[-69.56247,-10.96567],[-69.56331,-10.95951],[-69.56826,-10.95671],[-69.56989,-10.94775],[-69.57521,-10.95016],[-69.57307,-10.94615],[-69.56743,-10.94436],[-69.55236,-10.94797],[-69.54759,-10.95376],[-69.54117,-10.95176],[-69.54348,-10.94325],[-69.53888,-10.93721],[-69.5202,-10.9365],[-69.50788,-10.94401],[-69.50118,-10.93628],[-69.49479,-10.95009],[-69.48663,-10.94995],[-69.47811,-10.95495],[-69.47618,-10.95175],[-69.47877,-10.94618],[-69.47459,-10.94448],[-69.46531,-10.95088],[-69.4587,-10.94684],[-69.4536,-10.94833],[-69.45265,-10.93741],[-69.43511,-10.93395],[-69.42907,-10.93818],[-69.42498,-10.93506],[-69.42552,-10.92815],[-69.4173,-10.92542],[-69.41403,-10.92682],[-69.41223,-10.93778],[-69.40533,-10.92943],[-69.40082,-10.93058],[-69.39467,-10.94513],[-69.39032,-10.94208],[-69.3956,-10.93873],[-69.39557,-10.93515],[-69.3874,-10.93377],[-69.38887,-10.93845],[-69.38556,-10.94264],[-69.37791,-10.94236],[-69.37536,-10.95631],[-69.37268,-10.95492],[-69.37393,-10.94131],[-69.37043,-10.93867],[-69.36432,-10.94002],[-69.35574,-10.94558],[-69.35424,-10.94286],[-69.35762,-10.93897],[-69.35508,-10.93618],[-69.34495,-10.93947],[-69.34719,-10.94669],[-69.34269,-10.95212],[-69.33661,-10.94086],[-69.33469,-10.94677],[-69.32968,-10.95057],[-69.3274,-10.94862],[-69.32645,-10.93619],[-69.32264,-10.93678],[-69.31973,-10.94464],[-69.30382,-10.94853],[-69.29809,-10.94693],[-69.29014,-10.95048],[-69.28525,-10.94883],[-69.28649,-10.94413],[-69.28243,-10.94386],[-69.27506,-10.95487],[-69.27085,-10.9505],[-69.27544,-10.94797],[-69.27534,-10.94387],[-69.27074,-10.94144],[-69.25827,-10.94219],[-69.2529,-10.93924],[-69.25057,-10.94275],[-69.25694,-10.94361],[-69.25783,-10.94674],[-69.23984,-10.95141],[-69.23239,-10.94015],[-69.22527,-10.94855],[-69.2204,-10.94877],[-69.21494,-10.95814],[-69.20125,-10.94814],[-69.18998,-10.95038],[-69.1869,-10.94794],[-69.18339,-10.95454],[-69.17108,-10.95862],[-69.16657,-10.96533],[-69.16112,-10.96543],[-69.15213,-10.95464],[-69.15098,-10.95785],[-69.15581,-10.96477],[-69.1442,-10.96416],[-69.15087,-10.97137],[-69.13863,-10.96805],[-69.13574,-10.97277],[-69.12197,-10.9667],[-69.12132,-10.98108],[-69.11219,-10.97101],[-69.10773,-10.97259],[-69.10382,-10.98096],[-69.0981,-10.97988],[-69.08709,-10.97031],[-69.07968,-10.97601],[-69.07261,-10.96758],[-69.06946,-10.96852],[-69.06872,-10.97595],[-69.06169,-10.98535],[-69.0517,-10.97438],[-69.04799,-10.97473],[-69.0498,-10.98076],[-69.04364,-10.9808],[-69.03934,-10.97657],[-69.0348,-10.98574],[-69.02805,-10.9825],[-69.02577,-10.99186],[-69.01395,-10.99017],[-69.01107,-10.99265],[-69.01057,-10.9957],[-69.01635,-11.00102],[-69.00809,-11.00186],[-69.00319,-11.0081],[-68.99757,-11.00259],[-68.99139,-11.01127],[-68.98399,-11.00839],[-68.98756,-10.99797],[-68.98063,-10.99614],[-68.97375,-10.98932],[-68.96675,-10.9875],[-68.96022,-10.99254],[-68.95412,-10.98953],[-68.95749,-10.99975],[-68.95618,-11.00316],[-68.9472,-11.00502],[-68.94817,-11.01063],[-68.94479,-11.01196],[-68.93687,-11.00417],[-68.93266,-11.00508],[-68.93169,-11.01183],[-68.92672,-11.01227],[-68.92521,-11.018],[-68.92014,-11.01351],[-68.90961,-11.02206],[-68.90484,-11.01317],[-68.89447,-11.00655],[-68.88841,-11.01179],[-68.88814,-11.0168],[-68.87993,-11.02133],[-68.8772,-11.0205],[-68.87616,-11.01416],[-68.87925,-11.01183],[-68.88187,-11.01757],[-68.88464,-11.01606],[-68.88575,-11.01139],[-68.88305,-11.00834],[-68.8733,-11.00862],[-68.87187,-11.01304],[-68.8603,-11.01643],[-68.8605,-11.0057],[-68.85006,-10.99307],[-68.84159,-10.99347],[-68.84189,-10.99827],[-68.84567,-10.9995],[-68.83951,-11.00203],[-68.83454,-10.99331],[-68.82623,-10.99678],[-68.82684,-10.99994],[-68.83173,-11.00063],[-68.82875,-11.00649],[-68.8229,-11.00253],[-68.81774,-11.00513],[-68.81147,-11.00083],[-68.80412,-11.00121],[-68.81121,-10.99406],[-68.80153,-10.99436],[-68.7982,-10.98967],[-68.79309,-10.98977],[-68.79889,-10.99746],[-68.78913,-11.002],[-68.78925,-11.01452],[-68.78641,-11.01356],[-68.78701,-11.00378],[-68.78073,-10.99835],[-68.77912,-11.00469],[-68.77055,-11.00679],[-68.75931,-10.99984],[-68.75718,-11.00797],[-68.76357,-11.01246],[-68.76216,-11.0184],[-68.75447,-11.00885],[-68.74775,-11.00952],[-68.75289,-11.02364],[-68.75245,-11.0368],[-68.76064,-11.03985],[-68.76518,-11.04943],[-68.76013,-11.05641],[-68.76549,-11.06627],[-68.76267,-11.07226],[-68.75842,-11.07382],[-68.75636,-11.08469],[-68.74887,-11.09332],[-68.74217,-11.09748],[-68.73581,-11.09355],[-68.73007,-11.09877],[-68.72702,-11.1073],[-68.72263,-11.10812],[-68.7221,-11.11606],[-68.71141,-11.12901],[-68.71686,-11.14297],[-68.71547,-11.14746],[-68.65614,-11.13681],[-68.57849,-11.11335],[-68.54316,-11.10958],[-68.54406,-11.10045],[-68.54153,-11.09667],[-68.51961,-11.08687],[-68.50817,-11.07422],[-68.5063,-11.06349],[-68.48882,-11.05071],[-68.46436,-11.05009],[-68.46113,-11.04647],[-68.44678,-11.04546],[-68.43859,-11.04142],[-68.43632,-11.03273],[-68.42921,-11.03184],[-68.4226,-11.04231],[-68.41263,-11.03915],[-68.40967,-11.04813],[-68.40424,-11.05306],[-68.38924,-11.04211],[-68.39013,-11.03027],[-68.38468,-11.01814],[-68.36053,-11.0064],[-68.34115,-11.00506],[-68.33772,-11.00707],[-68.33811,-11.01171],[-68.33397,-11.01339],[-68.32542,-11.00913],[-68.32069,-11.00006],[-68.31008,-10.99629],[-68.31096,-10.992],[-68.29392,-10.98775],[-68.2745,-10.99055],[-68.27125,-10.97895],[-68.25829,-10.97463],[-68.25123,-10.96254],[-68.23563,-10.95313],[-68.22741,-10.9257],[-68.23038,-10.9194],[-68.22591,-10.91915],[-68.22325,-10.91193],[-68.21531,-10.90629],[-68.20887,-10.9051],[-68.20476,-10.8931],[-68.20621,-10.88012],[-68.19975,-10.87902],[-68.19704,-10.86044],[-68.18279,-10.85676],[-68.17316,-10.84074],[-68.16113,-10.83331],[-68.1538,-10.82106],[-68.14739,-10.81927],[-68.11973,-10.79003],[-68.11809,-10.78394],[-68.10828,-10.78061],[-68.10393,-10.77327],[-68.10714,-10.7646],[-68.09706,-10.74955],[-68.10575,-10.73938],[-68.10803,-10.72467],[-68.10536,-10.71609],[-68.09458,-10.70887],[-68.09717,-10.70678],[-68.09185,-10.70518],[-68.08778,-10.69782],[-68.07827,-10.69157],[-68.07621,-10.68529],[-68.06611,-10.68514],[-68.05523,-10.67045],[-68.04665,-10.67195],[-68.03342,-10.66631],[-68.03022,-10.6629],[-68.03357,-10.66216],[-68.03247,-10.65579],[-68.02846,-10.65843],[-68.023,-10.65426],[-68.02377,-10.65161],[-68.00246,-10.64936],[-67.98402,-10.65499],[-67.97623,-10.6629],[-67.9634,-10.65053],[-67.9314,-10.65558],[-67.91304,-10.6492],[-67.90924,-10.6418],[-67.89914,-10.64366],[-67.89408,-10.64806],[-67.88636,-10.63971],[-67.8793,-10.63985],[-67.87702,-10.64446],[-67.86397,-10.64096],[-67.8605,-10.64509],[-67.84469,-10.64905],[-67.84206,-10.65295],[-67.82731,-10.65158],[-67.81908,-10.65854],[-67.81754,-10.66462],[-67.81016,-10.66104],[-67.80857,-10.66742],[-67.7925,-10.67674],[-67.78179,-10.67742],[-67.77431,-10.6861],[-67.76652,-10.68924],[-67.76117,-10.68473],[-67.75785,-10.68637],[-67.75611,-10.69549],[-67.7455,-10.69873],[-67.74305,-10.70918],[-67.74027,-10.70766],[-67.73288,-10.71352],[-67.72847,-10.71332],[-67.72594,-10.70675],[-67.722,-10.71114],[-67.7132,-10.70672],[-67.7074,-10.70983],[-67.67572,-10.60545],[-67.6714,-10.60567],[-67.65949,-10.6151],[-67.64043,-10.59875],[-67.63612,-10.59192],[-67.63533,-10.58052],[-67.61043,-10.56373],[-67.6048,-10.53363],[-67.60041,-10.53351],[-67.59413,-10.52134],[-67.57786,-10.51742],[-67.56906,-10.5117],[-67.56721,-10.50016],[-67.5378,-10.48845],[-67.51993,-10.49144],[-67.51382,-10.47733],[-67.51062,-10.47831],[-67.5039,-10.47137],[-67.4936,-10.47348],[-67.47675,-10.46742],[-67.46755,-10.45476],[-67.45282,-10.45546],[-67.43701,-10.44979],[-67.43103,-10.42973],[-67.42585,-10.42669],[-67.41956,-10.42926],[-67.41436,-10.42621],[-67.41135,-10.41867],[-67.41432,-10.40135],[-67.4215,-10.39771],[-67.42366,-10.3914],[-67.40719,-10.37293],[-67.4018,-10.37142],[-67.39547,-10.37846],[-67.39372,-10.37545],[-67.37887,-10.38297],[-67.36836,-10.3761],[-67.36398,-10.37768],[-67.35913,-10.38895],[-67.35165,-10.39286],[-67.35428,-10.38192],[-67.35134,-10.37876],[-67.33829,-10.37643],[-67.32988,-10.38403],[-67.31105,-10.37573],[-67.31911,-10.36074],[-67.31559,-10.34732],[-67.328,-10.33492],[-67.32415,-10.32602],[-67.31597,-10.31873],[-67.30266,-10.32421],[-67.29786,-10.32131],[-67.29372,-10.32551],[-67.28531,-10.31948],[-67.27633,-10.32209],[-67.26266,-10.33229],[-67.24338,-10.32388],[-67.2411,-10.31823],[-67.22421,-10.31553],[-67.22012,-10.32281],[-67.21611,-10.32063],[-67.21422,-10.32429],[-67.2117,-10.3221],[-67.19641,-10.32369],[-67.18865,-10.33924],[-67.17983,-10.33949],[-67.16961,-10.3372],[-67.16446,-10.33011],[-67.14381,-10.3265],[-67.13458,-10.31571],[-67.12961,-10.31678],[-67.12801,-10.31465],[-67.13373,-10.30964],[-67.14061,-10.30893],[-67.14051,-10.30653],[-67.13758,-10.29827],[-67.12531,-10.2904],[-67.11779,-10.2929],[-67.10649,-10.28878],[-67.10488,-10.28535],[-67.09999,-10.28655],[-67.09825,-10.28215],[-67.08836,-10.28508],[-67.08898,-10.29042],[-67.07884,-10.28899],[-67.07629,-10.28416],[-67.07233,-10.28529],[-67.0476,-10.27522],[-67.05315,-10.27186],[-67.05105,-10.26725],[-67.04296,-10.26618],[-67.03929,-10.26154],[-67.03448,-10.2638],[-67.03032,-10.25631],[-67.02419,-10.25799],[-67.0238,-10.25441],[-67.01524,-10.25808],[-67.00452,-10.24374],[-67.00574,-10.22973],[-66.99767,-10.23062],[-66.99464,-10.22797],[-66.9952,-10.22315],[-66.98927,-10.22201],[-66.99189,-10.21723],[-66.99711,-10.21953],[-67.00092,-10.21705],[-66.99861,-10.21195],[-66.99339,-10.21075],[-66.99681,-10.199],[-66.99239,-10.19927],[-66.99378,-10.20243],[-66.99127,-10.2037],[-66.98131,-10.19414],[-66.97591,-10.19651],[-66.9816,-10.18933],[-66.97687,-10.18782],[-66.97643,-10.19073],[-66.96938,-10.19228],[-66.96147,-10.18269],[-66.95924,-10.19155],[-66.9513,-10.18636],[-66.94593,-10.15835],[-66.94041,-10.15434],[-66.93344,-10.15538],[-66.9347,-10.14792],[-66.93148,-10.14885],[-66.92369,-10.14318],[-66.9109,-10.14684],[-66.91093,-10.14035],[-66.91909,-10.13389],[-66.91874,-10.1302],[-66.9137,-10.12925],[-66.91126,-10.13272],[-66.90943,-10.1253],[-66.90354,-10.12747],[-66.90205,-10.12344],[-66.89683,-10.12287],[-66.89818,-10.11057],[-66.88875,-10.11396],[-66.88782,-10.09918],[-66.88544,-10.09996],[-66.88556,-10.10836],[-66.88026,-10.10483],[-66.8819,-10.10013],[-66.87956,-10.09627],[-66.87729,-10.10098],[-66.87322,-10.10136],[-66.87105,-10.09472],[-66.87479,-10.0906],[-66.87424,-10.08095],[-66.8667,-10.08483],[-66.85288,-10.0816],[-66.85244,-10.08746],[-66.84382,-10.08627],[-66.8374,-10.08164],[-66.84047,-10.07007],[-66.83603,-10.06876],[-66.83459,-10.06086],[-66.82203,-10.0593],[-66.81763,-10.05231],[-66.80709,-10.04908],[-66.80707,-10.04454],[-66.80226,-10.04342],[-66.80745,-10.03731],[-66.80206,-10.03579],[-66.78983,-10.02186],[-66.77967,-10.01743],[-66.772,-10.02117],[-66.77287,-10.01271],[-66.76436,-10.00675],[-66.76451,-10.00035],[-66.76142,-9.99843],[-66.75438,-10.00074],[-66.74987,-9.99344],[-66.74262,-9.99682],[-66.73967,-9.99528],[-66.73451,-9.98298],[-66.72905,-9.98006],[-66.72034,-9.98286],[-66.72224,-9.97948],[-66.718,-9.97339],[-66.71363,-9.97868],[-66.69539,-9.971],[-66.69507,-9.96695],[-66.68126,-9.96504],[-66.67579,-9.96768],[-66.67779,-9.95855],[-66.67511,-9.95647],[-66.66849,-9.95915],[-66.66917,-9.95341],[-66.66317,-9.94822],[-66.66619,-9.94478],[-66.66336,-9.93713],[-66.65667,-9.93549],[-66.65578,-9.94044],[-66.65041,-9.93643],[-66.64907,-9.94422],[-66.63697,-9.94958],[-66.63248,-9.93542],[-66.62563,-9.93338],[-66.62634,-9.93044],[-66.63639,-9.92657],[-66.63306,-9.92046],[-66.62661,-9.91943],[-66.63498,-9.91115],[-66.62454,-9.90555],[-66.62734,-9.89863],[-66.61959,-9.89357],[-66.59135,-9.89753],[-66.58016,-9.90373],[-66.57922,-9.89421],[-66.57447,-9.88861],[-66.56707,-9.89358],[-66.56171,-9.8868],[-66.5665,-9.8855],[-66.56243,-9.88003],[-66.55059,-9.88827],[-66.54615,-9.88493],[-66.54456,-9.87713],[-66.53031,-9.88619],[-66.51744,-9.883],[-66.51493,-9.87585],[-66.50257,-9.87422],[-66.49927,-9.8769],[-66.50336,-9.88281],[-66.49597,-9.88416],[-66.49132,-9.88023],[-66.48873,-9.86816],[-66.48118,-9.867],[-66.46932,-9.869],[-66.46362,-9.87703],[-66.4558,-9.87974],[-66.4539,-9.87795],[-66.45899,-9.87221],[-66.44493,-9.87129],[-66.43478,-9.86542],[-66.42544,-9.87407],[-66.43269,-9.89422],[-66.42717,-9.89917],[-66.41324,-9.89503],[-66.41317,-9.89256],[-66.42071,-9.89578],[-66.4243,-9.89251],[-66.42386,-9.88728],[-66.41672,-9.88143],[-66.41294,-9.882],[-66.41104,-9.87376],[-66.40395,-9.86899],[-66.40527,-9.86428],[-66.39556,-9.86374],[-66.38369,-9.8679],[-66.35989,-9.86566],[-66.35597,-9.84676],[-66.35243,-9.8462],[-66.35235,-9.84032],[-66.34713,-9.83805],[-66.33578,-9.83949],[-66.32565,-9.83467],[-66.31661,-9.83539],[-66.31594,-9.83094],[-66.31171,-9.83125],[-66.30728,-9.84018],[-66.30428,-9.83467],[-66.286,-9.84406],[-66.28204,-9.83949],[-66.28421,-9.83118],[-66.27685,-9.82682],[-66.27497,-9.83459],[-66.26236,-9.82927],[-66.25719,-9.83372],[-66.25267,-9.83238],[-66.24725,-9.81994],[-66.24263,-9.82356],[-66.23772,-9.8136],[-66.23487,-9.81315],[-66.21148,-9.8351],[-66.20207,-9.83386],[-66.19517,-9.82939],[-66.19659,-9.81966],[-66.1865,-9.8226],[-66.19232,-9.81434],[-66.19739,-9.81343],[-66.19545,-9.80517],[-66.1752,-9.80217],[-66.17651,-9.79691],[-66.17201,-9.79199],[-66.15113,-9.78435],[-66.14674,-9.78707],[-66.1464,-9.79103],[-66.14183,-9.78684],[-66.1302,-9.78893],[-66.12831,-9.78531],[-66.12324,-9.78763],[-66.12358,-9.79052],[-66.11497,-9.78922],[-66.11097,-9.7839],[-66.10344,-9.78186],[-66.09745,-9.78973],[-66.10172,-9.80483],[-66.09719,-9.81211],[-66.09222,-9.81365],[-66.08479,-9.79736],[-66.07874,-9.79471],[-66.08667,-9.79114],[-66.08679,-9.78837],[-66.06984,-9.78265],[-66.03699,-9.78531],[-66.02906,-9.81009],[-66.02478,-9.81298],[-66.00345,-9.79471],[-66.00082,-9.79465],[-65.99843,-9.80495],[-65.98907,-9.80234],[-65.98456,-9.8093],[-65.982,-9.80794],[-65.98388,-9.80314],[-65.98051,-9.80217],[-65.96688,-9.80579],[-65.96426,-9.80229],[-65.9747,-9.79867],[-65.97624,-9.78616],[-65.97356,-9.77547],[-65.96758,-9.77113],[-65.95295,-9.76864],[-65.94308,-9.76037],[-65.93579,-9.7693],[-65.92558,-9.76172],[-65.92218,-9.75312],[-65.91537,-9.7548],[-65.91633,-9.76289],[-65.90493,-9.76711],[-65.90123,-9.76547],[-65.9003,-9.76013],[-65.88958,-9.7572],[-65.88688,-9.75213],[-65.87236,-9.75312],[-65.86717,-9.76472],[-65.86218,-9.76794],[-65.86915,-9.77395],[-65.86927,-9.7848],[-65.87332,-9.78936],[-65.8686,-9.79403],[-65.85821,-9.79549],[-65.84685,-9.78975],[-65.84153,-9.79069],[-65.84418,-9.78439],[-65.83392,-9.7764],[-65.82868,-9.76705],[-65.81968,-9.76569],[-65.82103,-9.75894],[-65.81787,-9.75557],[-65.80535,-9.7619],[-65.80111,-9.75657],[-65.801,-9.76438],[-65.80402,-9.76817],[-65.8119,-9.7697],[-65.81269,-9.77654],[-65.80587,-9.78923],[-65.79735,-9.78707],[-65.79438,-9.79289],[-65.78189,-9.78509],[-65.78012,-9.77207],[-65.77459,-9.76607],[-65.78005,-9.74378],[-65.77527,-9.73474],[-65.76931,-9.73456],[-65.76615,-9.73897],[-65.77174,-9.75113],[-65.77175,-9.75926],[-65.75651,-9.76675],[-65.74589,-9.78205],[-65.74138,-9.78285],[-65.73587,-9.77908],[-65.73588,-9.76663],[-65.72711,-9.75909],[-65.7072,-9.75742],[-65.69498,-9.7491],[-65.6844,-9.7502],[-65.68653,-9.76045],[-65.68299,-9.76248],[-65.67912,-9.76021],[-65.68003,-9.76653],[-65.68714,-9.76973],[-65.70141,-9.76434],[-65.70824,-9.76724],[-65.70987,-9.77158],[-65.70049,-9.78435],[-65.7002,-9.79205],[-65.7091,-9.80308],[-65.70968,-9.80865],[-65.68992,-9.8135],[-65.69033,-9.80253],[-65.66981,-9.78115],[-65.66021,-9.79384],[-65.64453,-9.79272],[-65.64526,-9.79914],[-65.65325,-9.80652],[-65.65177,-9.81398],[-65.64667,-9.81652],[-65.63525,-9.80547],[-65.63113,-9.83278],[-65.62748,-9.83801],[-65.60856,-9.82632],[-65.60058,-9.82486],[-65.59716,-9.8276],[-65.59878,-9.84106],[-65.59642,-9.84317],[-65.57038,-9.83756],[-65.55897,-9.84557],[-65.55235,-9.83634],[-65.56416,-9.81988],[-65.56493,-9.81028],[-65.55818,-9.81109],[-65.55386,-9.80464],[-65.5383,-9.80171],[-65.533,-9.78241],[-65.51525,-9.79318],[-65.50194,-9.78657],[-65.49792,-9.78086],[-65.49821,-9.7749],[-65.50395,-9.76723],[-65.50456,-9.74808],[-65.50033,-9.74078],[-65.50086,-9.73006],[-65.48198,-9.72811],[-65.48869,-9.71809],[-65.48925,-9.71158],[-65.48597,-9.70797],[-65.48253,-9.71492],[-65.47112,-9.71401],[-65.44779,-9.69794],[-65.441,-9.68311],[-65.44617,-9.66854],[-65.39359,-9.68669],[-65.3783,-9.69712],[-65.35719,-9.71988],[-65.32921,-9.77813],[-65.32087,-9.81411],[-65.29472,-9.83084],[-65.28941,-9.83633],[-65.28684,-9.84526],[-65.28832,-9.86591],[-65.2958,-9.87845],[-65.31227,-9.89312],[-65.32122,-9.90601],[-65.33341,-9.93752],[-65.33235,-9.96624],[-65.32162,-9.98886],[-65.32185,-10.00914],[-65.32936,-10.0432],[-65.32841,-10.06384],[-65.31803,-10.08241],[-65.30403,-10.09485],[-65.30146,-10.10102],[-65.30094,-10.14208],[-65.30614,-10.16926],[-65.30077,-10.19096],[-65.28987,-10.21592],[-65.29004,-10.223],[-65.29677,-10.2411],[-65.31054,-10.25532],[-65.3203,-10.29387],[-65.32619,-10.30523],[-65.34971,-10.32265],[-65.3621,-10.34301],[-65.37373,-10.35038],[-65.39089,-10.37192],[-65.39104,-10.38164],[-65.37984,-10.40177],[-65.38062,-10.42626],[-65.39043,-10.4476],[-65.40282,-10.46324],[-65.42238,-10.46481],[-65.42888,-10.47737],[-65.42952,-10.48601],[-65.41132,-10.50293],[-65.41146,-10.51513],[-65.41924,-10.52463],[-65.42145,-10.53255],[-65.4161,-10.54283],[-65.4047,-10.55375],[-65.39806,-10.58065],[-65.3979,-10.58623],[-65.4096,-10.59994],[-65.40907,-10.61634],[-65.40382,-10.62611],[-65.40622,-10.63924],[-65.39468,-10.64512],[-65.37772,-10.64495],[-65.35933,-10.65649],[-65.35225,-10.66511],[-65.34511,-10.68909],[-65.34397,-10.71028],[-65.34894,-10.74597],[-65.34471,-10.76904],[-65.3493,-10.7791],[-65.36487,-10.77927],[-65.36742,-10.79541],[-65.36445,-10.80011],[-65.34346,-10.80711],[-65.32124,-10.82204],[-65.27733,-10.86761],[-65.2695,-10.89411],[-65.26705,-10.92089],[-65.27453,-10.95116],[-65.26973,-10.96212],[-65.25289,-10.98017],[-65.25039,-10.98789],[-65.27693,-11.00615],[-65.30028,-11.0294],[-65.29834,-11.03825],[-65.28812,-11.04864],[-65.28024,-11.06509],[-65.2799,-11.07965],[-65.28521,-11.0921],[-65.3315,-11.10677],[-65.35147,-11.12172],[-65.3611,-11.13544],[-65.36247,-11.14789],[-65.35311,-11.18507],[-65.34391,-11.18587],[-65.3256,-11.1803],[-65.31733,-11.18399],[-65.31226,-11.19361],[-65.32,-11.20467],[-65.35551,-11.21437],[-65.36133,-11.22715],[-65.36128,-11.25149],[-65.35071,-11.29317],[-65.34289,-11.30853],[-65.31972,-11.31477],[-65.29383,-11.31487],[-65.29029,-11.32036],[-65.29572,-11.33349],[-65.30126,-11.33532],[-65.32334,-11.33195],[-65.33134,-11.33376],[-65.33409,-11.34052],[-65.3213,-11.43336],[-65.30725,-11.49882],[-65.26819,-11.51241],[-65.22455,-11.51514],[-65.21611,-11.52103],[-65.21257,-11.52805],[-65.21257,-11.53896],[-65.22981,-11.55644],[-65.22976,-11.58265],[-65.23391,-11.60245],[-65.23147,-11.61623],[-65.21817,-11.63012],[-65.21579,-11.63657],[-65.21737,-11.65626],[-65.22148,-11.6658],[-65.23455,-11.68068],[-65.25911,-11.69772],[-65.25921,-11.71055],[-65.24803,-11.72296],[-65.21445,-11.7452],[-65.18076,-11.75597],[-65.17602,-11.75431],[-65.17419,-11.74866],[-65.19469,-11.73375],[-65.19538,-11.72763],[-65.18961,-11.72239],[-65.17137,-11.72017],[-65.13171,-11.7231],[-65.1017,-11.7029],[-65.08774,-11.7067],[-65.08417,-11.713],[-65.08254,-11.73684],[-65.06457,-11.76745],[-65.05966,-11.78677],[-65.06163,-11.82284],[-65.07397,-11.85722],[-65.07403,-11.86596],[-65.06226,-11.88292],[-65.02891,-11.88671],[-65.02045,-11.88964],[-65.01569,-11.89593],[-65.01715,-11.91415],[-65.02682,-11.94212],[-65.04203,-11.95979],[-65.04001,-11.96564],[-65.02706,-11.96856],[-65.02825,-11.97511],[-65.03776,-11.98623],[-65.03348,-11.99653],[-65.02147,-11.9977],[-65.00424,-11.99307],[-64.99901,-11.99582],[-64.98491,-12.0149],[-64.97664,-12.01835],[-64.97087,-12.01449],[-64.96491,-11.99863],[-64.94696,-11.99278],[-64.92905,-12.02275],[-64.91826,-12.02692],[-64.87994,-12.01232],[-64.84975,-12.00893],[-64.84036,-12.0108],[-64.8284,-12.01973],[-64.80543,-12.0578],[-64.80588,-12.08304],[-64.78368,-12.0862],[-64.76153,-12.09353],[-64.75823,-12.09786],[-64.75583,-12.10774],[-64.76854,-12.13382],[-64.77002,-12.14381],[-64.75783,-12.15629],[-64.7486,-12.15526],[-64.73929,-12.1373],[-64.73534,-12.12186],[-64.73803,-12.09753],[-64.71565,-12.08432],[-64.70334,-12.08978],[-64.69949,-12.10145],[-64.71371,-12.12065],[-64.71856,-12.1416],[-64.71619,-12.16489],[-64.70848,-12.17846],[-64.69611,-12.18758],[-64.66798,-12.19295],[-64.61465,-12.21446],[-64.59849,-12.2154],[-64.57685,-12.20966],[-64.57123,-12.2148],[-64.56405,-12.23166],[-64.55383,-12.24086],[-64.54546,-12.24017],[-64.52281,-12.22443],[-64.51109,-12.22576],[-64.49682,-12.26408],[-64.49347,-12.29337],[-64.499,-12.32593],[-64.50925,-12.33572],[-64.51503,-12.34677],[-64.51125,-12.35856],[-64.48688,-12.37168],[-64.47871,-12.37992],[-64.45462,-12.38762],[-64.44718,-12.41058],[-64.43212,-12.42014],[-64.42605,-12.43346],[-64.40882,-12.44515],[-64.37207,-12.45443],[-64.36591,-12.46048],[-64.3275,-12.45566],[-64.29525,-12.45712],[-64.29186,-12.45974],[-64.29171,-12.46676],[-64.2999,-12.49269],[-64.29508,-12.50091],[-64.2855,-12.50243],[-64.278,-12.49879],[-64.26162,-12.48041],[-64.24886,-12.4738],[-64.23679,-12.456],[-64.22859,-12.45439],[-64.22196,-12.46032],[-64.20652,-12.46261],[-64.19643,-12.47176],[-64.18447,-12.46573],[-64.17388,-12.46682],[-64.17169,-12.48761],[-64.17413,-12.50422],[-64.16905,-12.51377],[-64.15917,-12.5137],[-64.14324,-12.50361],[-64.14518,-12.48106],[-64.13399,-12.47635],[-64.12736,-12.4794],[-64.12243,-12.48673],[-64.12576,-12.50287],[-64.12323,-12.50537],[-64.10506,-12.49543],[-64.10067,-12.48566],[-64.09336,-12.48329],[-64.08877,-12.49632],[-64.08016,-12.50113],[-64.07581,-12.50084],[-64.06665,-12.49035],[-64.05623,-12.49279],[-64.04464,-12.51325],[-64.039,-12.51709],[-64.02022,-12.50923],[-64.01015,-12.5184],[-64.00541,-12.51658],[-64.00268,-12.50393],[-63.99506,-12.50132],[-63.96611,-12.52683],[-63.95272,-12.53],[-63.93884,-12.52324],[-63.92551,-12.50972],[-63.90847,-12.50789],[-63.90165,-12.50339],[-63.89917,-12.49571],[-63.90115,-12.48168],[-63.89093,-12.46556],[-63.89198,-12.44869],[-63.88956,-12.44613],[-63.8768,-12.4454],[-63.85175,-12.45905],[-63.83521,-12.46215],[-63.82975,-12.46002],[-63.81872,-12.44601],[-63.80143,-12.44599],[-63.79182,-12.43017],[-63.78475,-12.42761],[-63.77031,-12.43925],[-63.76225,-12.44132],[-63.73132,-12.43846],[-63.69203,-12.449],[-63.68236,-12.45411],[-63.67634,-12.46185],[-63.66699,-12.46508],[-63.65236,-12.46526],[-63.62515,-12.47163],[-63.61215,-12.48553],[-63.59014,-12.49108],[-63.57325,-12.50173],[-63.55642,-12.50498],[-63.54479,-12.51658],[-63.53292,-12.53989],[-63.50714,-12.56472],[-63.49664,-12.5669],[-63.47377,-12.56113],[-63.45802,-12.56108],[-63.43595,-12.56556],[-63.43948,-12.57923],[-63.43697,-12.58691],[-63.42716,-12.5961],[-63.44245,-12.60075],[-63.44125,-12.60696],[-63.42032,-12.60674],[-63.41228,-12.61027],[-63.4041,-12.62838],[-63.39528,-12.63668],[-63.39431,-12.64271],[-63.38661,-12.65195],[-63.3723,-12.65925],[-63.35085,-12.6564],[-63.33277,-12.66883],[-63.29637,-12.68233],[-63.25895,-12.68485],[-63.24281,-12.69056],[-63.23568,-12.68922],[-63.23271,-12.68485],[-63.24001,-12.67684],[-63.24138,-12.66906],[-63.24754,-12.6648],[-63.2452,-12.66082],[-63.23106,-12.66424],[-63.21868,-12.65567],[-63.19603,-12.65388],[-63.19084,-12.64525],[-63.19193,-12.63892],[-63.19786,-12.63242],[-63.19495,-12.62352],[-63.18423,-12.62609],[-63.17738,-12.6383],[-63.16768,-12.64251],[-63.16329,-12.6355],[-63.16854,-12.62374],[-63.16295,-12.61382],[-63.1585,-12.61326],[-63.15548,-12.61674],[-63.15297,-12.63405],[-63.14561,-12.63797],[-63.1235,-12.63905],[-63.11637,-12.62449],[-63.1064,-12.63174],[-63.09329,-12.63333],[-63.09026,-12.63616],[-63.09015,-12.64899],[-63.08408,-12.6551],[-63.09193,-12.65659],[-63.09198,-12.66682],[-63.09967,-12.68029],[-63.08236,-12.68576],[-63.06971,-12.68263],[-63.06247,-12.68506],[-63.06101,-12.68943],[-63.06389,-12.69495],[-63.08145,-12.70513],[-63.08277,-12.72009],[-63.07725,-12.72898],[-63.06794,-12.73101],[-63.06065,-12.72759],[-63.0481,-12.73896],[-63.03953,-12.7604],[-63.03452,-12.76276],[-63.02639,-12.77629],[-63.02841,-12.7823],[-63.02076,-12.78898],[-63.0233,-12.80313],[-63.01004,-12.80897],[-63.01424,-12.8228],[-63.01187,-12.8356],[-63.00243,-12.84198],[-62.99513,-12.84187],[-62.98691,-12.83644],[-62.98394,-12.83879],[-62.98337,-12.85167],[-62.97658,-12.85951],[-62.97063,-12.85932],[-62.96293,-12.84608],[-62.95699,-12.84543],[-62.95181,-12.8472],[-62.94929,-12.85928],[-62.94463,-12.85849],[-62.94173,-12.84473],[-62.92595,-12.83908],[-62.91635,-12.84319],[-62.91145,-12.85177],[-62.89667,-12.85457],[-62.8926,-12.85842],[-62.8942,-12.87346],[-62.87827,-12.89011],[-62.87247,-12.9082],[-62.84405,-12.92233],[-62.84362,-12.9297],[-62.85089,-12.93851],[-62.84999,-12.94555],[-62.84162,-12.94923],[-62.83463,-12.93799],[-62.82646,-12.93408],[-62.80583,-12.93995],[-62.80407,-12.94494],[-62.80906,-12.95534],[-62.8082,-12.96457],[-62.79594,-12.99445],[-62.78063,-13.00886],[-62.75967,-13.01813],[-62.74902,-12.99744],[-62.73376,-13.01237],[-62.73038,-13.01185],[-62.72796,-13.00224],[-62.71385,-13.00457],[-62.70909,-13.00037],[-62.69963,-13.0021],[-62.69721,-12.99329],[-62.67301,-12.98843],[-62.66649,-12.98231],[-62.66274,-12.96993],[-62.64916,-12.9642],[-62.64399,-12.97353],[-62.65472,-12.98507],[-62.65351,-12.98972],[-62.6488,-12.99252],[-62.64125,-12.98808],[-62.6318,-12.98885],[-62.63194,-13.0143],[-62.62271,-13.01786],[-62.60734,-13.00996],[-62.59968,-13.01594],[-62.61486,-13.02569],[-62.61615,-13.03594],[-62.60984,-13.04366],[-62.58613,-13.05076],[-62.55982,-13.06337],[-62.54862,-13.07375],[-62.54003,-13.07431],[-62.52292,-13.06635],[-62.50441,-13.082],[-62.4842,-13.07638],[-62.48459,-13.06236],[-62.48099,-13.05712],[-62.47568,-13.05729],[-62.47129,-13.06582],[-62.45696,-13.06243],[-62.45357,-13.07033],[-62.46006,-13.08008],[-62.45899,-13.08574],[-62.4498,-13.08641],[-62.44363,-13.07921],[-62.4361,-13.08092],[-62.43621,-13.09815],[-62.42124,-13.11433],[-62.41596,-13.12778],[-62.41211,-13.12722],[-62.39924,-13.11241],[-62.3955,-13.11807],[-62.39778,-13.12883],[-62.39357,-13.13407],[-62.38295,-13.12988],[-62.37617,-13.13875],[-62.3643,-13.13847],[-62.35443,-13.14361],[-62.34865,-13.13788],[-62.34159,-13.13662],[-62.33824,-13.14095],[-62.3433,-13.14714],[-62.33952,-13.14958],[-62.33457,-13.14148],[-62.32826,-13.14005],[-62.32259,-13.15154],[-62.31952,-13.14861],[-62.31949,-13.13743],[-62.31503,-13.13362],[-62.30526,-13.13816],[-62.29881,-13.14965],[-62.294,-13.14843],[-62.2936,-13.14197],[-62.28626,-13.14026],[-62.2812,-13.15193],[-62.27695,-13.15643],[-62.27257,-13.15633],[-62.27753,-13.14644],[-62.27389,-13.14483],[-62.2623,-13.15266],[-62.26351,-13.14654],[-62.24451,-13.14343],[-62.24401,-13.11782],[-62.23635,-13.1166],[-62.22954,-13.12125],[-62.22426,-13.11391],[-62.21606,-13.11041],[-62.2079,-13.11454],[-62.20087,-13.12443],[-62.20027,-13.14829],[-62.19467,-13.15329],[-62.17816,-13.14284],[-62.17791,-13.13494],[-62.18394,-13.12278],[-62.18241,-13.11866],[-62.17599,-13.11286],[-62.16697,-13.11419],[-62.16583,-13.12118],[-62.16961,-13.1311],[-62.15959,-13.14466],[-62.15221,-13.147],[-62.15025,-13.16206],[-62.14426,-13.16188],[-62.1383,-13.15199],[-62.13231,-13.14836],[-62.12201,-13.15039],[-62.11599,-13.16052],[-62.1182,-13.17865],[-62.11403,-13.208],[-62.10729,-13.2257],[-62.1106,-13.24072],[-62.10874,-13.2475],[-62.11477,-13.25563],[-62.11321,-13.26127],[-62.10442,-13.26371],[-62.0932,-13.28154],[-62.07071,-13.28299],[-62.07532,-13.29295],[-62.07347,-13.2963],[-62.05868,-13.28779],[-62.05846,-13.31087],[-62.04541,-13.31733],[-62.03682,-13.3284],[-62.01629,-13.32836],[-62.01447,-13.33779],[-62.01682,-13.34844],[-62.01284,-13.35772],[-61.99824,-13.35852],[-61.9998,-13.35377],[-61.99824,-13.34991],[-61.99519,-13.35075],[-61.99229,-13.35983],[-61.97337,-13.37015],[-61.96946,-13.3812],[-61.96151,-13.38245],[-61.96055,-13.38558],[-61.96993,-13.40683],[-61.9526,-13.4092],[-61.94747,-13.41569],[-61.93877,-13.40781],[-61.93292,-13.41248],[-61.92871,-13.42568],[-61.91388,-13.43363],[-61.90768,-13.43314],[-61.90098,-13.42651],[-61.89392,-13.43063],[-61.888,-13.44124],[-61.87945,-13.47125],[-61.8824,-13.49718],[-61.87114,-13.50848],[-61.86748,-13.52843],[-61.85796,-13.53705],[-61.85162,-13.53852],[-61.84739,-13.52751],[-61.8428,-13.52634],[-61.83796,-13.5308],[-61.83069,-13.53122],[-61.8252,-13.52178],[-61.79064,-13.53727],[-61.78417,-13.53697],[-61.77731,-13.53109],[-61.77777,-13.52057],[-61.77192,-13.51636],[-61.76528,-13.5264],[-61.7647,-13.5387],[-61.76067,-13.54112],[-61.75613,-13.53953],[-61.75305,-13.53381],[-61.7579,-13.52423],[-61.75382,-13.51918],[-61.7475,-13.51964],[-61.73972,-13.5271],[-61.73202,-13.5274],[-61.72994,-13.52069],[-61.70288,-13.51567],[-61.70383,-13.51047],[-61.695,-13.50985],[-61.693,-13.50488],[-61.6951,-13.4994],[-61.68113,-13.49829],[-61.67805,-13.50443],[-61.66174,-13.50393],[-61.66425,-13.51074],[-61.65147,-13.51874],[-61.64695,-13.5186],[-61.64475,-13.51542],[-61.64651,-13.50688],[-61.64207,-13.50564],[-61.62524,-13.51681],[-61.62106,-13.50805],[-61.61043,-13.51213],[-61.6048,-13.50217],[-61.5863,-13.50173],[-61.58383,-13.49892],[-61.58529,-13.49078],[-61.57813,-13.48749],[-61.57279,-13.49326],[-61.57861,-13.50837],[-61.57678,-13.51363],[-61.56854,-13.51998],[-61.55298,-13.51874],[-61.54011,-13.52539],[-61.53429,-13.52101],[-61.52817,-13.5305],[-61.51758,-13.5332],[-61.51381,-13.54433],[-61.50892,-13.5486],[-61.48911,-13.54776],[-61.47665,-13.55342],[-61.46666,-13.55397],[-61.41428,-13.53801],[-61.40495,-13.53915],[-61.40409,-13.52692],[-61.39286,-13.52035],[-61.3503,-13.5213],[-61.3431,-13.51885],[-61.33888,-13.50721],[-61.33105,-13.50381],[-61.30497,-13.50253],[-61.30102,-13.49596],[-61.30512,-13.4811],[-61.2965,-13.47778],[-61.29009,-13.48074],[-61.2868,-13.49888],[-61.27822,-13.50662],[-61.26505,-13.49801],[-61.24513,-13.49702],[-61.2414,-13.50465],[-61.24439,-13.51235],[-61.23651,-13.51761],[-61.23457,-13.52535],[-61.22241,-13.53009],[-61.20742,-13.52491],[-61.19317,-13.53681],[-61.18256,-13.52762],[-61.18845,-13.51604],[-61.18425,-13.50633],[-61.18155,-13.50596],[-61.18356,-13.51334],[-61.18139,-13.51651],[-61.1695,-13.51053],[-61.15549,-13.51692],[-61.15024,-13.53099],[-61.146,-13.53146],[-61.14462,-13.52434],[-61.13634,-13.52974],[-61.13294,-13.52367],[-61.12567,-13.51983],[-61.10291,-13.5313],[-61.10089,-13.52595],[-61.10519,-13.51843],[-61.0958,-13.5068],[-61.09676,-13.49283],[-61.08885,-13.49111],[-61.07919,-13.49844],[-61.06731,-13.49911],[-61.06327,-13.50134],[-61.06253,-13.50887],[-61.05447,-13.5123],[-61.04088,-13.50773],[-61.03584,-13.50041],[-61.03786,-13.49646],[-61.05001,-13.49553],[-61.05266,-13.49252],[-61.04613,-13.48462],[-61.01718,-13.48809],[-61.00577,-13.49531],[-60.99529,-13.49524],[-60.98848,-13.50086],[-60.99343,-13.5048],[-61.00135,-13.50082],[-61.00966,-13.50759],[-61.00891,-13.51669],[-61.00053,-13.52332],[-60.99821,-13.52995],[-61.00224,-13.53124],[-61.00698,-13.52322],[-61.01229,-13.5258],[-61.0078,-13.54216],[-61.00908,-13.54788],[-61.0062,-13.5513],[-60.98591,-13.54634],[-60.98473,-13.53958],[-60.97807,-13.54021],[-60.96908,-13.53504],[-60.96448,-13.53728],[-60.95743,-13.55137],[-60.9448,-13.54976],[-60.93154,-13.53947],[-60.91871,-13.54317],[-60.91682,-13.54631],[-60.92448,-13.5544],[-60.92455,-13.56316],[-60.90776,-13.58631],[-60.88951,-13.59863],[-60.87924,-13.6184],[-60.86202,-13.62415],[-60.84997,-13.63262],[-60.83393,-13.62628],[-60.81728,-13.63838],[-60.80972,-13.6549],[-60.79186,-13.65417],[-60.7746,-13.6594],[-60.77025,-13.66547],[-60.76828,-13.68332],[-60.75417,-13.68577],[-60.73568,-13.68406],[-60.71994,-13.69175],[-60.70898,-13.69098],[-60.70562,-13.6933],[-60.70529,-13.70087],[-60.69492,-13.71378],[-60.69546,-13.70046],[-60.68992,-13.69713],[-60.68518,-13.71162],[-60.67273,-13.72481],[-60.65724,-13.73397],[-60.65407,-13.73433],[-60.65528,-13.73083],[-60.65232,-13.72794],[-60.6462,-13.73686],[-60.63954,-13.72656],[-60.62946,-13.72611],[-60.62289,-13.71777],[-60.61893,-13.71793],[-60.61935,-13.7231],[-60.6091,-13.7253],[-60.61177,-13.73759],[-60.60669,-13.73787],[-60.60606,-13.7465],[-60.59869,-13.74695],[-60.5897,-13.74117],[-60.58724,-13.74618],[-60.57446,-13.74642],[-60.57908,-13.75391],[-60.57638,-13.75749],[-60.56668,-13.757],[-60.57034,-13.76706],[-60.5581,-13.76982],[-60.54956,-13.78207],[-60.54586,-13.78032],[-60.54781,-13.76844],[-60.53312,-13.77117],[-60.52125,-13.76958],[-60.51838,-13.77218],[-60.51892,-13.77951],[-60.52874,-13.79184],[-60.52487,-13.794],[-60.5138,-13.7909],[-60.50434,-13.79526],[-60.50001,-13.7881],[-60.49323,-13.79416],[-60.4677,-13.79444],[-60.46458,-13.79908],[-60.47728,-13.80185],[-60.47903,-13.80543],[-60.47732,-13.80962],[-60.46546,-13.81267],[-60.46645,-13.81906],[-60.47499,-13.82386],[-60.48319,-13.81882],[-60.49035,-13.82285],[-60.48082,-13.83322],[-60.47312,-13.82862],[-60.46841,-13.83127],[-60.49281,-13.85605],[-60.48781,-13.85796],[-60.47895,-13.85169],[-60.46654,-13.85617],[-60.46013,-13.85218],[-60.45675,-13.85393],[-60.45709,-13.86016],[-60.46325,-13.86207],[-60.4655,-13.87407],[-60.47299,-13.87854],[-60.4762,-13.88633],[-60.46812,-13.89188],[-60.46775,-13.88558],[-60.46404,-13.88196],[-60.45147,-13.88233],[-60.45138,-13.88863],[-60.45675,-13.89384],[-60.45276,-13.90584],[-60.45109,-13.93683],[-60.4468,-13.93963],[-60.44418,-13.93772],[-60.44734,-13.93183],[-60.44376,-13.93032],[-60.42886,-13.9426],[-60.42165,-13.93553],[-60.41882,-13.93719],[-60.41961,-13.94638],[-60.40962,-13.95025],[-60.41953,-13.95395],[-60.42115,-13.96367],[-60.42419,-13.95875],[-60.42786,-13.9607],[-60.42399,-13.96887],[-60.4144,-13.98088],[-60.3958,-13.97659],[-60.38784,-13.97969],[-60.3818,-13.98701],[-60.38254,-13.99279],[-60.39321,-13.99194],[-60.39486,-13.99694],[-60.39814,-13.99521],[-60.40454,-13.9981],[-60.40223,-14.00959],[-60.40851,-14.02393],[-60.40722,-14.03175],[-60.41707,-14.0373],[-60.41716,-14.0432],[-60.42106,-14.04394],[-60.42086,-14.04726],[-60.42814,-14.05014],[-60.43192,-14.06809],[-60.43617,-14.06908],[-60.44148,-14.07872],[-60.46263,-14.09369],[-60.46799,-14.09414],[-60.47158,-14.08924],[-60.48058,-14.09583],[-60.48036,-14.10094],[-60.47381,-14.10934],[-60.4844,-14.11672],[-60.47345,-14.12801],[-60.48326,-14.13512],[-60.47905,-14.14581],[-60.47422,-14.14966],[-60.47712,-14.15648],[-60.47531,-14.16031],[-60.4844,-14.16405],[-60.48934,-14.17379],[-60.48824,-14.18177],[-60.49304,-14.18832],[-60.48686,-14.1931],[-60.47233,-14.19292],[-60.46764,-14.20559],[-60.47026,-14.21398],[-60.46191,-14.22358],[-60.46586,-14.23419],[-60.45111,-14.2389],[-60.44956,-14.25012],[-60.4626,-14.258],[-60.46678,-14.2644],[-60.46254,-14.26869],[-60.46133,-14.28621],[-60.45704,-14.29236],[-60.45764,-14.30316],[-60.45043,-14.30673],[-60.45361,-14.31423],[-60.44244,-14.32051],[-60.43435,-14.33583],[-60.42474,-14.34298],[-60.42785,-14.34545],[-60.42471,-14.35233],[-60.4209,-14.35462],[-60.42016,-14.34747],[-60.41369,-14.35117],[-60.41645,-14.3536],[-60.41371,-14.35982],[-60.40902,-14.35426],[-60.40623,-14.35588],[-60.40605,-14.35955],[-60.41268,-14.36343],[-60.41072,-14.36897],[-60.40851,-14.37041],[-60.40707,-14.3651],[-60.40333,-14.36743],[-60.39551,-14.36471],[-60.39773,-14.37768],[-60.39321,-14.37928],[-60.398,-14.38883],[-60.40002,-14.38312],[-60.40632,-14.38674],[-60.40192,-14.38908],[-60.40609,-14.4018],[-60.40059,-14.40325],[-60.40003,-14.40641],[-60.40315,-14.41232],[-60.40566,-14.41067],[-60.40772,-14.41375],[-60.40297,-14.41392],[-60.40098,-14.42132],[-60.39729,-14.41948],[-60.39427,-14.4221],[-60.39926,-14.42698],[-60.39489,-14.43031],[-60.40151,-14.43262],[-60.39734,-14.43605],[-60.39173,-14.43314],[-60.38357,-14.43964],[-60.38095,-14.45483],[-60.37814,-14.45701],[-60.38004,-14.46278],[-60.37286,-14.46837],[-60.36471,-14.46786],[-60.36175,-14.4711],[-60.36146,-14.48524],[-60.36755,-14.48527],[-60.36619,-14.48846],[-60.34924,-14.49415],[-60.34725,-14.50717],[-60.33982,-14.51018],[-60.34284,-14.52431],[-60.33571,-14.52972],[-60.34404,-14.53305],[-60.33588,-14.53676],[-60.33797,-14.54463],[-60.33038,-14.55434],[-60.32891,-14.56217],[-60.33152,-14.56846],[-60.32502,-14.58196],[-60.32839,-14.58768],[-60.32302,-14.61031],[-60.309,-14.61792],[-60.30232,-14.61808],[-60.29084,-14.62602],[-60.28782,-14.62303],[-60.28124,-14.62422],[-60.27327,-14.62104],[-60.24506,-15.09728],[-60.5752,-15.09774],[-60.2391,-15.47451],[-60.17367,-16.26666],[-59.46912,-16.27916],[-58.43069,-16.32267],[-58.40153,-16.30541],[-58.39492,-16.29697],[-58.38949,-16.26216],[-58.36661,-16.27455],[-58.35431,-16.27067],[-58.34716,-16.27471],[-58.33947,-16.27417],[-58.3222,-16.26637],[-58.3176,-16.29206],[-58.30338,-16.31062],[-58.30933,-16.36203],[-58.30783,-16.37173],[-58.32847,-16.38051],[-58.33422,-16.38956],[-58.34202,-16.3887],[-58.34594,-16.393],[-58.35632,-16.42592],[-58.34836,-16.4549],[-58.33499,-16.47868],[-58.33419,-16.49021],[-58.3441,-16.5184],[-58.35408,-16.52409],[-58.36948,-16.54398],[-58.38792,-16.55265],[-58.39355,-16.56368],[-58.40137,-16.56854],[-58.42161,-16.57459],[-58.42838,-16.58676],[-58.43621,-16.59296],[-58.46308,-16.65322],[-58.46135,-16.66767],[-58.47166,-16.70817],[-58.46679,-16.71731],[-58.47278,-16.74896],[-58.46603,-16.76168],[-58.46432,-16.78178],[-58.45949,-16.78637],[-58.46178,-16.79434],[-58.4722,-16.79306],[-58.47863,-16.81418],[-58.47558,-16.82216],[-58.46874,-16.82183],[-58.45824,-16.82659],[-58.46454,-16.83548],[-58.4644,-16.87844],[-58.46889,-16.88498],[-58.4615,-16.89198],[-58.46052,-16.90137],[-58.46563,-16.91132],[-58.47676,-16.91315],[-58.47197,-16.92098],[-58.47682,-16.93672],[-58.4689,-16.94292],[-58.45875,-16.93824],[-58.46314,-16.96201],[-58.45826,-16.96905],[-58.44647,-16.96919],[-58.44907,-16.97393],[-58.44472,-16.98384],[-58.43594,-16.9866],[-58.43188,-16.99172],[-58.41696,-16.98178],[-58.40046,-16.99779],[-58.39405,-17.01502],[-58.39362,-17.09613],[-58.39947,-17.14561],[-58.39686,-17.17581],[-58.39896,-17.18395],[-58.36505,-17.19978],[-58.36596,-17.21343],[-58.36305,-17.21588],[-58.36221,-17.21215],[-58.35642,-17.21288],[-58.34661,-17.23408],[-58.34165,-17.23348],[-58.33803,-17.2382],[-58.33932,-17.24124],[-58.32172,-17.25326],[-58.32289,-17.26061],[-58.31993,-17.26661],[-58.30619,-17.26844],[-58.30496,-17.27901],[-58.29608,-17.2832],[-58.29332,-17.28795],[-58.30028,-17.29798],[-58.29068,-17.30243],[-58.28576,-17.29883],[-58.2783,-17.29977],[-58.27626,-17.3051],[-58.28045,-17.3191],[-58.27662,-17.32541],[-58.26329,-17.33158],[-58.26452,-17.34509],[-58.25748,-17.34596],[-58.25437,-17.3538],[-58.25074,-17.35471],[-58.24161,-17.34904],[-58.23332,-17.35111],[-58.2288,-17.34829],[-58.22617,-17.35068],[-58.22738,-17.35784],[-58.22012,-17.36019],[-58.20881,-17.35478],[-58.20361,-17.35559],[-58.19646,-17.36609],[-58.20061,-17.38565],[-58.19508,-17.3892],[-58.17753,-17.39055],[-58.16316,-17.38123],[-58.15631,-17.3835],[-58.15464,-17.40207],[-58.15037,-17.40966],[-58.14193,-17.41372],[-58.13358,-17.41158],[-58.12274,-17.4135],[-58.12319,-17.43549],[-58.1167,-17.44806],[-58.08723,-17.45891],[-58.07396,-17.45476],[-58.06691,-17.45583],[-58.05668,-17.46584],[-58.05337,-17.47765],[-58.04392,-17.49212],[-58.01272,-17.499],[-58.00646,-17.50638],[-58.00172,-17.50575],[-58.0013,-17.5126],[-57.99727,-17.51586],[-57.97209,-17.50628],[-57.88344,-17.44954],[-57.7559,-17.56504]]]]}}]}