{"type":"FeatureCollection","features":[{"type":"Feature","properties":{"ISO_A3":"CHE","WB_A3":"CHE","WB_NAME":"Switzerland","WB_REGION":"ECS"},"geometry":{"type":"MultiPolygon","coordinates":[[[[7.71355,47.5396],[7.75342,47.54511],[7.79591,47.55747],[7.80995,47.56792],[7.81961,47.58735],[7.82619,47.58779],[7.84114,47.58206],[7.86832,47.58878],[7.88974,47.58809],[7.90049,47.58275],[7.91071,47.57117],[7.90723,47.56067],[7.91255,47.5503],[7.94055,47.54448],[7.94808,47.54493],[7.95204,47.55384],[7.95904,47.558],[7.99623,47.55657],[8.02235,47.55042],[8.04063,47.55367],[8.06799,47.56452],[8.08715,47.55749],[8.09963,47.56301],[8.10302,47.5762],[8.10991,47.58262],[8.13463,47.58342],[8.1387,47.59054],[8.14887,47.59579],[8.16551,47.59443],[8.20329,47.6208],[8.2203,47.61704],[8.22539,47.60549],[8.23704,47.61224],[8.25899,47.61534],[8.26497,47.60929],[8.28542,47.61106],[8.2968,47.60649],[8.29604,47.59143],[8.29908,47.58807],[8.31035,47.58365],[8.32408,47.57278],[8.38326,47.56583],[8.39738,47.57722],[8.43189,47.56655],[8.46418,47.57219],[8.478,47.57808],[8.48683,47.57758],[8.49419,47.58223],[8.48869,47.58784],[8.46684,47.58427],[8.46479,47.58801],[8.46053,47.58838],[8.45668,47.60232],[8.46855,47.60384],[8.47815,47.61099],[8.4792,47.61522],[8.50837,47.61751],[8.50825,47.62206],[8.5146,47.6236],[8.51564,47.63381],[8.53895,47.63098],[8.53871,47.62627],[8.55789,47.62448],[8.56294,47.61671],[8.56934,47.61721],[8.57123,47.61249],[8.56638,47.60985],[8.56307,47.59945],[8.58256,47.59611],[8.60503,47.61359],[8.59701,47.63046],[8.59724,47.64415],[8.60799,47.65238],[8.61316,47.64898],[8.6134,47.64344],[8.60339,47.6405],[8.60697,47.63704],[8.6156,47.63772],[8.62427,47.64179],[8.6288,47.64924],[8.62252,47.65746],[8.60879,47.66346],[8.60661,47.67215],[8.59797,47.67273],[8.59329,47.6668],[8.57771,47.66152],[8.56917,47.66418],[8.56371,47.67003],[8.54003,47.66508],[8.54158,47.65712],[8.53383,47.66002],[8.53344,47.66308],[8.52702,47.66045],[8.5345,47.64969],[8.5318,47.64574],[8.49332,47.64695],[8.49367,47.64302],[8.48981,47.64288],[8.48286,47.64406],[8.47675,47.65009],[8.47342,47.64723],[8.47772,47.64468],[8.47103,47.64196],[8.47515,47.64098],[8.47366,47.63839],[8.46719,47.64148],[8.46372,47.64848],[8.46714,47.65595],[8.44512,47.65387],[8.42367,47.66687],[8.41219,47.66631],[8.4056,47.6742],[8.40805,47.67823],[8.42079,47.6839],[8.41199,47.69444],[8.40465,47.69803],[8.41705,47.7102],[8.42609,47.7113],[8.44534,47.72307],[8.45422,47.72355],[8.45701,47.72917],[8.45149,47.73296],[8.45077,47.74019],[8.45583,47.74281],[8.45771,47.75032],[8.46642,47.75341],[8.47025,47.76092],[8.48415,47.77106],[8.50972,47.77456],[8.52013,47.7706],[8.52659,47.77807],[8.55306,47.78453],[8.56622,47.77812],[8.5773,47.78155],[8.57499,47.78976],[8.562,47.79297],[8.56286,47.80391],[8.56813,47.80856],[8.57298,47.80601],[8.57541,47.79954],[8.58766,47.80268],[8.59295,47.79851],[8.60115,47.80308],[8.61862,47.79833],[8.61791,47.79602],[8.62216,47.79485],[8.61561,47.78283],[8.6234,47.77726],[8.61943,47.76766],[8.62743,47.75947],[8.63175,47.7583],[8.64455,47.76406],[8.6476,47.76693],[8.64527,47.7686],[8.65297,47.77344],[8.64812,47.77405],[8.6501,47.78162],[8.64536,47.78721],[8.6493,47.79832],[8.65687,47.80042],[8.66767,47.78769],[8.68237,47.78369],[8.68317,47.77743],[8.68864,47.77352],[8.68359,47.77062],[8.68871,47.75836],[8.69513,47.75571],[8.71408,47.7654],[8.72732,47.76227],[8.73079,47.75961],[8.72896,47.75796],[8.74114,47.75197],[8.74143,47.74818],[8.72351,47.74559],[8.71457,47.73859],[8.7108,47.72956],[8.71794,47.72163],[8.73631,47.71633],[8.7265,47.69659],[8.728,47.69276],[8.75836,47.68922],[8.78377,47.67705],[8.79605,47.67534],[8.79357,47.68024],[8.79687,47.6882],[8.80006,47.69187],[8.80993,47.69328],[8.79784,47.69722],[8.79752,47.70262],[8.79085,47.70523],[8.76957,47.70678],[8.77282,47.71327],[8.7697,47.71782],[8.79182,47.72881],[8.7992,47.72708],[8.79656,47.73455],[8.80772,47.73695],[8.8085,47.7312],[8.81218,47.73041],[8.8056,47.72591],[8.81271,47.72376],[8.81855,47.71764],[8.82536,47.71869],[8.81893,47.71331],[8.82379,47.71096],[8.83173,47.71379],[8.84102,47.71274],[8.84578,47.7111],[8.84838,47.70337],[8.87284,47.70392],[8.87105,47.70146],[8.87644,47.69651],[8.87168,47.69346],[8.86602,47.69384],[8.86314,47.69847],[8.85289,47.69729],[8.85738,47.69288],[8.85059,47.68104],[8.86059,47.6803],[8.86768,47.67609],[8.87345,47.67022],[8.87542,47.65495],[8.89284,47.64874],[8.94295,47.65636],[9.00116,47.68192],[9.01968,47.68644],[9.09739,47.67844],[9.11958,47.66797],[9.13974,47.66408],[9.14842,47.66749],[9.15802,47.66567],[9.1759,47.65403],[9.18698,47.65801],[9.22146,47.65244],[9.24778,47.66062],[9.27228,47.65538],[9.34358,47.6261],[9.41446,47.60357],[9.4972,47.54888],[9.50935,47.54543],[9.55451,47.54571],[9.56146,47.4978],[9.58354,47.48101],[9.59313,47.46561],[9.60075,47.4616],[9.60438,47.46304],[9.60679,47.47001],[9.6121,47.46891],[9.62064,47.45844],[9.65863,47.45257],[9.65801,47.44779],[9.64432,47.43521],[9.65001,47.42216],[9.65164,47.40463],[9.6741,47.39015],[9.67336,47.3815],[9.65907,47.36958],[9.62448,47.36615],[9.60396,47.35027],[9.58363,47.31269],[9.55729,47.29899],[9.54584,47.27972],[9.53073,47.2706],[9.53009,47.26251],[9.52048,47.24406],[9.50433,47.22475],[9.49093,47.19863],[9.486,47.1804],[9.4928,47.16047],[9.50835,47.14041],[9.51963,47.09968],[9.51213,47.08477],[9.4741,47.06638],[9.47179,47.06153],[9.47576,47.05178],[9.47691,47.05464],[9.48179,47.05467],[9.48576,47.04909],[9.49133,47.05624],[9.4974,47.05416],[9.49999,47.05713],[9.51209,47.05679],[9.53965,47.06507],[9.54827,47.06123],[9.55314,47.05695],[9.55443,47.05052],[9.55912,47.04847],[9.58227,47.05274],[9.60266,47.06142],[9.61728,47.05358],[9.63291,47.05126],[9.64136,47.05401],[9.64511,47.05974],[9.6591,47.05827],[9.68184,47.06206],[9.682,47.05896],[9.68835,47.05521],[9.69763,47.0524],[9.70731,47.05384],[9.70571,47.05025],[9.70885,47.04711],[9.71929,47.04337],[9.74505,47.04119],[9.74781,47.03695],[9.76906,47.03894],[9.78528,47.03683],[9.80775,47.02357],[9.82424,47.01952],[9.83608,47.01255],[9.85276,47.01644],[9.85974,47.02322],[9.87615,47.02124],[9.88014,47.01719],[9.87097,47.01264],[9.87086,47.00971],[9.88877,47.0007],[9.89188,46.98889],[9.88495,46.98551],[9.88443,46.98079],[9.87559,46.97348],[9.8755,46.96742],[9.8713,46.96304],[9.87877,46.95669],[9.87494,46.95031],[9.88009,46.93503],[9.90797,46.92495],[9.91217,46.92608],[9.92282,46.91828],[9.93827,46.91315],[9.95902,46.91601],[9.96663,46.91222],[9.97777,46.91586],[9.98238,46.90629],[9.99088,46.90227],[10.0195,46.8991],[10.05258,46.87574],[10.0509,46.86448],[10.05474,46.86175],[10.08692,46.86107],[10.09137,46.85895],[10.0933,46.8506],[10.10537,46.84086],[10.11933,46.8444],[10.12266,46.84823],[10.13945,46.84739],[10.14591,46.85117],[10.15751,46.84785],[10.16879,46.85063],[10.18192,46.85554],[10.19377,46.86642],[10.23197,46.86669],[10.23473,46.88501],[10.22835,46.88959],[10.22609,46.89664],[10.23337,46.90173],[10.23721,46.91577],[10.24214,46.9195],[10.24176,46.93164],[10.26704,46.92883],[10.29688,46.91997],[10.30086,46.92465],[10.31703,46.92609],[10.31725,46.93054],[10.30621,46.94103],[10.30781,46.94743],[10.30946,46.95018],[10.32783,46.95402],[10.32961,46.96445],[10.3398,46.97697],[10.33992,46.98123],[10.34449,46.98269],[10.34665,46.98959],[10.35501,46.99235],[10.37212,46.99073],[10.38477,46.99999],[10.39873,46.99685],[10.41259,46.98258],[10.42676,46.97547],[10.42221,46.96004],[10.42893,46.95605],[10.45491,46.9529],[10.47784,46.94041],[10.48782,46.93878],[10.48617,46.91542],[10.47847,46.91064],[10.47488,46.89411],[10.4647,46.88428],[10.46923,46.88106],[10.47123,46.87298],[10.46795,46.86173],[10.47178,46.84878],[10.46389,46.84137],[10.46607,46.83539],[10.46012,46.83461],[10.45656,46.83011],[10.45957,46.82417],[10.45598,46.82203],[10.45772,46.81612],[10.45048,46.80399],[10.43912,46.79765],[10.42981,46.79692],[10.42348,46.78696],[10.43392,46.78172],[10.44172,46.77182],[10.44404,46.76251],[10.44179,46.75215],[10.43538,46.7526],[10.40114,46.73416],[10.41886,46.7188],[10.41595,46.70887],[10.40293,46.70505],[10.39378,46.68971],[10.38187,46.68422],[10.3924,46.6712],[10.39106,46.6587],[10.40027,46.64606],[10.39995,46.63868],[10.41068,46.63529],[10.44607,46.64128],[10.49211,46.61471],[10.48448,46.60511],[10.48714,46.59693],[10.48382,46.59224],[10.48745,46.58928],[10.4834,46.58094],[10.48466,46.57737],[10.47475,46.56662],[10.47779,46.55732],[10.47116,46.54835],[10.47223,46.54359],[10.4591,46.54127],[10.45297,46.53075],[10.43682,46.53737],[10.41846,46.55131],[10.39628,46.54408],[10.36391,46.55548],[10.35207,46.5558],[10.35036,46.54968],[10.34181,46.54359],[10.3366,46.5434],[10.3256,46.55164],[10.31122,46.54673],[10.29636,46.54987],[10.29598,46.5589],[10.28688,46.57053],[10.26944,46.57762],[10.25422,46.57129],[10.2443,46.57774],[10.24192,46.59155],[10.25889,46.61043],[10.24478,46.62216],[10.24012,46.63529],[10.2242,46.6292],[10.21532,46.61702],[10.1934,46.62312],[10.19275,46.62603],[10.13742,46.61074],[10.13651,46.60775],[10.12788,46.60512],[10.10247,46.61073],[10.09714,46.59294],[10.10147,46.58496],[10.09574,46.57755],[10.07926,46.57532],[10.08488,46.56794],[10.08255,46.56372],[10.07143,46.55881],[10.06909,46.55168],[10.06125,46.54554],[10.04683,46.54393],[10.04424,46.54057],[10.04671,46.53494],[10.0534,46.53193],[10.05058,46.52876],[10.05392,46.52309],[10.05139,46.51338],[10.04252,46.51023],[10.04391,46.50407],[10.04898,46.49976],[10.04496,46.49088],[10.0472,46.48598],[10.04295,46.47957],[10.05165,46.47195],[10.05413,46.46483],[10.04011,46.44706],[10.04214,46.44276],[10.05607,46.44066],[10.06162,46.42737],[10.07723,46.42806],[10.08015,46.42122],[10.10096,46.42159],[10.10861,46.42817],[10.11618,46.42603],[10.13066,46.4317],[10.14291,46.42822],[10.1494,46.41292],[10.16063,46.4156],[10.16668,46.40766],[10.16267,46.40502],[10.16221,46.38789],[10.15607,46.38506],[10.14257,46.38613],[10.12745,46.37748],[10.12927,46.36173],[10.10987,46.35309],[10.10456,46.33359],[10.11666,46.31407],[10.1389,46.30429],[10.13919,46.29938],[10.15602,46.29066],[10.15477,46.28517],[10.16253,46.28171],[10.16348,46.27177],[10.17262,46.26581],[10.17652,46.25837],[10.1749,46.25466],[10.15086,46.23965],[10.14596,46.23049],[10.12335,46.22387],[10.09495,46.22862],[10.08321,46.22644],[10.0702,46.21716],[10.04424,46.22957],[10.05386,46.23619],[10.05349,46.24071],[10.06005,46.24766],[10.0538,46.267],[10.03117,46.27686],[9.99586,46.28503],[9.99169,46.29527],[10.00081,46.3035],[9.99635,46.30728],[9.99995,46.31277],[9.98092,46.32297],[9.98604,46.33425],[9.99592,46.3433],[9.99372,46.35235],[9.98626,46.35157],[9.96415,46.36368],[9.95554,46.37387],[9.95873,46.37841],[9.9347,46.37489],[9.9298,46.37093],[9.93074,46.36754],[9.92568,46.3662],[9.90595,46.38062],[9.88423,46.37337],[9.86987,46.36296],[9.84941,46.36459],[9.83292,46.36128],[9.81893,46.35007],[9.78465,46.34072],[9.77738,46.3349],[9.76451,46.33788],[9.74387,46.35084],[9.73748,46.35034],[9.72305,46.34068],[9.72722,46.33261],[9.71735,46.32348],[9.72562,46.31977],[9.72589,46.31368],[9.71865,46.3068],[9.71433,46.29276],[9.70191,46.29085],[9.68727,46.2941],[9.67667,46.3031],[9.67013,46.30019],[9.66921,46.29622],[9.66187,46.29667],[9.64197,46.28703],[9.61975,46.28748],[9.6104,46.29444],[9.57863,46.29532],[9.56004,46.30626],[9.54948,46.30256],[9.54298,46.30556],[9.51353,46.33314],[9.50826,46.35161],[9.5003,46.35622],[9.49574,46.36475],[9.46117,46.37603],[9.46157,46.38356],[9.46862,46.38864],[9.46131,46.41243],[9.45467,46.41884],[9.46051,46.44326],[9.46013,46.46428],[9.46539,46.46924],[9.46293,46.48059],[9.4497,46.47998],[9.44906,46.48438],[9.46103,46.48484],[9.46265,46.50884],[9.43418,46.49791],[9.42553,46.48991],[9.42361,46.47567],[9.41281,46.46714],[9.39002,46.47317],[9.38517,46.48199],[9.37087,46.48998],[9.36848,46.4951],[9.37333,46.49971],[9.373,46.50417],[9.36283,46.50934],[9.35425,46.50438],[9.31772,46.50464],[9.28339,46.49706],[9.27408,46.48298],[9.27723,46.47884],[9.2736,46.45629],[9.26178,46.44994],[9.24698,46.44689],[9.24827,46.43298],[9.26423,46.42034],[9.2749,46.41962],[9.28005,46.41397],[9.28233,46.40474],[9.27595,46.39515],[9.28412,46.38636],[9.27826,46.37914],[9.27706,46.36854],[9.28254,46.35807],[9.29618,46.35552],[9.29973,46.34393],[9.29264,46.33778],[9.29346,46.3318],[9.29919,46.3275],[9.2951,46.31803],[9.28516,46.31453],[9.28168,46.30948],[9.28454,46.29699],[9.27185,46.28922],[9.26829,46.28237],[9.25891,46.27845],[9.25678,46.26935],[9.25067,46.26624],[9.25254,46.2607],[9.24909,46.25625],[9.25126,46.25092],[9.24824,46.24728],[9.24837,46.23386],[9.22105,46.22911],[9.22221,46.22372],[9.21809,46.21413],[9.20248,46.20844],[9.19486,46.19335],[9.19768,46.1874],[9.19464,46.17915],[9.18147,46.16927],[9.16098,46.17065],[9.15682,46.16253],[9.13432,46.15286],[9.12127,46.13502],[9.11313,46.13533],[9.09926,46.12711],[9.07279,46.11809],[9.08913,46.09015],[9.08932,46.08554],[9.07853,46.07499],[9.07711,46.06416],[9.06063,46.06083],[9.04937,46.06233],[9.02358,46.05264],[9.01737,46.04993],[9.01692,46.04309],[9.00942,46.03699],[9.00768,46.02998],[9.02255,46.01685],[9.02874,45.99437],[9.01759,45.9877],[9.01167,45.98838],[9.00757,45.9806],[8.99578,45.98039],[8.9961,45.97393],[8.98964,45.96944],[9.0137,45.96048],[9.01717,45.94912],[9.01358,45.94172],[9.02239,45.93663],[9.01953,45.9284],[9.04253,45.92746],[9.04912,45.92045],[9.06004,45.92087],[9.05906,45.91657],[9.07664,45.91148],[9.07691,45.89941],[9.08896,45.90074],[9.08174,45.89186],[9.07783,45.89207],[9.07754,45.88484],[9.06564,45.87606],[9.05765,45.87524],[9.05202,45.86761],[9.04914,45.86173],[9.05184,45.85455],[9.03532,45.83908],[9.03778,45.83588],[9.03091,45.82466],[9.03451,45.82308],[9.01472,45.8182],[8.99381,45.82198],[8.99748,45.83495],[8.98672,45.8385],[8.97,45.83235],[8.96145,45.83638],[8.96215,45.83872],[8.9488,45.84343],[8.93921,45.84131],[8.92913,45.83343],[8.9121,45.83099],[8.91422,45.84223],[8.92068,45.84936],[8.93488,45.86269],[8.94531,45.86701],[8.94205,45.87035],[8.93704,45.8673],[8.93382,45.87034],[8.93156,45.88588],[8.92189,45.89628],[8.92481,45.90392],[8.91431,45.9178],[8.90742,45.91779],[8.89289,45.93244],[8.89799,45.94372],[8.89369,45.95897],[8.87746,45.95694],[8.8676,45.96112],[8.83116,45.98808],[8.79283,45.99205],[8.78962,45.98847],[8.7872,45.99136],[8.79307,46.00813],[8.80591,46.02196],[8.81971,46.02561],[8.82714,46.03237],[8.82999,46.04153],[8.83545,46.04384],[8.82852,46.04651],[8.83452,46.05148],[8.8442,46.04857],[8.85456,46.06165],[8.85211,46.07564],[8.83285,46.08351],[8.80615,46.10133],[8.79872,46.09449],[8.78453,46.09419],[8.76001,46.10158],[8.74232,46.12231],[8.72426,46.11052],[8.71403,46.09723],[8.68575,46.10225],[8.68058,46.10955],[8.67024,46.10879],[8.65767,46.11261],[8.64601,46.12375],[8.61215,46.12153],[8.60985,46.13277],[8.59306,46.14285],[8.60305,46.15546],[8.58975,46.15692],[8.58503,46.16262],[8.57398,46.16432],[8.56961,46.17707],[8.56341,46.18388],[8.55474,46.18626],[8.55366,46.1918],[8.54037,46.19798],[8.53197,46.21849],[8.47332,46.23152],[8.46778,46.23391],[8.46381,46.24457],[8.44403,46.24944],[8.44224,46.25409],[8.44811,46.2606],[8.45611,46.26369],[8.42754,46.29827],[8.43966,46.30401],[8.44457,46.32015],[8.45281,46.32095],[8.46531,46.33451],[8.46146,46.35329],[8.46966,46.36123],[8.46533,46.38218],[8.46128,46.38786],[8.47069,46.39742],[8.46422,46.40183],[8.46352,46.40642],[8.46802,46.41221],[8.45741,46.42365],[8.4599,46.42748],[8.45779,46.43483],[8.46578,46.44258],[8.46493,46.44541],[8.44568,46.46367],[8.40803,46.45873],[8.39351,46.45196],[8.36693,46.45206],[8.32576,46.42589],[8.31477,46.42366],[8.30789,46.42561],[8.29885,46.41415],[8.28902,46.40839],[8.31549,46.39905],[8.31723,46.39395],[8.31474,46.38862],[8.31856,46.38602],[8.31215,46.37683],[8.30059,46.37447],[8.28422,46.36367],[8.27298,46.36682],[8.26387,46.36408],[8.26093,46.36092],[8.26489,46.35717],[8.26517,46.35147],[8.26035,46.34932],[8.26276,46.34588],[8.25301,46.3464],[8.24999,46.34085],[8.23438,46.33997],[8.22385,46.33453],[8.22195,46.33034],[8.22426,46.32586],[8.21483,46.31968],[8.21192,46.30938],[8.19886,46.30233],[8.16146,46.29593],[8.14798,46.30131],[8.13741,46.30172],[8.11884,46.28927],[8.11482,46.28222],[8.10526,46.27951],[8.10038,46.27365],[8.08635,46.267],[8.08146,46.25795],[8.10194,46.24974],[8.1097,46.24959],[8.11504,46.23659],[8.1204,46.23598],[8.12759,46.22824],[8.13897,46.22572],[8.14349,46.21179],[8.15135,46.20278],[8.1533,46.19113],[8.16517,46.18302],[8.16511,46.17688],[8.15079,46.16483],[8.14976,46.15699],[8.15384,46.14591],[8.14174,46.13593],[8.12525,46.13517],[8.11537,46.13035],[8.11366,46.11765],[8.10811,46.11165],[8.08246,46.10559],[8.03502,46.10052],[8.02975,46.08332],[8.02161,46.06962],[8.03521,46.04393],[8.01329,46.03218],[8.01727,46.02471],[8.0112,46.0184],[8.01247,46.01222],[8.001,46.01217],[7.98866,45.99598],[7.97901,45.99927],[7.95898,45.99652],[7.90901,45.99698],[7.89371,45.97874],[7.87817,45.97318],[7.88177,45.96412],[7.87579,45.95833],[7.87713,45.94899],[7.8705,45.94731],[7.86846,45.93652],[7.87652,45.92747],[7.87271,45.92013],[7.86337,45.91657],[7.85677,45.92107],[7.83629,45.92188],[7.82096,45.92695],[7.8006,45.91708],[7.76911,45.93704],[7.75362,45.93991],[7.74782,45.93986],[7.73498,45.92424],[7.72017,45.92376],[7.70722,45.93486],[7.70982,45.94814],[7.6975,45.95485],[7.68102,45.95702],[7.67702,45.96504],[7.66398,45.97577],[7.65791,45.97665],[7.63735,45.97008],[7.61926,45.97227],[7.61029,45.96949],[7.589,45.97049],[7.58133,45.97513],[7.57862,45.98598],[7.55,45.9865],[7.54167,45.97598],[7.54605,45.96128],[7.54338,45.95769],[7.53855,45.95528],[7.51764,45.96233],[7.50529,45.95895],[7.49946,45.96228],[7.49237,45.95543],[7.47747,45.95217],[7.4715,45.94726],[7.47473,45.93601],[7.44454,45.93168],[7.42672,45.91514],[7.41077,45.90874],[7.4018,45.91143],[7.38962,45.89841],[7.38251,45.89653],[7.36625,45.90398],[7.36,45.90382],[7.35576,45.91117],[7.34415,45.91519],[7.32457,45.91014],[7.31798,45.91172],[7.31626,45.91662],[7.30256,45.91716],[7.29418,45.92176],[7.28561,45.91619],[7.27705,45.90091],[7.27127,45.89987],[7.25896,45.88923],[7.2533,45.88844],[7.24834,45.89294],[7.2167,45.88881],[7.21551,45.88417],[7.20038,45.87541],[7.19764,45.87018],[7.20057,45.86309],[7.19695,45.86061],[7.19081,45.85873],[7.17521,45.86287],[7.16176,45.87132],[7.16443,45.87535],[7.1612,45.87835],[7.15368,45.87929],[7.13542,45.87282],[7.13343,45.86856],[7.11832,45.85944],[7.10306,45.85943],[7.09744,45.86243],[7.09221,45.87255],[7.09471,45.87615],[7.07974,45.88532],[7.07676,45.89387],[7.0644,45.9003],[7.06435,45.90944],[7.04445,45.9225],[7.03574,45.93824],[7.03853,45.94755],[7.0349,45.95614],[7.02241,45.95855],[7.00863,45.96922],[7.01015,45.97323],[7.0215,45.97642],[7.0223,45.98055],[7.0121,45.98749],[7.01062,45.99724],[7.00502,46.00117],[7.00052,45.99893],[6.98551,46.00418],[6.98129,46.01954],[6.96656,46.03108],[6.96295,46.0305],[6.95145,46.04984],[6.94294,46.05102],[6.9348,46.05674],[6.93732,46.06433],[6.9246,46.06526],[6.90861,46.05017],[6.89418,46.04776],[6.89126,46.0427],[6.87574,46.04755],[6.87292,46.05487],[6.87707,46.06399],[6.88029,46.06929],[6.89105,46.07443],[6.88825,46.07852],[6.89178,46.08497],[6.88252,46.09521],[6.8955,46.10873],[6.89317,46.11367],[6.89803,46.12222],[6.89045,46.12554],[6.88242,46.12288],[6.85234,46.12655],[6.83815,46.13294],[6.81508,46.12936],[6.80791,46.13617],[6.79802,46.13629],[6.79027,46.15402],[6.79188,46.16315],[6.81259,46.18154],[6.80333,46.20314],[6.80991,46.2139],[6.82173,46.22335],[6.82113,46.23232],[6.83077,46.2345],[6.83979,46.24822],[6.8554,46.25528],[6.85445,46.25931],[6.86018,46.26623],[6.85891,46.27388],[6.86485,46.28001],[6.85922,46.29032],[6.85535,46.29237],[6.84671,46.29016],[6.84391,46.2943],[6.83119,46.29974],[6.82534,46.31196],[6.80703,46.32075],[6.80036,46.32006],[6.79639,46.333],[6.78461,46.3326],[6.78453,46.33681],[6.77209,46.35027],[6.77145,46.36104],[6.78056,46.36648],[6.79261,46.36756],[6.80618,46.37981],[6.80198,46.38584],[6.80315,46.39248],[6.82092,46.42735],[6.6826,46.45441],[6.51985,46.45646],[6.4251,46.41593],[6.33554,46.40401],[6.25298,46.36058],[6.21958,46.31194],[6.2477,46.30262],[6.24938,46.29342],[6.25294,46.2904],[6.23805,46.28214],[6.23768,46.2778],[6.24986,46.26219],[6.26167,46.25456],[6.2604,46.25155],[6.2668,46.2477],[6.27793,46.25134],[6.29227,46.26354],[6.29626,46.26183],[6.29491,46.25625],[6.30869,46.2556],[6.30569,46.25138],[6.30943,46.25008],[6.31027,46.24399],[6.29572,46.22603],[6.27697,46.21552],[6.24772,46.20524],[6.23267,46.20599],[6.22187,46.20065],[6.18708,46.18038],[6.18877,46.16638],[6.18542,46.16403],[6.14863,46.15008],[6.14488,46.14495],[6.13645,46.14161],[6.09851,46.14382],[6.0918,46.15195],[6.07492,46.14884],[6.05226,46.15134],[6.04692,46.14177],[6.0361,46.13663],[6.0151,46.14305],[5.99412,46.14431],[5.98292,46.14132],[5.98194,46.13743],[5.97299,46.13165],[5.95737,46.12857],[5.95589,46.13235],[5.96638,46.13898],[5.96411,46.14428],[5.98097,46.17129],[5.98347,46.17383],[5.98887,46.17202],[5.99466,46.18136],[5.99222,46.18656],[5.96372,46.19703],[5.9735,46.20276],[5.96925,46.2067],[5.97463,46.21499],[5.97917,46.21726],[5.99283,46.21531],[5.99025,46.22176],[6.00006,46.22005],[6.00712,46.22384],[6.00677,46.22669],[6.03365,46.23856],[6.04612,46.23139],[6.06335,46.24581],[6.06715,46.24187],[6.08439,46.24703],[6.10146,46.23765],[6.1208,46.24802],[6.12447,46.25124],[6.12082,46.25493],[6.12254,46.25819],[6.1099,46.27058],[6.11352,46.27255],[6.10329,46.2787],[6.10508,46.28299],[6.10242,46.28492],[6.12083,46.29716],[6.11983,46.31256],[6.13915,46.33487],[6.13808,46.33882],[6.14942,46.34275],[6.15642,46.34886],[6.16155,46.35997],[6.16995,46.36616],[6.16004,46.37881],[6.14969,46.37752],[6.11296,46.39996],[6.10566,46.39945],[6.09763,46.40904],[6.06385,46.41638],[6.08638,46.44388],[6.07442,46.45351],[6.0769,46.45759],[6.07279,46.46545],[6.09689,46.48129],[6.11261,46.50959],[6.13791,46.53097],[6.14369,46.52775],[6.15347,46.53679],[6.14861,46.53941],[6.15666,46.54531],[6.11054,46.57644],[6.13958,46.59763],[6.16121,46.61002],[6.17901,46.61578],[6.17949,46.6201],[6.2276,46.64826],[6.23283,46.65447],[6.26729,46.67624],[6.26919,46.68262],[6.28199,46.69073],[6.34127,46.71015],[6.35213,46.71485],[6.36018,46.72309],[6.37172,46.72414],[6.37106,46.73069],[6.38379,46.73103],[6.38943,46.73507],[6.39202,46.73896],[6.3884,46.74329],[6.39522,46.74848],[6.43028,46.75681],[6.43818,46.7618],[6.43844,46.7667],[6.45224,46.77425],[6.4517,46.77863],[6.45838,46.78876],[6.43483,46.80147],[6.43107,46.81237],[6.44082,46.81589],[6.43951,46.82396],[6.44315,46.83276],[6.46003,46.85132],[6.46462,46.89035],[6.45794,46.90076],[6.4359,46.92163],[6.43268,46.92869],[6.46035,46.94385],[6.47769,46.96172],[6.49642,46.97416],[6.50477,46.96569],[6.57202,46.98209],[6.59632,46.99239],[6.61801,46.99163],[6.64045,47.00289],[6.65911,47.02732],[6.6765,47.03511],[6.69655,47.03731],[6.7088,47.04497],[6.7196,47.05202],[6.70161,47.05868],[6.69151,47.06668],[6.70053,47.06981],[6.70749,47.0785],[6.70372,47.08255],[6.72672,47.0919],[6.74161,47.09097],[6.74646,47.09959],[6.7406,47.10963],[6.76746,47.12108],[6.806,47.13071],[6.80889,47.13566],[6.81454,47.13551],[6.82742,47.14581],[6.83987,47.1506],[6.84042,47.15391],[6.84988,47.15646],[6.85839,47.16538],[6.84339,47.16718],[6.84217,47.1721],[6.86506,47.18139],[6.86726,47.18536],[6.87433,47.18601],[6.87392,47.19076],[6.8807,47.20056],[6.91008,47.21825],[6.92134,47.22067],[6.92772,47.22855],[6.93887,47.23064],[6.94315,47.23792],[6.95582,47.24378],[6.94741,47.25056],[6.95199,47.26996],[6.94067,47.28624],[6.94843,47.29139],[6.97259,47.2913],[6.97663,47.29636],[6.99591,47.29572],[7.00976,47.30275],[7.01593,47.31369],[7.01293,47.32021],[7.0093,47.32029],[7.00999,47.32453],[7.03452,47.32833],[7.04562,47.3265],[7.05696,47.33439],[7.05336,47.33509],[7.05438,47.33827],[7.05977,47.33973],[7.0624,47.34412],[7.04989,47.34774],[7.05274,47.35131],[7.04989,47.36146],[7.03484,47.36336],[7.03408,47.36968],[7.01818,47.37264],[7.01166,47.37256],[6.9943,47.36323],[6.93312,47.35843],[6.9241,47.3552],[6.9037,47.35953],[6.87927,47.3526],[6.88492,47.36744],[6.8836,47.37286],[6.89677,47.38221],[6.91204,47.38618],[6.91386,47.38931],[6.91038,47.39654],[6.91542,47.39714],[6.91718,47.40535],[6.93844,47.40609],[6.94155,47.41572],[6.9403,47.43331],[6.96373,47.4358],[6.97029,47.44711],[6.99012,47.44798],[7.00218,47.45417],[6.99755,47.45643],[7.00129,47.46193],[7.00047,47.46721],[6.99173,47.46641],[6.99317,47.47072],[6.98643,47.47632],[6.98864,47.48689],[6.98603,47.49335],[7.00374,47.50075],[7.02493,47.50429],[7.03693,47.49754],[7.04454,47.49849],[7.07205,47.49235],[7.07489,47.48819],[7.09428,47.49547],[7.11256,47.49513],[7.13036,47.50295],[7.16739,47.48942],[7.20097,47.49429],[7.20279,47.49134],[7.19145,47.48881],[7.17748,47.46806],[7.17832,47.45855],[7.17019,47.44299],[7.19252,47.439],[7.19581,47.43547],[7.22939,47.4398],[7.23878,47.43342],[7.23893,47.4286],[7.24578,47.42653],[7.24655,47.42034],[7.27127,47.42765],[7.28142,47.4346],[7.29348,47.4336],[7.3024,47.43863],[7.32345,47.43868],[7.33033,47.44178],[7.35555,47.43389],[7.38558,47.43189],[7.40307,47.43554],[7.40325,47.43873],[7.4209,47.44595],[7.4288,47.45389],[7.42777,47.45729],[7.44577,47.46197],[7.45587,47.47073],[7.4514,47.47515],[7.44841,47.4738],[7.4294,47.48295],[7.42147,47.48115],[7.43497,47.49812],[7.45083,47.49033],[7.46069,47.48927],[7.47203,47.48041],[7.48762,47.48214],[7.50114,47.49353],[7.51108,47.49699],[7.51031,47.506],[7.50309,47.514],[7.51124,47.51701],[7.52373,47.51533],[7.53093,47.52682],[7.5268,47.53286],[7.51936,47.53472],[7.51078,47.52901],[7.5023,47.52842],[7.49805,47.53616],[7.50113,47.54112],[7.51887,47.54635],[7.55731,47.56504],[7.55933,47.56939],[7.5569,47.57247],[7.56649,47.57767],[7.58467,47.57552],[7.58904,47.5899],[7.60484,47.58496],[7.60488,47.57791],[7.61916,47.57689],[7.64325,47.59135],[7.64179,47.59426],[7.64566,47.59696],[7.67518,47.59197],[7.68301,47.59851],[7.68472,47.59667],[7.67175,47.58727],[7.68086,47.5827],[7.68366,47.5739],[7.68966,47.57139],[7.6871,47.5684],[7.68376,47.56835],[7.68349,47.57125],[7.67243,47.56374],[7.65875,47.56448],[7.64828,47.55993],[7.63612,47.56393],[7.63392,47.5612],[7.64804,47.54914],[7.66118,47.54494],[7.67044,47.53492],[7.69432,47.53244],[7.71355,47.5396]],[[8.96488,45.97982],[8.95849,45.96483],[8.97563,45.96163],[8.97726,45.98306],[8.96707,45.98416],[8.96488,45.97982]],[[8.7177,47.69063],[8.71765,47.69495],[8.71138,47.69632],[8.71194,47.70115],[8.70128,47.71519],[8.68382,47.70872],[8.67714,47.71311],[8.67137,47.71102],[8.66465,47.71337],[8.66601,47.70785],[8.67358,47.70491],[8.67643,47.6981],[8.65968,47.68948],[8.66943,47.68485],[8.69213,47.69525],[8.70957,47.68943],[8.7177,47.69063]]]]}}]}