{"type":"FeatureCollection","features":[{"type":"Feature","properties":{"ISO_A3":"MDA","WB_A3":"MDA","WB_NAME":"Moldova","WB_REGION":"ECS"},"geometry":{"type":"MultiPolygon","coordinates":[[[[27.02881,48.13723],[27.0224,48.13893],[27.01597,48.13622],[27.00181,48.12186],[26.98578,48.12863],[26.96121,48.13224],[26.95177,48.14265],[26.951,48.14886],[26.95698,48.15245],[26.97996,48.14375],[26.9896,48.14655],[26.99188,48.15026],[26.98356,48.1582],[26.97509,48.16105],[26.94338,48.16077],[26.93302,48.16648],[26.93279,48.17064],[26.94914,48.18302],[26.95005,48.18772],[26.94162,48.19704],[26.91514,48.19928],[26.91362,48.19612],[26.92125,48.18394],[26.91766,48.17994],[26.90148,48.18168],[26.89233,48.19202],[26.90322,48.19477],[26.90898,48.20148],[26.88678,48.20131],[26.86053,48.21838],[26.85422,48.23291],[26.84931,48.23416],[26.84009,48.22754],[26.83087,48.22728],[26.82694,48.2431],[26.81687,48.24319],[26.81101,48.24754],[26.8105,48.25389],[26.78494,48.24891],[26.78605,48.24546],[26.78124,48.24327],[26.76928,48.24804],[26.73977,48.24479],[26.73677,48.245],[26.73697,48.24996],[26.7426,48.25438],[26.72783,48.25802],[26.73167,48.25092],[26.72902,48.2463],[26.72491,48.24566],[26.70822,48.25316],[26.70308,48.26499],[26.69956,48.26546],[26.69499,48.26241],[26.69178,48.25399],[26.68558,48.2503],[26.66744,48.24649],[26.66223,48.25099],[26.66673,48.25813],[26.66256,48.26402],[26.65874,48.26377],[26.65239,48.25385],[26.64572,48.25263],[26.63838,48.26104],[26.63013,48.25959],[26.61634,48.27399],[26.64068,48.28926],[26.64964,48.29818],[26.64835,48.30478],[26.67568,48.31701],[26.67584,48.32491],[26.69598,48.32717],[26.68261,48.35556],[26.69454,48.35994],[26.73455,48.32067],[26.7382,48.31374],[26.75773,48.32373],[26.76696,48.30237],[26.79457,48.291],[26.81739,48.29523],[26.82567,48.30405],[26.82239,48.31185],[26.83088,48.31333],[26.82328,48.31951],[26.82259,48.32444],[26.827,48.32473],[26.82414,48.34444],[26.80786,48.35172],[26.7934,48.34355],[26.76521,48.35367],[26.7608,48.36074],[26.70919,48.4054],[26.7249,48.41172],[26.75361,48.39899],[26.76471,48.40827],[26.76823,48.40719],[26.77513,48.41846],[26.85141,48.41316],[26.87094,48.42069],[26.88992,48.40954],[26.90122,48.39687],[26.89462,48.38352],[26.93158,48.36328],[26.93358,48.36433],[26.93012,48.37163],[26.99522,48.35946],[27.00049,48.36504],[27.00092,48.37699],[27.00489,48.38037],[27.02962,48.38228],[27.04587,48.37428],[27.04977,48.38775],[27.04594,48.39121],[27.04478,48.40262],[27.03668,48.40685],[27.04007,48.41083],[27.02668,48.41796],[27.01343,48.42044],[27.01434,48.42505],[27.05195,48.42595],[27.06089,48.4213],[27.06421,48.42205],[27.06913,48.43244],[27.08503,48.43467],[27.08724,48.41315],[27.1236,48.37921],[27.13886,48.37448],[27.16114,48.37882],[27.19233,48.39487],[27.20042,48.38897],[27.21314,48.39101],[27.23575,48.37283],[27.26369,48.3804],[27.2866,48.37156],[27.29755,48.40988],[27.3141,48.42283],[27.31154,48.42836],[27.31962,48.44353],[27.33755,48.44103],[27.33533,48.44387],[27.3388,48.44786],[27.34954,48.44265],[27.35325,48.44895],[27.36325,48.44266],[27.37363,48.44173],[27.37841,48.41539],[27.38359,48.41076],[27.3978,48.41286],[27.40838,48.4107],[27.41712,48.41376],[27.44683,48.40911],[27.46219,48.4337],[27.46517,48.44749],[27.47305,48.4523],[27.49122,48.45825],[27.5049,48.45545],[27.56402,48.48406],[27.58251,48.49154],[27.59135,48.49184],[27.60438,48.48699],[27.58976,48.4692],[27.59223,48.46029],[27.64081,48.44212],[27.67751,48.44001],[27.72086,48.45355],[27.74779,48.45822],[27.76162,48.45641],[27.78826,48.44558],[27.8155,48.42697],[27.82071,48.41934],[27.84992,48.41393],[27.87406,48.40386],[27.88033,48.39456],[27.87833,48.38538],[27.88226,48.3724],[27.89674,48.35986],[27.95294,48.32889],[27.97624,48.32442],[28.04689,48.32572],[28.07051,48.31945],[28.08692,48.30626],[28.09352,48.29399],[28.08877,48.27005],[28.07977,48.25007],[28.0808,48.24039],[28.0864,48.23528],[28.10264,48.23097],[28.12922,48.24087],[28.13881,48.24887],[28.14514,48.26249],[28.17745,48.25736],[28.18669,48.25232],[28.18185,48.23745],[28.18558,48.21699],[28.18969,48.21153],[28.20661,48.20473],[28.23063,48.20984],[28.30561,48.24172],[28.32273,48.23326],[28.33502,48.24313],[28.34639,48.24729],[28.35785,48.24385],[28.36824,48.22853],[28.37037,48.2194],[28.36689,48.20297],[28.36059,48.18963],[28.34984,48.17992],[28.30681,48.16026],[28.30477,48.14285],[28.30817,48.13822],[28.32784,48.13258],[28.3557,48.13866],[28.37318,48.1678],[28.38375,48.17583],[28.41245,48.17726],[28.42817,48.17248],[28.43396,48.1681],[28.43932,48.14329],[28.42367,48.13135],[28.4212,48.12266],[28.43508,48.10869],[28.43586,48.10016],[28.45108,48.08096],[28.49125,48.06576],[28.49885,48.06572],[28.50079,48.06875],[28.49137,48.0758],[28.49744,48.08977],[28.49445,48.10024],[28.4988,48.11526],[28.4956,48.1192],[28.5001,48.12132],[28.49898,48.12734],[28.52078,48.13827],[28.50281,48.15118],[28.52903,48.15361],[28.54494,48.16945],[28.57639,48.17952],[28.57068,48.17416],[28.57945,48.16657],[28.59194,48.17335],[28.61148,48.15695],[28.61453,48.15968],[28.64917,48.15202],[28.64766,48.14326],[28.68235,48.14682],[28.67773,48.14274],[28.6881,48.12446],[28.7065,48.12954],[28.72204,48.12609],[28.73553,48.13331],[28.75544,48.13598],[28.77185,48.12478],[28.7949,48.12616],[28.79485,48.12958],[28.80605,48.13458],[28.81404,48.12414],[28.83367,48.12856],[28.83718,48.1238],[28.84109,48.12558],[28.8576,48.10279],[28.84795,48.07909],[28.84094,48.07899],[28.83341,48.07277],[28.83656,48.07113],[28.84239,48.07494],[28.84951,48.07052],[28.84347,48.06566],[28.8522,48.06079],[28.83955,48.03468],[28.85574,48.02692],[28.85571,48.02008],[28.86274,48.02096],[28.88264,48.01045],[28.88745,48.01375],[28.90101,48.01039],[28.89022,48.01176],[28.88435,48.0081],[28.88732,48.00609],[28.8851,48.00365],[28.87766,48.00073],[28.92596,47.96002],[28.96155,47.97941],[28.99348,47.96182],[28.99712,47.9638],[29.01259,47.95603],[29.03321,47.94245],[29.03677,47.94776],[29.05148,47.94281],[29.07357,47.94396],[29.08654,47.94663],[29.08425,47.95989],[29.07804,47.97054],[29.09094,47.96827],[29.09532,47.95973],[29.09799,47.96004],[29.0961,47.97364],[29.08377,47.97742],[29.09249,47.98262],[29.13092,47.98241],[29.13004,47.98681],[29.12399,47.98864],[29.12495,47.99373],[29.17517,47.99379],[29.18036,47.96429],[29.18529,47.96429],[29.20055,47.88431],[29.21317,47.88573],[29.21586,47.89593],[29.22366,47.89112],[29.216,47.88609],[29.27301,47.89036],[29.28159,47.88753],[29.26717,47.8753],[29.23995,47.86563],[29.23581,47.85901],[29.2242,47.85486],[29.2167,47.84084],[29.20735,47.83602],[29.19979,47.82173],[29.19976,47.81745],[29.21925,47.79838],[29.23366,47.79832],[29.24695,47.81102],[29.27515,47.80414],[29.25378,47.75721],[29.24839,47.75126],[29.21524,47.73863],[29.20447,47.71915],[29.23103,47.68388],[29.22011,47.68235],[29.21967,47.65816],[29.20957,47.65802],[29.2092,47.64229],[29.23404,47.64267],[29.22316,47.63476],[29.21919,47.62705],[29.21154,47.62314],[29.21753,47.61217],[29.20063,47.60245],[29.20345,47.59812],[29.18636,47.58644],[29.18834,47.58315],[29.18416,47.57187],[29.1716,47.56764],[29.16682,47.57148],[29.11718,47.55441],[29.15166,47.50663],[29.18386,47.51846],[29.18802,47.51643],[29.1894,47.51315],[29.18566,47.51209],[29.18234,47.49602],[29.19222,47.48655],[29.18376,47.47799],[29.18822,47.47509],[29.15742,47.45925],[29.16212,47.45275],[29.18926,47.46712],[29.18945,47.46199],[29.19342,47.45997],[29.18214,47.44921],[29.18822,47.43898],[29.18331,47.43602],[29.19193,47.42553],[29.24229,47.46194],[29.24402,47.41459],[29.25115,47.41627],[29.25358,47.42288],[29.27295,47.43486],[29.28795,47.43607],[29.31746,47.44924],[29.33727,47.37027],[29.39083,47.37987],[29.39793,47.35362],[29.38357,47.34522],[29.39838,47.30037],[29.42351,47.30494],[29.42702,47.29221],[29.44603,47.29455],[29.44491,47.29979],[29.4858,47.30575],[29.48331,47.33249],[29.49123,47.33291],[29.49328,47.33781],[29.48712,47.33904],[29.4907,47.34799],[29.48635,47.35001],[29.4874,47.35597],[29.51708,47.36469],[29.57406,47.37054],[29.59892,47.25745],[29.5519,47.2515],[29.58019,47.13555],[29.50542,47.12857],[29.4955,47.13189],[29.49938,47.10924],[29.51548,47.11257],[29.53032,47.07547],[29.54994,47.07595],[29.54754,47.0936],[29.61219,47.1002],[29.62909,47.04464],[29.60292,47.04162],[29.59587,46.96364],[29.55609,46.95789],[29.57149,46.94014],[29.6401,46.95534],[29.64804,46.91979],[29.70991,46.92477],[29.70888,46.92843],[29.71813,46.93243],[29.72155,46.91844],[29.73243,46.91956],[29.74958,46.86115],[29.84902,46.87542],[29.84697,46.88203],[29.88408,46.88605],[29.89178,46.85444],[29.88491,46.84869],[29.90507,46.82018],[29.93022,46.82846],[29.9256,46.83483],[29.95206,46.8422],[29.96815,46.83219],[29.97226,46.8236],[29.97947,46.81925],[29.9784,46.81635],[29.96282,46.81841],[29.93515,46.80591],[29.96663,46.77045],[29.96634,46.75562],[29.9746,46.75216],[29.96621,46.71092],[29.9696,46.68456],[29.95751,46.67502],[29.95653,46.66259],[29.94655,46.65093],[29.94603,46.64534],[29.95478,46.63472],[29.95453,46.61864],[29.96792,46.59754],[29.9625,46.58481],[29.94559,46.58531],[29.93615,46.5894],[29.93792,46.58397],[29.93503,46.57982],[29.93899,46.56839],[29.94494,46.56782],[29.94214,46.55901],[29.94527,46.55519],[29.88155,46.54782],[29.87612,46.54674],[29.87776,46.54318],[29.88063,46.54196],[29.88657,46.54763],[29.88982,46.54594],[29.90243,46.53288],[29.89625,46.53094],[29.89555,46.52757],[29.91335,46.52168],[29.90477,46.51559],[29.91102,46.51264],[29.92817,46.51251],[29.92319,46.50487],[29.93357,46.50075],[29.94304,46.5023],[29.93499,46.49623],[29.93877,46.49362],[29.95195,46.49763],[29.95962,46.51013],[29.96422,46.50878],[29.96403,46.50408],[29.95281,46.49092],[29.96283,46.49139],[29.97049,46.50105],[29.98283,46.49923],[29.98414,46.51015],[29.98665,46.51021],[29.99221,46.50008],[29.98733,46.49588],[29.98924,46.49336],[29.99856,46.49676],[29.99932,46.49354],[29.99159,46.48879],[29.98944,46.48246],[29.99474,46.47372],[30.00215,46.47064],[30.02122,46.47118],[30.02318,46.46855],[30.01841,46.46477],[29.99466,46.46427],[29.99424,46.46164],[30.0083,46.45355],[30.021,46.45491],[30.02641,46.45261],[30.02186,46.44384],[30.02353,46.44185],[30.06423,46.44279],[30.05553,46.43553],[30.05669,46.42766],[30.0778,46.4239],[30.07924,46.43274],[30.08307,46.435],[30.09236,46.42574],[30.09817,46.42739],[30.09718,46.43238],[30.09026,46.43791],[30.09681,46.43975],[30.10491,46.42779],[30.11155,46.43164],[30.1235,46.42641],[30.1355,46.4172],[30.13036,46.41226],[30.13597,46.41099],[30.14804,46.41681],[30.15061,46.42882],[30.1579,46.42895],[30.16359,46.41358],[30.10696,46.39133],[30.09679,46.37536],[30.08974,46.38404],[30.07158,46.39657],[30.05811,46.39862],[30.02109,46.3831],[29.99721,46.38977],[29.98801,46.38414],[29.93878,46.40035],[29.88669,46.37159],[29.89104,46.35247],[29.80523,46.38559],[29.82317,46.39568],[29.79748,46.41626],[29.79404,46.4143],[29.78684,46.41994],[29.78973,46.42197],[29.77634,46.45487],[29.76774,46.45314],[29.7495,46.4701],[29.74137,46.47292],[29.72684,46.46673],[29.74232,46.44357],[29.73112,46.43997],[29.73471,46.4349],[29.68568,46.42609],[29.67884,46.44173],[29.66022,46.43594],[29.67899,46.36134],[29.60334,46.35353],[29.6005,46.36304],[29.5804,46.36089],[29.5663,46.41655],[29.50685,46.42312],[29.4981,46.42893],[29.49487,46.42743],[29.48447,46.44783],[29.50242,46.46139],[29.4481,46.49873],[29.3867,46.44669],[29.39921,46.42626],[29.39624,46.42524],[29.35097,46.50462],[29.3318,46.49611],[29.33788,46.48176],[29.3327,46.47912],[29.33655,46.47404],[29.30767,46.46494],[29.31839,46.44762],[29.30614,46.44436],[29.32404,46.41486],[29.30293,46.40847],[29.29644,46.41728],[29.26407,46.40627],[29.26925,46.40269],[29.26289,46.39931],[29.26789,46.39371],[29.24065,46.37622],[29.20665,46.38641],[29.24628,46.41688],[29.22746,46.43188],[29.23176,46.43368],[29.22955,46.45843],[29.21958,46.46359],[29.2553,46.48543],[29.24957,46.5003],[29.24126,46.49907],[29.23555,46.55824],[29.16188,46.54449],[29.16358,46.51557],[29.06294,46.51252],[29.0631,46.50701],[29.0388,46.50591],[29.03904,46.4938],[29.03339,46.49336],[29.03348,46.49079],[28.98151,46.48918],[28.97766,46.48124],[28.98406,46.47792],[29.02337,46.48021],[29.02556,46.46231],[28.93068,46.4578],[28.93708,46.4521],[28.94158,46.43073],[28.96652,46.37632],[28.98672,46.34306],[28.99277,46.34142],[28.99715,46.32047],[29.00334,46.31748],[28.98534,46.31831],[28.95227,46.25949],[29.06709,46.19562],[28.95043,46.09386],[29.0055,46.04924],[28.97879,46.00337],[28.77651,45.9707],[28.77989,45.96052],[28.75672,45.95716],[28.76343,45.93475],[28.76135,45.92926],[28.75462,45.92786],[28.78573,45.83232],[28.69684,45.81792],[28.70938,45.77989],[28.62622,45.76665],[28.58512,45.7727],[28.58105,45.77099],[28.59091,45.75457],[28.59467,45.74111],[28.59373,45.73412],[28.58872,45.72907],[28.5642,45.72579],[28.55575,45.73655],[28.53587,45.73333],[28.51922,45.73643],[28.50599,45.7023],[28.48255,45.68305],[28.48034,45.67753],[28.48589,45.66047],[28.5156,45.66533],[28.54405,45.58003],[28.49128,45.57118],[28.51526,45.49989],[28.4206,45.48523],[28.42084,45.5127],[28.30484,45.54698],[28.25694,45.51638],[28.21305,45.46871],[28.189,45.47298],[28.17918,45.48425],[28.17651,45.49519],[28.17144,45.50134],[28.16234,45.50017],[28.16444,45.50753],[28.15816,45.50866],[28.16575,45.52072],[28.1574,45.52526],[28.16558,45.52456],[28.16656,45.52825],[28.16232,45.53308],[28.16565,45.53671],[28.1649,45.54595],[28.15564,45.55392],[28.15873,45.55954],[28.14892,45.56144],[28.15424,45.56476],[28.15717,45.57365],[28.15523,45.57531],[28.14438,45.5667],[28.14062,45.57664],[28.13604,45.57776],[28.13587,45.57302],[28.12169,45.57193],[28.11746,45.57605],[28.12141,45.57893],[28.11312,45.58629],[28.10639,45.58788],[28.10146,45.59474],[28.09386,45.59735],[28.08878,45.60441],[28.08909,45.60955],[28.10052,45.61854],[28.11021,45.62165],[28.11197,45.62623],[28.1199,45.62733],[28.12982,45.61891],[28.13194,45.61931],[28.13041,45.62391],[28.13754,45.62575],[28.14459,45.62132],[28.15754,45.63693],[28.17246,45.64119],[28.17405,45.64615],[28.15813,45.65166],[28.16597,45.65334],[28.16238,45.66086],[28.17129,45.67975],[28.16745,45.68117],[28.16258,45.69311],[28.16431,45.69768],[28.15997,45.70364],[28.17052,45.71039],[28.16445,45.71656],[28.16728,45.72331],[28.16207,45.72413],[28.16663,45.73665],[28.15183,45.74388],[28.14996,45.7514],[28.15201,45.7534],[28.1434,45.76096],[28.14983,45.76515],[28.14993,45.77334],[28.15437,45.77416],[28.15383,45.78284],[28.1355,45.77831],[28.12043,45.79111],[28.1139,45.79063],[28.11235,45.7952],[28.11894,45.79456],[28.12245,45.79856],[28.11848,45.8149],[28.10809,45.81721],[28.11303,45.82071],[28.10883,45.83061],[28.1128,45.83439],[28.10588,45.84383],[28.11174,45.84446],[28.11398,45.8494],[28.10575,45.85871],[28.12763,45.86368],[28.12726,45.86889],[28.13264,45.87613],[28.12811,45.87757],[28.13039,45.88243],[28.12699,45.8853],[28.12422,45.88256],[28.11553,45.88263],[28.11308,45.88575],[28.1181,45.88714],[28.11271,45.89542],[28.11328,45.89975],[28.11811,45.89979],[28.11994,45.9032],[28.11628,45.9097],[28.12538,45.9214],[28.11999,45.93225],[28.11453,45.9354],[28.1183,45.94474],[28.11529,45.95273],[28.10602,45.96153],[28.10818,45.96871],[28.10209,45.97166],[28.10644,45.97892],[28.09818,45.9792],[28.10466,45.9897],[28.09916,45.99081],[28.08586,46.00905],[28.09548,46.01447],[28.08761,46.02031],[28.09107,46.03643],[28.09666,46.0431],[28.10374,46.0432],[28.10037,46.04789],[28.10513,46.05299],[28.09393,46.05317],[28.08889,46.05799],[28.09788,46.06021],[28.10014,46.06483],[28.0894,46.06832],[28.09347,46.07415],[28.09222,46.07862],[28.10086,46.08096],[28.10914,46.07914],[28.10725,46.08355],[28.11126,46.0874],[28.10535,46.09093],[28.10903,46.10292],[28.12053,46.10291],[28.12261,46.10552],[28.11599,46.10763],[28.11629,46.11075],[28.12375,46.11124],[28.1244,46.12608],[28.12936,46.12549],[28.13444,46.13002],[28.12855,46.13127],[28.12522,46.13687],[28.12916,46.14263],[28.12395,46.14697],[28.12541,46.15416],[28.13131,46.15395],[28.13654,46.16237],[28.14251,46.16386],[28.13914,46.17003],[28.12827,46.17637],[28.13067,46.17914],[28.14319,46.17675],[28.14338,46.17977],[28.13088,46.18412],[28.1415,46.18517],[28.1416,46.19141],[28.13431,46.19566],[28.11863,46.19165],[28.1178,46.19579],[28.12555,46.20381],[28.1247,46.20983],[28.12029,46.2123],[28.11635,46.21001],[28.11688,46.20347],[28.10986,46.20444],[28.11485,46.21097],[28.10773,46.21459],[28.11183,46.22031],[28.10683,46.22299],[28.1119,46.23246],[28.11014,46.2434],[28.11462,46.24499],[28.11704,46.23952],[28.13266,46.25062],[28.13894,46.24819],[28.14657,46.25195],[28.14052,46.2576],[28.13115,46.25591],[28.12641,46.26151],[28.13545,46.26395],[28.1392,46.28469],[28.14736,46.28496],[28.14378,46.27973],[28.15204,46.27849],[28.14909,46.2901],[28.15213,46.29275],[28.15662,46.28624],[28.16515,46.28593],[28.16312,46.28177],[28.16989,46.28322],[28.16935,46.29557],[28.17257,46.29797],[28.17709,46.2941],[28.17322,46.29012],[28.17858,46.2858],[28.18045,46.29124],[28.1869,46.29265],[28.17951,46.29589],[28.1785,46.30038],[28.19418,46.30275],[28.20343,46.31145],[28.20861,46.32074],[28.20181,46.32022],[28.19906,46.32765],[28.19514,46.32393],[28.1872,46.32599],[28.19154,46.33066],[28.18438,46.33364],[28.18767,46.33716],[28.19727,46.33417],[28.19506,46.33747],[28.19944,46.34438],[28.19129,46.3432],[28.18557,46.35128],[28.19651,46.35021],[28.19098,46.35569],[28.20606,46.35766],[28.20712,46.36067],[28.20015,46.36049],[28.20122,46.36556],[28.20743,46.3685],[28.19781,46.37107],[28.20219,46.37466],[28.20882,46.3729],[28.21199,46.38017],[28.22345,46.38814],[28.21701,46.3912],[28.21903,46.3959],[28.23597,46.39055],[28.24322,46.39527],[28.23886,46.40067],[28.22466,46.39966],[28.22591,46.40306],[28.23744,46.40509],[28.23799,46.4076],[28.23016,46.40909],[28.22996,46.4144],[28.23344,46.41691],[28.25009,46.41654],[28.25032,46.42089],[28.25841,46.4277],[28.25642,46.43454],[28.26084,46.43687],[28.25635,46.44756],[28.24228,46.44737],[28.23994,46.45201],[28.25843,46.46164],[28.24618,46.46329],[28.25055,46.46634],[28.24466,46.4699],[28.24523,46.47733],[28.24033,46.47975],[28.23459,46.47606],[28.22596,46.4788],[28.23185,46.48368],[28.22868,46.48747],[28.23096,46.49445],[28.22449,46.49491],[28.22068,46.50306],[28.21512,46.49846],[28.21158,46.50071],[28.21463,46.50347],[28.20926,46.50501],[28.2167,46.51232],[28.22296,46.512],[28.21398,46.52174],[28.21838,46.52331],[28.22428,46.52034],[28.23044,46.5296],[28.22621,46.52928],[28.22754,46.5356],[28.2223,46.53386],[28.21541,46.53795],[28.22297,46.54398],[28.22085,46.54568],[28.2273,46.55392],[28.23568,46.55236],[28.2333,46.56301],[28.22638,46.56285],[28.22777,46.56786],[28.22275,46.57888],[28.24026,46.58261],[28.23162,46.58568],[28.24123,46.59299],[28.23815,46.59588],[28.24188,46.60166],[28.25034,46.60374],[28.24463,46.60803],[28.25232,46.61269],[28.24926,46.61541],[28.2516,46.62065],[28.24847,46.6275],[28.23898,46.63011],[28.24464,46.6369],[28.2389,46.64268],[28.24016,46.64573],[28.24545,46.64634],[28.23734,46.6512],[28.23632,46.66508],[28.23966,46.66716],[28.23492,46.67475],[28.23643,46.67795],[28.23021,46.68121],[28.23166,46.67469],[28.22365,46.67608],[28.22116,46.69037],[28.21461,46.687],[28.2152,46.68333],[28.20874,46.68509],[28.2125,46.6877],[28.21375,46.69662],[28.20208,46.7006],[28.20915,46.70327],[28.20948,46.71175],[28.20121,46.71647],[28.20177,46.72153],[28.19626,46.71963],[28.18638,46.72511],[28.19537,46.73017],[28.19508,46.73321],[28.19292,46.73591],[28.18562,46.73351],[28.1806,46.73693],[28.17799,46.74294],[28.18409,46.74418],[28.18307,46.74696],[28.17638,46.74753],[28.17311,46.75154],[28.17554,46.75615],[28.18201,46.75533],[28.17748,46.75971],[28.17879,46.76903],[28.16703,46.77083],[28.17159,46.77605],[28.16662,46.7742],[28.16053,46.77681],[28.17594,46.77903],[28.16518,46.78508],[28.16664,46.78898],[28.15908,46.78572],[28.15524,46.79154],[28.14933,46.79337],[28.14465,46.80226],[28.13435,46.8023],[28.12857,46.80669],[28.13061,46.81319],[28.12338,46.81472],[28.12592,46.82251],[28.11829,46.8187],[28.11433,46.82196],[28.11536,46.83656],[28.10752,46.84208],[28.1143,46.84291],[28.11852,46.84977],[28.12272,46.84704],[28.12552,46.85325],[28.12007,46.85256],[28.1172,46.85504],[28.12299,46.85558],[28.12242,46.85757],[28.10759,46.86552],[28.11095,46.8699],[28.09858,46.86988],[28.09913,46.87247],[28.11866,46.87865],[28.1129,46.88149],[28.11353,46.89289],[28.10935,46.89522],[28.10988,46.88968],[28.10411,46.8956],[28.09776,46.89221],[28.09435,46.89602],[28.08648,46.89486],[28.08846,46.9],[28.08338,46.90374],[28.0861,46.90728],[28.09588,46.90504],[28.09363,46.9086],[28.10195,46.90932],[28.11284,46.92222],[28.09605,46.9287],[28.10642,46.92888],[28.10161,46.93299],[28.08157,46.93658],[28.08218,46.93886],[28.0963,46.94086],[28.09857,46.94786],[28.09666,46.95038],[28.08961,46.94887],[28.09318,46.95666],[28.08222,46.95812],[28.07835,46.96271],[28.08476,46.96465],[28.08486,46.97218],[28.09425,46.97508],[28.09579,46.97925],[28.07843,46.98494],[28.08242,46.98955],[28.08038,46.99091],[28.05468,46.99968],[28.05607,47.00355],[28.05338,47.00612],[28.05087,47.00139],[28.04546,47.00345],[28.0393,47.01221],[28.03586,47.01016],[28.03225,47.01285],[28.04207,47.01936],[28.052,47.01347],[28.05369,47.0161],[28.04863,47.02466],[28.04376,47.02038],[28.03621,47.02976],[28.02743,47.03036],[28.02387,47.02406],[28.01598,47.02347],[27.99561,47.02889],[27.99606,47.03386],[27.99166,47.03799],[27.98666,47.03441],[27.97946,47.03618],[27.97347,47.04435],[27.95825,47.04264],[27.96245,47.04963],[27.94878,47.04779],[27.94419,47.05162],[27.96019,47.0561],[27.94404,47.06119],[27.94105,47.06617],[27.93315,47.06191],[27.92351,47.06774],[27.9175,47.06691],[27.90374,47.07642],[27.89786,47.07323],[27.89425,47.08581],[27.88848,47.09076],[27.88089,47.09069],[27.88308,47.09911],[27.87314,47.10475],[27.87491,47.10779],[27.86449,47.10823],[27.86445,47.10488],[27.86012,47.10347],[27.85434,47.10765],[27.85712,47.11125],[27.85496,47.1131],[27.83406,47.11547],[27.82565,47.12197],[27.83879,47.13015],[27.84484,47.12264],[27.84834,47.12316],[27.85037,47.13015],[27.8421,47.13577],[27.83091,47.13343],[27.82952,47.13613],[27.80043,47.13799],[27.78087,47.14299],[27.78451,47.14482],[27.79774,47.14144],[27.80027,47.14421],[27.79666,47.14864],[27.7879,47.14685],[27.78422,47.14989],[27.78977,47.15395],[27.80163,47.15242],[27.81049,47.16617],[27.79684,47.16979],[27.80365,47.18767],[27.80104,47.19061],[27.78808,47.18922],[27.78675,47.19961],[27.79058,47.20587],[27.78615,47.20785],[27.77695,47.2047],[27.78656,47.21802],[27.77147,47.22089],[27.76947,47.22253],[27.77513,47.22844],[27.77237,47.2317],[27.7542,47.23102],[27.75904,47.2379],[27.7512,47.23796],[27.7455,47.24198],[27.74884,47.24942],[27.75217,47.24608],[27.75664,47.24782],[27.75508,47.25328],[27.75093,47.25512],[27.74639,47.25119],[27.7417,47.25622],[27.75803,47.25601],[27.75669,47.25956],[27.74456,47.26457],[27.74838,47.27616],[27.73741,47.27655],[27.73719,47.28641],[27.72641,47.29551],[27.71843,47.29369],[27.71454,47.29764],[27.7043,47.29995],[27.70552,47.2893],[27.69276,47.29199],[27.68876,47.29011],[27.68771,47.28484],[27.68412,47.28533],[27.68473,47.29648],[27.67991,47.29821],[27.68011,47.3087],[27.67661,47.31014],[27.67632,47.30163],[27.67334,47.29928],[27.66585,47.30664],[27.65801,47.30492],[27.65348,47.30792],[27.64618,47.30687],[27.64901,47.3006],[27.64654,47.29954],[27.63401,47.30229],[27.63805,47.30948],[27.63613,47.31286],[27.63039,47.30921],[27.62721,47.31082],[27.62707,47.31818],[27.62234,47.32585],[27.61784,47.32017],[27.60814,47.317],[27.60611,47.31958],[27.61085,47.32364],[27.60857,47.32833],[27.60419,47.32859],[27.59968,47.32386],[27.6001,47.31711],[27.59259,47.32059],[27.59622,47.32641],[27.58301,47.32685],[27.58063,47.32948],[27.58364,47.33133],[27.59448,47.33233],[27.60093,47.32902],[27.61302,47.33705],[27.60486,47.33943],[27.60632,47.34918],[27.59635,47.34615],[27.59471,47.34901],[27.60118,47.36601],[27.59712,47.37142],[27.59362,47.37212],[27.59362,47.36685],[27.58883,47.36473],[27.57362,47.36816],[27.57466,47.37136],[27.58292,47.37421],[27.5839,47.37663],[27.58018,47.3785],[27.57532,47.37298],[27.56886,47.3731],[27.56947,47.39471],[27.57455,47.39834],[27.58146,47.39833],[27.58441,47.40821],[27.57483,47.40931],[27.57482,47.41902],[27.57009,47.42102],[27.57098,47.4244],[27.56537,47.42226],[27.55644,47.4256],[27.55255,47.43263],[27.56036,47.4371],[27.55742,47.44464],[27.55949,47.44779],[27.57073,47.45071],[27.57395,47.45651],[27.57306,47.46305],[27.56952,47.46539],[27.56045,47.46291],[27.55599,47.47043],[27.54187,47.47907],[27.54105,47.48678],[27.53781,47.48903],[27.53215,47.48649],[27.53219,47.4832],[27.53764,47.48017],[27.5353,47.4778],[27.5205,47.48141],[27.51715,47.47408],[27.5122,47.47618],[27.51701,47.49057],[27.5077,47.48575],[27.5073,47.47833],[27.49477,47.47946],[27.49123,47.48331],[27.49594,47.487],[27.49085,47.48869],[27.47729,47.485],[27.47348,47.48673],[27.46645,47.50054],[27.45434,47.50741],[27.45717,47.51351],[27.45538,47.51738],[27.46666,47.52462],[27.46401,47.52737],[27.45451,47.52118],[27.45108,47.52227],[27.44423,47.52992],[27.45714,47.53612],[27.44579,47.53468],[27.43051,47.54434],[27.42978,47.54656],[27.44029,47.54841],[27.42424,47.55382],[27.43307,47.56176],[27.42213,47.56249],[27.41674,47.57024],[27.42901,47.58091],[27.42463,47.58413],[27.40569,47.58278],[27.37383,47.59655],[27.37172,47.59928],[27.3741,47.60131],[27.36327,47.61216],[27.36327,47.61708],[27.33231,47.6283],[27.31497,47.64309],[27.3153,47.64911],[27.30871,47.66097],[27.29522,47.6619],[27.29281,47.66667],[27.29651,47.67236],[27.29578,47.68083],[27.28202,47.68209],[27.27358,47.68894],[27.28238,47.69851],[27.27936,47.70107],[27.27135,47.69937],[27.26776,47.70384],[27.26804,47.71152],[27.25139,47.71999],[27.26463,47.73318],[27.26799,47.73084],[27.26666,47.72744],[27.27914,47.72833],[27.28348,47.72416],[27.29379,47.72366],[27.29539,47.7267],[27.29252,47.7296],[27.28616,47.73013],[27.28074,47.73567],[27.28727,47.7454],[27.29789,47.74793],[27.29759,47.75205],[27.29412,47.75319],[27.2879,47.74842],[27.27895,47.7505],[27.28646,47.75511],[27.27855,47.7643],[27.26971,47.75952],[27.26478,47.76048],[27.26813,47.76812],[27.26662,47.77928],[27.25462,47.77786],[27.25225,47.77963],[27.25395,47.78408],[27.24877,47.78755],[27.25027,47.7935],[27.23172,47.7982],[27.23073,47.80556],[27.2424,47.8147],[27.23867,47.81713],[27.22413,47.81402],[27.21614,47.8171],[27.21476,47.82085],[27.21675,47.8267],[27.22346,47.83162],[27.23108,47.82491],[27.23619,47.82531],[27.24702,47.83],[27.24801,47.83453],[27.23334,47.838],[27.22955,47.84109],[27.23065,47.84379],[27.22626,47.84502],[27.21629,47.83804],[27.21041,47.83816],[27.20134,47.8413],[27.19456,47.84955],[27.21197,47.84945],[27.21837,47.85636],[27.20434,47.8603],[27.20288,47.86866],[27.19826,47.87263],[27.19784,47.87792],[27.20983,47.88866],[27.21101,47.89397],[27.19627,47.91038],[27.16829,47.91807],[27.1597,47.91769],[27.15152,47.91306],[27.14284,47.91496],[27.14245,47.91981],[27.15704,47.92321],[27.17253,47.93655],[27.17934,47.94843],[27.17841,47.95296],[27.15685,47.95596],[27.14299,47.96703],[27.15373,47.97094],[27.15617,47.97687],[27.154,47.9855],[27.16404,47.9887],[27.16729,47.99292],[27.16413,47.99582],[27.13686,47.99071],[27.12322,47.99325],[27.11757,48.00127],[27.13031,48.01167],[27.12673,48.01564],[27.11644,48.01525],[27.09951,48.00538],[27.09017,48.00782],[27.09291,48.02245],[27.1085,48.02818],[27.1085,48.03223],[27.08423,48.03433],[27.08349,48.04877],[27.04475,48.06944],[27.04292,48.08071],[27.02635,48.08835],[27.04103,48.1036],[27.03379,48.11507],[27.0404,48.12856],[27.03567,48.13014],[27.02707,48.12352],[27.02247,48.12625],[27.02881,48.13723]]]]}}]}