{"type":"FeatureCollection","features":[{"type":"Feature","properties":{"ISO_A3":"PRY","WB_A3":"PRY","WB_NAME":"Paraguay","WB_REGION":"LCN"},"geometry":{"type":"MultiPolygon","coordinates":[[[[-54.64696,-26.18379],[-54.62368,-26.19998],[-54.6178,-26.21251],[-54.61953,-26.21943],[-54.67342,-26.2554],[-54.67787,-26.26101],[-54.67935,-26.27105],[-54.65801,-26.29416],[-54.64872,-26.29955],[-54.64901,-26.31536],[-54.67314,-26.34222],[-54.69697,-26.37858],[-54.69777,-26.42506],[-54.70797,-26.45129],[-54.75258,-26.49362],[-54.78036,-26.50923],[-54.79914,-26.53323],[-54.80759,-26.56085],[-54.788,-26.59382],[-54.78402,-26.61637],[-54.78823,-26.63343],[-54.81294,-26.6688],[-54.83052,-26.6741],[-54.85685,-26.65654],[-54.87576,-26.65595],[-54.91646,-26.66786],[-54.942,-26.68285],[-54.94841,-26.70266],[-54.94399,-26.74745],[-54.94969,-26.77092],[-54.9575,-26.78268],[-54.96964,-26.78953],[-55.0194,-26.78871],[-55.05354,-26.79787],[-55.0655,-26.80543],[-55.09206,-26.83603],[-55.12668,-26.85195],[-55.1421,-26.86744],[-55.14958,-26.89742],[-55.13054,-26.93593],[-55.131,-26.94158],[-55.13854,-26.95152],[-55.20393,-26.96936],[-55.2152,-26.96433],[-55.23933,-26.942],[-55.25838,-26.93736],[-55.27132,-26.94081],[-55.30376,-26.96271],[-55.37833,-26.96636],[-55.41966,-26.99223],[-55.44291,-27.02004],[-55.45582,-27.0553],[-55.4558,-27.07141],[-55.44971,-27.09434],[-55.4556,-27.10564],[-55.46752,-27.11038],[-55.47918,-27.1106],[-55.5272,-27.10194],[-55.54649,-27.10107],[-55.55598,-27.1039],[-55.56472,-27.113],[-55.56193,-27.16044],[-55.57584,-27.16792],[-55.59581,-27.15997],[-55.6085,-27.1629],[-55.61519,-27.17212],[-55.62006,-27.18877],[-55.6181,-27.20617],[-55.58285,-27.23385],[-55.57661,-27.24328],[-55.57576,-27.26659],[-55.58121,-27.27124],[-55.59363,-27.27455],[-55.6014,-27.28492],[-55.59906,-27.29752],[-55.5875,-27.31831],[-55.59061,-27.32849],[-55.60054,-27.33884],[-55.63929,-27.36257],[-55.68113,-27.37662],[-55.71351,-27.41194],[-55.72208,-27.43216],[-55.73425,-27.44406],[-55.78161,-27.44204],[-55.7987,-27.43437],[-55.81029,-27.42283],[-55.83276,-27.41341],[-55.84988,-27.3996],[-55.86393,-27.37106],[-55.87868,-27.35234],[-55.89314,-27.34296],[-55.9475,-27.34799],[-55.97201,-27.35373],[-55.99808,-27.34417],[-56.04344,-27.30931],[-56.07206,-27.30592],[-56.10844,-27.3125],[-56.171,-27.33924],[-56.21018,-27.38353],[-56.27324,-27.40109],[-56.28605,-27.40915],[-56.29386,-27.41947],[-56.28832,-27.46072],[-56.29849,-27.48864],[-56.34366,-27.52572],[-56.35333,-27.54162],[-56.36323,-27.57611],[-56.3717,-27.5867],[-56.38825,-27.59408],[-56.4092,-27.59615],[-56.42491,-27.59091],[-56.49085,-27.55373],[-56.51012,-27.51687],[-56.54794,-27.46328],[-56.56114,-27.4522],[-56.59923,-27.43509],[-56.61312,-27.43717],[-56.65664,-27.45449],[-56.67662,-27.45671],[-56.69188,-27.45365],[-56.7033,-27.45657],[-56.71897,-27.46794],[-56.72145,-27.49238],[-56.75136,-27.49955],[-56.81858,-27.46682],[-56.83461,-27.45483],[-56.85817,-27.42851],[-56.87956,-27.41512],[-56.90362,-27.40795],[-56.92079,-27.40744],[-56.93231,-27.4107],[-56.95972,-27.43275],[-57.04341,-27.48003],[-57.13419,-27.48535],[-57.18087,-27.47192],[-57.23112,-27.46732],[-57.26746,-27.44597],[-57.28236,-27.4332],[-57.32602,-27.41306],[-57.39477,-27.4205],[-57.44831,-27.43821],[-57.47698,-27.44378],[-57.51068,-27.44159],[-57.54321,-27.43164],[-57.58074,-27.40415],[-57.61643,-27.39164],[-57.65786,-27.36207],[-57.68197,-27.33643],[-57.69878,-27.32733],[-57.71426,-27.32416],[-57.77484,-27.33759],[-57.81811,-27.33265],[-57.83898,-27.3119],[-57.8516,-27.29093],[-57.8664,-27.27896],[-57.88736,-27.26863],[-57.92263,-27.2628],[-57.99474,-27.26885],[-58.05522,-27.25966],[-58.07566,-27.26186],[-58.09953,-27.27251],[-58.17051,-27.27662],[-58.192,-27.27473],[-58.2683,-27.25159],[-58.27916,-27.25542],[-58.28966,-27.26907],[-58.30213,-27.27483],[-58.38654,-27.28274],[-58.41686,-27.28846],[-58.47119,-27.27299],[-58.49378,-27.27123],[-58.50601,-27.27363],[-58.53413,-27.29667],[-58.56915,-27.30393],[-58.58005,-27.3036],[-58.59613,-27.29608],[-58.60849,-27.29421],[-58.60776,-27.28351],[-58.59627,-27.26795],[-58.59142,-27.22733],[-58.59366,-27.22125],[-58.60202,-27.21486],[-58.65828,-27.19061],[-58.66439,-27.17437],[-58.65073,-27.12808],[-58.63465,-27.11692],[-58.61855,-27.11241],[-58.58012,-27.10789],[-58.55708,-27.11226],[-58.55432,-27.10226],[-58.55712,-27.08625],[-58.55179,-27.06921],[-58.56286,-27.04258],[-58.55527,-27.03517],[-58.52632,-27.03542],[-58.51851,-27.04464],[-58.52006,-27.05823],[-58.51782,-27.06201],[-58.5085,-27.06183],[-58.50417,-27.05794],[-58.49783,-27.04652],[-58.49948,-27.04069],[-58.52062,-27.00992],[-58.52041,-27.00196],[-58.50875,-26.99628],[-58.4964,-26.99613],[-58.47595,-27.00555],[-58.47106,-27.0024],[-58.46824,-26.99003],[-58.4717,-26.97798],[-58.50216,-26.93062],[-58.50094,-26.92718],[-58.47916,-26.93356],[-58.44692,-26.92377],[-58.41185,-26.90337],[-58.38621,-26.89358],[-58.37896,-26.8843],[-58.37643,-26.86815],[-58.36879,-26.86367],[-58.34283,-26.87154],[-58.32767,-26.86967],[-58.32207,-26.86471],[-58.31976,-26.85599],[-58.32176,-26.8386],[-58.33678,-26.8182],[-58.33233,-26.80736],[-58.30793,-26.80726],[-58.28313,-26.79442],[-58.28274,-26.78893],[-58.29449,-26.77033],[-58.29569,-26.7637],[-58.29129,-26.75631],[-58.28194,-26.75588],[-58.27164,-26.76159],[-58.25916,-26.76224],[-58.25205,-26.75893],[-58.24608,-26.74932],[-58.24768,-26.73687],[-58.25547,-26.72037],[-58.25569,-26.67293],[-58.26272,-26.66029],[-58.26278,-26.64939],[-58.25947,-26.64399],[-58.24805,-26.64179],[-58.22564,-26.65327],[-58.20539,-26.65457],[-58.19606,-26.65242],[-58.19068,-26.64473],[-58.19221,-26.63862],[-58.20638,-26.62824],[-58.20957,-26.62215],[-58.2097,-26.61735],[-58.19664,-26.6045],[-58.1936,-26.59758],[-58.19859,-26.56322],[-58.20271,-26.5562],[-58.21824,-26.54734],[-58.22453,-26.53656],[-58.22293,-26.52677],[-58.2094,-26.50697],[-58.20806,-26.49668],[-58.21189,-26.49048],[-58.23175,-26.48013],[-58.23386,-26.47123],[-58.22911,-26.46526],[-58.22331,-26.46365],[-58.19416,-26.46432],[-58.18076,-26.4569],[-58.18302,-26.45087],[-58.21891,-26.41762],[-58.22236,-26.39922],[-58.21941,-26.38987],[-58.20926,-26.37678],[-58.19075,-26.36652],[-58.17099,-26.3613],[-58.15993,-26.34832],[-58.15403,-26.31923],[-58.15566,-26.3097],[-58.16712,-26.29167],[-58.16812,-26.2755],[-58.1637,-26.26388],[-58.109,-26.24034],[-58.10379,-26.22555],[-58.11057,-26.2155],[-58.14267,-26.19831],[-58.15779,-26.18593],[-58.15938,-26.18124],[-58.14805,-26.17825],[-58.11948,-26.18628],[-58.11753,-26.15647],[-58.08819,-26.11368],[-58.06854,-26.10762],[-58.04422,-26.11189],[-58.02047,-26.10471],[-57.99922,-26.09114],[-57.95325,-26.06991],[-57.93346,-26.05125],[-57.92369,-26.03486],[-57.89977,-26.02125],[-57.86153,-26.01141],[-57.85245,-26.0055],[-57.85016,-25.99561],[-57.85339,-25.98736],[-57.89173,-25.9661],[-57.8951,-25.95549],[-57.89089,-25.9472],[-57.87377,-25.92974],[-57.84207,-25.92081],[-57.83564,-25.91515],[-57.83934,-25.90191],[-57.86233,-25.88485],[-57.86434,-25.87316],[-57.85873,-25.85644],[-57.84233,-25.85005],[-57.81524,-25.84652],[-57.79376,-25.82025],[-57.79275,-25.81141],[-57.81874,-25.7816],[-57.82835,-25.76079],[-57.82826,-25.75512],[-57.81881,-25.75091],[-57.79385,-25.76209],[-57.77728,-25.75982],[-57.76547,-25.74588],[-57.73438,-25.72568],[-57.72725,-25.71428],[-57.7277,-25.70996],[-57.73262,-25.70717],[-57.75698,-25.70958],[-57.76376,-25.70525],[-57.76692,-25.6982],[-57.76582,-25.68992],[-57.74356,-25.65229],[-57.73302,-25.64582],[-57.72526,-25.64507],[-57.70866,-25.65012],[-57.69166,-25.66052],[-57.67623,-25.66012],[-57.67057,-25.65111],[-57.67894,-25.60668],[-57.67794,-25.59707],[-57.66823,-25.59384],[-57.65877,-25.59612],[-57.64016,-25.61252],[-57.62249,-25.61738],[-57.61541,-25.6147],[-57.60919,-25.60715],[-57.60444,-25.58587],[-57.60528,-25.56949],[-57.60156,-25.56717],[-57.58647,-25.57064],[-57.5806,-25.56879],[-57.57386,-25.55962],[-57.56935,-25.54029],[-57.57888,-25.52601],[-57.58009,-25.51098],[-57.56991,-25.49414],[-57.55936,-25.46547],[-57.56136,-25.45217],[-57.56887,-25.4356],[-57.59883,-25.4003],[-57.61287,-25.39033],[-57.64166,-25.3828],[-57.65018,-25.3676],[-57.66288,-25.35502],[-57.66993,-25.35341],[-57.67154,-25.34699],[-57.68103,-25.34259],[-57.68145,-25.33446],[-57.68457,-25.33137],[-57.68989,-25.33192],[-57.69286,-25.32258],[-57.70297,-25.32151],[-57.69877,-25.31667],[-57.69784,-25.3085],[-57.70701,-25.29974],[-57.70466,-25.29546],[-57.69831,-25.29399],[-57.69438,-25.28605],[-57.69703,-25.28358],[-57.7029,-25.28541],[-57.704,-25.28231],[-57.71247,-25.28527],[-57.71352,-25.28284],[-57.71042,-25.28187],[-57.71556,-25.27356],[-57.72122,-25.27793],[-57.72288,-25.27169],[-57.71849,-25.26524],[-57.72374,-25.26625],[-57.72967,-25.25863],[-57.72562,-25.25416],[-57.7286,-25.24659],[-57.73825,-25.25378],[-57.74081,-25.2518],[-57.73583,-25.24659],[-57.73915,-25.2424],[-57.73511,-25.23784],[-57.73589,-25.23427],[-57.7383,-25.2339],[-57.73858,-25.23789],[-57.74328,-25.23647],[-57.74277,-25.23268],[-57.74958,-25.23414],[-57.74481,-25.23151],[-57.74542,-25.22771],[-57.75177,-25.2274],[-57.75119,-25.2245],[-57.75546,-25.2233],[-57.75358,-25.22152],[-57.75924,-25.21987],[-57.75843,-25.21598],[-57.7514,-25.21748],[-57.75739,-25.21118],[-57.74867,-25.20685],[-57.75148,-25.20357],[-57.74925,-25.19598],[-57.75535,-25.19694],[-57.75842,-25.18773],[-57.7525,-25.17817],[-57.76127,-25.17548],[-57.76131,-25.17154],[-57.76744,-25.17277],[-57.77195,-25.16932],[-57.76991,-25.16479],[-57.77544,-25.16225],[-57.77996,-25.15258],[-57.80025,-25.14993],[-57.80694,-25.14231],[-57.81335,-25.14718],[-57.81865,-25.13922],[-57.82156,-25.14192],[-57.82382,-25.14014],[-57.82622,-25.13067],[-57.83188,-25.12911],[-57.83676,-25.13159],[-57.83492,-25.12765],[-57.83938,-25.12645],[-57.84169,-25.12037],[-57.84422,-25.12131],[-57.84381,-25.11206],[-57.85063,-25.10955],[-57.84742,-25.10787],[-57.84691,-25.10225],[-57.85283,-25.09678],[-57.85114,-25.09434],[-57.85859,-25.09037],[-57.8597,-25.08542],[-57.87723,-25.0812],[-57.88316,-25.07578],[-57.89593,-25.08043],[-57.90662,-25.0798],[-57.90491,-25.07452],[-57.91618,-25.07784],[-57.92316,-25.07336],[-57.92497,-25.07705],[-57.93162,-25.07796],[-57.93397,-25.07232],[-57.93689,-25.07547],[-57.94092,-25.07181],[-57.94312,-25.07778],[-57.95227,-25.0806],[-57.95747,-25.0731],[-57.9757,-25.08614],[-57.98586,-25.0829],[-57.99099,-25.07488],[-58,-25.07233],[-58.00089,-25.06677],[-57.99686,-25.06534],[-57.99755,-25.05391],[-58.00436,-25.04538],[-58.00452,-25.03718],[-58.00747,-25.03526],[-58.01473,-25.04126],[-58.03193,-25.03589],[-58.0357,-25.04052],[-58.04485,-25.04321],[-58.04878,-25.03953],[-58.0531,-25.04012],[-58.05802,-25.04595],[-58.06103,-25.04085],[-58.06655,-25.0416],[-58.0664,-25.04521],[-58.07121,-25.04395],[-58.07093,-25.04115],[-58.07738,-25.03784],[-58.07677,-25.02859],[-58.08551,-25.01268],[-58.09469,-25.00902],[-58.11729,-25.01909],[-58.11856,-25.01415],[-58.13669,-25.00951],[-58.13731,-24.99395],[-58.15059,-24.9807],[-58.1495,-24.97588],[-58.16466,-24.96925],[-58.17753,-24.97075],[-58.17614,-24.96863],[-58.17865,-24.96744],[-58.18127,-24.96957],[-58.19473,-24.96682],[-58.19463,-24.95975],[-58.202,-24.94989],[-58.21766,-24.94994],[-58.21431,-24.946],[-58.21831,-24.94577],[-58.2231,-24.93972],[-58.22422,-24.93658],[-58.21977,-24.93504],[-58.22432,-24.93153],[-58.2242,-24.92789],[-58.23214,-24.92996],[-58.23523,-24.92709],[-58.24502,-24.93319],[-58.25512,-24.93172],[-58.25504,-24.93569],[-58.26651,-24.94268],[-58.27549,-24.95321],[-58.28644,-24.95604],[-58.28851,-24.96414],[-58.29572,-24.96738],[-58.29786,-24.97457],[-58.31498,-24.98411],[-58.31152,-24.98584],[-58.31357,-24.98914],[-58.32288,-24.98992],[-58.32261,-24.99343],[-58.32989,-24.99941],[-58.33559,-24.99902],[-58.3373,-24.99604],[-58.34095,-24.99671],[-58.33995,-24.99215],[-58.34531,-24.98488],[-58.34699,-24.97411],[-58.35276,-24.96845],[-58.36184,-24.96699],[-58.36926,-24.959],[-58.39288,-24.95179],[-58.39723,-24.93982],[-58.4082,-24.92921],[-58.40878,-24.92275],[-58.41675,-24.92066],[-58.42122,-24.92314],[-58.43168,-24.91887],[-58.42821,-24.8993],[-58.433,-24.89014],[-58.44359,-24.87812],[-58.45173,-24.87876],[-58.45207,-24.8755],[-58.47586,-24.86013],[-58.49779,-24.85801],[-58.50823,-24.84493],[-58.51648,-24.84379],[-58.5266,-24.85071],[-58.52898,-24.84545],[-58.53757,-24.84175],[-58.54786,-24.8308],[-58.55576,-24.83025],[-58.57423,-24.82134],[-58.58357,-24.82156],[-58.58995,-24.82726],[-58.59635,-24.82472],[-58.61103,-24.83107],[-58.63789,-24.82849],[-58.64848,-24.82438],[-58.65724,-24.83076],[-58.67365,-24.83135],[-58.68882,-24.81009],[-58.69977,-24.81443],[-58.70543,-24.81339],[-58.71011,-24.80766],[-58.7092,-24.79959],[-58.71324,-24.79538],[-58.71284,-24.79098],[-58.72736,-24.77416],[-58.73994,-24.78076],[-58.76323,-24.77477],[-58.80413,-24.77365],[-58.82238,-24.76233],[-58.82798,-24.75304],[-58.85473,-24.73275],[-58.87104,-24.72868],[-58.87823,-24.73337],[-58.88918,-24.71639],[-58.90276,-24.70876],[-58.90315,-24.70497],[-58.91651,-24.6966],[-58.92598,-24.6966],[-58.92739,-24.69227],[-58.94041,-24.68531],[-58.94173,-24.68136],[-58.96668,-24.67229],[-58.97315,-24.66208],[-58.98424,-24.66024],[-58.99832,-24.66385],[-59.01184,-24.65937],[-59.02384,-24.66008],[-59.03719,-24.64568],[-59.05165,-24.64231],[-59.05769,-24.63086],[-59.066,-24.62976],[-59.07956,-24.62146],[-59.09904,-24.61672],[-59.11092,-24.62377],[-59.13055,-24.61631],[-59.13002,-24.61217],[-59.13553,-24.60596],[-59.15378,-24.59924],[-59.15712,-24.58743],[-59.18037,-24.57533],[-59.18571,-24.56355],[-59.24176,-24.54537],[-59.24337,-24.53894],[-59.25147,-24.53245],[-59.25071,-24.52726],[-59.25802,-24.51951],[-59.29376,-24.51544],[-59.30089,-24.50402],[-59.31524,-24.50005],[-59.31995,-24.49198],[-59.34225,-24.48925],[-59.35052,-24.48312],[-59.35879,-24.45408],[-59.36573,-24.45024],[-59.37531,-24.42075],[-59.38398,-24.42047],[-59.40094,-24.4113],[-59.41142,-24.41256],[-59.42177,-24.40851],[-59.42421,-24.39752],[-59.44215,-24.3899],[-59.4483,-24.37822],[-59.45679,-24.37336],[-59.4599,-24.36736],[-59.45796,-24.35777],[-59.47135,-24.34954],[-59.46914,-24.3377],[-59.47591,-24.33114],[-60.03901,-24.01166],[-60.04955,-24.01364],[-60.07306,-24.01112],[-60.09065,-24.02436],[-60.10337,-24.01991],[-60.10634,-24.02722],[-60.11993,-24.03247],[-60.17766,-24.04394],[-60.25124,-24.04542],[-60.29512,-24.0414],[-60.32316,-24.03294],[-60.32852,-24.02981],[-60.32536,-24.02836],[-60.32887,-24.02443],[-60.3355,-24.0216],[-60.35641,-24.02463],[-60.36546,-24.0201],[-60.37351,-24.0241],[-60.38051,-24.01909],[-60.38389,-24.00107],[-60.38952,-23.9949],[-60.41342,-23.98586],[-60.44298,-23.96243],[-60.46651,-23.9571],[-60.47776,-23.95096],[-60.48781,-23.95146],[-60.5085,-23.97078],[-60.5321,-23.9679],[-60.54327,-23.96334],[-60.5538,-23.96574],[-60.55913,-23.95452],[-60.56931,-23.95654],[-60.572,-23.95994],[-60.58798,-23.95902],[-60.58976,-23.95536],[-60.57977,-23.95304],[-60.59251,-23.9437],[-60.59016,-23.94061],[-60.59514,-23.92095],[-60.58627,-23.91791],[-60.60314,-23.91655],[-60.60182,-23.90946],[-60.61298,-23.90371],[-60.62834,-23.90539],[-60.6335,-23.90946],[-60.6476,-23.90874],[-60.6556,-23.90674],[-60.65963,-23.89963],[-60.68502,-23.89516],[-60.69299,-23.90204],[-60.71337,-23.8899],[-60.71613,-23.88718],[-60.71291,-23.88365],[-60.73222,-23.88504],[-60.73388,-23.88345],[-60.73082,-23.87988],[-60.74203,-23.87529],[-60.75194,-23.8796],[-60.76006,-23.87786],[-60.7619,-23.8735],[-60.7852,-23.87165],[-60.79273,-23.87319],[-60.79106,-23.87754],[-60.79887,-23.87679],[-60.80535,-23.86779],[-60.83155,-23.87306],[-60.84696,-23.87095],[-60.85389,-23.86258],[-60.849,-23.85797],[-60.85664,-23.85681],[-60.85694,-23.85036],[-60.86759,-23.85277],[-60.87601,-23.84391],[-60.90407,-23.82636],[-60.9089,-23.81328],[-60.92487,-23.80837],[-60.93234,-23.80069],[-60.94429,-23.8017],[-60.93951,-23.80886],[-60.94706,-23.81298],[-60.95397,-23.80998],[-60.95804,-23.82015],[-60.96042,-23.82031],[-60.96082,-23.81249],[-60.96515,-23.80856],[-60.98029,-23.809],[-60.98776,-23.81241],[-61.00786,-23.78203],[-61.01654,-23.77785],[-61.01984,-23.77222],[-61.01353,-23.76057],[-61.03442,-23.7442],[-61.03999,-23.74302],[-61.0416,-23.72735],[-61.05405,-23.715],[-61.05854,-23.70515],[-61.06598,-23.70691],[-61.06884,-23.70015],[-61.08086,-23.69039],[-61.08008,-23.68371],[-61.08672,-23.67986],[-61.08142,-23.67073],[-61.09542,-23.66635],[-61.09891,-23.65532],[-61.09011,-23.64216],[-61.1005,-23.6265],[-61.09646,-23.62373],[-61.09628,-23.61743],[-61.0886,-23.61872],[-61.08894,-23.61439],[-61.09852,-23.61114],[-61.10045,-23.60416],[-61.10544,-23.6],[-61.12039,-23.59627],[-61.12138,-23.5858],[-61.13417,-23.59028],[-61.13244,-23.57946],[-61.14723,-23.57986],[-61.15253,-23.57233],[-61.16469,-23.56629],[-61.17076,-23.55361],[-61.19964,-23.54755],[-61.20373,-23.55065],[-61.22407,-23.55209],[-61.23429,-23.54265],[-61.24628,-23.54108],[-61.2623,-23.51714],[-61.27065,-23.52025],[-61.27752,-23.51713],[-61.27268,-23.50738],[-61.28255,-23.48739],[-61.28692,-23.48624],[-61.29467,-23.4935],[-61.29927,-23.48529],[-61.30678,-23.48479],[-61.31516,-23.47165],[-61.32279,-23.46729],[-61.34557,-23.46631],[-61.35273,-23.44797],[-61.36456,-23.45578],[-61.3721,-23.45367],[-61.375,-23.45624],[-61.38199,-23.44723],[-61.38741,-23.44791],[-61.39063,-23.45541],[-61.40231,-23.44561],[-61.41957,-23.44711],[-61.4258,-23.43792],[-61.45008,-23.42147],[-61.45529,-23.42468],[-61.46603,-23.42121],[-61.47381,-23.42633],[-61.47801,-23.41903],[-61.48132,-23.4186],[-61.4906,-23.42431],[-61.49818,-23.41409],[-61.50005,-23.40315],[-61.52038,-23.38118],[-61.52415,-23.37095],[-61.52483,-23.36742],[-61.51391,-23.35688],[-61.5127,-23.35167],[-61.51789,-23.34819],[-61.52352,-23.35067],[-61.53023,-23.34373],[-61.54434,-23.34897],[-61.55716,-23.34296],[-61.56459,-23.33428],[-61.56553,-23.32488],[-61.57412,-23.3212],[-61.57632,-23.31214],[-61.57194,-23.30649],[-61.58283,-23.29937],[-61.58574,-23.30493],[-61.58936,-23.30487],[-61.5928,-23.29493],[-61.60179,-23.29284],[-61.60773,-23.28338],[-61.6293,-23.27771],[-61.67129,-23.28433],[-61.69025,-23.25977],[-61.69977,-23.25622],[-61.70049,-23.25007],[-61.70877,-23.24361],[-61.71438,-23.24023],[-61.72649,-23.24297],[-61.73599,-23.23699],[-61.73867,-23.20054],[-61.74431,-23.18559],[-61.75354,-23.17278],[-61.77397,-23.16471],[-61.79045,-23.16503],[-61.79557,-23.16321],[-61.7973,-23.15822],[-61.8041,-23.15771],[-61.81244,-23.15186],[-61.81611,-23.14508],[-61.81748,-23.12628],[-61.83074,-23.12568],[-61.84765,-23.1026],[-61.84824,-23.09601],[-61.85509,-23.09466],[-61.85824,-23.08758],[-61.87482,-23.08409],[-61.89062,-23.07073],[-61.90011,-23.07363],[-61.90803,-23.06862],[-61.92551,-23.06982],[-61.93798,-23.04829],[-61.95399,-23.03312],[-61.97434,-23.02796],[-61.98336,-23.02227],[-61.99324,-22.99743],[-62.00729,-22.99289],[-61.99819,-22.98263],[-61.99758,-22.97765],[-62.00344,-22.97612],[-62.00701,-22.96601],[-62.00591,-22.95785],[-61.9992,-22.94926],[-62.00469,-22.9402],[-61.99882,-22.92923],[-62.00469,-22.92702],[-62.02344,-22.93044],[-62.03113,-22.9258],[-62.02178,-22.90672],[-62.0315,-22.89953],[-62.04141,-22.86836],[-62.05809,-22.86108],[-62.06037,-22.845],[-62.06373,-22.84419],[-62.07003,-22.85016],[-62.07353,-22.84835],[-62.08,-22.82715],[-62.08891,-22.82657],[-62.09478,-22.81806],[-62.10423,-22.82277],[-62.10701,-22.82084],[-62.11193,-22.79755],[-62.12281,-22.79526],[-62.1247,-22.79078],[-62.13568,-22.78365],[-62.13818,-22.77552],[-62.1353,-22.76393],[-62.13778,-22.76038],[-62.15797,-22.7601],[-62.16597,-22.74827],[-62.16616,-22.74544],[-62.15736,-22.74199],[-62.16036,-22.73459],[-62.18268,-22.70941],[-62.19469,-22.71206],[-62.20321,-22.70377],[-62.19545,-22.69076],[-62.20073,-22.68224],[-62.19724,-22.67027],[-62.20315,-22.66303],[-62.19337,-22.65504],[-62.19399,-22.64925],[-62.20892,-22.64506],[-62.21171,-22.63325],[-62.23048,-22.62108],[-62.23426,-22.61489],[-62.25137,-22.61238],[-62.24867,-22.60152],[-62.26022,-22.60516],[-62.26209,-22.60248],[-62.2587,-22.5953],[-62.24482,-22.59164],[-62.24116,-22.58344],[-62.24618,-22.57603],[-62.23394,-22.56855],[-62.23232,-22.54457],[-62.25413,-22.53103],[-62.25018,-22.51909],[-62.25414,-22.51456],[-62.26973,-22.51819],[-62.27618,-22.52429],[-62.29583,-22.51968],[-62.29492,-22.51153],[-62.28756,-22.51],[-62.28345,-22.50341],[-62.29017,-22.49322],[-62.28918,-22.47654],[-62.29581,-22.47625],[-62.31028,-22.48754],[-62.33872,-22.48141],[-62.34332,-22.47397],[-62.34673,-22.45452],[-62.3509,-22.45467],[-62.35553,-22.46238],[-62.36988,-22.4602],[-62.37327,-22.47684],[-62.37728,-22.47665],[-62.38468,-22.45721],[-62.39853,-22.45319],[-62.39766,-22.44357],[-62.40713,-22.44539],[-62.41565,-22.43719],[-62.42072,-22.42609],[-62.42706,-22.42615],[-62.43195,-22.4197],[-62.44665,-22.41996],[-62.4591,-22.41322],[-62.46709,-22.39804],[-62.46878,-22.3856],[-62.46435,-22.38159],[-62.46994,-22.37475],[-62.48447,-22.37278],[-62.50955,-22.37932],[-62.52464,-22.37564],[-62.54221,-22.35838],[-62.53963,-22.35063],[-62.54808,-22.33245],[-62.55435,-22.32856],[-62.5615,-22.33042],[-62.57062,-22.32822],[-62.5735,-22.32155],[-62.57217,-22.31114],[-62.58747,-22.31799],[-62.59576,-22.31685],[-62.60191,-22.30856],[-62.61143,-22.30365],[-62.61797,-22.28903],[-62.63106,-22.28383],[-62.63032,-22.27107],[-62.63464,-22.25956],[-62.63238,-22.24734],[-62.63594,-22.23832],[-62.63994,-22.2363],[-62.26088,-21.05868],[-62.26633,-20.56315],[-61.92269,-20.08921],[-61.73509,-19.63448],[-60.60425,-19.4566],[-59.97489,-19.29447],[-59.06906,-19.2877],[-58.23581,-19.77547],[-58.1639,-19.82724],[-58.17332,-19.83352],[-58.17927,-19.84583],[-58.19176,-19.85194],[-58.20193,-19.86333],[-58.2053,-19.8936],[-58.20014,-19.90275],[-58.19638,-19.9262],[-58.21368,-19.95203],[-58.20193,-19.96159],[-58.19349,-19.96016],[-58.18584,-19.97142],[-58.17706,-20.0012],[-58.17761,-20.01477],[-58.17356,-20.01953],[-58.17537,-20.02975],[-58.15774,-20.04235],[-58.16022,-20.04795],[-58.16739,-20.04953],[-58.16287,-20.05926],[-58.16502,-20.066],[-58.1609,-20.07206],[-58.16328,-20.07663],[-58.1553,-20.07585],[-58.15531,-20.0863],[-58.14527,-20.09849],[-58.13765,-20.12144],[-58.14308,-20.12847],[-58.14507,-20.13836],[-58.15962,-20.14406],[-58.16828,-20.15365],[-58.17033,-20.1639],[-58.16826,-20.17352],[-58.16054,-20.18101],[-58.13376,-20.18154],[-58.12518,-20.18751],[-58.12175,-20.19602],[-58.12788,-20.20509],[-58.15338,-20.21509],[-58.16342,-20.2271],[-58.1662,-20.23398],[-58.16217,-20.25701],[-58.15338,-20.26869],[-58.14226,-20.2715],[-58.13714,-20.26853],[-58.13036,-20.25574],[-58.11727,-20.24904],[-58.10418,-20.24991],[-58.09665,-20.25392],[-58.08983,-20.26488],[-58.09003,-20.28003],[-58.10257,-20.32393],[-58.08386,-20.37244],[-58.07338,-20.38784],[-58.06531,-20.39187],[-58.02119,-20.40281],[-57.9978,-20.43788],[-57.99875,-20.45595],[-58.0147,-20.4832],[-58.0201,-20.50942],[-58.01578,-20.52823],[-57.99692,-20.57348],[-58.01141,-20.59923],[-58.01165,-20.61485],[-57.99615,-20.63133],[-57.97207,-20.6414],[-57.97035,-20.64474],[-57.97791,-20.66798],[-57.98804,-20.68619],[-57.98739,-20.70057],[-57.98005,-20.70603],[-57.95583,-20.70393],[-57.9508,-20.69922],[-57.93715,-20.67056],[-57.92585,-20.66397],[-57.91356,-20.67091],[-57.90415,-20.68848],[-57.87846,-20.7132],[-57.87058,-20.72468],[-57.86455,-20.74598],[-57.86825,-20.74954],[-57.87919,-20.75047],[-57.91985,-20.74397],[-57.93385,-20.7458],[-57.9474,-20.76063],[-57.95319,-20.77897],[-57.96136,-20.79139],[-57.95937,-20.79799],[-57.94736,-20.80077],[-57.93121,-20.79819],[-57.91115,-20.789],[-57.89314,-20.79088],[-57.86343,-20.81881],[-57.8548,-20.8355],[-57.85779,-20.85082],[-57.87515,-20.85522],[-57.90606,-20.88017],[-57.92651,-20.89191],[-57.92834,-20.89968],[-57.92137,-20.90457],[-57.9027,-20.90185],[-57.89003,-20.90588],[-57.87972,-20.9188],[-57.87374,-20.94111],[-57.86411,-20.94864],[-57.84593,-20.9478],[-57.82718,-20.93354],[-57.82143,-20.93507],[-57.81869,-20.94238],[-57.82529,-20.96467],[-57.8177,-20.98093],[-57.8392,-21.00384],[-57.84651,-21.01769],[-57.86838,-21.0424],[-57.86562,-21.06696],[-57.84603,-21.09588],[-57.86491,-21.13873],[-57.84912,-21.18713],[-57.85208,-21.22375],[-57.85753,-21.23344],[-57.90301,-21.26321],[-57.9215,-21.2791],[-57.91242,-21.29461],[-57.89696,-21.30636],[-57.85518,-21.31655],[-57.85271,-21.32076],[-57.85381,-21.33257],[-57.8609,-21.35027],[-57.89749,-21.38466],[-57.90823,-21.40288],[-57.91009,-21.42097],[-57.92736,-21.45045],[-57.92536,-21.46426],[-57.93181,-21.47929],[-57.93863,-21.49136],[-57.96013,-21.50959],[-57.96789,-21.52229],[-57.9682,-21.53944],[-57.96081,-21.56343],[-57.9508,-21.56993],[-57.92384,-21.57909],[-57.91416,-21.58976],[-57.91506,-21.59631],[-57.92851,-21.60592],[-57.94296,-21.62331],[-57.94306,-21.62969],[-57.93384,-21.65087],[-57.92359,-21.66389],[-57.88526,-21.68349],[-57.88317,-21.68861],[-57.89932,-21.7065],[-57.9374,-21.7301],[-57.94736,-21.74515],[-57.94002,-21.75856],[-57.92672,-21.76677],[-57.91263,-21.76919],[-57.90853,-21.77421],[-57.93085,-21.82417],[-57.9417,-21.83482],[-57.97198,-21.84589],[-57.96986,-21.85098],[-57.95941,-21.85333],[-57.92042,-21.87354],[-57.91335,-21.88234],[-57.91669,-21.8897],[-57.9219,-21.89134],[-57.93377,-21.88833],[-57.94984,-21.90376],[-57.94744,-21.91084],[-57.93728,-21.91703],[-57.93723,-21.92879],[-57.9651,-21.98408],[-57.96454,-21.9988],[-57.96978,-22.01098],[-58.00857,-22.03455],[-58.00811,-22.0487],[-57.98781,-22.05902],[-57.98341,-22.06698],[-57.9924,-22.09013],[-57.96801,-22.08955],[-57.96251,-22.07944],[-57.95486,-22.08756],[-57.94994,-22.08337],[-57.94107,-22.08344],[-57.93665,-22.08989],[-57.93517,-22.10254],[-57.92175,-22.10906],[-57.92985,-22.12057],[-57.90448,-22.12557],[-57.8885,-22.12312],[-57.88602,-22.13029],[-57.87074,-22.12927],[-57.86506,-22.1358],[-57.86421,-22.1316],[-57.84764,-22.12779],[-57.83095,-22.11967],[-57.82366,-22.12231],[-57.8202,-22.1372],[-57.80957,-22.14188],[-57.80369,-22.15112],[-57.79892,-22.14964],[-57.7898,-22.1313],[-57.78032,-22.1255],[-57.76723,-22.13067],[-57.76339,-22.1356],[-57.75412,-22.13545],[-57.74867,-22.13895],[-57.73858,-22.13402],[-57.73506,-22.11935],[-57.7421,-22.11524],[-57.73956,-22.10519],[-57.73051,-22.09973],[-57.71774,-22.11373],[-57.7148,-22.10351],[-57.70424,-22.09892],[-57.70703,-22.09104],[-57.69938,-22.0919],[-57.69058,-22.08825],[-57.67811,-22.10083],[-57.65348,-22.10693],[-57.63685,-22.10593],[-57.61991,-22.09571],[-57.61057,-22.09478],[-57.61346,-22.10928],[-57.60889,-22.11593],[-57.61291,-22.123],[-57.60536,-22.12414],[-57.60746,-22.12868],[-57.60354,-22.13117],[-57.59852,-22.13016],[-57.59684,-22.13344],[-57.60182,-22.13735],[-57.59973,-22.1403],[-57.59335,-22.13621],[-57.59464,-22.1431],[-57.59062,-22.14385],[-57.58917,-22.13944],[-57.58454,-22.14119],[-57.58835,-22.16526],[-57.58067,-22.17521],[-57.54015,-22.18115],[-57.52845,-22.17614],[-57.52164,-22.16834],[-57.50623,-22.18501],[-57.49876,-22.18601],[-57.49438,-22.18159],[-57.4893,-22.19107],[-57.48323,-22.19229],[-57.47295,-22.18695],[-57.46438,-22.19275],[-57.46284,-22.18826],[-57.45926,-22.18764],[-57.45878,-22.19336],[-57.45516,-22.19544],[-57.45243,-22.19305],[-57.4555,-22.1914],[-57.45394,-22.18829],[-57.44789,-22.18728],[-57.44345,-22.19255],[-57.43987,-22.1918],[-57.43482,-22.20004],[-57.43042,-22.19606],[-57.42553,-22.19662],[-57.42751,-22.20249],[-57.42398,-22.20467],[-57.42025,-22.19775],[-57.40706,-22.19761],[-57.39723,-22.20224],[-57.39678,-22.2089],[-57.38953,-22.20507],[-57.37759,-22.21235],[-57.38168,-22.22615],[-57.37522,-22.22391],[-57.37229,-22.22624],[-57.37607,-22.23084],[-57.37323,-22.23225],[-57.36463,-22.22744],[-57.36328,-22.2336],[-57.36044,-22.23403],[-57.3593,-22.22851],[-57.35557,-22.22802],[-57.34921,-22.23218],[-57.34135,-22.23009],[-57.34178,-22.23507],[-57.33618,-22.22923],[-57.33575,-22.23505],[-57.3303,-22.23506],[-57.33,-22.23854],[-57.32555,-22.23877],[-57.31953,-22.24547],[-57.31482,-22.24189],[-57.31591,-22.23631],[-57.31062,-22.23246],[-57.31096,-22.2286],[-57.30641,-22.2306],[-57.30187,-22.2221],[-57.29189,-22.21832],[-57.29297,-22.22338],[-57.28974,-22.2244],[-57.28704,-22.2209],[-57.27715,-22.22974],[-57.2775,-22.23601],[-57.27319,-22.22952],[-57.26998,-22.23132],[-57.27088,-22.23661],[-57.25629,-22.23756],[-57.24815,-22.24707],[-57.2386,-22.25127],[-57.21782,-22.24092],[-57.21624,-22.22824],[-57.21259,-22.22672],[-57.21433,-22.2181],[-57.20925,-22.21412],[-57.20692,-22.21535],[-57.20981,-22.2183],[-57.20811,-22.22083],[-57.20345,-22.21677],[-57.20332,-22.21187],[-57.19475,-22.21236],[-57.18974,-22.21793],[-57.19355,-22.22101],[-57.18419,-22.22932],[-57.18409,-22.23606],[-57.17878,-22.23296],[-57.16921,-22.23408],[-57.17062,-22.2302],[-57.1678,-22.22784],[-57.16271,-22.2334],[-57.15666,-22.22642],[-57.14937,-22.234],[-57.13827,-22.2269],[-57.11941,-22.23042],[-57.11112,-22.22553],[-57.10462,-22.22805],[-57.10888,-22.23113],[-57.11256,-22.24095],[-57.10498,-22.24302],[-57.1024,-22.24838],[-57.09363,-22.24926],[-57.08984,-22.2413],[-57.08266,-22.25118],[-57.07842,-22.24487],[-57.07289,-22.24631],[-57.06943,-22.24261],[-57.05891,-22.24162],[-57.06025,-22.22984],[-57.04928,-22.23189],[-57.04722,-22.24165],[-57.04409,-22.24266],[-57.041,-22.23637],[-57.0312,-22.23384],[-57.02154,-22.23646],[-57.01887,-22.23127],[-57.01021,-22.23611],[-56.99754,-22.22244],[-56.98909,-22.22843],[-56.99201,-22.23703],[-56.98695,-22.24282],[-56.97145,-22.24449],[-56.97163,-22.24063],[-56.95909,-22.23797],[-56.95403,-22.24955],[-56.94715,-22.25599],[-56.92999,-22.25413],[-56.92609,-22.25035],[-56.90461,-22.26655],[-56.90071,-22.25289],[-56.88834,-22.24527],[-56.88304,-22.2478],[-56.87577,-22.26242],[-56.87991,-22.27777],[-56.86952,-22.28276],[-56.86698,-22.28874],[-56.85995,-22.29242],[-56.858,-22.28959],[-56.85336,-22.29054],[-56.84354,-22.30132],[-56.82609,-22.29597],[-56.81933,-22.28681],[-56.80319,-22.28393],[-56.80154,-22.28102],[-56.8077,-22.2722],[-56.80417,-22.26729],[-56.80583,-22.25724],[-56.80113,-22.24811],[-56.79067,-22.24172],[-56.78562,-22.24168],[-56.79002,-22.24482],[-56.78573,-22.25691],[-56.77871,-22.25728],[-56.77632,-22.26041],[-56.77222,-22.2548],[-56.7631,-22.25188],[-56.76302,-22.24233],[-56.75786,-22.24206],[-56.75163,-22.24675],[-56.75153,-22.23923],[-56.74732,-22.23571],[-56.74397,-22.24131],[-56.73103,-22.24815],[-56.73647,-22.25279],[-56.73446,-22.25674],[-56.72123,-22.26478],[-56.72042,-22.25679],[-56.70908,-22.24736],[-56.70568,-22.23651],[-56.69777,-22.23426],[-56.69458,-22.22866],[-56.70438,-22.22273],[-56.70359,-22.21694],[-56.69974,-22.22087],[-56.69128,-22.21761],[-56.683,-22.22128],[-56.68016,-22.24214],[-56.6634,-22.25376],[-56.65099,-22.25426],[-56.65189,-22.25723],[-56.64238,-22.26514],[-56.63774,-22.25824],[-56.64336,-22.24594],[-56.63813,-22.24134],[-56.62685,-22.24602],[-56.62117,-22.23917],[-56.60574,-22.23158],[-56.60962,-22.22306],[-56.60841,-22.22009],[-56.59871,-22.21816],[-56.59833,-22.21168],[-56.59419,-22.21833],[-56.58958,-22.21208],[-56.58156,-22.21068],[-56.58237,-22.20567],[-56.57682,-22.20219],[-56.57618,-22.2068],[-56.56931,-22.20684],[-56.56834,-22.20227],[-56.55627,-22.19566],[-56.55716,-22.18795],[-56.5517,-22.18548],[-56.5549,-22.1817],[-56.55652,-22.16896],[-56.53396,-22.1597],[-56.53247,-22.15663],[-56.53798,-22.1578],[-56.53939,-22.147],[-56.53013,-22.14863],[-56.52689,-22.14056],[-56.5194,-22.14106],[-56.52675,-22.13003],[-56.52319,-22.12828],[-56.52486,-22.12569],[-56.51906,-22.10881],[-56.50809,-22.10301],[-56.5077,-22.09648],[-56.47961,-22.09365],[-56.47329,-22.0872],[-56.47162,-22.08015],[-56.46441,-22.0829],[-56.46274,-22.0797],[-56.45724,-22.07965],[-56.45712,-22.08415],[-56.45413,-22.08493],[-56.45218,-22.07904],[-56.44807,-22.07741],[-56.4477,-22.08497],[-56.44184,-22.08212],[-56.43448,-22.08507],[-56.42646,-22.08175],[-56.42025,-22.08375],[-56.41903,-22.07982],[-56.40475,-22.07729],[-56.39939,-22.08024],[-56.39309,-22.07543],[-56.39327,-22.08206],[-56.38996,-22.08605],[-56.3925,-22.08702],[-56.38923,-22.09199],[-56.39577,-22.09392],[-56.39267,-22.10092],[-56.3809,-22.10554],[-56.38476,-22.10949],[-56.3783,-22.11483],[-56.38057,-22.11906],[-56.37207,-22.1259],[-56.37332,-22.12935],[-56.36781,-22.13683],[-56.37411,-22.14332],[-56.37393,-22.14964],[-56.36614,-22.15854],[-56.36483,-22.16959],[-56.35755,-22.17264],[-56.3577,-22.17585],[-56.34962,-22.17372],[-56.34911,-22.17868],[-56.34313,-22.18301],[-56.34641,-22.18786],[-56.34024,-22.18866],[-56.33638,-22.19908],[-56.3305,-22.199],[-56.3259,-22.20875],[-56.32133,-22.21128],[-56.32201,-22.21431],[-56.31583,-22.21803],[-56.312,-22.21345],[-56.29935,-22.21762],[-56.29013,-22.22586],[-56.28609,-22.22481],[-56.28425,-22.23189],[-56.27878,-22.23171],[-56.27672,-22.23671],[-56.27054,-22.23328],[-56.26278,-22.23946],[-56.23812,-22.23652],[-56.23241,-22.24739],[-56.23418,-22.25604],[-56.20833,-22.27733],[-56.20268,-22.27548],[-56.2013,-22.27801],[-56.19377,-22.27109],[-56.18683,-22.27971],[-56.18314,-22.27749],[-56.18095,-22.28007],[-56.17454,-22.27924],[-56.17453,-22.28565],[-56.16934,-22.28495],[-56.16563,-22.28831],[-56.1654,-22.28541],[-56.161,-22.2865],[-56.15056,-22.28171],[-56.13638,-22.28574],[-56.12872,-22.28291],[-56.12898,-22.27499],[-56.11744,-22.27061],[-56.11594,-22.27453],[-56.10518,-22.27729],[-56.09266,-22.28565],[-56.08272,-22.28209],[-56.07147,-22.28715],[-56.06523,-22.27847],[-56.05677,-22.27641],[-56.04796,-22.27741],[-56.0414,-22.28327],[-56.03392,-22.28119],[-56.03321,-22.28458],[-56.01717,-22.28861],[-56.01332,-22.2864],[-56.0103,-22.2946],[-56.00451,-22.29251],[-56.00124,-22.28561],[-55.9839,-22.2787],[-55.96928,-22.29198],[-55.96629,-22.28895],[-55.95448,-22.28972],[-55.95109,-22.29295],[-55.94675,-22.2842],[-55.92815,-22.27857],[-55.92047,-22.28086],[-55.91656,-22.2778],[-55.90487,-22.28465],[-55.89794,-22.28513],[-55.85326,-22.2803],[-55.8353,-22.29606],[-55.83876,-22.29742],[-55.83911,-22.30152],[-55.835,-22.31226],[-55.82886,-22.31599],[-55.83238,-22.32565],[-55.82427,-22.34064],[-55.80928,-22.35245],[-55.80086,-22.3553],[-55.79855,-22.36472],[-55.80371,-22.37224],[-55.79089,-22.38103],[-55.79109,-22.38842],[-55.77982,-22.38432],[-55.75706,-22.3862],[-55.74871,-22.38342],[-55.74454,-22.38967],[-55.742,-22.39534],[-55.74585,-22.40369],[-55.73722,-22.41116],[-55.73959,-22.42376],[-55.73392,-22.44153],[-55.7382,-22.45442],[-55.73528,-22.4589],[-55.74811,-22.46452],[-55.74663,-22.46951],[-55.75284,-22.47475],[-55.74669,-22.48618],[-55.74728,-22.50551],[-55.72365,-22.55178],[-55.69847,-22.56327],[-55.69491,-22.57758],[-55.68288,-22.58887],[-55.66963,-22.59402],[-55.66663,-22.59864],[-55.63143,-22.62057],[-55.62516,-22.62825],[-55.62287,-22.65047],[-55.61442,-22.6551],[-55.61728,-22.67761],[-55.60929,-22.68901],[-55.61361,-22.69281],[-55.61339,-22.71702],[-55.61701,-22.72508],[-55.61306,-22.73894],[-55.62093,-22.74527],[-55.62015,-22.75336],[-55.62661,-22.75763],[-55.6185,-22.76795],[-55.63072,-22.76705],[-55.6366,-22.77173],[-55.639,-22.78269],[-55.65044,-22.79104],[-55.64917,-22.80162],[-55.65567,-22.80857],[-55.65337,-22.81664],[-55.66087,-22.82741],[-55.65899,-22.84103],[-55.66585,-22.85246],[-55.66011,-22.86397],[-55.66122,-22.88219],[-55.65377,-22.88483],[-55.64952,-22.89099],[-55.65054,-22.91106],[-55.64549,-22.92444],[-55.65161,-22.93106],[-55.64391,-22.94238],[-55.64758,-22.94987],[-55.63837,-22.95055],[-55.63458,-22.95513],[-55.63818,-22.9576],[-55.63683,-22.96479],[-55.62193,-22.98449],[-55.62411,-22.98847],[-55.63391,-22.99178],[-55.6333,-22.99729],[-55.62844,-22.99833],[-55.63228,-23.00151],[-55.63939,-23.02591],[-55.62372,-23.033],[-55.61397,-23.04107],[-55.61132,-23.04766],[-55.61457,-23.05446],[-55.61099,-23.07688],[-55.61699,-23.08177],[-55.59973,-23.10416],[-55.59771,-23.11087],[-55.59678,-23.1526],[-55.5734,-23.14334],[-55.5668,-23.14412],[-55.54701,-23.15635],[-55.54189,-23.15613],[-55.54076,-23.16271],[-55.54452,-23.16697],[-55.53996,-23.17499],[-55.54377,-23.1775],[-55.5431,-23.18079],[-55.52328,-23.19779],[-55.52623,-23.20821],[-55.53277,-23.21571],[-55.54023,-23.22083],[-55.5462,-23.2202],[-55.54047,-23.23405],[-55.53671,-23.2358],[-55.5404,-23.24414],[-55.53728,-23.25126],[-55.52975,-23.25271],[-55.52266,-23.25971],[-55.53299,-23.26932],[-55.55308,-23.27953],[-55.55463,-23.28823],[-55.54918,-23.30371],[-55.55591,-23.31632],[-55.55485,-23.32055],[-55.54616,-23.32366],[-55.53457,-23.33336],[-55.53213,-23.34112],[-55.52743,-23.34262],[-55.52062,-23.35229],[-55.51942,-23.36517],[-55.50651,-23.37029],[-55.50448,-23.37847],[-55.51559,-23.40958],[-55.54469,-23.44933],[-55.54059,-23.45553],[-55.54499,-23.47728],[-55.56212,-23.47621],[-55.55901,-23.48869],[-55.5517,-23.48944],[-55.54668,-23.52261],[-55.54042,-23.52468],[-55.54261,-23.52999],[-55.53784,-23.53874],[-55.53613,-23.55499],[-55.52653,-23.56735],[-55.53124,-23.57157],[-55.52842,-23.58026],[-55.53818,-23.59189],[-55.53601,-23.61726],[-55.53987,-23.62519],[-55.53209,-23.63032],[-55.51109,-23.62325],[-55.51034,-23.63262],[-55.49333,-23.63777],[-55.48961,-23.64283],[-55.48406,-23.63996],[-55.47467,-23.65047],[-55.47597,-23.6752],[-55.46921,-23.67696],[-55.46216,-23.68394],[-55.46648,-23.7035],[-55.46347,-23.71197],[-55.45483,-23.71698],[-55.44942,-23.71235],[-55.4399,-23.71284],[-55.43626,-23.71676],[-55.44257,-23.72294],[-55.44199,-23.72821],[-55.44867,-23.74227],[-55.44284,-23.756],[-55.44724,-23.76021],[-55.43382,-23.77106],[-55.43018,-23.79014],[-55.45389,-23.81927],[-55.44155,-23.82935],[-55.43947,-23.86606],[-55.43557,-23.87238],[-55.43949,-23.9049],[-55.44488,-23.90972],[-55.44634,-23.91693],[-55.42787,-23.92632],[-55.43277,-23.94072],[-55.42702,-23.93971],[-55.41964,-23.94377],[-55.41684,-23.94854],[-55.41999,-23.9573],[-55.41386,-23.9653],[-55.40526,-23.96489],[-55.40286,-23.97416],[-55.3895,-23.97218],[-55.3876,-23.9675],[-55.3783,-23.97065],[-55.37927,-23.97496],[-55.37531,-23.97987],[-55.36396,-23.98223],[-55.35845,-23.98921],[-55.34549,-23.9946],[-55.33609,-23.99295],[-55.31772,-23.96289],[-55.30418,-23.96503],[-55.28325,-23.97766],[-55.2778,-23.98456],[-55.27104,-23.98551],[-55.26907,-23.98891],[-55.26425,-23.98754],[-55.25974,-23.99452],[-55.24375,-24.00123],[-55.22904,-24.01397],[-55.20692,-24.0036],[-55.19939,-23.99581],[-55.19842,-23.98669],[-55.1812,-23.98787],[-55.17868,-23.99361],[-55.15995,-23.98776],[-55.15595,-23.98315],[-55.14908,-23.98938],[-55.13807,-23.98696],[-55.12884,-23.98375],[-55.12492,-23.97612],[-55.1228,-23.97873],[-55.1184,-23.97715],[-55.1072,-23.96193],[-55.09038,-23.98257],[-55.07341,-23.98503],[-55.06233,-23.99329],[-55.05202,-23.98535],[-55.05132,-23.98052],[-55.04608,-23.98421],[-55.0334,-23.97395],[-55.02008,-23.97262],[-54.99859,-23.95759],[-54.98549,-23.96281],[-54.97642,-23.95771],[-54.96668,-23.96617],[-54.92708,-23.96183],[-54.92643,-23.95061],[-54.93033,-23.94432],[-54.92416,-23.93742],[-54.92699,-23.92485],[-54.91339,-23.92219],[-54.91352,-23.91723],[-54.90878,-23.91142],[-54.89371,-23.91082],[-54.89099,-23.90026],[-54.88524,-23.89705],[-54.87366,-23.90933],[-54.86023,-23.90527],[-54.85094,-23.90769],[-54.8499,-23.89705],[-54.83639,-23.88403],[-54.8144,-23.89052],[-54.81078,-23.88371],[-54.799,-23.87711],[-54.7929,-23.86813],[-54.77916,-23.87066],[-54.77467,-23.86545],[-54.76412,-23.86627],[-54.75923,-23.85677],[-54.74937,-23.86102],[-54.74537,-23.86877],[-54.73667,-23.86598],[-54.73342,-23.86988],[-54.70524,-23.86464],[-54.69807,-23.85781],[-54.69872,-23.84201],[-54.6917,-23.83383],[-54.6811,-23.82841],[-54.66955,-23.81255],[-54.66873,-23.81725],[-54.65268,-23.82162],[-54.64645,-23.8338],[-54.63143,-23.83009],[-54.62513,-23.83531],[-54.61662,-23.83509],[-54.60976,-23.85144],[-54.60081,-23.8523],[-54.59492,-23.84417],[-54.58422,-23.83708],[-54.58148,-23.8458],[-54.56439,-23.85421],[-54.57031,-23.86796],[-54.56858,-23.87447],[-54.5568,-23.87013],[-54.5389,-23.8691],[-54.53518,-23.87316],[-54.52316,-23.87359],[-54.51488,-23.88518],[-54.50726,-23.88242],[-54.493,-23.88516],[-54.48678,-23.89398],[-54.48723,-23.90343],[-54.47746,-23.89798],[-54.46929,-23.89773],[-54.43991,-23.90448],[-54.42623,-23.91571],[-54.42746,-23.92674],[-54.43222,-23.92899],[-54.42683,-23.93109],[-54.41654,-23.94612],[-54.41471,-23.95811],[-54.40973,-23.96196],[-54.39409,-23.96524],[-54.38361,-23.98683],[-54.36993,-23.99202],[-54.36548,-23.99888],[-54.35164,-24.0078],[-54.34595,-24.00146],[-54.33754,-24.00165],[-54.33532,-24.00614],[-54.32384,-24.00388],[-54.3261,-24.02046],[-54.31335,-24.03732],[-54.31256,-24.04523],[-54.28528,-24.06713],[-54.3117,-24.10167],[-54.33335,-24.11566],[-54.34034,-24.12361],[-54.34581,-24.155],[-54.32845,-24.19256],[-54.32696,-24.20999],[-54.33064,-24.22807],[-54.32326,-24.25052],[-54.27647,-24.29286],[-54.25872,-24.34863],[-54.2579,-24.36348],[-54.27689,-24.4029],[-54.29678,-24.42939],[-54.31394,-24.44428],[-54.32681,-24.46649],[-54.33629,-24.51132],[-54.32144,-24.56146],[-54.31822,-24.59026],[-54.32905,-24.68221],[-54.33852,-24.70923],[-54.36919,-24.75527],[-54.38384,-24.76856],[-54.39048,-24.779],[-54.39839,-24.82549],[-54.43541,-24.93355],[-54.4504,-25.01817],[-54.46346,-25.05614],[-54.45757,-25.06758],[-54.46128,-25.09878],[-54.44583,-25.11397],[-54.43769,-25.12703],[-54.42458,-25.15861],[-54.43052,-25.16997],[-54.44785,-25.16879],[-54.46111,-25.18568],[-54.47583,-25.21746],[-54.48826,-25.26889],[-54.4984,-25.29226],[-54.53301,-25.34108],[-54.55375,-25.35885],[-54.58102,-25.38921],[-54.58685,-25.39742],[-54.60164,-25.43622],[-54.60587,-25.44293],[-54.61864,-25.45153],[-54.62001,-25.45619],[-54.61832,-25.46838],[-54.6036,-25.48254],[-54.60129,-25.4887],[-54.6016,-25.51979],[-54.59437,-25.53851],[-54.59656,-25.62552],[-54.58344,-25.65121],[-54.58112,-25.6621],[-54.58775,-25.66757],[-54.59703,-25.66875],[-54.63121,-25.65961],[-54.64326,-25.66055],[-54.65476,-25.66995],[-54.65801,-25.68124],[-54.65636,-25.69026],[-54.63633,-25.73187],[-54.63066,-25.76682],[-54.61863,-25.78839],[-54.59518,-25.81339],[-54.58727,-25.83006],[-54.59615,-25.8603],[-54.62103,-25.90915],[-54.62093,-25.93712],[-54.60749,-25.95807],[-54.61077,-25.97789],[-54.62195,-25.9852],[-54.66232,-25.97991],[-54.67391,-25.98591],[-54.67904,-25.99597],[-54.67761,-26.01515],[-54.64978,-26.0663],[-54.64323,-26.09161],[-54.64415,-26.10423],[-54.65005,-26.11759],[-54.6732,-26.14083],[-54.67407,-26.14782],[-54.66947,-26.16366],[-54.65856,-26.17693],[-54.64696,-26.18379]],[[-55.93338,-27.33483],[-55.94917,-27.33648],[-55.95774,-27.34179],[-55.92904,-27.33779],[-55.92757,-27.33456],[-55.93338,-27.33483]],[[-57.2246,-27.46473],[-57.22199,-27.4638],[-57.22919,-27.45938],[-57.2369,-27.45582],[-57.23897,-27.45759],[-57.2246,-27.46473]],[[-57.56902,-27.384],[-57.58705,-27.3851],[-57.59321,-27.3893],[-57.59282,-27.39273],[-57.56282,-27.40546],[-57.51815,-27.43104],[-57.49079,-27.43948],[-57.48507,-27.44022],[-57.46318,-27.43085],[-57.40512,-27.41762],[-57.40774,-27.41438],[-57.42528,-27.41],[-57.46144,-27.4093],[-57.50461,-27.4024],[-57.54063,-27.39444],[-57.55652,-27.38628],[-57.56902,-27.384]],[[-57.45757,-27.43751],[-57.45057,-27.43584],[-57.44353,-27.42794],[-57.46502,-27.43465],[-57.46655,-27.43764],[-57.45757,-27.43751]],[[-57.53621,-27.43003],[-57.5532,-27.4187],[-57.54566,-27.4284],[-57.53621,-27.43003]],[[-57.74689,-27.3217],[-57.78836,-27.32056],[-57.80216,-27.32313],[-57.77034,-27.3279],[-57.75369,-27.32745],[-57.74331,-27.32262],[-57.74689,-27.3217]],[[-57.79004,-27.33064],[-57.82294,-27.32238],[-57.81383,-27.32799],[-57.78036,-27.33422],[-57.77357,-27.33183],[-57.77651,-27.32948],[-57.79004,-27.33064]],[[-58.0998,-27.2669],[-58.08819,-27.26079],[-58.09328,-27.26071],[-58.0998,-27.2669]],[[-58.14252,-27.26563],[-58.14062,-27.26332],[-58.15115,-27.25677],[-58.16887,-27.25879],[-58.14252,-27.26563]],[[-58.16806,-27.27427],[-58.16474,-27.2729],[-58.1661,-27.27037],[-58.19219,-27.25733],[-58.22545,-27.25481],[-58.21921,-27.26006],[-58.16806,-27.27427]],[[-58.18782,-27.2724],[-58.18887,-27.26984],[-58.1996,-27.26959],[-58.18782,-27.2724]],[[-58.2265,-27.2628],[-58.22445,-27.26152],[-58.23183,-27.25666],[-58.25015,-27.25228],[-58.24381,-27.25863],[-58.2265,-27.2628]],[[-58.3128,-27.27226],[-58.30188,-27.27144],[-58.29585,-27.26876],[-58.29588,-27.26501],[-58.3128,-27.27226]],[[-58.29642,-27.25322],[-58.3199,-27.25581],[-58.33388,-27.26486],[-58.3511,-27.26883],[-58.35753,-27.27419],[-58.32008,-27.27229],[-58.30049,-27.26225],[-58.29642,-27.25322]],[[-58.42449,-27.27759],[-58.42028,-27.27498],[-58.42878,-27.27006],[-58.4317,-27.27156],[-58.42674,-27.27834],[-58.42449,-27.27759]]]]}}]}