{"type":"FeatureCollection","features":[{"type":"Feature","properties":{"ISO_A3":"URY","WB_A3":"URY","WB_NAME":"Uruguay","WB_REGION":"LCN"},"geometry":{"type":"MultiPolygon","coordinates":[[[[-57.80571,-30.71427],[-57.80994,-30.69019],[-57.84127,-30.65959],[-57.84519,-30.64578],[-57.84261,-30.62771],[-57.84696,-30.61508],[-57.85858,-30.60458],[-57.87912,-30.59335],[-57.88792,-30.58129],[-57.89142,-30.50746],[-57.86203,-30.47771],[-57.81302,-30.4526],[-57.79002,-30.44423],[-57.76931,-30.42166],[-57.72456,-30.40094],[-57.67262,-30.36679],[-57.6447,-30.34354],[-57.61532,-30.25229],[-57.62717,-30.22945],[-57.64109,-30.21484],[-57.64739,-30.20338],[-57.648,-30.18453],[-57.64312,-30.17818],[-57.63036,-30.17475],[-57.60195,-30.17848],[-57.61251,-30.18928],[-57.57666,-30.20102],[-57.55978,-30.21321],[-57.55885,-30.23459],[-57.56717,-30.2511],[-57.56697,-30.25848],[-57.55531,-30.26488],[-57.54946,-30.27447],[-57.52545,-30.28533],[-57.51386,-30.28524],[-57.5019,-30.28935],[-57.49752,-30.28689],[-57.49021,-30.26936],[-57.46346,-30.26589],[-57.45379,-30.27593],[-57.42868,-30.27483],[-57.4169,-30.27821],[-57.41499,-30.28177],[-57.42192,-30.29044],[-57.42083,-30.30213],[-57.41044,-30.29998],[-57.39244,-30.30469],[-57.38003,-30.28065],[-57.36916,-30.27283],[-57.35843,-30.27332],[-57.35826,-30.28087],[-57.35151,-30.28411],[-57.34524,-30.27894],[-57.32244,-30.27153],[-57.31557,-30.25813],[-57.31173,-30.25822],[-57.30488,-30.26507],[-57.29482,-30.28434],[-57.28189,-30.29434],[-57.26901,-30.28433],[-57.26842,-30.27141],[-57.26106,-30.26698],[-57.25358,-30.27301],[-57.25568,-30.28099],[-57.24919,-30.28951],[-57.22228,-30.28929],[-57.20382,-30.28512],[-57.19581,-30.264],[-57.17639,-30.25084],[-57.16807,-30.24911],[-57.16895,-30.24359],[-57.16607,-30.24104],[-57.15999,-30.24061],[-57.15526,-30.2341],[-57.16566,-30.22444],[-57.16265,-30.21885],[-57.16785,-30.21659],[-57.16467,-30.21332],[-57.16833,-30.20856],[-57.16833,-30.19765],[-57.15878,-30.19163],[-57.1583,-30.18431],[-57.14499,-30.17275],[-57.14416,-30.16586],[-57.13539,-30.15775],[-57.12869,-30.14072],[-57.11478,-30.14515],[-57.10608,-30.13485],[-57.10546,-30.12529],[-57.11024,-30.12856],[-57.11469,-30.1258],[-57.11647,-30.11501],[-57.09539,-30.11481],[-57.09543,-30.12071],[-57.09087,-30.12141],[-57.08441,-30.11324],[-57.08633,-30.11067],[-57.08942,-30.11316],[-57.09213,-30.11133],[-57.08715,-30.10119],[-57.07007,-30.08595],[-57.06177,-30.0875],[-57.06724,-30.09124],[-57.06715,-30.1013],[-57.0574,-30.09867],[-57.04678,-30.10516],[-57.03292,-30.1028],[-57.02396,-30.08797],[-56.99384,-30.08585],[-56.9828,-30.08832],[-56.97754,-30.09696],[-56.95706,-30.10095],[-56.93567,-30.09443],[-56.91825,-30.09617],[-56.91142,-30.10282],[-56.91551,-30.10991],[-56.90866,-30.10749],[-56.90483,-30.10913],[-56.90657,-30.11242],[-56.90239,-30.11228],[-56.89543,-30.10512],[-56.88903,-30.08964],[-56.88435,-30.08741],[-56.87416,-30.08649],[-56.8709,-30.09397],[-56.85455,-30.08879],[-56.82887,-30.09361],[-56.82303,-30.09663],[-56.81664,-30.10713],[-56.81034,-30.10342],[-56.80409,-30.1067],[-56.79926,-30.12227],[-56.78034,-30.12648],[-56.77799,-30.13384],[-56.78461,-30.15163],[-56.78215,-30.15844],[-56.77514,-30.16424],[-56.75945,-30.16075],[-56.73106,-30.17126],[-56.7203,-30.17936],[-56.70509,-30.17657],[-56.70844,-30.189],[-56.69826,-30.20409],[-56.68208,-30.19457],[-56.6779,-30.2004],[-56.66191,-30.19754],[-56.65254,-30.20679],[-56.64575,-30.2049],[-56.64917,-30.21139],[-56.66826,-30.21899],[-56.6648,-30.22182],[-56.65103,-30.22],[-56.64674,-30.22303],[-56.64229,-30.2339],[-56.62497,-30.24542],[-56.6304,-30.2544],[-56.63839,-30.25415],[-56.63977,-30.25868],[-56.62757,-30.26692],[-56.6143,-30.2622],[-56.60945,-30.26962],[-56.6087,-30.28509],[-56.6216,-30.29327],[-56.61922,-30.30068],[-56.61361,-30.30062],[-56.60386,-30.29276],[-56.59688,-30.29572],[-56.57619,-30.28899],[-56.57559,-30.30411],[-56.56352,-30.31117],[-56.55785,-30.31903],[-56.55455,-30.31975],[-56.54679,-30.31134],[-56.54225,-30.31253],[-56.53719,-30.33389],[-56.55034,-30.33951],[-56.55207,-30.34417],[-56.54424,-30.3527],[-56.54692,-30.35822],[-56.54462,-30.361],[-56.51977,-30.35962],[-56.50525,-30.37044],[-56.50657,-30.38245],[-56.49707,-30.38641],[-56.49003,-30.39848],[-56.48388,-30.39886],[-56.48034,-30.39232],[-56.47279,-30.38754],[-56.46047,-30.38613],[-56.45399,-30.40213],[-56.44456,-30.41226],[-56.45361,-30.4227],[-56.43946,-30.43251],[-56.42729,-30.43532],[-56.41607,-30.4315],[-56.40783,-30.4471],[-56.39789,-30.44974],[-56.40032,-30.45932],[-56.40676,-30.4592],[-56.40644,-30.46867],[-56.4021,-30.47471],[-56.39619,-30.47257],[-56.39563,-30.48509],[-56.3875,-30.48699],[-56.38437,-30.49792],[-56.36844,-30.50323],[-56.35958,-30.49754],[-56.36133,-30.49551],[-56.36411,-30.49758],[-56.36531,-30.49326],[-56.35418,-30.49338],[-56.34814,-30.50515],[-56.33367,-30.51487],[-56.33678,-30.52237],[-56.33022,-30.52981],[-56.32694,-30.52817],[-56.32245,-30.53198],[-56.30848,-30.53096],[-56.29942,-30.52487],[-56.29705,-30.52634],[-56.2921,-30.52031],[-56.28734,-30.52683],[-56.29,-30.5305],[-56.28889,-30.53966],[-56.28005,-30.55096],[-56.2819,-30.55976],[-56.27539,-30.5604],[-56.26551,-30.55481],[-56.25826,-30.562],[-56.25638,-30.56666],[-56.26172,-30.57056],[-56.25992,-30.58076],[-56.26237,-30.58428],[-56.25603,-30.58787],[-56.24575,-30.57425],[-56.23313,-30.57479],[-56.22617,-30.57816],[-56.224,-30.58404],[-56.23507,-30.58747],[-56.23445,-30.59358],[-56.22422,-30.59753],[-56.22046,-30.60689],[-56.18779,-30.60466],[-56.17174,-30.6142],[-56.17191,-30.61917],[-56.17949,-30.62118],[-56.18324,-30.62568],[-56.18054,-30.63242],[-56.17448,-30.63401],[-56.16466,-30.64292],[-56.17003,-30.6528],[-56.16181,-30.67039],[-56.1513,-30.68044],[-56.14384,-30.67954],[-56.13744,-30.68369],[-56.13815,-30.68706],[-56.15061,-30.69413],[-56.15087,-30.70462],[-56.12994,-30.71665],[-56.12851,-30.7211],[-56.13228,-30.72767],[-56.12933,-30.73863],[-56.12316,-30.7391],[-56.11846,-30.73401],[-56.10651,-30.73215],[-56.09635,-30.75322],[-56.0882,-30.75742],[-56.07386,-30.74532],[-56.06766,-30.74759],[-56.06295,-30.75337],[-56.0665,-30.76256],[-56.06398,-30.77318],[-56.05024,-30.77699],[-56.04712,-30.77405],[-56.03931,-30.77541],[-56.03619,-30.78424],[-56.02414,-30.78576],[-56.02098,-30.791],[-56.02485,-30.79951],[-56.01279,-30.80579],[-56.01639,-30.81898],[-56.0092,-30.81961],[-56.00527,-30.82771],[-56.00473,-30.83911],[-55.99345,-30.84605],[-55.98975,-30.85856],[-55.99074,-30.86714],[-55.998,-30.8738],[-56.00824,-30.89441],[-56.00767,-30.90532],[-56.01121,-30.91182],[-56.00538,-30.92152],[-56.01014,-30.92732],[-56.01105,-30.93897],[-56.01517,-30.94239],[-56.00948,-30.94818],[-56.01266,-30.95459],[-56.01021,-30.95685],[-56.01157,-30.96233],[-56.01021,-30.96998],[-56.00573,-30.97326],[-56.01089,-30.97834],[-56.00707,-30.98387],[-56.01321,-30.99007],[-56.01805,-31.01077],[-56.0143,-31.02187],[-56.01836,-31.04797],[-56.00775,-31.07107],[-56.01108,-31.08157],[-55.99265,-31.08499],[-55.97922,-31.07313],[-55.93353,-31.087],[-55.93021,-31.08621],[-55.92579,-31.07678],[-55.91843,-31.07365],[-55.9104,-31.07505],[-55.89865,-31.06665],[-55.89081,-31.0771],[-55.88233,-31.07718],[-55.87757,-31.07253],[-55.87067,-31.07151],[-55.86926,-31.06493],[-55.85524,-31.04507],[-55.82957,-31.04367],[-55.83004,-31.0405],[-55.82684,-31.04046],[-55.81175,-31.02162],[-55.81217,-31.0147],[-55.77618,-31.01578],[-55.7662,-31.01],[-55.76773,-31.00345],[-55.77446,-30.99997],[-55.7732,-30.99706],[-55.76297,-30.99995],[-55.75194,-30.99741],[-55.74561,-30.98525],[-55.74648,-30.97943],[-55.72816,-30.9794],[-55.73141,-30.97405],[-55.72425,-30.966],[-55.72219,-30.943],[-55.7159,-30.94302],[-55.70965,-30.95463],[-55.7038,-30.95517],[-55.69474,-30.94343],[-55.68868,-30.94485],[-55.68844,-30.95247],[-55.67634,-30.95601],[-55.66605,-30.95396],[-55.66368,-30.94681],[-55.65844,-30.94383],[-55.66332,-30.93317],[-55.6484,-30.92297],[-55.64212,-30.9116],[-55.65386,-30.89656],[-55.65557,-30.88489],[-55.65276,-30.88331],[-55.66301,-30.87188],[-55.65775,-30.86382],[-55.64889,-30.86513],[-55.64517,-30.85757],[-55.64664,-30.85484],[-55.63786,-30.84622],[-55.62873,-30.84802],[-55.62252,-30.8422],[-55.61305,-30.84321],[-55.61078,-30.84831],[-55.60659,-30.84966],[-55.58642,-30.84116],[-55.5849,-30.83624],[-55.57844,-30.83292],[-55.57717,-30.84317],[-55.5671,-30.84547],[-55.56242,-30.85503],[-55.56462,-30.85675],[-55.56341,-30.86868],[-55.55462,-30.87262],[-55.54575,-30.89055],[-55.53358,-30.89727],[-55.53265,-30.90219],[-55.52483,-30.89799],[-55.51002,-30.90178],[-55.50798,-30.90433],[-55.51,-30.91134],[-55.50401,-30.92475],[-55.48845,-30.92537],[-55.48655,-30.94765],[-55.47823,-30.95384],[-55.4572,-30.95139],[-55.45134,-30.96041],[-55.44118,-30.95974],[-55.43951,-30.96667],[-55.42458,-30.98563],[-55.43748,-30.99429],[-55.43449,-31.00092],[-55.43711,-31.00469],[-55.42493,-31.01178],[-55.42464,-31.01655],[-55.4151,-31.01447],[-55.40672,-31.01876],[-55.40499,-31.02735],[-55.40006,-31.02858],[-55.38733,-31.02057],[-55.38011,-31.02352],[-55.37401,-31.0191],[-55.37142,-31.0234],[-55.37263,-31.03067],[-55.36727,-31.03564],[-55.35765,-31.04047],[-55.35152,-31.03762],[-55.35019,-31.0483],[-55.35974,-31.06749],[-55.3456,-31.07548],[-55.33903,-31.08503],[-55.32755,-31.08816],[-55.33393,-31.10499],[-55.32876,-31.11037],[-55.33079,-31.11737],[-55.33709,-31.1199],[-55.33853,-31.13367],[-55.33439,-31.13281],[-55.32627,-31.13796],[-55.32089,-31.13581],[-55.31665,-31.1461],[-55.30529,-31.141],[-55.29416,-31.14429],[-55.29099,-31.14225],[-55.29054,-31.15017],[-55.28506,-31.15642],[-55.29081,-31.1628],[-55.28049,-31.16979],[-55.27443,-31.1702],[-55.27072,-31.17697],[-55.28552,-31.18547],[-55.28253,-31.19395],[-55.26265,-31.19466],[-55.24989,-31.20605],[-55.25383,-31.21113],[-55.24746,-31.21603],[-55.2483,-31.24817],[-55.24652,-31.25225],[-55.24014,-31.25365],[-55.23987,-31.26059],[-55.23509,-31.25843],[-55.21343,-31.26343],[-55.20317,-31.26183],[-55.16942,-31.26941],[-55.16299,-31.27914],[-55.16357,-31.28567],[-55.15666,-31.28541],[-55.15234,-31.29322],[-55.13652,-31.30135],[-55.12577,-31.30242],[-55.12238,-31.30485],[-55.12207,-31.31278],[-55.10905,-31.30767],[-55.10282,-31.31496],[-55.08897,-31.31945],[-55.07432,-31.33227],[-55.05718,-31.33182],[-55.06172,-31.32475],[-55.05755,-31.32221],[-55.05992,-31.31551],[-55.05291,-31.31398],[-55.04761,-31.30732],[-55.04294,-31.3086],[-55.0364,-31.29155],[-55.03326,-31.29157],[-55.03565,-31.28411],[-55.03162,-31.2787],[-55.03633,-31.27569],[-55.03077,-31.26955],[-55.02004,-31.26709],[-55.00832,-31.26995],[-55.00696,-31.26692],[-55.00221,-31.26926],[-55.00132,-31.28162],[-54.99457,-31.28309],[-54.99318,-31.28998],[-54.98215,-31.29612],[-54.97985,-31.30304],[-54.98268,-31.31142],[-54.97862,-31.31701],[-54.95749,-31.32444],[-54.9531,-31.33192],[-54.95279,-31.33931],[-54.96023,-31.34192],[-54.95921,-31.35245],[-54.95293,-31.35459],[-54.95148,-31.35165],[-54.93504,-31.35648],[-54.93382,-31.36931],[-54.9371,-31.37012],[-54.94068,-31.38062],[-54.93251,-31.38504],[-54.9182,-31.37888],[-54.90482,-31.38404],[-54.89801,-31.38137],[-54.89962,-31.37631],[-54.89184,-31.37481],[-54.88601,-31.37729],[-54.8874,-31.3832],[-54.87832,-31.39819],[-54.85796,-31.40804],[-54.86157,-31.4179],[-54.85723,-31.41817],[-54.83651,-31.44195],[-54.82715,-31.43631],[-54.81182,-31.43481],[-54.80946,-31.43065],[-54.79926,-31.43245],[-54.79654,-31.43004],[-54.79179,-31.43381],[-54.76862,-31.42601],[-54.74171,-31.4254],[-54.73557,-31.42973],[-54.72462,-31.42962],[-54.71865,-31.43804],[-54.70273,-31.43884],[-54.70019,-31.43587],[-54.69013,-31.44665],[-54.68462,-31.4448],[-54.67695,-31.44757],[-54.67024,-31.45408],[-54.58655,-31.45654],[-54.58637,-31.46283],[-54.58327,-31.46314],[-54.57963,-31.47046],[-54.57729,-31.48132],[-54.56052,-31.48726],[-54.56013,-31.49284],[-54.55678,-31.49495],[-54.55384,-31.49165],[-54.54736,-31.49838],[-54.52358,-31.50624],[-54.52391,-31.51062],[-54.52046,-31.50831],[-54.51524,-31.51065],[-54.51005,-31.52151],[-54.50426,-31.52531],[-54.50086,-31.53831],[-54.49628,-31.54043],[-54.49051,-31.54999],[-54.49369,-31.55825],[-54.48033,-31.57002],[-54.47293,-31.5704],[-54.46809,-31.59331],[-54.46438,-31.59058],[-54.45816,-31.59364],[-54.45816,-31.59821],[-54.45263,-31.59913],[-54.45771,-31.60268],[-54.45679,-31.60671],[-54.46044,-31.60559],[-54.46657,-31.61343],[-54.46308,-31.61468],[-54.46472,-31.61902],[-54.46044,-31.62172],[-54.46117,-31.6265],[-54.45382,-31.63022],[-54.45479,-31.63573],[-54.45162,-31.63925],[-54.45638,-31.65166],[-54.15413,-31.87825],[-54.14471,-31.88182],[-54.14033,-31.89501],[-54.11044,-31.90785],[-54.10548,-31.91232],[-54.10702,-31.91752],[-54.10146,-31.92705],[-54.08681,-31.9352],[-54.08729,-31.93077],[-54.08153,-31.92966],[-54.08085,-31.92441],[-54.07348,-31.91876],[-54.07012,-31.92251],[-54.06369,-31.92041],[-54.05357,-31.90503],[-54.04867,-31.90526],[-54.03864,-31.89742],[-54.02635,-31.89693],[-54.02378,-31.90103],[-54.01535,-31.90236],[-54.0164,-31.9048],[-54.00715,-31.90897],[-54.00431,-31.91465],[-53.98106,-31.91602],[-53.96315,-31.92208],[-53.96157,-31.92919],[-53.96708,-31.93671],[-53.9724,-31.93647],[-53.97265,-31.93998],[-53.96049,-31.95535],[-53.94595,-31.95513],[-53.932,-31.96318],[-53.9128,-31.96601],[-53.90841,-31.97438],[-53.89655,-31.98112],[-53.89629,-31.9856],[-53.89156,-31.98936],[-53.89211,-31.9954],[-53.88021,-31.99477],[-53.87181,-31.99909],[-53.86526,-31.99289],[-53.86061,-31.9975],[-53.85075,-32.00016],[-53.85379,-32.0216],[-53.84978,-32.02915],[-53.83833,-32.0327],[-53.84223,-32.03992],[-53.83416,-32.04243],[-53.83577,-32.05106],[-53.83333,-32.05508],[-53.82673,-32.05972],[-53.81388,-32.05962],[-53.81491,-32.06213],[-53.80441,-32.07059],[-53.79417,-32.06926],[-53.78331,-32.07228],[-53.78108,-32.06984],[-53.76903,-32.0738],[-53.76513,-32.07926],[-53.75638,-32.07614],[-53.75504,-32.07914],[-53.74573,-32.07821],[-53.74771,-32.08327],[-53.74325,-32.0921],[-53.72569,-32.09564],[-53.72989,-32.10478],[-53.7401,-32.1003],[-53.73754,-32.10598],[-53.74415,-32.11516],[-53.7257,-32.1402],[-53.7254,-32.14425],[-53.73512,-32.15172],[-53.71825,-32.15224],[-53.72286,-32.1745],[-53.71292,-32.17711],[-53.71402,-32.18799],[-53.70265,-32.18909],[-53.71123,-32.19928],[-53.70487,-32.2067],[-53.69687,-32.20356],[-53.69316,-32.20537],[-53.69327,-32.21371],[-53.68481,-32.22025],[-53.67656,-32.23753],[-53.67934,-32.24318],[-53.67775,-32.25867],[-53.66457,-32.27508],[-53.65968,-32.27527],[-53.65576,-32.27977],[-53.65525,-32.29095],[-53.6428,-32.29674],[-53.64783,-32.31259],[-53.6565,-32.31217],[-53.65717,-32.31695],[-53.6432,-32.32475],[-53.64494,-32.33287],[-53.63406,-32.34771],[-53.63411,-32.35658],[-53.64366,-32.36842],[-53.64489,-32.3844],[-53.62629,-32.3898],[-53.61496,-32.39787],[-53.61209,-32.40296],[-53.61579,-32.41498],[-53.60146,-32.42974],[-53.58893,-32.43534],[-53.58406,-32.45127],[-53.56805,-32.45813],[-53.55648,-32.47262],[-53.5413,-32.47307],[-53.54356,-32.47901],[-53.53087,-32.4828],[-53.52514,-32.48903],[-53.51702,-32.48446],[-53.51775,-32.48781],[-53.51469,-32.48942],[-53.49998,-32.48114],[-53.48638,-32.48358],[-53.47304,-32.48111],[-53.46355,-32.48587],[-53.46621,-32.49402],[-53.46256,-32.49742],[-53.46353,-32.50225],[-53.45686,-32.51601],[-53.45836,-32.52022],[-53.4353,-32.55192],[-53.4331,-32.56313],[-53.42682,-32.56561],[-53.42416,-32.5584],[-53.42115,-32.55869],[-53.41746,-32.56123],[-53.41629,-32.56951],[-53.40116,-32.58177],[-53.38614,-32.58625],[-53.3777,-32.57106],[-53.37042,-32.56989],[-53.3528,-32.59255],[-53.34584,-32.592],[-53.33764,-32.58474],[-53.33271,-32.58553],[-53.31793,-32.59815],[-53.30202,-32.60611],[-53.29381,-32.61925],[-53.2893,-32.62101],[-53.28052,-32.62003],[-53.27602,-32.60894],[-53.26989,-32.60417],[-53.24828,-32.60504],[-53.24274,-32.62529],[-53.23658,-32.63069],[-53.21674,-32.63843],[-53.18727,-32.64436],[-53.18062,-32.65502],[-53.07557,-32.74088],[-53.07974,-32.77242],[-53.08513,-32.78794],[-53.13243,-32.78819],[-53.14545,-32.79192],[-53.15496,-32.80034],[-53.15036,-32.8066],[-53.15913,-32.82153],[-53.18496,-32.85044],[-53.29454,-32.89932],[-53.31008,-32.91876],[-53.24467,-32.93488],[-53.44438,-33.05296],[-53.51819,-33.15342],[-53.52167,-33.26519],[-53.50788,-33.35315],[-53.5112,-33.4595],[-53.52525,-33.52632],[-53.52362,-33.59347],[-53.53459,-33.60339],[-53.53231,-33.60949],[-53.53635,-33.61299],[-53.52643,-33.62693],[-53.52932,-33.63271],[-53.52816,-33.6397],[-53.53167,-33.64158],[-53.52953,-33.64406],[-53.53544,-33.64914],[-53.53112,-33.65647],[-53.53222,-33.66739],[-53.52857,-33.66809],[-53.5285,-33.67302],[-53.52487,-33.67328],[-53.53086,-33.68208],[-53.52927,-33.68825],[-53.52118,-33.68935],[-53.43945,-33.69348],[-53.44297,-33.69679],[-53.43659,-33.70076],[-53.43854,-33.71257],[-53.43328,-33.71974],[-53.43584,-33.72422],[-53.43169,-33.72796],[-53.43047,-33.73939],[-53.42623,-33.73904],[-53.4172,-33.74795],[-53.39842,-33.74802],[-53.39632,-33.75079],[-53.38601,-33.74595],[-53.38145,-33.74768],[-53.37002,-33.74386],[-53.423,-33.78985],[-53.45692,-33.82464],[-53.50371,-33.88768],[-53.51159,-33.90422],[-53.51154,-33.9181],[-53.50693,-33.92924],[-53.51023,-33.94202],[-53.50628,-33.94402],[-53.53008,-33.97193],[-53.53426,-33.99831],[-53.52899,-34.00279],[-53.53598,-34.00958],[-53.54207,-34.02256],[-53.54193,-34.02821],[-53.53577,-34.03374],[-53.5385,-34.04243],[-53.53581,-34.0453],[-53.55009,-34.05836],[-53.55132,-34.06862],[-53.55563,-34.06801],[-53.58114,-34.08469],[-53.68194,-34.16693],[-53.72732,-34.21334],[-53.77664,-34.27415],[-53.78957,-34.30494],[-53.79117,-34.3252],[-53.78745,-34.34215],[-53.78303,-34.34607],[-53.76996,-34.34392],[-53.76999,-34.34957],[-53.76361,-34.35794],[-53.7805,-34.38145],[-53.78223,-34.39194],[-53.77899,-34.40165],[-53.77589,-34.40159],[-53.77665,-34.40594],[-53.78411,-34.40654],[-53.79172,-34.40239],[-53.80356,-34.4043],[-53.87688,-34.43677],[-53.99165,-34.49849],[-54.08475,-34.55634],[-54.11768,-34.58281],[-54.12087,-34.59394],[-54.13673,-34.6069],[-54.14935,-34.62415],[-54.15445,-34.63865],[-54.15359,-34.64557],[-54.14858,-34.65098],[-54.13885,-34.6537],[-54.14398,-34.65832],[-54.1447,-34.65538],[-54.15087,-34.65681],[-54.14951,-34.66474],[-54.15202,-34.66865],[-54.19306,-34.65946],[-54.22763,-34.66719],[-54.28979,-34.68721],[-54.38685,-34.72607],[-54.44351,-34.74526],[-54.61003,-34.82085],[-54.62746,-34.8325],[-54.63544,-34.84767],[-54.64723,-34.83865],[-54.67244,-34.83978],[-54.67115,-34.83564],[-54.67426,-34.8303],[-54.69213,-34.81523],[-54.6929,-34.80998],[-54.68901,-34.80977],[-54.68812,-34.80257],[-54.68057,-34.79433],[-54.68126,-34.79164],[-54.70274,-34.79205],[-54.70751,-34.78854],[-54.70544,-34.7957],[-54.70868,-34.79705],[-54.70546,-34.80649],[-54.71674,-34.81532],[-54.72669,-34.81614],[-54.73123,-34.80954],[-54.73898,-34.81072],[-54.7454,-34.82677],[-54.75719,-34.82853],[-54.75428,-34.83233],[-54.75632,-34.83776],[-54.74929,-34.8384],[-54.74149,-34.82721],[-54.73698,-34.82687],[-54.71924,-34.8381],[-54.70135,-34.84213],[-54.6953,-34.84677],[-54.68267,-34.84151],[-54.67531,-34.84292],[-54.7396,-34.86803],[-54.8035,-34.90337],[-54.82331,-34.90886],[-54.83487,-34.90843],[-54.85113,-34.91848],[-54.86574,-34.9145],[-54.86885,-34.90903],[-54.87446,-34.90926],[-54.87777,-34.90161],[-54.87348,-34.89279],[-54.8809,-34.88317],[-54.87342,-34.87686],[-54.87741,-34.8673],[-54.88994,-34.86469],[-54.89572,-34.87044],[-54.91411,-34.8768],[-54.91232,-34.86109],[-54.91661,-34.85808],[-54.91319,-34.8516],[-54.91667,-34.84318],[-54.926,-34.84009],[-54.92996,-34.83519],[-54.93583,-34.84351],[-54.93054,-34.84933],[-54.94018,-34.86902],[-54.93242,-34.87403],[-54.93477,-34.88589],[-54.9251,-34.88812],[-54.92908,-34.89504],[-54.92744,-34.89848],[-54.92089,-34.89824],[-54.91835,-34.90025],[-54.92027,-34.9044],[-54.91045,-34.90448],[-54.89868,-34.9134],[-54.89188,-34.91084],[-54.88465,-34.91315],[-54.87035,-34.91137],[-54.86669,-34.91991],[-54.92062,-34.94628],[-54.94847,-34.96835],[-54.95115,-34.97352],[-54.95388,-34.96406],[-54.94733,-34.96395],[-54.94112,-34.95614],[-54.94096,-34.95023],[-54.9677,-34.92267],[-54.9819,-34.91546],[-55.00639,-34.90956],[-55.04377,-34.91133],[-55.04628,-34.90443],[-55.04128,-34.89793],[-55.04145,-34.89099],[-55.06856,-34.87871],[-55.16202,-34.88157],[-55.21635,-34.89304],[-55.23393,-34.90242],[-55.23984,-34.90328],[-55.24365,-34.90012],[-55.26166,-34.90385],[-55.25887,-34.89584],[-55.26064,-34.89304],[-55.28162,-34.88897],[-55.27912,-34.87442],[-55.27561,-34.87065],[-55.27726,-34.8663],[-55.28347,-34.86048],[-55.30197,-34.85483],[-55.30269,-34.84276],[-55.3098,-34.83785],[-55.32009,-34.82219],[-55.34467,-34.80839],[-55.3853,-34.802],[-55.387,-34.79457],[-55.39827,-34.79068],[-55.39228,-34.78719],[-55.394,-34.77899],[-55.39623,-34.7788],[-55.39478,-34.78708],[-55.40452,-34.79082],[-55.43503,-34.79121],[-55.4916,-34.79835],[-55.50662,-34.79417],[-55.52837,-34.79739],[-55.5469,-34.78926],[-55.55499,-34.78974],[-55.56036,-34.78492],[-55.57784,-34.78281],[-55.59703,-34.77199],[-55.63063,-34.77404],[-55.64984,-34.77965],[-55.65771,-34.77473],[-55.6622,-34.76707],[-55.67161,-34.7628],[-55.69837,-34.76373],[-55.69819,-34.75538],[-55.70144,-34.75644],[-55.69994,-34.76311],[-55.7523,-34.781],[-55.76226,-34.78149],[-55.76861,-34.77307],[-55.78453,-34.77041],[-55.81804,-34.77922],[-55.85737,-34.79566],[-55.88675,-34.78873],[-55.87419,-34.79517],[-55.86359,-34.79623],[-55.88006,-34.79972],[-55.9231,-34.82002],[-56.02307,-34.87793],[-56.05751,-34.89335],[-56.06368,-34.89931],[-56.07587,-34.89761],[-56.08238,-34.90023],[-56.08524,-34.89562],[-56.11983,-34.89909],[-56.12444,-34.90555],[-56.13068,-34.90508],[-56.13217,-34.91203],[-56.14123,-34.91029],[-56.14589,-34.91277],[-56.14737,-34.92049],[-56.1579,-34.92776],[-56.15832,-34.9329],[-56.17229,-34.92451],[-56.17114,-34.91448],[-56.18558,-34.91596],[-56.20003,-34.91108],[-56.21392,-34.91104],[-56.21803,-34.90477],[-56.19704,-34.8977],[-56.19842,-34.88434],[-56.21458,-34.87391],[-56.22519,-34.87295],[-56.22949,-34.87992],[-56.24013,-34.87626],[-56.24729,-34.87746],[-56.24463,-34.89595],[-56.25801,-34.89937],[-56.25639,-34.90553],[-56.26892,-34.90072],[-56.26893,-34.89841],[-56.27515,-34.90165],[-56.27796,-34.90026],[-56.27707,-34.89563],[-56.28363,-34.89437],[-56.28515,-34.8994],[-56.28888,-34.89903],[-56.28673,-34.8962],[-56.29519,-34.89278],[-56.30919,-34.89672],[-56.30899,-34.90173],[-56.31505,-34.90433],[-56.31604,-34.89765],[-56.33169,-34.89029],[-56.33464,-34.87411],[-56.33935,-34.87028],[-56.37402,-34.86186],[-56.38092,-34.85638],[-56.38096,-34.85149],[-56.38814,-34.84972],[-56.38974,-34.84485],[-56.41814,-34.83959],[-56.42846,-34.8345],[-56.43038,-34.82744],[-56.4088,-34.81642],[-56.40326,-34.80688],[-56.38791,-34.79768],[-56.3611,-34.79896],[-56.36175,-34.79613],[-56.35646,-34.79559],[-56.35544,-34.7853],[-56.34717,-34.78744],[-56.34408,-34.78447],[-56.3415,-34.77572],[-56.34473,-34.7616],[-56.33871,-34.75437],[-56.33862,-34.74641],[-56.34497,-34.73051],[-56.35125,-34.72412],[-56.34404,-34.71739],[-56.35389,-34.72464],[-56.37213,-34.70058],[-56.42915,-34.68981],[-56.44637,-34.67396],[-56.47007,-34.66378],[-56.47183,-34.65711],[-56.48558,-34.64637],[-56.47612,-34.61806],[-56.47651,-34.60444],[-56.49101,-34.59679],[-56.49306,-34.59192],[-56.49082,-34.57828],[-56.48086,-34.57239],[-56.49144,-34.577],[-56.49447,-34.59063],[-56.48819,-34.60115],[-56.47775,-34.60701],[-56.48292,-34.63128],[-56.48727,-34.62402],[-56.47925,-34.61345],[-56.48567,-34.60592],[-56.47988,-34.61293],[-56.48187,-34.61783],[-56.48745,-34.62068],[-56.48598,-34.63249],[-56.48994,-34.64459],[-56.47901,-34.65328],[-56.46645,-34.6707],[-56.46639,-34.68021],[-56.44494,-34.70196],[-56.40697,-34.70114],[-56.37955,-34.70627],[-56.36518,-34.71365],[-56.35673,-34.72553],[-56.3548,-34.74778],[-56.34493,-34.77574],[-56.35095,-34.78168],[-56.37805,-34.78259],[-56.38423,-34.77615],[-56.41334,-34.76953],[-56.43772,-34.75654],[-56.45675,-34.75109],[-56.5044,-34.74989],[-56.5579,-34.75961],[-56.62657,-34.72527],[-56.64527,-34.71954],[-56.72937,-34.70074],[-56.82089,-34.68793],[-56.82588,-34.68074],[-56.8399,-34.67357],[-56.88471,-34.66025],[-56.8967,-34.65384],[-56.90901,-34.62789],[-56.95287,-34.59836],[-56.98302,-34.57009],[-57.0082,-34.55262],[-57.05818,-34.52793],[-57.06455,-34.5215],[-57.06609,-34.51328],[-57.08454,-34.48422],[-57.10934,-34.46223],[-57.13538,-34.44909],[-57.20858,-34.43819],[-57.2703,-34.43525],[-57.3243,-34.44269],[-57.35159,-34.43825],[-57.35096,-34.43401],[-57.34552,-34.43262],[-57.34348,-34.428],[-57.34753,-34.43235],[-57.38907,-34.4267],[-57.44001,-34.44131],[-57.44373,-34.44078],[-57.44617,-34.43203],[-57.45979,-34.42723],[-57.47282,-34.42769],[-57.49395,-34.43403],[-57.5372,-34.45454],[-57.55544,-34.44495],[-57.55526,-34.44058],[-57.57146,-34.4283],[-57.5829,-34.42477],[-57.59687,-34.42496],[-57.65095,-34.43895],[-57.67025,-34.44772],[-57.68018,-34.44625],[-57.72374,-34.46245],[-57.72603,-34.45742],[-57.73641,-34.45594],[-57.77254,-34.47152],[-57.77906,-34.472],[-57.78026,-34.46711],[-57.78645,-34.46591],[-57.82253,-34.47454],[-57.85387,-34.4733],[-57.84397,-34.46103],[-57.84776,-34.45278],[-57.85947,-34.44448],[-57.88513,-34.43671],[-57.8951,-34.4252],[-57.89359,-34.40028],[-57.8998,-34.37223],[-57.9192,-34.34612],[-57.9341,-34.33521],[-57.95468,-34.30525],[-57.98504,-34.27956],[-57.9853,-34.27531],[-57.97104,-34.27363],[-57.97348,-34.25755],[-57.95869,-34.24944],[-57.97486,-34.25599],[-57.9757,-34.2619],[-57.97147,-34.27041],[-57.97382,-34.27361],[-57.98467,-34.27416],[-58.00826,-34.25328],[-58.03308,-34.24575],[-58.03868,-34.23593],[-58.06156,-34.23368],[-58.06584,-34.22952],[-58.06218,-34.22211],[-58.06271,-34.2144],[-58.06865,-34.20741],[-58.07298,-34.20762],[-58.07016,-34.20431],[-58.07387,-34.19168],[-58.09212,-34.17996],[-58.13772,-34.16759],[-58.21034,-34.16471],[-58.21636,-34.1536],[-58.22279,-34.14917],[-58.21515,-34.13382],[-58.21408,-34.1233],[-58.21982,-34.11424],[-58.21976,-34.09934],[-58.23223,-34.07505],[-58.26447,-34.04183],[-58.2914,-34.02613],[-58.29396,-34.01145],[-58.32847,-33.9679],[-58.3573,-33.95795],[-58.36058,-33.95085],[-58.36968,-33.95075],[-58.37006,-33.94612],[-58.38511,-33.94209],[-58.39448,-33.93015],[-58.41522,-33.91631],[-58.41906,-33.90637],[-58.41945,-33.90212],[-58.41573,-33.90088],[-58.42123,-33.88874],[-58.42089,-33.87743],[-58.41034,-33.85391],[-58.41881,-33.8353],[-58.42616,-33.83291],[-58.43183,-33.8223],[-58.41769,-33.76695],[-58.41801,-33.74047],[-58.42099,-33.72528],[-58.43907,-33.68394],[-58.43839,-33.6801],[-58.4231,-33.66665],[-58.4184,-33.65257],[-58.42068,-33.58469],[-58.42982,-33.56145],[-58.42699,-33.55814],[-58.42801,-33.54476],[-58.43354,-33.52645],[-58.42937,-33.51545],[-58.43076,-33.50721],[-58.42624,-33.50263],[-58.42526,-33.48979],[-58.4126,-33.47529],[-58.39813,-33.47198],[-58.38917,-33.47709],[-58.38848,-33.49175],[-58.37646,-33.50732],[-58.37006,-33.50995],[-58.37229,-33.51507],[-58.36892,-33.52552],[-58.34989,-33.52546],[-58.3362,-33.53307],[-58.3207,-33.52372],[-58.31912,-33.52001],[-58.33372,-33.53117],[-58.33955,-33.53149],[-58.34743,-33.52485],[-58.37012,-33.52357],[-58.36896,-33.50842],[-58.37477,-33.5072],[-58.38131,-33.49389],[-58.3868,-33.49203],[-58.3836,-33.48384],[-58.38593,-33.47687],[-58.3996,-33.46798],[-58.39053,-33.45652],[-58.39142,-33.4452],[-58.37781,-33.43738],[-58.3895,-33.44008],[-58.38834,-33.42518],[-58.39179,-33.41049],[-58.38462,-33.39322],[-58.36225,-33.39347],[-58.35117,-33.39051],[-58.34219,-33.38392],[-58.31563,-33.39025],[-58.31314,-33.38706],[-58.2864,-33.38246],[-58.26236,-33.37242],[-58.23333,-33.34534],[-58.23201,-33.31631],[-58.2251,-33.30405],[-58.22812,-33.30144],[-58.22026,-33.29727],[-58.20952,-33.29532],[-58.19885,-33.29825],[-58.19035,-33.30399],[-58.17354,-33.30595],[-58.15714,-33.31523],[-58.12889,-33.30893],[-58.11311,-33.29584],[-58.10918,-33.28765],[-58.12011,-33.26878],[-58.12982,-33.26227],[-58.13294,-33.2553],[-58.13465,-33.24526],[-58.13222,-33.24021],[-58.11947,-33.23023],[-58.10308,-33.22819],[-58.07439,-33.23333],[-58.05951,-33.24271],[-58.04273,-33.24632],[-58.01301,-33.24258],[-58.00681,-33.23505],[-58.01249,-33.22345],[-58.01036,-33.22177],[-58.02413,-33.21177],[-58.02941,-33.19271],[-58.02923,-33.17729],[-58.0362,-33.1726],[-58.0415,-33.15533],[-58.05202,-33.14059],[-58.05377,-33.13364],[-58.04829,-33.12163],[-58.04456,-33.11713],[-58.0351,-33.11734],[-58.00927,-33.12938],[-57.96692,-33.14013],[-57.95312,-33.13548],[-57.94724,-33.12832],[-57.95892,-33.1353],[-57.96902,-33.13715],[-57.98938,-33.12683],[-58.01836,-33.12339],[-58.02959,-33.117],[-58.02895,-33.11469],[-58.04821,-33.11595],[-58.05626,-33.13722],[-58.0546,-33.15189],[-58.03324,-33.18059],[-58.03237,-33.21068],[-58.02801,-33.21663],[-58.0207,-33.21964],[-58.01372,-33.23782],[-58.01728,-33.24075],[-58.05335,-33.23891],[-58.07733,-33.22353],[-58.09387,-33.22545],[-58.11524,-33.22293],[-58.1306,-33.22807],[-58.14233,-33.23645],[-58.14723,-33.24849],[-58.14412,-33.25635],[-58.13364,-33.26223],[-58.12884,-33.26973],[-58.1299,-33.28026],[-58.12565,-33.29495],[-58.13405,-33.30567],[-58.15461,-33.30921],[-58.17498,-33.29861],[-58.1804,-33.29252],[-58.19594,-33.28697],[-58.2211,-33.29135],[-58.24187,-33.31031],[-58.26496,-33.31932],[-58.27653,-33.33591],[-58.27631,-33.3521],[-58.28457,-33.36178],[-58.30091,-33.36894],[-58.31656,-33.37109],[-58.32307,-33.3759],[-58.33129,-33.37273],[-58.34242,-33.37929],[-58.3587,-33.38271],[-58.37232,-33.38089],[-58.37239,-33.37575],[-58.37632,-33.37301],[-58.38878,-33.36632],[-58.41684,-33.35829],[-58.4163,-33.35367],[-58.39156,-33.33878],[-58.36879,-33.33184],[-58.35132,-33.32046],[-58.35139,-33.30555],[-58.35486,-33.30192],[-58.34603,-33.26526],[-58.35377,-33.26106],[-58.35508,-33.25693],[-58.35277,-33.24616],[-58.35656,-33.24355],[-58.35377,-33.23123],[-58.35732,-33.22401],[-58.35829,-33.20703],[-58.35261,-33.19604],[-58.3533,-33.19115],[-58.36038,-33.18439],[-58.35617,-33.16927],[-58.36009,-33.16537],[-58.35897,-33.15253],[-58.35141,-33.12741],[-58.34591,-33.12761],[-58.34122,-33.12021],[-58.3326,-33.11593],[-58.31991,-33.11869],[-58.31542,-33.11136],[-58.30566,-33.1121],[-58.3047,-33.10916],[-58.29644,-33.10796],[-58.27266,-33.12208],[-58.26773,-33.11879],[-58.26533,-33.11123],[-58.24754,-33.10563],[-58.24881,-33.09985],[-58.18038,-33.07885],[-58.16999,-33.07317],[-58.13689,-33.03877],[-58.10765,-33.02764],[-58.09877,-33.02117],[-58.08784,-33.0111],[-58.08454,-33.0017],[-58.08871,-32.97417],[-58.08698,-32.95794],[-58.10087,-32.94568],[-58.11499,-32.9215],[-58.11739,-32.90263],[-58.11453,-32.88416],[-58.12215,-32.86133],[-58.12462,-32.83401],[-58.11984,-32.81617],[-58.13531,-32.78191],[-58.1484,-32.7353],[-58.14943,-32.71918],[-58.14402,-32.67139],[-58.15087,-32.64787],[-58.14992,-32.62925],[-58.16075,-32.59199],[-58.16169,-32.56801],[-58.16944,-32.55335],[-58.1859,-32.53473],[-58.18689,-32.51579],[-58.20348,-32.46362],[-58.19372,-32.41121],[-58.18564,-32.3963],[-58.1823,-32.3754],[-58.17073,-32.36178],[-58.12758,-32.34305],[-58.11316,-32.32713],[-58.09929,-32.29687],[-58.10029,-32.25816],[-58.10525,-32.24376],[-58.12544,-32.22533],[-58.14778,-32.19709],[-58.18127,-32.1623],[-58.18223,-32.14995],[-58.16967,-32.09696],[-58.1667,-32.08954],[-58.1473,-32.0703],[-58.13732,-32.02524],[-58.13966,-32.00185],[-58.15372,-31.97357],[-58.15848,-31.94839],[-58.17125,-31.92952],[-58.19156,-31.91952],[-58.20621,-31.87142],[-58.19813,-31.85824],[-58.18816,-31.85193],[-58.15574,-31.83928],[-58.08629,-31.8222],[-58.07226,-31.80915],[-58.03863,-31.75751],[-58.04002,-31.7398],[-58.03538,-31.7208],[-58.01327,-31.68473],[-57.98289,-31.59743],[-57.98174,-31.57647],[-58.00241,-31.54744],[-58.00502,-31.53067],[-58.02716,-31.51309],[-58.06717,-31.49704],[-58.07648,-31.49002],[-58.08251,-31.47791],[-58.08243,-31.45976],[-58.07929,-31.45206],[-58.05828,-31.43585],[-58.01583,-31.41406],[-57.98124,-31.39123],[-57.97903,-31.38],[-57.99015,-31.36582],[-57.99686,-31.36276],[-57.98269,-31.33532],[-57.98102,-31.32029],[-57.94084,-31.27829],[-57.91116,-31.21404],[-57.91124,-31.18259],[-57.919,-31.13197],[-57.87246,-31.07108],[-57.86571,-31.0547],[-57.86319,-31.03647],[-57.87048,-30.99689],[-57.8987,-30.96547],[-57.90709,-30.94806],[-57.90748,-30.93869],[-57.9019,-30.92624],[-57.89289,-30.91977],[-57.88104,-30.91734],[-57.82656,-30.92115],[-57.81834,-30.91734],[-57.81104,-30.90782],[-57.80205,-30.85493],[-57.80597,-30.83199],[-57.79972,-30.78316],[-57.81141,-30.7461],[-57.80571,-30.71427]],[[-56.47883,-34.57199],[-56.47501,-34.57154],[-56.46997,-34.55841],[-56.45769,-34.55874],[-56.44903,-34.5542],[-56.44834,-34.54058],[-56.44996,-34.55395],[-56.4692,-34.55647],[-56.47883,-34.57199]]],[[[-54.69692,-34.84461],[-54.69922,-34.84029],[-54.69644,-34.83947],[-54.69692,-34.84461]]],[[[-54.8838,-35.03108],[-54.88661,-35.02509],[-54.88245,-35.02296],[-54.87978,-35.02934],[-54.8838,-35.03108]]],[[[-54.97236,-34.96142],[-54.97706,-34.94775],[-54.96874,-34.94992],[-54.96912,-34.95995],[-54.97236,-34.96142]]],[[[-56.35488,-34.73767],[-56.35115,-34.73698],[-56.35281,-34.74417],[-56.35488,-34.73767]]],[[[-56.37115,-34.70572],[-56.38862,-34.69976],[-56.37243,-34.70212],[-56.37115,-34.70572]]],[[[-56.38917,-34.79473],[-56.39279,-34.78987],[-56.39778,-34.78938],[-56.39797,-34.78449],[-56.38553,-34.78225],[-56.37707,-34.78863],[-56.38917,-34.79473]]],[[[-56.4188,-34.70068],[-56.42226,-34.6944],[-56.40855,-34.69794],[-56.4188,-34.70068]]],[[[-56.45578,-34.67323],[-56.45375,-34.68632],[-56.42476,-34.69417],[-56.42316,-34.70045],[-56.43934,-34.70181],[-56.4495,-34.69607],[-56.4661,-34.6779],[-56.46412,-34.67108],[-56.45578,-34.67323]]],[[[-56.45399,-34.67477],[-56.4576,-34.67066],[-56.44792,-34.67473],[-56.43444,-34.68945],[-56.45032,-34.68772],[-56.45361,-34.68452],[-56.45399,-34.67477]]],[[[-57.88802,-34.47524],[-57.89232,-34.472],[-57.8883,-34.47164],[-57.88802,-34.47524]]],[[[-57.98214,-33.13487],[-57.99522,-33.13013],[-57.98392,-33.12984],[-57.98214,-33.13487]]],[[[-58.02705,-33.21329],[-58.03111,-33.2076],[-58.02833,-33.20531],[-58.02705,-33.21329]]],[[[-58.0427,-33.16599],[-58.05251,-33.15576],[-58.05334,-33.14829],[-58.04246,-33.15918],[-58.0427,-33.16599]]],[[[-58.07097,-33.22912],[-58.09326,-33.22661],[-58.07916,-33.22377],[-58.07097,-33.22912]]],[[[-58.10025,-32.95167],[-58.09027,-32.95663],[-58.08896,-32.96107],[-58.09121,-32.97622],[-58.08766,-32.99422],[-58.0969,-33.01126],[-58.1072,-33.02012],[-58.11179,-33.01802],[-58.10765,-33.00316],[-58.11326,-32.98996],[-58.10843,-32.96384],[-58.10025,-32.95167]]],[[[-58.11311,-32.93154],[-58.1018,-32.95306],[-58.10927,-32.96291],[-58.11421,-32.98876],[-58.11691,-32.99012],[-58.11798,-32.98255],[-58.11304,-32.96652],[-58.11311,-32.93154]]],[[[-58.11595,-33.02435],[-58.12848,-33.0244],[-58.12508,-33.01844],[-58.12347,-33.00046],[-58.11451,-32.99039],[-58.11082,-32.99354],[-58.10838,-33.00362],[-58.11595,-33.02435]]],[[[-58.12499,-33.28591],[-58.12863,-33.27693],[-58.12446,-33.27427],[-58.11779,-33.28025],[-58.1135,-33.29095],[-58.12231,-33.2969],[-58.12499,-33.28591]]],[[[-58.1359,-33.25939],[-58.14509,-33.24851],[-58.14143,-33.23774],[-58.13805,-33.23675],[-58.13987,-33.24675],[-58.1359,-33.25939]]],[[[-58.18448,-33.29955],[-58.19607,-33.29635],[-58.203,-33.2887],[-58.18958,-33.29217],[-58.1811,-33.29855],[-58.18448,-33.29955]]],[[[-58.23496,-33.34095],[-58.23721,-33.3381],[-58.23497,-33.33093],[-58.23496,-33.34095]]],[[[-58.24738,-33.35291],[-58.24064,-33.34192],[-58.23758,-33.34273],[-58.24738,-33.35291]]],[[[-58.24049,-33.32911],[-58.24214,-33.33985],[-58.25371,-33.35696],[-58.26468,-33.35439],[-58.26022,-33.35185],[-58.26662,-33.34963],[-58.2723,-33.3506],[-58.2726,-33.33954],[-58.26037,-33.31936],[-58.23977,-33.31314],[-58.24049,-33.32911]]],[[[-58.24533,-34.18822],[-58.24309,-34.18545],[-58.24296,-34.18597],[-58.24533,-34.18822]]],[[[-58.24984,-34.17447],[-58.25818,-34.18104],[-58.26585,-34.16569],[-58.2478,-34.16819],[-58.24571,-34.1731],[-58.24984,-34.17447]]],[[[-58.2965,-33.38184],[-58.298,-33.37938],[-58.28997,-33.37535],[-58.27348,-33.3574],[-58.26763,-33.35566],[-58.2539,-33.35927],[-58.26417,-33.37086],[-58.2965,-33.38184]]],[[[-58.2792,-34.07727],[-58.28036,-34.07199],[-58.27637,-34.07332],[-58.2792,-34.07727]]],[[[-58.31633,-34.06146],[-58.32226,-34.0551],[-58.32259,-34.04687],[-58.31614,-34.04848],[-58.30532,-34.05811],[-58.31536,-34.05801],[-58.31633,-34.06146]]],[[[-58.36825,-33.98687],[-58.38436,-33.98091],[-58.39499,-33.95226],[-58.39203,-33.95024],[-58.38284,-33.9542],[-58.37894,-33.96092],[-58.3684,-33.96695],[-58.36236,-33.97499],[-58.36221,-33.98527],[-58.36825,-33.98687]]],[[[-58.38934,-33.39076],[-58.39668,-33.40041],[-58.40403,-33.39994],[-58.40762,-33.40415],[-58.41421,-33.40433],[-58.41286,-33.40614],[-58.41642,-33.40829],[-58.41616,-33.40439],[-58.42308,-33.40345],[-58.41467,-33.3853],[-58.41357,-33.37426],[-58.41717,-33.35995],[-58.37499,-33.37547],[-58.37403,-33.38254],[-58.37801,-33.38224],[-58.38934,-33.39076]]],[[[-58.39922,-33.41776],[-58.39376,-33.40919],[-58.39199,-33.41429],[-58.3896,-33.42748],[-58.39071,-33.43929],[-58.39397,-33.44157],[-58.39437,-33.43772],[-58.40018,-33.43687],[-58.39922,-33.41776]]],[[[-58.39652,-33.94209],[-58.40052,-33.94115],[-58.4029,-33.93611],[-58.39981,-33.93589],[-58.39652,-33.94209]]],[[[-58.40409,-33.41826],[-58.40213,-33.41552],[-58.39901,-33.42146],[-58.40122,-33.42632],[-58.40707,-33.42677],[-58.40409,-33.41826]]],[[[-58.41041,-33.43444],[-58.40999,-33.42725],[-58.40649,-33.42882],[-58.41041,-33.43444]]],[[[-58.41289,-33.41819],[-58.40731,-33.41314],[-58.40859,-33.41686],[-58.41289,-33.41819]]]]}}]}