{
"type": "FeatureCollection",
"name": "AFG_5z_inner",
"crs": { "type": "name", "properties": { "name": "urn:ogc:def:crs:OGC:1.3:CRS84" } },
"features": [
{ "type": "Feature", "properties": { }, "geometry": { "type": "LineString", "coordinates": [ [ 62.655709804470931, 34.882046433594432 ], [ 62.651763312078614, 34.894045051179752 ], [ 62.655709804470931, 34.882046433594439 ] ] } },
{ "type": "Feature", "properties": { }, "geometry": { "type": "LineString", "coordinates": [ [ 62.665037144658058, 34.853688292524296 ], [ 62.668403, 34.843455 ], [ 62.6709705435307, 34.842870280081918 ] ] } },
{ "type": "Feature", "properties": { }, "geometry": { "type": "LineString", "coordinates": [ [ 62.669231837845885, 35.02294946929171 ], [ 62.671812865868361, 35.041995010235631 ], [ 62.669231837845892, 35.02294946929171 ] ] } },
{ "type": "Feature", "properties": { }, "geometry": { "type": "LineString", "coordinates": [ [ 62.823062506216651, 35.327512724895413 ], [ 62.784158, 35.227049 ], [ 62.700029588153768, 35.111578807268643 ] ] } },
{ "type": "Feature", "properties": { }, "geometry": { "type": "LineString", "coordinates": [ [ 62.750775867023144, 34.824695502815665 ], [ 62.912625, 34.731885 ], [ 62.994688, 34.72633 ], [ 63.02621, 34.690751 ], [ 63.034272, 34.645586 ], [ 63.173333, 34.610653 ], [ 63.244233, 34.644914 ], [ 63.360298, 34.63463 ], [ 63.531916, 34.560733 ], [ 63.607777, 34.547866 ], [ 63.650306, 34.557529 ], [ 63.785492, 34.509367 ], [ 64.011731, 34.56218 ], [ 64.078911, 34.606803 ], [ 64.124179, 34.617241 ], [ 64.150121, 34.65618 ], [ 64.201797, 34.680312 ], [ 64.365508, 34.66468 ], [ 64.476301979628104, 34.671423937890808 ] ] } },
{ "type": "Feature", "properties": { }, "geometry": { "type": "LineString", "coordinates": [ [ 65.433567242813282, 35.467438264327164 ], [ 65.412886, 35.45179 ], [ 65.409664814087506, 35.426658914080434 ] ] } },
{ "type": "Feature", "properties": { }, "geometry": { "type": "LineString", "coordinates": [ [ 65.421309, 35.290094 ], [ 65.418723017406805, 35.307354516064734 ] ] } },
{ "type": "Feature", "properties": { }, "geometry": { "type": "LineString", "coordinates": [ [ 65.418723017406819, 35.307354516064734 ], [ 65.421309, 35.290094 ] ] } },
{ "type": "Feature", "properties": { }, "geometry": { "type": "LineString", "coordinates": [ [ 65.421309, 35.290094 ], [ 65.450622122473092, 35.253397388531333 ] ] } },
{ "type": "Feature", "properties": { }, "geometry": { "type": "LineString", "coordinates": [ [ 66.251122106105043, 37.356062250064255 ], [ 66.255212, 37.30253 ], [ 66.401973, 37.256253 ], [ 66.434581, 37.185224 ], [ 66.503621, 37.112412 ], [ 66.462796, 36.990456 ], [ 66.543515, 36.879713 ], [ 66.567699, 36.78915 ], [ 66.515868, 36.768273 ], [ 66.469928, 36.774655 ], [ 66.417476, 36.739256 ], [ 66.462331, 36.705124 ], [ 66.479901, 36.623243 ], [ 66.52734, 36.58769 ], [ 66.234231, 36.535445 ], [ 66.071451, 36.537822 ], [ 65.966858, 36.475448 ], [ 65.847692, 36.450282 ], [ 65.711938, 36.357342 ], [ 65.527091, 36.339617 ], [ 65.506627, 36.326 ], [ 65.490659, 36.096815 ], [ 65.534274, 36.04457 ], [ 65.527091, 35.977856 ], [ 65.661501, 35.989793 ], [ 65.710852, 36.017182 ], [ 65.745476, 36.016768 ], [ 65.757878, 36.001214 ], [ 65.739998, 35.960854 ], [ 65.791674, 35.89737 ], [ 65.816686, 35.836573 ], [ 65.792915, 35.793319 ], [ 65.67995, 35.787351 ], [ 65.67933, 35.746552 ], [ 65.623003, 35.676066 ], [ 65.528383, 35.67927 ], [ 65.480117, 35.645938 ], [ 65.470454, 35.605114 ], [ 65.485852697587987, 35.556641951933102 ] ] } },
{ "type": "Feature", "properties": { }, "geometry": { "type": "LineString", "coordinates": [ [ 66.33653376393201, 34.949627876577679 ], [ 66.354135726967897, 34.926612754199873 ], [ 66.336533763931996, 34.949627876577679 ] ] } },
{ "type": "Feature", "properties": { }, "geometry": { "type": "LineString", "coordinates": [ [ 66.355102499308572, 35.080133864236615 ], [ 66.335104, 35.114653 ], [ 66.364766, 35.178008 ], [ 66.556537, 35.173306 ], [ 66.669037, 35.202813 ], [ 66.807426, 35.370606 ], [ 67.016768, 35.352468 ], [ 67.306156, 35.436623 ], [ 67.403617, 35.422903 ], [ 67.573529, 35.46936 ], [ 67.743907, 35.443418 ], [ 67.818993, 35.459386 ], [ 67.86105613398874, 35.435202497898828 ] ] } },
{ "type": "Feature", "properties": { }, "geometry": { "type": "LineString", "coordinates": [ [ 68.024820121454539, 36.925517007641183 ], [ 68.038100878601668, 36.817004991899623 ] ] } },
{ "type": "Feature", "properties": { }, "geometry": { "type": "LineString", "coordinates": [ [ 68.088537762192956, 35.461221646583851 ], [ 68.142539, 35.507032 ], [ 68.188789, 35.583074 ], [ 68.19406, 35.61333 ], [ 68.15184, 35.642166 ], [ 68.156181, 35.676531 ], [ 68.311676, 35.853522 ], [ 68.332966, 35.981706 ], [ 68.467325, 36.073251 ], [ 68.531404, 36.1526 ], [ 68.491355, 36.196602 ], [ 68.371414872009794, 36.26372951195777 ] ] } },
{ "type": "Feature", "properties": { }, "geometry": { "type": "LineString", "coordinates": [ [ 68.163864321471692, 36.638982362367436 ], [ 68.175770162532103, 36.622386837920743 ] ] } },
{ "type": "Feature", "properties": { }, "geometry": { "type": "LineString", "coordinates": [ [ 68.19359593396544, 36.553790354048935 ], [ 68.238045409810525, 36.570640324049855 ] ] } },
{ "type": "Feature", "properties": { }, "geometry": { "type": "LineString", "coordinates": [ [ 68.206928966125147, 36.578955741817083 ], [ 68.238045409810525, 36.570640324049855 ] ] } },
{ "type": "Feature", "properties": { }, "geometry": { "type": "LineString", "coordinates": [ [ 68.238045409810525, 36.570640324049855 ], [ 68.322373, 36.548105 ], [ 68.538535, 36.541077 ], [ 68.623285, 36.52175 ], [ 68.722762, 36.534308 ], [ 68.798623, 36.447595 ], [ 68.842393, 36.419767 ], [ 68.862081, 36.41261 ], [ 68.914533, 36.433151 ], [ 68.999231, 36.41739 ], [ 69.081344, 36.355326 ], [ 69.198495, 36.324191 ], [ 69.232808, 36.283134 ], [ 69.26831, 36.27515 ], [ 69.300608, 36.228177 ], [ 69.444113, 36.247194 ], [ 69.522661, 36.295459 ], [ 69.681101, 36.350081 ], [ 69.707765749269512, 36.24714296793347 ] ] } },
{ "type": "Feature", "properties": { }, "geometry": { "type": "LineString", "coordinates": [ [ 69.765799523799387, 36.232981148546266 ], [ 69.777736, 36.213578 ], [ 69.788122909762663, 36.099063994852031 ] ] } },
{ "type": "Feature", "properties": { }, "geometry": { "type": "LineString", "coordinates": [ [ 69.956381060179467, 35.886956002387059 ], [ 69.961032, 35.809856 ], [ 69.982115248214299, 35.79140765783032 ] ] } },
{ "type": "Feature", "properties": { }, "geometry": { "type": "LineString", "coordinates": [ [ 70.135595742764124, 35.828304669121714 ], [ 70.171562, 35.860705 ], [ 70.176833, 35.892254 ], [ 70.2733640841072, 35.850215398864798 ] ] } }
]
}
