{
"type": "FeatureCollection",
"name": "AFG_5z_zones",
"crs": { "type": "name", "properties": { "name": "urn:ogc:def:crs:OGC:1.3:CRS84" } },
"features": [
{ "type": "Feature", "properties": { "zone_id": "NEPS_AFG", "zone_name": "NEPS_AFG", "ISO_A3": "AFG" }, "geometry": { "type": "Polygon", "coordinates": [ [ [ 67.561764259657238, 31.519947147834156 ], [ 67.556113729000117, 31.51218617800005 ], [ 67.594572715763334, 31.441731899856411 ], [ 67.59699, 31.42568 ], [ 67.606136243182419, 31.420548295043286 ], [ 67.61145918800014, 31.410797018000025 ], [ 67.65114668800004, 31.395294088000085 ], [ 67.651146844609229, 31.395294087185473 ], [ 67.651147, 31.395294 ], [ 67.741280753102487, 31.394825250350841 ], [ 67.770363997411209, 31.394673972142336 ], [ 67.764731, 31.334058 ], [ 67.692798, 31.325221 ], [ 67.583657, 31.265225 ], [ 67.429406643258716, 31.227895521113069 ], [ 67.346204061000094, 31.207760315000044 ], [ 67.213757365000106, 31.212256165000056 ], [ 67.167989588823787, 31.229396043490443 ], [ 67.136759, 31.241092 ], [ 67.035267, 31.235924 ], [ 67.033188597864097, 31.236831579671627 ], [ 67.015268189000039, 31.244657288000056 ], [ 67.025965210000095, 31.27302764900007 ], [ 67.016818482000076, 31.309149475000098 ], [ 66.943282918000079, 31.314730530000091 ], [ 66.918905131682635, 31.305955488501006 ], [ 66.905921, 31.305532 ], [ 66.838483, 31.277007 ], [ 66.811509333254165, 31.255752525370003 ], [ 66.759521525000082, 31.21478831000006 ], [ 66.696993042000088, 31.195823059000091 ], [ 66.696993026688787, 31.195823008094688 ], [ 66.696993, 31.195823 ], [ 66.663093, 31.083117 ], [ 66.57056407654683, 30.996254315146512 ], [ 66.55002526800007, 30.976973368000031 ], [ 66.392308797000112, 30.944623922000048 ], [ 66.385694800344481, 30.939099134924184 ], [ 66.375359, 30.936717 ], [ 66.372625945839445, 30.92818249220041 ], [ 66.366263876000119, 30.922868144000049 ], [ 66.267981250524599, 30.601408518512148 ], [ 66.267975, 30.601389 ], [ 66.264926, 30.557826 ], [ 66.282518205020622, 30.529176300700524 ], [ 66.313760620000039, 30.47829579700003 ], [ 66.319634582464445, 30.448474143765679 ], [ 66.321822, 30.437368 ], [ 66.316769563260493, 30.378521289117394 ], [ 66.305285685000058, 30.24477 ], [ 66.219296102000101, 30.057856344000086 ], [ 66.219296142638143, 30.057856310048443 ], [ 66.219296, 30.057856 ], [ 66.278269145237175, 30.008586452802888 ], [ 66.340528765069621, 29.956570743137174 ], [ 66.27521, 29.885154 ], [ 66.195628, 29.835338 ], [ 65.036371, 29.540162 ], [ 64.941485712119515, 29.552337376731348 ], [ 64.820311727000103, 29.567886251000076 ], [ 64.659077130918519, 29.569053560410932 ], [ 64.477697, 29.570367 ], [ 64.172599, 29.4843 ], [ 64.113378, 29.396295 ], [ 64.098690897223122, 29.391079019574565 ], [ 64.086092977000078, 29.386605326000037 ], [ 63.971991414000058, 29.429574280000097 ], [ 63.568605184000091, 29.497477112000055 ], [ 62.602587432012371, 29.418096568292764 ], [ 62.720957, 29.907038 ], [ 62.718374, 30.006334 ], [ 62.758681, 30.073178 ], [ 62.767518, 30.204539 ], [ 62.889939, 30.276421 ], [ 62.962286, 30.36595 ], [ 63.011482, 30.456927 ], [ 63.092304, 30.518706 ], [ 63.09835, 30.539273 ], [ 63.061919, 30.60883 ], [ 63.085173, 30.650222 ], [ 63.057371, 30.681771 ], [ 63.156538, 30.773652 ], [ 63.143051, 30.936355 ], [ 63.22594, 30.985861 ], [ 63.285522, 31.083529 ], [ 63.342935, 31.125284 ], [ 63.349601, 31.250031 ], [ 63.316373, 31.316616 ], [ 63.352702, 31.374959 ], [ 63.354407, 31.480249 ], [ 63.407634, 31.804932 ], [ 63.429493, 31.860329 ], [ 63.497758, 31.91875 ], [ 63.538892, 31.996264 ], [ 63.533621, 32.038717 ], [ 63.56964, 32.079903 ], [ 63.538427, 32.136669 ], [ 63.530055, 32.200205 ], [ 63.649841, 32.258031 ], [ 63.726477, 32.319578 ], [ 63.82673, 32.322472 ], [ 63.84678, 32.355519 ], [ 63.91768, 32.403914 ], [ 63.952407, 32.400245 ], [ 64.014367, 32.444867 ], [ 64.022738, 32.466752 ], [ 63.996022, 32.533699 ], [ 64.014212, 32.571656 ], [ 64.029715, 32.575531 ], [ 64.043667, 32.557522 ], [ 64.177406, 32.572198 ], [ 64.284635, 32.621498 ], [ 64.300964, 32.664234 ], [ 64.255179, 32.688651 ], [ 64.266651, 32.719528 ], [ 64.334606, 32.767742 ], [ 64.395429, 32.848925 ], [ 64.57888, 32.913805 ], [ 64.540536, 32.938481 ], [ 64.573248, 32.995532 ], [ 64.562706, 33.010544 ], [ 64.614382, 33.066871 ], [ 64.715874, 33.133378 ], [ 64.699441, 33.140742 ], [ 64.697116, 33.165883 ], [ 64.738405, 33.208671 ], [ 64.725176, 33.227791 ], [ 64.782434, 33.246834 ], [ 64.791942, 33.209059 ], [ 64.823878, 33.204433 ], [ 64.890127, 33.254896 ], [ 64.953276, 33.249211 ], [ 65.158741, 33.362641 ], [ 65.2191, 33.362951 ], [ 65.330669, 33.407057 ], [ 65.370253, 33.424833 ], [ 65.363277, 33.452532 ], [ 65.38219, 33.477285 ], [ 65.574427, 33.60074 ], [ 65.56745, 33.629834 ], [ 65.508333, 33.678255 ], [ 65.487249, 33.773494 ], [ 65.409476, 33.833852 ], [ 65.399399, 33.866254 ], [ 65.408442, 33.884805 ], [ 65.469524, 33.905347 ], [ 65.520477, 33.973327 ], [ 65.519495, 34.026916 ], [ 65.490039, 34.03906 ], [ 65.467353, 34.075078 ], [ 65.52182, 34.344958 ], [ 65.624863, 34.35209 ], [ 65.945463, 34.32098 ], [ 66.010472, 34.35842 ], [ 66.15527, 34.358523 ], [ 66.212062, 34.406324 ], [ 66.324717, 34.376455 ], [ 66.487033, 34.389219 ], [ 66.557778, 34.428674 ], [ 66.66144, 34.437046 ], [ 66.735906, 34.487353 ], [ 66.709551, 34.532621 ], [ 66.718543, 34.562077 ], [ 66.770219, 34.608043 ], [ 66.764948, 34.644966 ], [ 66.70087, 34.683697 ], [ 66.637824, 34.685325 ], [ 66.646403, 34.710001 ], [ 66.600927, 34.738707 ], [ 66.577001, 34.792864 ], [ 66.519434, 34.844333 ], [ 66.354136333957968, 34.926611960541194 ], [ 66.336533156619225, 34.949628670658306 ], [ 66.355103, 35.080133 ], [ 66.335104, 35.114653 ], [ 66.364766, 35.178008 ], [ 66.556537, 35.173306 ], [ 66.669037, 35.202813 ], [ 66.807426, 35.370606 ], [ 67.016768, 35.352468 ], [ 67.306156, 35.436623 ], [ 67.403617, 35.422903 ], [ 67.573529, 35.46936 ], [ 67.743907, 35.443418 ], [ 67.818993, 35.459386 ], [ 67.861057, 35.435202 ], [ 68.000739, 35.445666 ], [ 68.088537, 35.461221 ], [ 68.142539, 35.507032 ], [ 68.188789, 35.583074 ], [ 68.19406, 35.61333 ], [ 68.15184, 35.642166 ], [ 68.156181, 35.676531 ], [ 68.311676, 35.853522 ], [ 68.332966, 35.981706 ], [ 68.467325, 36.073251 ], [ 68.531404, 36.1526 ], [ 68.491355, 36.196602 ], [ 68.371414, 36.26373 ], [ 68.252043415271231, 36.409752322706993 ], [ 68.193630333058934, 36.48680833934251 ], [ 68.177699505324782, 36.512928934974511 ], [ 68.193595, 36.55379 ], [ 68.238045409810525, 36.570640324049855 ], [ 68.322373, 36.548105 ], [ 68.538535, 36.541077 ], [ 68.623285, 36.52175 ], [ 68.722762, 36.534308 ], [ 68.798623, 36.447595 ], [ 68.842393, 36.419767 ], [ 68.862081, 36.41261 ], [ 68.914533, 36.433151 ], [ 68.999231, 36.41739 ], [ 69.081344, 36.355326 ], [ 69.198495, 36.324191 ], [ 69.232808, 36.283134 ], [ 69.26831, 36.27515 ], [ 69.300608, 36.228177 ], [ 69.444113, 36.247194 ], [ 69.522661, 36.295459 ], [ 69.681101, 36.350081 ], [ 69.707766, 36.247142 ], [ 69.710177118101527, 36.246553689343685 ], [ 69.711797, 36.240786 ], [ 69.765799, 36.232982 ], [ 69.777736, 36.213578 ], [ 69.788123, 36.099063 ], [ 69.883556477530576, 36.008489538118269 ], [ 69.956381, 35.886957 ], [ 69.961032, 35.809856 ], [ 69.982116, 35.791407 ], [ 70.112754, 35.819313 ], [ 70.120305969782308, 35.824628452544374 ], [ 70.135595, 35.828304 ], [ 70.171562, 35.860705 ], [ 70.176833, 35.892254 ], [ 70.273365, 35.850215 ], [ 70.231197, 35.670355 ], [ 70.294035, 35.660563 ], [ 70.383849, 35.698131 ], [ 70.47945, 35.666945 ], [ 70.499449, 35.622064 ], [ 70.554691, 35.566873 ], [ 70.535778, 35.498454 ], [ 70.543529, 35.446312 ], [ 70.576912, 35.442411 ], [ 70.63479, 35.465691 ], [ 70.650758, 35.510701 ], [ 70.687241, 35.537004 ], [ 70.757676, 35.488764 ], [ 70.86444, 35.484243 ], [ 70.882733, 35.516282 ], [ 70.866145, 35.600256 ], [ 70.877927, 35.625707 ], [ 70.959989, 35.642373 ], [ 71.013681, 35.699165 ], [ 70.968878, 35.739602 ], [ 70.973219, 35.775414 ], [ 71.024275, 35.804895 ], [ 71.067063, 35.864788 ], [ 71.084633, 35.941941 ], [ 71.169913, 36.030802 ], [ 71.169913432354363, 36.030801707317956 ], [ 71.170931844000108, 36.027001037000062 ], [ 71.257428295509044, 35.971558569449748 ], [ 71.257438, 35.971552 ], [ 71.341567, 35.947264 ], [ 71.371333, 35.885149 ], [ 71.424705620828519, 35.848088803343884 ], [ 71.447186166105098, 35.817863064535501 ], [ 71.465763250333282, 35.788169065684833 ], [ 71.475563536927353, 35.741027875071602 ], [ 71.475564, 35.741024 ], [ 71.475564650048312, 35.741023354166536 ], [ 71.514927989978545, 35.690071740937753 ], [ 71.514374095828572, 35.675259299838622 ], [ 71.483315877000052, 35.626560364000071 ], [ 71.483316103321272, 35.626560131325981 ], [ 71.483316, 35.62656 ], [ 71.492721, 35.609559 ], [ 71.509747592643166, 35.599386705376688 ], [ 71.512771443000076, 35.596277975000035 ], [ 71.521564750079818, 35.592326713423226 ], [ 71.58455645028711, 35.554693221698791 ], [ 71.586126211109459, 35.514215814413348 ], [ 71.581708, 35.493132 ], [ 71.587412595589697, 35.481045469102774 ], [ 71.587805624000055, 35.470910950000061 ], [ 71.597848607208789, 35.458934317681994 ], [ 71.617985163736222, 35.416270274489797 ], [ 71.613764251350915, 35.40358835115758 ], [ 71.531589709656913, 35.327929098389227 ], [ 71.53158166500009, 35.327922262000115 ], [ 71.529824667000071, 35.30089548800008 ], [ 71.529825008862844, 35.300895136332443 ], [ 71.529825, 35.300895 ], [ 71.556784619047406, 35.273162305952397 ], [ 71.637931763000097, 35.189687806000066 ], [ 71.621228234851856, 35.164223864486118 ], [ 71.604135169631036, 35.138166258594858 ], [ 71.588214255539043, 35.127102865546391 ], [ 71.508947, 35.072021 ], [ 71.509963172073952, 35.044969798583161 ], [ 71.511324504000072, 35.008716939000081 ], [ 71.469569947000139, 34.949702454000047 ], [ 71.289477580000096, 34.875030009000071 ], [ 71.203074585000138, 34.748164368000076 ], [ 71.080601441000056, 34.672923483000048 ], [ 71.080601411257746, 34.672923252653163 ], [ 71.080601, 34.672923 ], [ 71.067325662681412, 34.570105831348734 ], [ 71.065821981000113, 34.558460185000044 ], [ 70.985826864000103, 34.556186422000039 ], [ 70.970850233194966, 34.543625376875674 ], [ 70.956991, 34.532002 ], [ 70.960146770711233, 34.498947572942079 ], [ 70.961228882000114, 34.487611796000081 ], [ 70.984625969905693, 34.453194919739474 ], [ 70.991511, 34.443067 ], [ 70.991511193415747, 34.443066826596933 ], [ 70.991511272000139, 34.4430667110001 ], [ 70.99680634238166, 34.43831956534374 ], [ 71.050939, 34.389788 ], [ 71.092116012301076, 34.370696139584652 ], [ 71.122045939000088, 34.356818746000059 ], [ 71.12638675900007, 34.33222076400007 ], [ 71.118700678080629, 34.313920570797556 ], [ 71.097086, 34.262458 ], [ 71.108093, 34.165228 ], [ 71.062773, 34.10531 ], [ 71.062618000658958, 34.054253217058914 ], [ 70.964206750283466, 34.011544886469821 ], [ 70.939731386990715, 34.000923167944663 ], [ 70.907025278657187, 34.004538535814277 ], [ 70.884334, 34.007047 ], [ 70.872926899150755, 33.985244722697509 ], [ 70.862216837000119, 33.964775492000044 ], [ 70.644488368599951, 33.948092015087674 ], [ 70.521979, 33.938705 ], [ 70.44423576285007, 33.946157737125148 ], [ 70.328192587000103, 33.957282410000104 ], [ 70.166385592066561, 34.000304155608788 ], [ 70.002838, 34.043789 ], [ 69.974661990681355, 34.042195484838743 ], [ 69.916021363000084, 34.038879497000082 ], [ 69.873790571384248, 34.017814375037126 ], [ 69.872613, 34.017227 ], [ 69.871993003114525, 33.971519229610138 ], [ 69.841090536000138, 33.941805319000096 ], [ 69.843539849184523, 33.935837712426697 ], [ 69.847188, 33.926948 ], [ 69.885428923475843, 33.88945707502333 ], [ 69.957517538000104, 33.752695415000019 ], [ 69.957517814016612, 33.752695352834138 ], [ 69.957518, 33.752695 ], [ 70.075318494964137, 33.726163667552846 ], [ 70.11812788900005, 33.71652191200009 ], [ 70.132545613000048, 33.661434835000122 ], [ 70.14739350456729, 33.650954513648529 ], [ 70.174093, 33.632108 ], [ 70.154973, 33.506612 ], [ 70.222662622905844, 33.442548070667826 ], [ 70.285714559000041, 33.382873027000031 ], [ 70.300009893712314, 33.35486441570476 ], [ 70.301579, 33.35179 ], [ 70.297169914712157, 33.331484465020608 ], [ 70.294447876000049, 33.318949280000069 ], [ 70.124794149000138, 33.199034119000075 ], [ 70.048002970000084, 33.194073181000036 ], [ 69.994724568000095, 33.127333069000102 ], [ 69.984922818178589, 33.127424187773222 ], [ 69.955812, 33.127695 ], [ 69.880933, 33.089248 ], [ 69.838713, 33.086664 ], [ 69.771844, 33.114776 ], [ 69.716361143746624, 33.094637635940778 ], [ 69.667767782000055, 33.077000224000031 ], [ 69.617180373583338, 33.076163260272743 ], [ 69.547517, 33.075011 ], [ 69.487727, 33.028373 ], [ 69.468503, 32.994292 ], [ 69.48721, 32.885875 ], [ 69.477288, 32.856833 ], [ 69.376313, 32.771877 ], [ 69.376313004399037, 32.771876982582384 ], [ 69.376312703000053, 32.771876729000027 ], [ 69.379443917240721, 32.759480394547289 ], [ 69.383237, 32.744462 ], [ 69.399029254683455, 32.734969055563127 ], [ 69.414656616000116, 32.725574646000055 ], [ 69.420415325356117, 32.689870647486202 ], [ 69.426025, 32.655088 ], [ 69.36580196245805, 32.574597933620751 ], [ 69.361223186000075, 32.568478293000069 ], [ 69.303281669953961, 32.542397055660921 ], [ 69.281952, 32.532796 ], [ 69.281951921249913, 32.532795887512478 ], [ 69.281951538000044, 32.532795715000063 ], [ 69.243091589308918, 32.477287347041084 ], [ 69.232859, 32.462671 ], [ 69.232858986069147, 32.462670881375445 ], [ 69.232858927000109, 32.462670797 ], [ 69.232282283611184, 32.457760125801457 ], [ 69.228001, 32.421304 ], [ 69.268102, 32.301337 ], [ 69.251049, 32.13065 ], [ 69.251049042025443, 32.130649830354379 ], [ 69.251049031000036, 32.130649720000079 ], [ 69.298849731000132, 31.937689922000075 ], [ 69.223763876000135, 31.881931051000024 ], [ 69.188393264751824, 31.835338036062929 ], [ 69.114313, 31.737754 ], [ 69.040106, 31.673107 ], [ 68.951348967667329, 31.64303128065994 ], [ 68.940990438000085, 31.643651022000071 ], [ 68.803841186000113, 31.602568258000119 ], [ 68.70544926000008, 31.701270244000042 ], [ 68.694907267000133, 31.756357321000095 ], [ 68.690283134698817, 31.760793988112319 ], [ 68.688293, 31.768605 ], [ 68.678796058722099, 31.771815370910353 ], [ 68.675786987000038, 31.774702453000074 ], [ 68.527475627000058, 31.822968242000101 ], [ 68.418748413000117, 31.783022360000032 ], [ 68.418748593087187, 31.783022217896594 ], [ 68.418748, 31.783022 ], [ 68.439574, 31.766589 ], [ 68.549799697420525, 31.753515035889212 ], [ 68.498020061000034, 31.725248108000059 ], [ 68.44531282216343, 31.739082079384403 ], [ 68.356065, 31.762507 ], [ 68.255037, 31.766383 ], [ 68.229116882673978, 31.788691482775967 ], [ 68.206823365000105, 31.807878723 ], [ 68.206823304570889, 31.807878737867146 ], [ 68.206823, 31.807879 ], [ 68.138559, 31.824674 ], [ 68.099504652922548, 31.766816384212564 ], [ 68.046574784056446, 31.68840286541614 ], [ 68.023891642805097, 31.674265908667948 ], [ 67.966062867000119, 31.638224996000091 ], [ 67.842711223000094, 31.623497213000107 ], [ 67.842711002307595, 31.623497000275524 ], [ 67.842711, 31.623497 ], [ 67.840870945108833, 31.621723376752943 ], [ 67.781164860390192, 31.564172928664131 ], [ 67.748832908429605, 31.547652399735803 ], [ 67.696311890000118, 31.520816142000101 ], [ 67.668108685595044, 31.522819210337452 ], [ 67.568981, 31.52986 ], [ 67.561764259657238, 31.519947147834156 ] ] ] } },
{ "type": "Feature", "properties": { "zone_id": "NEPS_HERAT", "zone_name": "NEPS_HERAT", "ISO_A3": "AFG" }, "geometry": { "type": "Polygon", "coordinates": [ [ [ 62.728919624135443, 35.276926685474841 ], [ 62.760489136000103, 35.302445781000088 ], [ 62.760491048949, 35.302446820836991 ], [ 62.823063, 35.327514 ], [ 62.784158, 35.227049 ], [ 62.700029, 35.111578 ], [ 62.695372085414171, 35.100093826810635 ], [ 62.689797, 35.092122 ], [ 62.683361084496255, 35.070474126432458 ], [ 62.671813, 35.041996 ], [ 62.669231703675003, 35.022948479237712 ], [ 62.664217, 35.006081 ], [ 62.661420897772018, 34.965312133434928 ], [ 62.651763, 34.894046 ], [ 62.655710116870324, 34.882045483798898 ], [ 62.655018, 34.871954 ], [ 62.665036832300594, 34.853689242192345 ], [ 62.668403, 34.843455 ], [ 62.670971517591759, 34.842870058253972 ], [ 62.671813, 34.841336 ], [ 62.750775, 34.824696 ], [ 62.912625, 34.731885 ], [ 62.994688, 34.72633 ], [ 63.02621, 34.690751 ], [ 63.034272, 34.645586 ], [ 63.173333, 34.610653 ], [ 63.244233, 34.644914 ], [ 63.360298, 34.63463 ], [ 63.531916, 34.560733 ], [ 63.607777, 34.547866 ], [ 63.650306, 34.557529 ], [ 63.785492, 34.509367 ], [ 64.011731, 34.56218 ], [ 64.078911, 34.606803 ], [ 64.124179, 34.617241 ], [ 64.150121, 34.65618 ], [ 64.201797, 34.680312 ], [ 64.365508, 34.66468 ], [ 64.476303, 34.671424 ], [ 64.459559, 34.55939 ], [ 64.481574, 34.492417 ], [ 64.434858, 34.4919 ], [ 64.404782, 34.520219 ], [ 64.301429, 34.477637 ], [ 64.197767, 34.469912 ], [ 64.188155, 34.34023 ], [ 64.208619, 34.287313 ], [ 64.194976, 34.264214 ], [ 64.117978, 34.22556 ], [ 64.061651, 34.22401 ], [ 64.00615, 34.245714 ], [ 63.976643, 34.217834 ], [ 63.849881, 34.219927 ], [ 63.741257, 34.268451 ], [ 63.493107, 34.268451 ], [ 63.476674, 34.210961 ], [ 63.387894, 34.073993 ], [ 63.445771, 33.974929 ], [ 63.516258, 33.912556 ], [ 63.538272, 33.857003 ], [ 63.582972, 33.802821 ], [ 63.504579, 33.767164 ], [ 63.515793, 33.700915 ], [ 63.477294, 33.659703 ], [ 63.241132, 33.618517 ], [ 63.074631, 33.532837 ], [ 63.090444, 33.46018 ], [ 63.130028, 33.394758 ], [ 63.14026, 33.319491 ], [ 63.083158, 33.281509 ], [ 63.041403, 33.176477 ], [ 62.927198, 33.126428 ], [ 62.916811, 33.151284 ], [ 62.741628, 33.121338 ], [ 62.700959, 33.072969 ], [ 62.645251, 33.054262 ], [ 62.508722, 33.057724 ], [ 62.38351, 32.983904 ], [ 62.348887, 32.842724 ], [ 62.150708, 32.826369 ], [ 62.073762, 32.783219 ], [ 62.028287, 32.791668 ], [ 61.99542, 32.897475 ], [ 61.964673, 32.892075 ], [ 61.855739, 32.816809 ], [ 61.778483, 32.881714 ], [ 61.690478, 32.89192 ], [ 61.666293, 32.912487 ], [ 61.67668, 33.01199 ], [ 61.843337, 33.155832 ], [ 61.755022, 33.271665 ], [ 61.823131, 33.342771 ], [ 61.828919, 33.4084 ], [ 61.858995, 33.452429 ], [ 61.847367, 33.476458 ], [ 61.550228, 33.516042 ], [ 61.451526, 33.459663 ], [ 61.164463, 33.461472 ], [ 60.919788, 33.512571 ], [ 60.918999492133715, 33.513484131945383 ], [ 60.920859822000068, 33.514105326000092 ], [ 60.8951249590001, 33.541132101000031 ], [ 60.846032348000051, 33.555782370000102 ], [ 60.747811369989428, 33.557900808733315 ], [ 60.655553, 33.559891 ], [ 60.588071031214348, 33.583219885875238 ], [ 60.574834432000046, 33.587795919000101 ], [ 60.511789185000112, 33.638387146000056 ], [ 60.486881145000041, 33.711380107000096 ], [ 60.497585322023276, 33.745227360290947 ], [ 60.528016, 33.84145 ], [ 60.486778, 34.094277 ], [ 60.486778040830401, 34.094277304838357 ], [ 60.514210228994259, 34.168157173424589 ], [ 60.543417433188807, 34.207842434574587 ], [ 60.56430957964065, 34.227972212430373 ], [ 60.650592, 34.28535 ], [ 60.650591946162969, 34.285350165522644 ], [ 60.65059208200006, 34.285350241000046 ], [ 60.643667440000058, 34.306640930000029 ], [ 60.776355174439729, 34.313239200070903 ], [ 60.890474, 34.318914 ], [ 60.890473938037125, 34.318914075940548 ], [ 60.890474080000104, 34.318914083000053 ], [ 60.779369751000047, 34.455081482000068 ], [ 60.755224515358037, 34.473660160329075 ], [ 60.699685117902966, 34.516395909277527 ], [ 60.739268840000136, 34.548021546000101 ], [ 60.797010888556166, 34.561344320450999 ], [ 60.838488, 34.570914 ], [ 60.876993480578676, 34.609734572751222 ], [ 60.895435018000057, 34.62832672200004 ], [ 60.923566739845761, 34.633545602459776 ], [ 60.947525, 34.63799 ], [ 60.952449980843618, 34.671829884098457 ], [ 60.959927206000089, 34.723204651000017 ], [ 60.996915412997808, 34.751311074889713 ], [ 61.00964, 34.76098 ], [ 61.034754846924976, 34.806248724087077 ], [ 61.065450480000038, 34.814723613000083 ], [ 61.074752238000087, 34.93311431900004 ], [ 61.091552330455372, 34.984886463583678 ], [ 61.115887, 35.059877 ], [ 61.147306, 35.102096 ], [ 61.139865, 35.139665 ], [ 61.096353107086408, 35.193201868241289 ], [ 61.099997615550642, 35.195212226155149 ], [ 61.112373, 35.202038 ], [ 61.102451, 35.25666 ], [ 61.122708, 35.287666 ], [ 61.160004596648783, 35.295029860802245 ], [ 61.187096802000099, 35.300378723000037 ], [ 61.187096823480964, 35.300378965147985 ], [ 61.187097, 35.300379 ], [ 61.195055, 35.390089 ], [ 61.203520693646439, 35.404169373483072 ], [ 61.290036255000075, 35.548063863000024 ], [ 61.281612854841633, 35.577203696916953 ], [ 61.26967603654181, 35.618498873584358 ], [ 61.351531, 35.627800575136433 ], [ 61.351531, 35.60713 ], [ 61.383467, 35.586459 ], [ 61.393182, 35.553593 ], [ 61.410379087918258, 35.548238588037499 ], [ 61.427702271000101, 35.542844543000015 ], [ 61.457758399013954, 35.518329488843115 ], [ 61.538703, 35.452307 ], [ 61.604746, 35.430603 ], [ 61.693080381942551, 35.419569962015167 ], [ 61.739621216000046, 35.413756816000031 ], [ 61.807522205479721, 35.42814526585672 ], [ 61.919352, 35.451842 ], [ 62.00746, 35.438923 ], [ 62.136341, 35.341358 ], [ 62.212466641914304, 35.304143938626432 ], [ 62.233699585000068, 35.29376414000005 ], [ 62.251217896000128, 35.260381165000055 ], [ 62.250959513000055, 35.202348532000101 ], [ 62.286202840000044, 35.140646871000044 ], [ 62.286202990870557, 35.140647015983454 ], [ 62.286203, 35.140647 ], [ 62.431879, 35.280638 ], [ 62.443345093287, 35.28116450861279 ], [ 62.458905477000087, 35.281878561 ], [ 62.535489950000056, 35.227359924 ], [ 62.604529663000051, 35.219401754000032 ], [ 62.633244377199624, 35.228745695083816 ], [ 62.69362, 35.248392 ], [ 62.728919624135443, 35.276926685474841 ] ] ] } },
{ "type": "Feature", "properties": { "zone_id": "NEPS_TKM", "zone_name": "NEPS_TKM", "ISO_A3": "AFG" }, "geometry": { "type": "Polygon", "coordinates": [ [ [ 63.765906, 35.977288 ], [ 63.826135313605597, 36.002731385554711 ], [ 63.889825887000143, 36.029636536000069 ], [ 63.922467590402903, 36.029215895211173 ], [ 63.949977, 36.028861 ], [ 64.027395626626699, 36.004344871003049 ], [ 64.045113566000055, 35.99873403000008 ], [ 64.045113553243183, 35.998734141474316 ], [ 64.045114, 35.998734 ], [ 64.038911275637489, 36.052931952664686 ], [ 64.036225220000119, 36.076403707000068 ], [ 64.04517280414467, 36.088670910688514 ], [ 64.057258, 36.105239 ], [ 64.096913629957413, 36.126754055701262 ], [ 64.158698365000134, 36.160274556000061 ], [ 64.214120238911093, 36.156249206481419 ], [ 64.266134, 36.152471 ], [ 64.302141207402116, 36.209160973068755 ], [ 64.303650757000071, 36.211537578 ], [ 64.399697891056817, 36.244703497084814 ], [ 64.477697, 36.271637 ], [ 64.528467909175632, 36.338012724590428 ], [ 64.594382365000115, 36.424186097000089 ], [ 64.610505412000066, 36.500925598000023 ], [ 64.588801311000054, 36.600454407000072 ], [ 64.603243352155985, 36.654635358587697 ], [ 64.604821, 36.660554 ], [ 64.778764, 36.93847 ], [ 64.755613, 37.053631 ], [ 64.773557015402716, 37.103558163067106 ], [ 64.778763875000095, 37.118045553000101 ], [ 64.907267061861603, 37.170105459221141 ], [ 65.063088, 37.233232 ], [ 65.290169028834953, 37.237917447869663 ], [ 65.501407105000055, 37.24227569600005 ], [ 65.536857137000084, 37.257106833000094 ], [ 65.624086955000053, 37.345137635000114 ], [ 65.62408694379009, 37.345137943273933 ], [ 65.624087, 37.345138 ], [ 65.623654807606243, 37.357021688050935 ], [ 65.620986369000036, 37.430403748000074 ], [ 65.65871016400007, 37.510269674000071 ], [ 65.681034384000043, 37.526392720000061 ], [ 65.728525504707235, 37.528557138950696 ], [ 65.739429, 37.529054 ], [ 65.761443, 37.578379 ], [ 65.804334, 37.565305 ], [ 65.855184, 37.507944 ], [ 66.079666, 37.440868 ], [ 66.140181966337479, 37.38747212190453 ], [ 66.142918335000047, 37.385057679000042 ], [ 66.142920765144822, 37.385057349052168 ], [ 66.240714028803794, 37.362035656816026 ], [ 66.251122013982538, 37.356063455847369 ], [ 66.255212, 37.30253 ], [ 66.401973, 37.256253 ], [ 66.434581, 37.185224 ], [ 66.503621, 37.112412 ], [ 66.462796, 36.990456 ], [ 66.543515, 36.879713 ], [ 66.567699, 36.78915 ], [ 66.515868, 36.768273 ], [ 66.469928, 36.774655 ], [ 66.417476, 36.739256 ], [ 66.462331, 36.705124 ], [ 66.479901, 36.623243 ], [ 66.52734, 36.58769 ], [ 66.234231, 36.535445 ], [ 66.071451, 36.537822 ], [ 65.966858, 36.475448 ], [ 65.847692, 36.450282 ], [ 65.711938, 36.357342 ], [ 65.527091, 36.339617 ], [ 65.506627, 36.326 ], [ 65.490659, 36.096815 ], [ 65.534274, 36.04457 ], [ 65.527091, 35.977856 ], [ 65.661501, 35.989793 ], [ 65.710852, 36.017182 ], [ 65.745476, 36.016768 ], [ 65.757878, 36.001214 ], [ 65.739998, 35.960854 ], [ 65.791674, 35.89737 ], [ 65.816686, 35.836573 ], [ 65.792915, 35.793319 ], [ 65.67995, 35.787351 ], [ 65.67933, 35.746552 ], [ 65.623003, 35.676066 ], [ 65.528383, 35.67927 ], [ 65.480117, 35.645938 ], [ 65.470454, 35.605114 ], [ 65.485853, 35.556641 ], [ 65.433568040257342, 35.467438867705567 ], [ 65.412886, 35.45179 ], [ 65.409664686985138, 35.426657922451689 ], [ 65.407615, 35.423161 ], [ 65.407871068774213, 35.412664450919728 ], [ 65.4056, 35.394946 ], [ 65.40882912221727, 35.373392755189691 ], [ 65.410096, 35.321462 ], [ 65.418722869267597, 35.307355504841439 ], [ 65.421309, 35.290094 ], [ 65.450622747316856, 35.253396606299802 ], [ 65.382035, 35.203872 ], [ 65.332839, 35.188292 ], [ 65.26628, 35.187 ], [ 65.244214, 35.237694 ], [ 65.200186, 35.224698 ], [ 65.133007, 35.256453 ], [ 65.017355, 35.219737 ], [ 65.003247, 35.238728 ], [ 64.912038, 35.212761 ], [ 64.854161, 35.239813 ], [ 64.730137, 35.213148 ], [ 64.764915, 35.166639 ], [ 64.867958, 35.133773 ], [ 65.006813, 35.014039 ], [ 65.047327, 34.939728 ], [ 65.029189, 34.824981 ], [ 64.995961, 34.777619 ], [ 64.708743, 34.69473 ], [ 64.529374, 34.711112 ], [ 64.496301, 34.700311 ], [ 64.476303, 34.671424 ], [ 64.365508, 34.66468 ], [ 64.201797, 34.680312 ], [ 64.150121, 34.65618 ], [ 64.124179, 34.617241 ], [ 64.078911, 34.606803 ], [ 64.011731, 34.56218 ], [ 63.785492, 34.509367 ], [ 63.650306, 34.557529 ], [ 63.607777, 34.547866 ], [ 63.531916, 34.560733 ], [ 63.360298, 34.63463 ], [ 63.244233, 34.644914 ], [ 63.173333, 34.610653 ], [ 63.034272, 34.645586 ], [ 63.02621, 34.690751 ], [ 62.994688, 34.72633 ], [ 62.912625, 34.731885 ], [ 62.750775, 34.824696 ], [ 62.668403, 34.843455 ], [ 62.651763, 34.894046 ], [ 62.671813, 35.041996 ], [ 62.700029, 35.111578 ], [ 62.784158, 35.227049 ], [ 62.823063, 35.327514 ], [ 62.918206, 35.388177 ], [ 62.976285932791981, 35.405702975090087 ], [ 63.080211222000059, 35.437062887000067 ], [ 63.088720220778441, 35.473520838547778 ], [ 63.100727, 35.524964 ], [ 63.100726738010664, 35.52496437907584 ], [ 63.100726766000037, 35.524964499000063 ], [ 63.08570094100466, 35.546705404052808 ], [ 63.077369017008387, 35.558760975390335 ], [ 63.077343119603952, 35.561121342233314 ], [ 63.076646, 35.6247 ], [ 63.076648179608235, 35.62470107582962 ], [ 63.179895060000092, 35.66645457 ], [ 63.200043362380981, 35.685607522275248 ], [ 63.213588, 35.692293 ], [ 63.20997859920066, 35.69505194657728 ], [ 63.214414917000056, 35.699269105000027 ], [ 63.112047747924784, 35.769908135168734 ], [ 63.112044, 35.769911 ], [ 63.090934779929512, 35.836172850818443 ], [ 63.098576522209484, 35.847966405582603 ], [ 63.117044332831206, 35.856457596328354 ], [ 63.3429279032556, 35.856262111452885 ], [ 63.342934, 35.856262 ], [ 63.342934702465243, 35.856262190405658 ], [ 63.430215698000097, 35.871041565000084 ], [ 63.511089315000049, 35.901840719000049 ], [ 63.582092732000035, 35.959046530000094 ], [ 63.687523402802988, 35.969509567813645 ], [ 63.765906, 35.977288 ] ] ] } },
{ "type": "Feature", "properties": { "zone_id": "NEPS_UZB", "zone_name": "NEPS_UZB", "ISO_A3": "AFG" }, "geometry": { "type": "Polygon", "coordinates": [ [ [ 66.556537, 35.173306 ], [ 66.364766, 35.178008 ], [ 66.335104, 35.114653 ], [ 66.355103, 35.080133 ], [ 66.330608, 34.957376 ], [ 66.363629, 34.9142 ], [ 66.323167, 34.900919 ], [ 66.240123, 34.916215 ], [ 66.239502, 34.885184 ], [ 66.175889, 34.852834 ], [ 66.173718, 34.831414 ], [ 66.104989, 34.784363 ], [ 66.107779, 34.828986 ], [ 66.079357, 34.910789 ], [ 66.039515, 34.944844 ], [ 66.051452, 34.969235 ], [ 66.026182, 34.990836 ], [ 66.047731, 35.014013 ], [ 66.036879, 35.06277 ], [ 65.907895, 35.07574 ], [ 65.797411, 35.108167 ], [ 65.760203, 35.151291 ], [ 65.754312, 35.192736 ], [ 65.685841, 35.203872 ], [ 65.640883, 35.246324 ], [ 65.642278, 35.269553 ], [ 65.561249, 35.241467 ], [ 65.461927, 35.239245 ], [ 65.421309, 35.290094 ], [ 65.4056, 35.394946 ], [ 65.412886, 35.45179 ], [ 65.440068, 35.472357 ], [ 65.485853, 35.556641 ], [ 65.470454, 35.605114 ], [ 65.480117, 35.645938 ], [ 65.528383, 35.67927 ], [ 65.623003, 35.676066 ], [ 65.67933, 35.746552 ], [ 65.67995, 35.787351 ], [ 65.792915, 35.793319 ], [ 65.816686, 35.836573 ], [ 65.791674, 35.89737 ], [ 65.739998, 35.960854 ], [ 65.757878, 36.001214 ], [ 65.745476, 36.016768 ], [ 65.710852, 36.017182 ], [ 65.661501, 35.989793 ], [ 65.527091, 35.977856 ], [ 65.534274, 36.04457 ], [ 65.490659, 36.096815 ], [ 65.506627, 36.326 ], [ 65.527091, 36.339617 ], [ 65.711938, 36.357342 ], [ 65.847692, 36.450282 ], [ 65.966858, 36.475448 ], [ 66.071451, 36.537822 ], [ 66.234231, 36.535445 ], [ 66.52734, 36.58769 ], [ 66.479901, 36.623243 ], [ 66.462331, 36.705124 ], [ 66.417476, 36.739256 ], [ 66.469928, 36.774655 ], [ 66.515868, 36.768273 ], [ 66.567699, 36.78915 ], [ 66.543515, 36.879713 ], [ 66.462796, 36.990456 ], [ 66.503621, 37.112412 ], [ 66.434581, 37.185224 ], [ 66.401973, 37.256253 ], [ 66.255212, 37.30253 ], [ 66.251122013982538, 37.356063455847369 ], [ 66.294433634000086, 37.331210836000125 ], [ 66.316842323736623, 37.33467815274291 ], [ 66.413496, 37.349633 ], [ 66.434379555795459, 37.334796775874239 ], [ 66.451064901000052, 37.322942607000087 ], [ 66.539018189000046, 37.369089661000103 ], [ 66.598036725890466, 37.359315514693797 ], [ 66.694099, 37.343406 ], [ 66.72091959619469, 37.356460667332655 ], [ 66.734975220000081, 37.363301900000053 ], [ 67.005914754000116, 37.384385885000071 ], [ 67.065149162421648, 37.356023646611142 ], [ 67.097382, 37.34059 ], [ 67.103139331170269, 37.327578857662488 ], [ 67.123323609000124, 37.281963196000035 ], [ 67.123323972414894, 37.281963062340274 ], [ 67.123324, 37.281963 ], [ 67.13147006798242, 37.278967022414015 ], [ 67.187815796000052, 37.258243714000102 ], [ 67.215061945034051, 37.221589443381042 ], [ 67.236753, 37.192408 ], [ 67.259129, 37.185147 ], [ 67.351274649071712, 37.209184540262179 ], [ 67.391162557000087, 37.219589742 ], [ 67.503145019969907, 37.281962992124406 ], [ 67.526141, 37.272894 ], [ 67.543289588070536, 37.247108837242926 ], [ 67.561384725000039, 37.219899801000068 ], [ 67.5613849816434, 37.219900027601568 ], [ 67.561385, 37.2199 ], [ 67.566040919347614, 37.224010955905754 ], [ 67.592287231000057, 37.247184957000101 ], [ 67.633163290000141, 37.254057923000047 ], [ 67.677501668000104, 37.23354237900007 ], [ 67.725611133312896, 37.230663727780538 ], [ 67.750901270255198, 37.224263984195737 ], [ 67.780543132609139, 37.188869705900665 ], [ 67.780544, 37.188868 ], [ 67.773051, 37.109984 ], [ 67.808036, 37.083241 ], [ 67.878109778158532, 37.064431059549023 ], [ 68.020219768000118, 36.925680034000052 ], [ 68.023007728005396, 36.92723395760062 ], [ 68.02482, 36.925518 ], [ 68.038101, 36.817004 ], [ 68.092102, 36.71117 ], [ 68.104557421149593, 36.698640798110084 ], [ 68.118819, 36.67324 ], [ 68.157451745775219, 36.645433149480176 ], [ 68.163863739005166, 36.638983174266187 ], [ 68.179084141110678, 36.61776749080888 ], [ 68.189099, 36.593245 ], [ 68.200137469050162, 36.588421305459086 ], [ 68.206928, 36.578956 ], [ 68.238045409810525, 36.570640324049855 ], [ 68.193595, 36.55379 ], [ 68.172666, 36.521182 ], [ 68.207083, 36.464751 ], [ 68.371414, 36.26373 ], [ 68.491355, 36.196602 ], [ 68.531404, 36.1526 ], [ 68.467325, 36.073251 ], [ 68.332966, 35.981706 ], [ 68.311676, 35.853522 ], [ 68.156181, 35.676531 ], [ 68.15184, 35.642166 ], [ 68.19406, 35.61333 ], [ 68.188789, 35.583074 ], [ 68.142539, 35.507032 ], [ 68.088537, 35.461221 ], [ 67.861057, 35.435202 ], [ 67.818993, 35.459386 ], [ 67.743907, 35.443418 ], [ 67.573529, 35.46936 ], [ 67.403617, 35.422903 ], [ 67.306156, 35.436623 ], [ 67.016768, 35.352468 ], [ 66.807426, 35.370606 ], [ 66.669037, 35.202813 ], [ 66.556537, 35.173306 ] ] ] } },
{ "type": "Feature", "properties": { "zone_id": "NEPS_TAJ", "zone_name": "NEPS_TAJ", "ISO_A3": "AFG" }, "geometry": { "type": "Polygon", "coordinates": [ [ [ 69.955413314253576, 37.57547792502438 ], [ 70.004191801146391, 37.550581579471284 ], [ 70.005061, 37.407665 ], [ 70.041699, 37.387305 ], [ 70.01829, 37.359167 ], [ 70.004286, 37.2762 ], [ 70.034413, 37.188376 ], [ 70.033018, 37.135098 ], [ 70.124123, 37.042545 ], [ 70.096166, 36.996114 ], [ 70.056427, 36.979655 ], [ 70.037358, 36.941208 ], [ 70.006611, 36.922294 ], [ 70.00382, 36.615052 ], [ 70.037358, 36.515265 ], [ 70.038444, 36.462116 ], [ 70.139626, 36.40491 ], [ 70.235021, 36.322331 ], [ 70.440641, 36.303883 ], [ 70.472474, 36.283574 ], [ 70.474799, 36.149603 ], [ 70.429014, 36.037852 ], [ 70.461777, 35.970518 ], [ 70.300547, 35.879516 ], [ 70.273365, 35.850215 ], [ 70.176833, 35.892254 ], [ 70.171562, 35.860705 ], [ 70.135595, 35.828304 ], [ 69.982116, 35.791407 ], [ 69.961032, 35.809856 ], [ 69.956381, 35.886957 ], [ 69.88605, 36.006123 ], [ 69.788123, 36.099063 ], [ 69.777736, 36.213578 ], [ 69.765799, 36.232982 ], [ 69.707766, 36.247142 ], [ 69.681101, 36.350081 ], [ 69.522661, 36.295459 ], [ 69.444113, 36.247194 ], [ 69.300608, 36.228177 ], [ 69.26831, 36.27515 ], [ 69.232808, 36.283134 ], [ 69.198495, 36.324191 ], [ 69.081344, 36.355326 ], [ 68.999231, 36.41739 ], [ 68.914533, 36.433151 ], [ 68.862081, 36.41261 ], [ 68.842393, 36.419767 ], [ 68.798623, 36.447595 ], [ 68.722762, 36.534308 ], [ 68.623285, 36.52175 ], [ 68.538535, 36.541077 ], [ 68.322373, 36.548105 ], [ 68.206928, 36.578956 ], [ 68.161142, 36.642777 ], [ 68.118819, 36.67324 ], [ 68.038101, 36.817004 ], [ 68.02482, 36.925518 ], [ 68.186407536859292, 37.018308011326418 ], [ 68.186411090220389, 37.018309991861166 ], [ 68.198777718887783, 37.017194391039432 ], [ 68.277775106000092, 37.01006764800006 ], [ 68.288317054377416, 37.103214031559823 ], [ 68.307282, 37.114221 ], [ 68.349653772406143, 37.109821287856072 ], [ 68.391876669000112, 37.105436503000064 ], [ 68.399185849492369, 37.111821202325444 ], [ 68.418025, 37.128277 ], [ 68.418024786141174, 37.128277348981022 ], [ 68.418024943000091, 37.128277486000073 ], [ 68.411476534762087, 37.138962975340732 ], [ 68.403711, 37.151635 ], [ 68.458383788420846, 37.157561104884891 ], [ 68.523858276000055, 37.16465769400007 ], [ 68.551453491000075, 37.192614645000063 ], [ 68.60290328600675, 37.201917894731523 ], [ 68.626901, 37.206257 ], [ 68.628948449294796, 37.209852299830594 ], [ 68.648605184000132, 37.244368591000026 ], [ 68.671239461000084, 37.247184957000101 ], [ 68.658118712350671, 37.266816568127261 ], [ 68.657545218611986, 37.267674672896185 ], [ 68.668862159197388, 37.278293994650966 ], [ 68.759606, 37.275245 ], [ 68.7840516871332, 37.265454577122114 ], [ 68.820377645000121, 37.2509056600001 ], [ 68.820377559045426, 37.250906176600964 ], [ 68.820378, 37.250906 ], [ 68.814603952549035, 37.28560643151831 ], [ 68.810197388000063, 37.31209055600003 ], [ 68.835828898000045, 37.329143778000073 ], [ 68.835829434102166, 37.329143669455952 ], [ 68.879298701204988, 37.296044300971126 ], [ 68.890295858000115, 37.281963196000035 ], [ 68.899102446007802, 37.280964878420534 ], [ 68.904714, 37.276692 ], [ 68.906441354605761, 37.280132937439383 ], [ 68.915824016000045, 37.279069316000047 ], [ 68.917632628784318, 37.302426260528257 ], [ 68.917633, 37.302427 ], [ 68.907065423668357, 37.315104115354778 ], [ 68.887867514125162, 37.338134940405602 ], [ 68.887874349731703, 37.338134148061812 ], [ 68.978136638695517, 37.321653135295051 ], [ 68.990967284381625, 37.314087379276998 ], [ 69.016065111821533, 37.286674703821305 ], [ 69.035765, 37.251577 ], [ 69.065494893861171, 37.232685864502734 ], [ 69.123614679983106, 37.169205515921568 ], [ 69.123615, 37.169205 ], [ 69.245675, 37.103886 ], [ 69.245694692660649, 37.103890305362619 ], [ 69.312078898000038, 37.11747711200006 ], [ 69.314346697528251, 37.118899540558559 ], [ 69.323913, 37.120991 ], [ 69.407732, 37.177473 ], [ 69.418012789937819, 37.19125838743755 ], [ 69.442148479000082, 37.223620504000095 ], [ 69.445197388000111, 37.236410421000059 ], [ 69.428344426617684, 37.240820772261635 ], [ 69.409851, 37.245661 ], [ 69.411758827082366, 37.250871135887763 ], [ 69.417912231000059, 37.267674662000061 ], [ 69.377036174000068, 37.380665182000072 ], [ 69.377597124629787, 37.404354562960371 ], [ 69.37838, 37.437406 ], [ 69.39374442384235, 37.455978574351818 ], [ 69.425405314000102, 37.494249980000021 ], [ 69.445168024149382, 37.507038525658253 ], [ 69.491448, 37.536986 ], [ 69.508656, 37.578973 ], [ 69.664977, 37.576157 ], [ 69.678856968606524, 37.579345925002315 ], [ 69.754274130000056, 37.596672669000057 ], [ 69.802229858000089, 37.581505636000131 ], [ 69.918811890000086, 37.617136536000103 ], [ 69.949737447622041, 37.581930321552647 ], [ 69.955399, 37.575485 ], [ 69.955413314253576, 37.57547792502438 ] ] ] } }
]
}
