{"type":"FeatureCollection","features":[{"type":"Feature","geometry":{"type":"LineString","coordinates":[[13.97929,-8.25406],[12.70101,-5.90725]]},"properties":{"zone_a":"AGO_2","zone_b":"AGO_8","mw":1870,"status":"existing","label":"1,870 MW"}},{"type":"Feature","geometry":{"type":"LineString","coordinates":[[15.25498,-13.7987],[16.14935,-9.94293]]},"properties":{"zone_a":"AGO_6","zone_b":"AGO_7","mw":1080,"status":"existing","label":"1,080 MW"}},{"type":"Feature","geometry":{"type":"LineString","coordinates":[[13.97929,-8.25406],[16.14935,-9.94293]]},"properties":{"zone_a":"AGO_2","zone_b":"AGO_7","mw":3530,"status":"existing","label":"3,530 MW"}},{"type":"Feature","geometry":{"type":"LineString","coordinates":[[13.97929,-8.25406],[15.07329,-6.63854]]},"properties":{"zone_a":"AGO_2","zone_b":"AGO_4","mw":290,"status":"existing","label":"290 MW"}},{"type":"Feature","geometry":{"type":"LineString","coordinates":[[15.07329,-6.63854],[12.70101,-5.90725]]},"properties":{"zone_a":"AGO_4","zone_b":"AGO_8","mw":290,"status":"existing","label":"290 MW"}}]}