{"type":"FeatureCollection","features":[{"type":"Feature","geometry":{"type":"LineString","coordinates":[[44.93056,40.28897],[41.3621,39.03031]]},"properties":{"zone_a":"ARM_1","zone_b":"TUR_2","mw":2832,"status":"existing","label":"2,832 MW"}},{"type":"Feature","geometry":{"type":"LineString","coordinates":[[44.93056,40.28897],[45.48746,39.305]]},"properties":{"zone_a":"ARM_1","zone_b":"AZE_2","mw":531,"status":"existing","label":"531 MW"}},{"type":"Feature","geometry":{"type":"LineString","coordinates":[[45.48746,39.305],[41.3621,39.03031]]},"properties":{"zone_a":"AZE_2","zone_b":"TUR_2","mw":50,"status":"existing","label":"50 MW"}},{"type":"Feature","geometry":{"type":"LineString","coordinates":[[47.6611,40.34624],[43.5075,42.16862]]},"properties":{"zone_a":"AZE_1","zone_b":"GEO_1","mw":2000,"status":"existing","label":"2,000 MW"}},{"type":"Feature","geometry":{"type":"LineString","coordinates":[[44.93056,40.28897],[43.5075,42.16862]]},"properties":{"zone_a":"ARM_1","zone_b":"GEO_1","mw":500,"status":"existing","label":"500 MW"}},{"type":"Feature","geometry":{"type":"LineString","coordinates":[[43.5075,42.16862],[41.3621,39.03031]]},"properties":{"zone_a":"GEO_1","zone_b":"TUR_2","mw":1170,"status":"existing","label":"1,170 MW"}},{"type":"Feature","geometry":{"type":"LineString","coordinates":[[44.93056,40.28897],[47.6611,40.34624]]},"properties":{"zone_a":"ARM_1","zone_b":"AZE_1","mw":436,"status":"existing","label":"436 MW"}},{"type":"Feature","geometry":{"type":"LineString","coordinates":[[28.55813,44.67186],[24.73729,45.93143]]},"properties":{"zone_a":"Dobrogea","zone_b":"Romania","mw":10370,"status":"existing","label":"10,370 MW"}},{"type":"Feature","geometry":{"type":"LineString","coordinates":[[25.21788,42.76899],[24.73729,45.93143]]},"properties":{"zone_a":"BGR_1","zone_b":"Romania","mw":1500,"status":"existing","label":"1,500 MW"}},{"type":"Feature","geometry":{"type":"LineString","coordinates":[[25.21788,42.76899],[29.30798,39.10538]]},"properties":{"zone_a":"BGR_1","zone_b":"TUR_1","mw":650,"status":"existing","label":"650 MW"}},{"type":"Feature","geometry":{"type":"LineString","coordinates":[[25.21788,42.76899],[28.55813,44.67186]]},"properties":{"zone_a":"BGR_1","zone_b":"Dobrogea","mw":1500,"status":"existing","label":"1,500 MW"}},{"type":"Feature","geometry":{"type":"LineString","coordinates":[[29.30798,39.10538],[35.07138,39.05081]]},"properties":{"zone_a":"TUR_1","zone_b":"TUR_3","mw":15801,"status":"existing","label":"15,801 MW"}},{"type":"Feature","geometry":{"type":"LineString","coordinates":[[41.3621,39.03031],[35.07138,39.05081]]},"properties":{"zone_a":"TUR_2","zone_b":"TUR_3","mw":10551,"status":"existing","label":"10,551 MW"}},{"type":"Feature","geometry":{"type":"LineString","coordinates":[[47.6611,40.34624],[29.30798,39.10538]]},"properties":{"zone_a":"AZE_1","zone_b":"TUR_1","mw":1000,"status":"planned","label":"1,000 MW"}},{"type":"Feature","geometry":{"type":"LineString","coordinates":[[47.6611,40.34624],[47.6611,40.34624]]},"properties":{"zone_a":"AZE_1","zone_b":"AZE_1","mw":1000,"status":"under_construction","label":"1,000 MW"}}]}