{
"type": "FeatureCollection",
"name": "blacksea_turkey9z_inner_borders",
"crs": { "type": "name", "properties": { "name": "urn:ogc:def:crs:OGC:1.3:CRS84" } },
"features": [
{ "type": "Feature", "properties": { }, "geometry": { "type": "MultiLineString", "coordinates": [ [ [ 32.744414872920125, 36.46710067088803 ], [ 32.750541687000066, 36.46949386600005 ], [ 32.759752437073523, 36.469037881128749 ] ], [ [ 32.896023780771237, 36.462291893473719 ], [ 32.990615845000036, 36.479164124000079 ] ], [ [ 32.990615845000036, 36.479164124000079 ], [ 33.026149750000059, 36.504596710000044 ] ], [ [ 33.026149750000059, 36.504596710000044 ], [ 33.042617798000038, 36.552997589000029 ] ], [ [ 33.042617798000038, 36.552997589000029 ], [ 33.108184814000026, 36.583057404000044 ] ], [ [ 33.108184814000026, 36.583057404000044 ], [ 33.215032479359579, 36.537910451893836 ] ], [ [ 33.197613160175152, 36.564607680552179 ], [ 33.171486111733806, 36.597805897522079 ] ], [ [ 33.077346488282494, 36.635415072991393 ], [ 33.056735992000029, 36.69776153600003 ] ], [ [ 33.056735992000029, 36.69776153600003 ], [ 32.979661032207453, 36.695125614138178 ] ], [ [ 32.945100200143514, 36.813935115551708 ], [ 32.943786621000072, 36.818450928000061 ], [ 32.952163087521967, 36.831384890351359 ] ], [ [ 32.963374974856812, 36.848696978723794 ], [ 32.965030670000033, 36.851253510000049 ], [ 33.08838653600003, 36.873577118000071 ] ], [ [ 33.08838653600003, 36.873577118000071 ], [ 33.137009242424384, 36.835653476532912 ] ], [ [ 33.139538182736167, 36.83557972048586 ], [ 33.224449158000027, 36.933738708000078 ], [ 33.227240459969089, 36.93347508207134 ] ], [ [ 33.28358156295841, 36.928154612216758 ], [ 33.339042664000033, 36.972087860000045 ], [ 33.347427570726175, 36.972242461267932 ] ], [ [ 33.552349910086839, 36.976021385921406 ], [ 33.644081116000052, 37.040184022000062 ] ], [ [ 33.644081116000052, 37.040184022000062 ], [ 33.840599060000045, 37.028842926000038 ] ], [ [ 33.840599060000045, 37.028842926000038 ], [ 33.956813812000064, 37.095699310000043 ] ], [ [ 33.956813812000064, 37.095699310000043 ], [ 34.055087274890106, 37.177459077961878 ] ], [ [ 34.433872153663557, 37.294557790007055 ], [ 34.439621786901974, 37.300973938204386 ] ], [ [ 34.72157544648249, 37.432217319114606 ], [ 34.730895996000072, 37.435775757000044 ], [ 34.737352628145167, 37.433281920032215 ] ], [ [ 34.778095879467571, 37.417546090583542 ], [ 34.851207733000024, 37.50645828200004 ] ], [ [ 34.851207733000024, 37.50645828200004 ], [ 34.867790222000053, 37.588813782000045 ] ], [ [ 34.867790222000053, 37.588813782000045 ], [ 34.859603882000044, 37.635147095000036 ] ], [ [ 34.859603882000044, 37.635147095000036 ], [ 34.88602829000007, 37.683197021000069 ] ], [ [ 34.88602829000007, 37.683197021000069 ], [ 34.943843842000035, 37.693916321000074 ] ], [ [ 34.943843842000035, 37.693916321000074 ], [ 35.053718567000033, 37.684722900000054 ] ], [ [ 35.053718567000033, 37.684722900000054 ], [ 35.196722628711612, 37.750386951906037 ] ], [ [ 35.203274769294083, 37.753395155231011 ], [ 35.285499573000038, 37.759521484000061 ], [ 35.571640015000071, 37.746250153000062 ] ], [ [ 35.571640015000071, 37.746250153000062 ], [ 35.591484070000035, 37.829494476000036 ] ], [ [ 35.591484070000035, 37.829494476000036 ], [ 35.569362640000065, 37.912845612000069 ] ], [ [ 35.569362640000065, 37.912845612000069 ], [ 35.62067413300008, 37.937152863000051 ] ], [ [ 35.62067413300008, 37.937152863000051 ], [ 35.65036010700004, 37.971363068000073 ] ], [ [ 35.65036010700004, 37.971363068000073 ], [ 35.733062744000051, 37.983306885000047 ] ], [ [ 35.733062744000051, 37.983306885000047 ], [ 35.732177734000061, 38.038505554000039 ] ], [ [ 35.732177734000061, 38.038505554000039 ], [ 35.845111847000055, 38.051036835000048 ] ], [ [ 35.845111847000055, 38.051036835000048 ], [ 35.960353851000036, 38.120113373000038 ] ], [ [ 35.960353851000036, 38.120113373000038 ], [ 36.008136749000073, 38.17214965800008 ] ], [ [ 36.008136749000073, 38.17214965800008 ], [ 35.995925903000057, 38.222534180000025 ] ], [ [ 35.995925903000057, 38.222534180000025 ], [ 36.08303002860211, 38.318217492375332 ] ], [ [ 36.169675896268615, 38.364823405522266 ], [ 36.172142029000042, 38.366149902000075 ], [ 36.23984527600004, 38.387554169000055 ], [ 36.245274076831102, 38.382281117959849 ] ], [ [ 36.285054247208926, 38.343643084546606 ], [ 36.354743958000029, 38.336391449000075 ], [ 36.356725523920865, 38.331553511079377 ] ], [ [ 36.370937454567553, 38.296855478841927 ], [ 36.376608689878502, 38.283009316027197 ] ], [ [ 36.426551836310367, 38.234110787131051 ], [ 36.427169800000058, 38.198451996000074 ] ], [ [ 36.427169800000058, 38.198451996000074 ], [ 36.357643127000074, 38.135929108000028 ] ], [ [ 36.357643127000074, 38.135929108000028 ], [ 36.346340179000038, 38.104095459000064 ] ], [ [ 36.346340179000038, 38.104095459000064 ], [ 36.355472565000071, 38.077907562000064 ] ], [ [ 36.355472565000071, 38.077907562000064 ], [ 36.33954238900003, 38.033111572000053 ] ], [ [ 36.33954238900003, 38.033111572000053 ], [ 36.368217468000068, 37.959484100000054 ], [ 36.366361098901663, 37.958349510815552 ] ], [ [ 36.310375838374505, 37.883716814659572 ], [ 36.323331658774663, 37.875654588320359 ] ], [ [ 36.339386734019506, 37.86566373891683 ], [ 36.340015411000024, 37.865272522000055 ], [ 36.338017877407744, 37.861213403045582 ] ], [ [ 36.304980072381717, 37.794078421629727 ], [ 36.26911163300008, 37.721191406000059 ], [ 36.26427018261036, 37.716780376956407 ] ], [ [ 36.213136140806981, 37.670192324749351 ], [ 36.171555872414956, 37.632308683122119 ] ], [ [ 36.17198156363353, 37.629897479226976 ], [ 36.249053955000079, 37.60585403400006 ] ], [ [ 36.249053955000079, 37.60585403400006 ], [ 36.26655960100004, 37.510894775000054 ] ], [ [ 36.26655960100004, 37.510894775000054 ], [ 36.240917206000063, 37.40204238900003 ] ], [ [ 36.240917206000063, 37.40204238900003 ], [ 36.271476746000076, 37.349163055000076 ] ], [ [ 36.271476746000076, 37.349163055000076 ], [ 36.289531708000027, 37.343765259000065 ] ], [ [ 36.289531708000027, 37.343765259000065 ], [ 36.329399109000065, 37.366760254000042 ] ], [ [ 36.329399109000065, 37.366760254000042 ], [ 36.367691040000068, 37.342910767000035 ] ], [ [ 36.367691040000068, 37.342910767000035 ], [ 36.403331757000046, 37.34434890700004 ] ], [ [ 36.403331757000046, 37.34434890700004 ], [ 36.452571869000053, 37.369091034000064 ] ], [ [ 36.452571869000053, 37.369091034000064 ], [ 36.583625793000067, 37.351654053000061 ] ], [ [ 36.583625793000067, 37.351654053000061 ], [ 36.688327789000027, 37.240627289000031 ] ], [ [ 36.688327789000027, 37.240627289000031 ], [ 36.703121185000043, 37.201110840000069 ] ], [ [ 36.703121185000043, 37.201110840000069 ], [ 36.621705247576472, 37.148238077138501 ] ], [ [ 36.570285097135844, 37.060595753286051 ], [ 36.478244781000058, 36.966865540000072 ] ], [ [ 36.478244781000058, 36.966865540000072 ], [ 36.465217823253951, 36.910985039567031 ] ], [ [ 36.501650808238857, 36.8906126663178 ], [ 36.602432251000039, 36.88657760600006 ], [ 36.606531509211727, 36.88275775258677 ] ], [ [ 36.661053103948504, 36.831952341217622 ], [ 36.666318993042537, 36.827045374300418 ] ], [ [ 32.593393009182051, 36.148515720876311 ], [ 32.609482670974664, 36.170967183963484 ] ], [ [ 32.609456567512012, 36.174849730356009 ], [ 32.576354980000076, 36.24567413300008 ] ], [ [ 32.576354980000076, 36.24567413300008 ], [ 32.608867645000032, 36.287559509000062 ] ], [ [ 32.608867645000032, 36.287559509000062 ], [ 32.574459076000039, 36.360645294000051 ], [ 32.576767726146201, 36.365302639106893 ] ], [ [ 29.241136551000068, 36.857124329000044 ], [ 29.136362076000069, 36.905834198000036 ], [ 29.120489240437557, 36.921640951926527 ] ], [ [ 29.113658637628475, 36.92844311763583 ], [ 29.11116409300007, 36.93092727700008 ], [ 29.111009598000066, 37.034587860000045 ] ], [ [ 29.111009598000066, 37.034587860000045 ], [ 29.087158203000058, 37.082218170000033 ] ], [ [ 29.087158203000058, 37.082218170000033 ], [ 28.891284943000073, 37.182838440000069 ] ], [ [ 28.891284943000073, 37.182838440000069 ], [ 28.872375488000046, 37.255657196000072 ] ], [ [ 28.872375488000046, 37.255657196000072 ], [ 28.797803879000071, 37.265857697000058 ] ], [ [ 28.797803879000071, 37.265857697000058 ], [ 28.771238327000049, 37.285713196000074 ] ], [ [ 28.771238327000049, 37.285713196000074 ], [ 28.725860596000075, 37.351161957000045 ] ], [ [ 28.725860596000075, 37.351161957000045 ], [ 28.664855957000043, 37.390914917000032 ] ], [ [ 28.664855957000043, 37.390914917000032 ], [ 28.637920921612245, 37.432681197159781 ] ], [ [ 28.617312620534296, 37.516865419803416 ], [ 28.582521439000061, 37.546119690000069 ] ], [ [ 28.582521439000061, 37.546119690000069 ], [ 28.585800171000074, 37.559906006000062 ], [ 28.589825601810048, 37.559044379946783 ] ], [ [ 28.652775553278133, 37.545571042428477 ], [ 28.735900136784494, 37.620425509627999 ] ], [ [ 28.818272784448144, 37.655632996465201 ], [ 28.796560287000034, 37.704421997000054 ] ], [ [ 28.796560287000034, 37.704421997000054 ], [ 28.859039314268902, 37.748183889252928 ] ], [ [ 28.860434145268552, 37.756388600085529 ], [ 28.853878074220695, 37.767879704697783 ] ], [ [ 28.727710581876774, 37.878471338572183 ], [ 28.712818146000075, 37.892379761000029 ], [ 28.71496734473245, 37.898610693119707 ] ], [ [ 28.717767369642804, 37.906728492970885 ], [ 28.721748352000077, 37.918270111000027 ], [ 28.826282501000037, 37.979167938000046 ] ], [ [ 28.826282501000037, 37.979167938000046 ], [ 28.752103806000036, 37.994846344000052 ] ], [ [ 28.752103806000036, 37.994846344000052 ], [ 28.712898254000038, 38.057361603000061 ] ], [ [ 28.712898254000038, 38.057361603000061 ], [ 28.648084641000025, 38.090831757000046 ] ], [ [ 28.648084641000025, 38.090831757000046 ], [ 28.720693754340619, 38.125339519096713 ] ], [ [ 28.750271370190667, 38.163528322875564 ], [ 28.777599335000048, 38.203105927000024 ], [ 28.784564652890605, 38.207806878360387 ] ], [ [ 28.809380400036485, 38.22455523387508 ], [ 28.829130173000067, 38.237884521000069 ], [ 28.859207868672424, 38.239084738129471 ], [ 28.880634381430067, 38.276880789537771 ] ], [ [ 28.780861242181583, 38.358071313471882 ], [ 28.810003281000036, 38.438316345000032 ] ], [ [ 28.810003281000036, 38.438316345000032 ], [ 28.800182343000074, 38.577495575000057 ] ], [ [ 28.800182343000074, 38.577495575000057 ], [ 28.836948395000036, 38.651264191000053 ], [ 28.840997244884672, 38.652719835181522 ] ], [ [ 28.894848192200147, 38.672080349984384 ], [ 29.000977823557349, 38.710236118849089 ] ], [ [ 29.055390578119592, 38.765616710373486 ], [ 29.075249467170789, 38.791532806228943 ] ], [ [ 29.113097225844701, 38.840923164016488 ], [ 29.17038726800007, 38.832523346000073 ] ], [ [ 29.17038726800007, 38.832523346000073 ], [ 29.183502197000053, 38.78570175200008 ] ], [ [ 29.183502197000053, 38.78570175200008 ], [ 29.208737722305948, 38.77174766334501 ] ], [ [ 29.319056358234096, 38.806141496624036 ], [ 29.374834061000058, 38.847675323000033 ] ], [ [ 29.374834061000058, 38.847675323000033 ], [ 29.431724548000034, 38.834457397000051 ] ], [ [ 29.431724548000034, 38.834457397000051 ], [ 29.475938539386838, 38.849488079254037 ] ], [ [ 29.517340679788465, 38.88782904926456 ], [ 29.582553864000033, 38.902713776000041 ] ], [ [ 29.582553864000033, 38.902713776000041 ], [ 29.612960815000065, 38.936748505000025 ], [ 29.627615105894119, 38.940879031519593 ] ], [ [ 29.642291309603152, 38.945015734487001 ], [ 29.656986237000069, 38.949157715000069 ], [ 29.694551879121882, 38.938014594845718 ] ], [ [ 29.856871575146425, 38.889866255351158 ], [ 29.920898437000062, 38.916217804000041 ], [ 29.926163360028458, 38.910489219181933 ] ], [ [ 29.96237357248193, 38.871088948974531 ], [ 29.952831268000068, 38.812835693000068 ] ], [ [ 29.952831268000068, 38.812835693000068 ], [ 30.038700895066711, 38.80390560305257 ] ], [ [ 30.069096419519802, 38.832560194661319 ], [ 30.085618973000066, 38.852615356000058 ], [ 30.096088625664247, 38.858007488499872 ] ], [ [ 30.19796586784965, 38.910477653694485 ], [ 30.235532761000059, 39.058498383000028 ] ], [ [ 30.235532761000059, 39.058498383000028 ], [ 30.273086548000038, 39.116424561000031 ] ], [ [ 30.273086548000038, 39.116424561000031 ], [ 30.398839844361738, 39.161768978240254 ] ], [ [ 30.432431268137822, 39.228889262587124 ], [ 30.529767990000039, 39.209209442000031 ] ], [ [ 30.529767990000039, 39.209209442000031 ], [ 30.584570517409375, 39.144419891459982 ] ], [ [ 30.594396329820324, 39.139359656513001 ], [ 30.606638126679346, 39.13704202405561 ] ], [ [ 30.671097718953522, 39.152133546059801 ], [ 30.783907726360347, 39.103422217405395 ] ], [ [ 30.820850636294143, 39.118996829779256 ], [ 30.833190918000071, 39.125663757000041 ], [ 30.837878159376903, 39.126175913392267 ] ], [ [ 30.846003786244584, 39.127063768615962 ], [ 30.939541653799576, 39.137284282758969 ] ], [ [ 30.946063105720903, 39.145522353816254 ], [ 30.945774896407894, 39.151163324432964 ] ], [ [ 30.873169272622881, 39.192501069680141 ], [ 30.86749267600004, 39.195575714000029 ], [ 30.867959976000066, 39.224819183000079 ], [ 30.874205630774224, 39.230340231923954 ] ], [ [ 30.881448737746716, 39.236743011040318 ], [ 30.886619568000071, 39.241313934000061 ], [ 30.929346085000077, 39.241836548000038 ] ], [ [ 30.929346085000077, 39.241836548000038 ], [ 31.019113541000024, 39.174037933000079 ] ], [ [ 31.019113541000024, 39.174037933000079 ], [ 31.04528999300004, 39.171283722000055 ] ], [ [ 31.04528999300004, 39.171283722000055 ], [ 31.035238266000079, 39.20171737700008 ] ], [ [ 31.035238266000079, 39.20171737700008 ], [ 31.047876358000053, 39.216388702000074 ] ], [ [ 31.047876358000053, 39.216388702000074 ], [ 31.097194672000057, 39.181976318000068 ] ], [ [ 31.097194672000057, 39.181976318000068 ], [ 31.115774155000054, 39.185298920000037 ] ], [ [ 31.115774155000054, 39.185298920000037 ], [ 31.110946655000077, 39.252040863000047 ] ], [ [ 31.110946655000077, 39.252040863000047 ], [ 31.131748199000072, 39.270313263000048 ] ], [ [ 31.131748199000072, 39.270313263000048 ], [ 31.247859955000024, 39.267761230000076 ] ], [ [ 31.247859955000024, 39.267761230000076 ], [ 31.299097061000055, 39.288307190000069 ] ], [ [ 31.299097061000055, 39.288307190000069 ], [ 31.329172134000032, 39.276321411000026 ] ], [ [ 31.329172134000032, 39.276321411000026 ], [ 31.427096738695905, 39.139843798557926 ] ], [ [ 31.548911450661151, 39.123474011153853 ], [ 31.552629471000046, 39.122974396000075 ], [ 31.55776180095911, 39.112126218707111 ] ], [ [ 31.597041662609104, 39.02910059357756 ], [ 31.608527926474196, 39.004822141522403 ] ], [ [ 31.715854193576856, 38.978301077104774 ], [ 31.698047638000048, 38.941818237000064 ] ], [ [ 31.698047638000048, 38.941818237000064 ], [ 31.623949051000068, 38.905784607000044 ] ], [ [ 31.623949051000068, 38.905784607000044 ], [ 31.639148712000065, 38.831478119000053 ] ], [ [ 31.639148712000065, 38.831478119000053 ], [ 31.597509384000034, 38.774299622000058 ] ], [ [ 31.597509384000034, 38.774299622000058 ], [ 31.53592300400004, 38.728488922000054 ] ], [ [ 31.53592300400004, 38.728488922000054 ], [ 31.544441223000035, 38.691963196000074 ] ], [ [ 31.544441223000035, 38.691963196000074 ], [ 31.638780594000025, 38.640193939000028 ] ], [ [ 31.638780594000025, 38.640193939000028 ], [ 31.246173859000066, 38.429363251000041 ] ], [ [ 31.246173859000066, 38.429363251000041 ], [ 31.239106205681338, 38.400143356810602 ] ], [ [ 31.281767285551528, 38.369921720223587 ], [ 31.318729401000041, 38.283943176000037 ] ], [ [ 31.318729401000041, 38.283943176000037 ], [ 31.446905136000055, 38.225898743000073 ] ], [ [ 31.446905136000055, 38.225898743000073 ], [ 31.541532516000075, 38.160942078000062 ] ], [ [ 31.541532516000075, 38.160942078000062 ], [ 31.58040618900003, 38.112224579000042 ] ], [ [ 31.58040618900003, 38.112224579000042 ], [ 31.533658981000031, 38.05141449000007 ] ], [ [ 31.533658981000031, 38.05141449000007 ], [ 31.484601974000043, 38.02648544300007 ] ], [ [ 31.484601974000043, 38.02648544300007 ], [ 31.490386963000049, 37.954292297000052 ] ], [ [ 31.490386963000049, 37.954292297000052 ], [ 31.403823853000063, 37.911132812000062 ] ], [ [ 31.403823853000063, 37.911132812000062 ], [ 31.388545990000068, 37.888568878000058 ] ], [ [ 31.388545990000068, 37.888568878000058 ], [ 31.435029984000039, 37.787818909000066 ] ], [ [ 31.435029984000039, 37.787818909000066 ], [ 31.44127265822106, 37.707799000987229 ] ], [ [ 31.370120934397523, 37.70012265499318 ], [ 31.348950195998878, 37.683800518463535 ] ], [ [ 31.33752088361161, 37.670859789076204 ], [ 31.334163666000052, 37.633136749000073 ] ], [ [ 31.334163666000052, 37.633136749000073 ], [ 31.37055357834851, 37.547760928869323 ] ], [ [ 31.352245836795639, 37.438848432154707 ], [ 31.37443733200007, 37.406040192000034 ] ], [ [ 31.37443733200007, 37.406040192000034 ], [ 31.705358505000049, 37.330615997000052 ], [ 31.789455251276657, 37.302537296358942 ] ], [ [ 31.827712758147847, 37.289763662059492 ], [ 31.844631195000034, 37.28411483800005 ], [ 31.918453217000035, 37.23220062300004 ], [ 31.942739242402695, 37.202475442740464 ] ], [ [ 31.989399516167786, 37.167067163758659 ], [ 32.018405914000027, 37.153697968000074 ], [ 32.027616136961491, 37.13806659952759 ] ], [ [ 32.052040830145387, 37.096614156132276 ], [ 32.15121460000006, 37.003997803000061 ] ], [ [ 32.15121460000006, 37.003997803000061 ], [ 32.286421837019994, 36.935856314538484 ] ], [ [ 32.259884186967696, 36.869817009153707 ], [ 32.271069049464948, 36.852047288327533 ] ], [ [ 32.283197931722626, 36.839432266515587 ], [ 32.374675751000041, 36.79794693000008 ], [ 32.39947822297097, 36.775612832449951 ] ], [ [ 32.440107705597462, 36.739026849026416 ], [ 32.454364777000023, 36.726188660000048 ], [ 32.476786170890648, 36.675095706799446 ] ], [ [ 32.51022640261499, 36.598893477676491 ], [ 32.519161224000072, 36.578533173000039 ], [ 32.515838821256942, 36.492797748175505 ] ], [ [ 32.518135069621742, 36.44940049401437 ], [ 32.575011572028941, 36.369557318371861 ] ], [ [ 32.576768551193005, 36.365302610795716 ], [ 32.608867645000032, 36.287559509000062 ] ], [ [ 32.576354980000076, 36.24567413300008 ], [ 32.609313965000069, 36.195983887000068 ], [ 32.609456983807171, 36.174849824353572 ] ], [ [ 32.609483259745744, 36.170966997030881 ], [ 32.609497070000032, 36.168926239000029 ], [ 32.593393046067106, 36.148515693141846 ] ], [ [ 29.260145212831468, 36.303945536501452 ], [ 29.303920746000074, 36.343078613000046 ] ], [ [ 29.303920746000074, 36.343078613000046 ], [ 29.311985016000051, 36.440212250000059 ] ], [ [ 29.311985016000051, 36.440212250000059 ], [ 29.498953082071253, 36.508713610497701 ] ], [ [ 29.51218257135017, 36.518449887313196 ], [ 29.618846508251551, 36.603956977817582 ] ], [ [ 29.6694640837134, 36.680314109057299 ], [ 29.668556213000045, 36.713554382000041 ] ], [ [ 29.668556213000045, 36.713554382000041 ], [ 29.767987906341091, 36.87036595476637 ] ], [ [ 29.723020565563591, 36.978097944246109 ], [ 29.715018750982711, 36.982508361005664 ] ], [ [ 29.645512590511185, 36.989284189221031 ], [ 29.564153449226026, 36.961221283751762 ] ], [ [ 29.481569791516918, 36.878217262162543 ], [ 29.477729797000052, 36.874275208000029 ], [ 29.455348057658959, 36.872979183737584 ] ], [ [ 29.440363175128411, 36.872111477656595 ], [ 29.437280655000052, 36.871932983000079 ], [ 29.432657242000062, 36.939643860000047 ] ], [ [ 29.432657242000062, 36.939643860000047 ], [ 29.411508560000073, 36.953540802000077 ] ], [ [ 29.411508560000073, 36.953540802000077 ], [ 29.456687927000075, 36.963607788000047 ] ], [ [ 29.456687927000075, 36.963607788000047 ], [ 29.460271835000071, 36.989368439000032 ] ], [ [ 29.460271835000071, 36.989368439000032 ], [ 29.383938735052944, 37.026481190885256 ] ], [ [ 29.31130022869921, 36.887911592307482 ], [ 29.307321548000061, 36.880321503000062 ], [ 29.241136551000068, 36.857124329000044 ] ], [ [ 36.666318728630763, 36.827044780632264 ], [ 36.66542454100005, 36.827123464000067 ], [ 36.661053043499919, 36.831952281630123 ] ], [ [ 36.606531241912641, 36.882757115144308 ], [ 36.507938385000045, 36.887096405000079 ], [ 36.501650681978077, 36.890612218516409 ] ], [ [ 36.621704915182626, 37.148238394820076 ], [ 36.62320709200003, 37.150798798000039 ], [ 36.703121185000043, 37.201110840000069 ] ], [ [ 36.249053955000079, 37.60585403400006 ], [ 36.173061371000074, 37.623775482000042 ], [ 36.171980783163882, 37.629896792573945 ] ], [ [ 36.171554960014568, 37.632308994210099 ], [ 36.170341492000034, 37.639183044000049 ], [ 36.213136070264554, 37.670192411439615 ] ], [ [ 36.264269798113077, 37.716780638368178 ], [ 36.285194397000055, 37.771972656000059 ], [ 36.304979847120222, 37.794078573654851 ] ], [ [ 36.338017729803802, 37.861213461605509 ], [ 36.33938559231671, 37.865663311838368 ] ], [ [ 36.323331566061825, 37.875654396439728 ], [ 36.311759949000077, 37.879787445000034 ], [ 36.310375321883221, 37.883716400030195 ] ], [ [ 36.3663599083579, 37.958349930473076 ], [ 36.33954238900003, 38.033111572000053 ] ], [ [ 36.409677948582583, 38.253859219005406 ], [ 36.408161163000045, 38.255634308000026 ], [ 36.519190802845657, 38.29589809642512 ] ], [ [ 36.627493259079564, 38.417744417698387 ], [ 36.633544922000056, 38.424552917000028 ], [ 36.675943899872721, 38.399928733512475 ] ], [ [ 36.680811504213004, 38.398139473331888 ], [ 36.689243247338823, 38.401357460094488 ] ], [ [ 36.704086382615138, 38.412670627841528 ], [ 36.72668180970075, 38.437823734400844 ] ], [ [ 36.727742686593835, 38.442338817235701 ], [ 36.690976058593868, 38.463134274151813 ] ], [ [ 36.684250968431201, 38.497169565341416 ], [ 36.683410645000038, 38.501422882000043 ], [ 36.71673011956161, 38.513518190816704 ] ], [ [ 36.837089192691053, 38.55720976091326 ], [ 36.847343445000035, 38.56093215900006 ], [ 36.851769673352194, 38.561374897833261 ] ], [ [ 37.022049949157449, 38.578407270666062 ], [ 37.281513214000029, 38.573905945000035 ], [ 37.307838440000069, 38.570930481000062 ], [ 37.312611795464271, 38.562513098538609 ] ], [ [ 37.317514102161518, 38.564950650571674 ], [ 37.317512512000064, 38.570564270000034 ], [ 37.395172119000051, 38.646572113000047 ] ], [ [ 37.395172119000051, 38.646572113000047 ], [ 37.429538727000079, 38.73091125500008 ] ], [ [ 37.429538727000079, 38.73091125500008 ], [ 37.554512024000076, 38.785003662000065 ] ], [ [ 37.554512024000076, 38.785003662000065 ], [ 37.50225067100007, 38.900569916000052 ] ], [ [ 37.50225067100007, 38.900569916000052 ], [ 37.514076010798632, 38.952406862969539 ] ], [ [ 37.500167308057037, 39.008320777524588 ], [ 37.49934005700004, 39.011646271000075 ], [ 37.503315295598902, 39.012667783261762 ] ], [ [ 37.520604448150792, 39.017110555912176 ], [ 37.540668488000051, 39.022266388000048 ], [ 37.638900757000044, 39.011550903000057 ] ], [ [ 37.638900757000044, 39.011550903000057 ], [ 37.740280151000036, 38.956859589000032 ] ], [ [ 37.740280151000036, 38.956859589000032 ], [ 37.768100739000033, 38.994281769000054 ] ], [ [ 37.768100739000033, 38.994281769000054 ], [ 37.752067566000051, 39.043643951000035 ] ], [ [ 37.752067566000051, 39.043643951000035 ], [ 37.77393341100003, 39.072837830000026 ] ], [ [ 37.77393341100003, 39.072837830000026 ], [ 37.955261230000076, 39.068733215000066 ] ], [ [ 37.955261230000076, 39.068733215000066 ], [ 37.996898651000038, 39.08219146700003 ] ], [ [ 37.996898651000038, 39.08219146700003 ], [ 38.038883209000062, 39.07166290300006 ] ], [ [ 38.038883209000062, 39.07166290300006 ], [ 38.085338593000074, 39.09429550200008 ] ], [ [ 38.085338593000074, 39.09429550200008 ], [ 38.150279999000077, 39.079772949000073 ] ], [ [ 38.150279999000077, 39.079772949000073 ], [ 38.241039276000038, 39.133251190000067 ] ], [ [ 38.241039276000038, 39.133251190000067 ], [ 38.302978516000053, 39.143787384000063 ] ], [ [ 38.302978516000053, 39.143787384000063 ], [ 38.378253937000068, 39.107635498000036 ] ], [ [ 38.378253937000068, 39.107635498000036 ], [ 38.51491165200008, 39.139694214000031 ] ], [ [ 38.51491165200008, 39.139694214000031 ], [ 38.61357879600007, 39.101570129000038 ] ], [ [ 38.61357879600007, 39.101570129000038 ], [ 38.685218811000027, 39.045490265000069 ] ], [ [ 38.685218811000027, 39.045490265000069 ], [ 38.711029053000061, 39.017578125000057 ] ], [ [ 38.711029053000061, 39.017578125000057 ], [ 38.751028969109036, 39.017665860809082 ] ], [ [ 38.751029890619954, 39.017666859204255 ], [ 38.744209290000072, 39.105476379000038 ] ], [ [ 38.744209290000072, 39.105476379000038 ], [ 38.728912354000045, 39.127788544000055 ] ], [ [ 38.728912354000045, 39.127788544000055 ], [ 38.77318573000008, 39.175048828000058 ] ], [ [ 38.77318573000008, 39.175048828000058 ], [ 38.752731323000035, 39.202571869000053 ], [ 38.758848529647395, 39.20551647189788 ] ], [ [ 38.767278557172091, 39.209574383442963 ], [ 38.781593323000038, 39.21646499600007 ], [ 38.89886667453284, 39.221499994787038 ] ], [ [ 38.954089729647301, 39.258172002963683 ], [ 38.947486877000074, 39.273830414000031 ] ], [ [ 38.947486877000074, 39.273830414000031 ], [ 38.86385726900005, 39.294090271000073 ] ], [ [ 38.86385726900005, 39.294090271000073 ], [ 38.797042847000057, 39.293025970000031 ] ], [ [ 38.797042847000057, 39.293025970000031 ], [ 38.792469025000059, 39.327442169000051 ] ], [ [ 38.792469025000059, 39.327442169000051 ], [ 38.817455292000034, 39.355979919000049 ] ], [ [ 38.817455292000034, 39.355979919000049 ], [ 38.86198425300006, 39.358882904000041 ] ], [ [ 38.86198425300006, 39.358882904000041 ], [ 38.930000305000078, 39.331394196000076 ] ], [ [ 38.930000305000078, 39.331394196000076 ], [ 38.95573425300006, 39.359790802000077 ] ], [ [ 38.95573425300006, 39.359790802000077 ], [ 38.98220062300004, 39.346733093000068 ] ], [ [ 38.98220062300004, 39.346733093000068 ], [ 39.007339478000063, 39.360439301000042 ] ], [ [ 39.007339478000063, 39.360439301000042 ], [ 39.105762482000046, 39.463886261000027 ] ], [ [ 39.105762482000046, 39.463886261000027 ], [ 39.270389557000044, 39.48660278300008 ] ], [ [ 39.270389557000044, 39.48660278300008 ], [ 39.31294250500008, 39.45122146600005 ] ], [ [ 39.31294250500008, 39.45122146600005 ], [ 39.420780182000044, 39.498558044000049 ] ], [ [ 39.420780182000044, 39.498558044000049 ], [ 39.484107971000071, 39.496780396000077 ] ], [ [ 39.484107971000071, 39.496780396000077 ], [ 39.554592133000028, 39.522384644000056 ] ], [ [ 39.554592133000028, 39.522384644000056 ], [ 39.534797668000067, 39.489524841000048 ] ], [ [ 39.534797668000067, 39.489524841000048 ], [ 39.541732788000047, 39.472892761000026 ] ], [ [ 39.541732788000047, 39.472892761000026 ], [ 39.578971863000049, 39.441661835000048 ] ], [ [ 39.578971863000049, 39.441661835000048 ], [ 39.611141205000024, 39.446678162000069 ] ], [ [ 39.611141205000024, 39.446678162000069 ], [ 39.79973983800005, 39.526168823000035 ] ], [ [ 39.79973983800005, 39.526168823000035 ], [ 39.794494629000042, 39.557285309000065 ] ], [ [ 39.794494629000042, 39.557285309000065 ], [ 39.825710297000057, 39.598632812000062 ] ], [ [ 39.825710297000057, 39.598632812000062 ], [ 40.062591553000061, 39.549602509000067 ] ], [ [ 40.062591553000061, 39.549602509000067 ], [ 40.171001434000061, 39.575199127000076 ] ], [ [ 40.171001434000061, 39.575199127000076 ], [ 40.361888885000042, 39.589916229000039 ], [ 40.365886921005362, 39.58790444114797 ] ], [ [ 40.380851026667457, 39.580374592505294 ], [ 40.398315430000025, 39.571586609000065 ], [ 40.416693464068082, 39.543007705079759 ] ], [ [ 40.442241037160301, 39.516374204609654 ], [ 40.46108073676232, 39.512067293302763 ] ], [ [ 40.577908547966672, 39.533950643885802 ], [ 40.709593740735585, 39.51229874616331 ] ], [ [ 40.787546544579207, 39.533738351730676 ], [ 40.803215027000078, 39.538047791000054 ], [ 40.808504791154675, 39.534965045876376 ] ], [ [ 40.884140990907262, 39.490886475192461 ], [ 40.949741364000033, 39.476581573000033 ] ], [ [ 40.949741364000033, 39.476581573000033 ], [ 40.981647491000047, 39.442733765000071 ] ], [ [ 40.981647491000047, 39.442733765000071 ], [ 41.094042735003299, 39.435966552028283 ] ], [ [ 41.149230428692718, 39.398472470221037 ], [ 41.165313721000075, 39.396030426000038 ], [ 41.196590424000078, 39.370567322000056 ], [ 41.159423572434903, 39.331428905664723 ] ], [ [ 41.182826707968971, 39.243437763885765 ], [ 41.165061951000041, 39.184406281000065 ] ], [ [ 41.165061951000041, 39.184406281000065 ], [ 41.175052643000072, 39.15955352800006 ] ], [ [ 41.175052643000072, 39.15955352800006 ], [ 41.296360016000051, 39.088596344000052 ] ], [ [ 41.296360016000051, 39.088596344000052 ], [ 41.309658051000042, 39.065464020000036 ] ], [ [ 41.309658051000042, 39.065464020000036 ], [ 41.298938751000037, 39.040863037000065 ] ], [ [ 41.298938751000037, 39.040863037000065 ], [ 41.196267057216723, 38.986553659187678 ] ], [ [ 41.111637343018799, 38.907847385342528 ], [ 41.156490098033856, 38.716519374433446 ] ], [ [ 41.229167375325162, 38.713115775176178 ], [ 41.272754669000051, 38.714138031000061 ], [ 41.275491173026516, 38.710947579795544 ] ], [ [ 41.342175999495417, 38.633200687091119 ], [ 41.364761353000063, 38.606868744000053 ], [ 41.364284140170206, 38.604275937244637 ] ], [ [ 41.354935108206284, 38.553477332922732 ], [ 41.386871338000049, 38.483798981000064 ] ], [ [ 41.386871338000049, 38.483798981000064 ], [ 41.443995919211908, 38.493568489151961 ] ], [ [ 41.517643552620555, 38.569554011708178 ], [ 41.520336151000038, 38.572498322000058 ], [ 41.522370776538317, 38.571285055232615 ] ], [ [ 41.522370776538317, 38.571285055232615 ], [ 41.599929810000049, 38.525035858000081 ] ], [ [ 41.599929810000049, 38.525035858000081 ], [ 41.648429871000076, 38.465515137000068 ] ], [ [ 41.648429871000076, 38.465515137000068 ], [ 41.647888187442234, 38.308247612367424 ] ], [ [ 41.6895716778183, 38.256830168551588 ], [ 41.704600460795099, 38.246834280191578 ] ], [ [ 41.848179861856941, 38.200866649831326 ], [ 41.957259134363589, 38.195491840157935 ] ], [ [ 41.983132097633948, 38.171388798278414 ], [ 41.984942763722486, 38.171228759938479 ] ], [ [ 42.042564810087519, 38.196591177596332 ], [ 42.10329437300004, 38.230163574000073 ], [ 42.12533513645662, 38.233023466612202 ] ], [ [ 42.146192422788893, 38.23572979750714 ], [ 42.169384003000062, 38.238739014000032 ], [ 42.23061277049316, 38.220606507907796 ] ], [ [ 42.250026041645796, 38.214857392388119 ], [ 42.285018921000074, 38.204494476000036 ], [ 42.38179397600004, 38.145469666000054 ] ], [ [ 42.38179397600004, 38.145469666000054 ], [ 42.493309021000073, 38.108486176000042 ] ], [ [ 42.493309021000073, 38.108486176000042 ], [ 42.505153656000061, 38.021991730000025 ] ], [ [ 42.505153656000061, 38.021991730000025 ], [ 42.521606445000032, 37.998638153000059 ] ], [ [ 42.521606445000032, 37.998638153000059 ], [ 42.598512032350314, 37.982139388524729 ] ], [ [ 42.628559946078703, 37.984147550116226 ], [ 42.661758885157063, 37.992031356139641 ] ], [ [ 42.712391838994876, 38.004054681111782 ], [ 42.763225555000076, 37.985546112000065 ], [ 42.764617870524084, 37.982269110188206 ] ], [ [ 42.767441889847845, 37.975622400960901 ], [ 42.769050598000035, 37.971836090000068 ], [ 42.74132919300007, 37.947967529000039 ] ], [ [ 42.74132919300007, 37.947967529000039 ], [ 42.789405823000038, 37.932220459000064 ] ], [ [ 42.789405823000038, 37.932220459000064 ], [ 42.791221619000055, 37.880290985000045 ] ], [ [ 42.791221619000055, 37.880290985000045 ], [ 42.820903778000059, 37.832763672000056 ] ], [ [ 42.820903778000059, 37.832763672000056 ], [ 42.896712393832345, 37.780136707218198 ] ], [ [ 42.900337968961018, 37.779721178949636 ], [ 42.910003662000065, 37.784378052000079 ], [ 43.376693726000042, 37.725120544000049 ] ], [ [ 43.376693726000042, 37.725120544000049 ], [ 43.502189636000026, 37.737438202000078 ], [ 43.50182039589555, 37.735637261197972 ] ], [ [ 43.50182039589555, 37.735637261197972 ], [ 43.483703613000046, 37.647274017000029 ] ], [ [ 43.483703613000046, 37.647274017000029 ], [ 43.462482452000074, 37.615219116000048 ], [ 43.456202171010816, 37.609980885968 ] ], [ [ 43.440646010110775, 37.597005869507839 ], [ 43.424800873000038, 37.583789825000053 ], [ 43.407732780934801, 37.578947563549086 ] ], [ [ 43.310457143880782, 37.502697083642346 ], [ 43.345092773000033, 37.398365021000075 ] ], [ [ 43.345092773000033, 37.398365021000075 ], [ 43.335502109642597, 37.32824035909784 ] ], [ [ 38.68210037582827, 39.042512955139564 ], [ 38.685218811000027, 39.045490265000069 ] ], [ [ 38.685218811000027, 39.045490265000069 ], [ 38.681706104644071, 39.042852782245852 ] ], [ [ 28.195736861399386, 40.397740877090541 ], [ 28.161136627000076, 40.309284210000044 ] ], [ [ 28.161136627000076, 40.309284210000044 ], [ 28.099161148000064, 40.237548828000058 ] ], [ [ 28.099161148000064, 40.237548828000058 ], [ 28.127706528000033, 40.211494446000074 ] ], [ [ 28.127706528000033, 40.211494446000074 ], [ 28.118371964000062, 40.152130127000078 ] ], [ [ 28.118371964000062, 40.152130127000078 ], [ 28.130041122000023, 40.123508453000056 ] ], [ [ 28.130041122000023, 40.123508453000056 ], [ 28.211351395000065, 40.059555054000043 ] ], [ [ 28.211351395000065, 40.059555054000043 ], [ 28.182151794000049, 39.999446869000053 ] ], [ [ 28.182151794000049, 39.999446869000053 ], [ 28.239948273000039, 39.969161987000064 ] ], [ [ 28.239948273000039, 39.969161987000064 ], [ 28.28493499800004, 39.877731323000035 ] ], [ [ 28.28493499800004, 39.877731323000035 ], [ 28.325258255000051, 39.856342316000053 ] ], [ [ 28.325258255000051, 39.856342316000053 ], [ 28.407764435000047, 39.846611023000037 ] ], [ [ 28.407764435000047, 39.846611023000037 ], [ 28.542987823000033, 39.744216919000053 ] ], [ [ 28.542987823000033, 39.744216919000053 ], [ 28.649679184000036, 39.744022369000049 ] ], [ [ 28.649679184000036, 39.744022369000049 ], [ 28.689655304000041, 39.771907806000058 ] ], [ [ 28.689655304000041, 39.771907806000058 ], [ 28.715991974000076, 39.763034821000076 ] ], [ [ 28.715991974000076, 39.763034821000076 ], [ 28.732219696000072, 39.748340607000046 ] ], [ [ 28.732219696000072, 39.748340607000046 ], [ 28.723386765000043, 39.716590881000059 ] ], [ [ 28.723386765000043, 39.716590881000059 ], [ 28.740098953000029, 39.666294098000037 ] ], [ [ 28.740098953000029, 39.666294098000037 ], [ 28.817752838000047, 39.620765686000027 ] ], [ [ 28.817752838000047, 39.620765686000027 ], [ 28.912611916766739, 39.624752003050709 ] ], [ [ 28.992383841766923, 39.605978926451989 ], [ 28.988851547000024, 39.575553894000052 ] ], [ [ 28.988851547000024, 39.575553894000052 ], [ 28.928304672000024, 39.512325287000067 ] ], [ [ 28.928304672000024, 39.512325287000067 ], [ 28.94196510300003, 39.438472748000038 ] ], [ [ 28.94196510300003, 39.438472748000038 ], [ 28.811582565000037, 39.301483154000039 ] ], [ [ 28.811582565000037, 39.301483154000039 ], [ 28.742032009171048, 39.270389964794134 ] ], [ [ 28.658133014142944, 39.280482076254856 ], [ 28.692060471000048, 39.221569061000025 ] ], [ [ 28.692060471000048, 39.221569061000025 ], [ 28.672520014305331, 39.149662598205971 ] ], [ [ 28.672520014305331, 39.149662598205971 ], [ 28.72842582916811, 39.114980747714156 ] ], [ [ 28.887039906976604, 39.075173084343469 ], [ 28.895622253000056, 39.070133209000062 ], [ 28.93160574744736, 39.014950635633731 ] ], [ [ 28.920261769681101, 38.972887544931794 ], [ 28.938152610043439, 38.958624266017843 ] ], [ [ 28.991199659301401, 38.916333079924549 ], [ 28.993612289000055, 38.914409637000063 ], [ 28.988065964726836, 38.878787924916736 ] ], [ [ 28.991166805570195, 38.873141612232544 ], [ 29.085248118083339, 38.809868416477485 ] ], [ [ 29.075249596503046, 38.791532722128544 ], [ 29.068258286000059, 38.778713226000036 ], [ 29.055390670702355, 38.765616630003343 ] ], [ [ 29.000978063534717, 38.710235744212596 ], [ 28.988620758000025, 38.697658539000031 ], [ 28.89484821589004, 38.672080274846749 ] ], [ [ 28.840997708607421, 38.652719295090115 ], [ 28.800182343000074, 38.577495575000057 ] ], [ [ 28.880635649096458, 38.276881028132607 ], [ 28.885354996000046, 38.273040771000069 ], [ 28.858921051000038, 38.23857879600007 ], [ 28.809380533258416, 38.224554946975047 ] ], [ [ 28.784564869311421, 38.207806647280165 ], [ 28.750271414290744, 38.16352829063802 ] ], [ [ 28.720694045037877, 38.12533915794419 ], [ 28.719465256000035, 38.123752594000052 ], [ 28.648084641000025, 38.090831757000046 ] ], [ [ 28.826282501000037, 37.979167938000046 ], [ 28.717767874858311, 37.906728103229554 ] ], [ [ 28.714968205148882, 37.898610793301096 ], [ 28.72771077788294, 37.878471500924988 ] ], [ [ 28.853878501556597, 37.767880188626748 ], [ 28.861825943000042, 37.764572144000056 ], [ 28.860434808387854, 37.756388717325699 ] ], [ [ 28.859039965616681, 37.748183477199987 ], [ 28.858512878000056, 37.745082855000078 ], [ 28.796560287000034, 37.704421997000054 ] ], [ [ 28.796560287000034, 37.704421997000054 ], [ 28.824502945000063, 37.658294678000061 ], [ 28.818274110729906, 37.655632475850517 ] ], [ [ 28.589826087436592, 37.55904330042322 ], [ 28.582521439000061, 37.546119690000069 ] ], [ [ 29.111009598000066, 37.034587860000045 ], [ 29.113659320834806, 36.92844341148934 ] ], [ [ 29.120489413648084, 36.921641186009595 ], [ 29.241136551000068, 36.857124329000044 ] ], [ [ 29.241136551000068, 36.857124329000044 ], [ 29.311299777380555, 36.887912075990386 ] ], [ [ 29.432657242000062, 36.939643860000047 ], [ 29.440364059059284, 36.872112527811971 ] ], [ [ 29.455348039979324, 36.872979321727065 ], [ 29.481569508727805, 36.878217782391182 ] ], [ [ 29.564153196439982, 36.961221678992807 ], [ 29.565641403000029, 36.962772369000049 ], [ 29.645512586457077, 36.989284200147942 ] ], [ [ 29.715018870448926, 36.982508746558224 ], [ 29.718336105000049, 36.982185364000031 ], [ 29.723020687748619, 36.978098118918169 ] ], [ [ 29.767988141792159, 36.8703658453732 ], [ 29.760021210000048, 36.845020294000051 ], [ 29.668556213000045, 36.713554382000041 ] ], [ [ 29.618846735898963, 36.60395676989296 ], [ 29.609779358000026, 36.590278625000053 ], [ 29.512182596483587, 36.518449854607724 ] ], [ [ 29.498953215563329, 36.508713361820575 ], [ 29.497718811000027, 36.507804871000076 ], [ 29.311985016000051, 36.440212250000059 ] ], [ [ 33.347427747670594, 36.972241911551002 ], [ 33.283581602664768, 36.928154560070467 ] ], [ [ 33.22724080130422, 36.933474232253083 ], [ 33.142539978000059, 36.835491180000076 ], [ 33.139538528028353, 36.835578935033773 ] ], [ [ 33.137009031574543, 36.835652891304449 ], [ 33.12257766700003, 36.83607482900004 ], [ 33.08838653600003, 36.873577118000071 ] ], [ [ 33.08838653600003, 36.873577118000071 ], [ 32.963375411877422, 36.848696334839758 ] ], [ [ 32.952163255921917, 36.831384802767317 ], [ 32.945100854244693, 36.81393508235972 ] ], [ [ 33.171486421634796, 36.597806312104389 ], [ 33.177524567000034, 36.595394135000049 ], [ 33.197613232140213, 36.564607732187106 ] ], [ [ 33.215035106085949, 36.537908256372909 ], [ 33.218162537000069, 36.533115387000066 ], [ 33.108184814000026, 36.583057404000044 ] ], [ [ 32.759752443716444, 36.469037706453726 ], [ 32.744414933559135, 36.467100432604894 ] ], [ [ 32.575011556648995, 36.369557292324387 ], [ 32.518371582000043, 36.444919586000026 ], [ 32.518134542570245, 36.44940031004149 ] ], [ [ 32.515838729719327, 36.492797747524321 ], [ 32.510226053840682, 36.598893394849263 ] ], [ [ 32.476786075123151, 36.675095658477154 ], [ 32.44010746028102, 36.739026650861831 ] ], [ [ 32.399478073343765, 36.775612613672131 ], [ 32.292865753000058, 36.829376221000075 ], [ 32.283197714134978, 36.839431958777475 ] ], [ [ 32.271068889093307, 36.852047162943386 ], [ 32.258144379000044, 36.865489960000048 ], [ 32.259883282302908, 36.869816927613563 ] ], [ [ 32.027615848041094, 37.138066342483398 ], [ 31.989399404610111, 37.167066977949872 ] ], [ [ 31.942739078580491, 37.202475273030402 ], [ 31.827712606378618, 37.28976337442964 ] ], [ [ 31.789455229533704, 37.302537221676637 ], [ 31.37443733200007, 37.406040192000034 ] ], [ [ 31.37443733200007, 37.406040192000034 ], [ 31.350522995000063, 37.428604126000039 ], [ 31.352245111229529, 37.438848274458756 ] ], [ [ 31.334163666000052, 37.633136749000073 ], [ 31.335586548000038, 37.668670654000039 ], [ 31.33752031082506, 37.67086003541278 ] ], [ [ 31.348950066035574, 37.683800657337152 ], [ 31.362655640000071, 37.699317932000042 ], [ 31.370120732335558, 37.700123157882359 ] ], [ [ 31.239105155108831, 38.400142963027783 ], [ 31.237129211000024, 38.401542664000033 ], [ 31.246173859000066, 38.429363251000041 ] ], [ [ 31.246173859000066, 38.429363251000041 ], [ 31.279634476000069, 38.450614929000039 ], [ 31.638780594000025, 38.640193939000028 ] ], [ [ 31.60852738338582, 39.004821477505125 ], [ 31.604434967000032, 39.005832672000054 ], [ 31.597041537884351, 39.029100544492216 ] ], [ [ 31.579527733124099, 39.084221439722569 ], [ 31.625898361000054, 39.115077972000051 ], [ 31.634042004584987, 39.113483974313546 ] ], [ [ 31.670282870631322, 39.106390361235803 ], [ 31.728466217377431, 39.095001832361874 ] ], [ [ 31.776844768953044, 39.126762274759336 ], [ 31.807159424000076, 39.149845123000034 ], [ 31.957378387000063, 39.245285034000062 ] ], [ [ 31.957378387000063, 39.245285034000062 ], [ 32.005469329706948, 39.229034743759605 ] ], [ [ 32.039211693482329, 39.312912404074481 ], [ 31.987554550000027, 39.362777710000046 ] ], [ [ 31.987554550000027, 39.362777710000046 ], [ 31.997161865000066, 39.485443115000066 ] ], [ [ 31.997161865000066, 39.485443115000066 ], [ 31.947877884000036, 39.572834015000069 ] ], [ [ 31.947877884000036, 39.572834015000069 ], [ 31.955870626161566, 39.628564791198691 ] ], [ [ 31.940684474939864, 39.645933615938418 ], [ 31.826530457000047, 39.74171829200003 ] ], [ [ 31.826530457000047, 39.74171829200003 ], [ 31.839754105000054, 39.774265289000027 ] ], [ [ 31.839754105000054, 39.774265289000027 ], [ 31.891868591000048, 39.808837891000053 ] ], [ [ 31.891868591000048, 39.808837891000053 ], [ 31.88579750100007, 39.831237793000071 ] ], [ [ 31.88579750100007, 39.831237793000071 ], [ 31.899847067460701, 39.854724880760919 ] ], [ [ 31.897118914098364, 39.856358155534423 ], [ 31.864168167000059, 39.844242096000073 ] ], [ [ 31.864168167000059, 39.844242096000073 ], [ 31.851768494000055, 39.856166840000071 ] ], [ [ 31.851768494000055, 39.856166840000071 ], [ 31.86784362800006, 39.881214142000033 ] ], [ [ 31.86784362800006, 39.881214142000033 ], [ 31.824100494000049, 39.872589111000025 ] ], [ [ 31.824100494000049, 39.872589111000025 ], [ 31.769542694000052, 39.901824951000037 ] ], [ [ 31.769542694000052, 39.901824951000037 ], [ 31.745191574000046, 39.929775238000047 ] ], [ [ 31.745191574000046, 39.929775238000047 ], [ 31.749168396000073, 39.970378876000041 ] ], [ [ 31.749168396000073, 39.970378876000041 ], [ 31.701715469000078, 39.981670380000025 ] ], [ [ 31.701715469000078, 39.981670380000025 ], [ 31.70861244200006, 40.024635315000069 ] ], [ [ 31.70861244200006, 40.024635315000069 ], [ 31.665540695000061, 40.009479523000039 ] ], [ [ 31.665540695000061, 40.009479523000039 ], [ 31.657051086000024, 40.043552399000077 ] ], [ [ 31.657051086000024, 40.043552399000077 ], [ 31.609182358000055, 40.021865845000036 ] ], [ [ 31.609182358000055, 40.021865845000036 ], [ 31.54328346300008, 40.039379120000035 ] ], [ [ 31.54328346300008, 40.039379120000035 ], [ 31.503553391000025, 40.025238037000065 ] ], [ [ 31.503553391000025, 40.025238037000065 ], [ 31.460594177000075, 40.041126251000037 ] ], [ [ 31.460594177000075, 40.041126251000037 ], [ 31.410802841000077, 40.022632599000076 ], [ 31.402300842178253, 40.024607768091251 ] ], [ [ 31.39865721391288, 40.025454249263539 ], [ 31.391574860000048, 40.027099609000061 ], [ 31.409128189000057, 40.053459167000028 ] ], [ [ 31.409128189000057, 40.053459167000028 ], [ 31.394699097000057, 40.061939240000072 ] ], [ [ 31.394699097000057, 40.061939240000072 ], [ 31.180257797000024, 40.051918030000024 ] ], [ [ 31.180257797000024, 40.051918030000024 ], [ 31.130336761000024, 40.071109772000057 ] ], [ [ 31.130336761000024, 40.071109772000057 ], [ 31.033170700000028, 40.051113129000044 ] ], [ [ 31.033170700000028, 40.051113129000044 ], [ 31.002710342000057, 40.025562286000024 ] ], [ [ 31.002710342000057, 40.025562286000024 ], [ 30.945577621000041, 40.02492141700003 ] ], [ [ 30.945577621000041, 40.02492141700003 ], [ 30.857061386000055, 40.06505203200004 ] ], [ [ 30.857061386000055, 40.06505203200004 ], [ 30.846612930000049, 40.135276794000049 ] ], [ [ 30.846612930000049, 40.135276794000049 ], [ 30.864923477000048, 40.173255920000031 ] ], [ [ 30.864923477000048, 40.173255920000031 ], [ 30.94454193100006, 40.19115448000008 ] ], [ [ 30.94454193100006, 40.19115448000008 ], [ 31.023721695000063, 40.230312347000051 ] ], [ [ 31.023721695000063, 40.230312347000051 ], [ 31.061443329000042, 40.276950836000026 ] ], [ [ 31.061443329000042, 40.276950836000026 ], [ 31.078607559000034, 40.360324860000048 ] ], [ [ 31.078607559000034, 40.360324860000048 ], [ 31.103805542000032, 40.372535706000065 ] ], [ [ 31.103805542000032, 40.372535706000065 ], [ 31.292903900000056, 40.325523376000035 ] ], [ [ 31.292903900000056, 40.325523376000035 ], [ 31.348894119000079, 40.349987030000079 ] ], [ [ 31.348894119000079, 40.349987030000079 ], [ 31.417465210000046, 40.350818634000063 ] ], [ [ 31.417465210000046, 40.350818634000063 ], [ 31.43420982400005, 40.36927795400004 ] ], [ [ 31.43420982400005, 40.36927795400004 ], [ 31.464072677846112, 40.31806269191695 ] ], [ [ 31.572622183076565, 40.273611860427522 ], [ 31.576471366642501, 40.273877512539677 ] ], [ [ 31.63970897956488, 40.29787684333813 ], [ 31.684848785000042, 40.323436737000065 ], [ 31.743464451247764, 40.337253341707552 ] ], [ [ 31.84224286730301, 40.323627650271952 ], [ 31.884106426043409, 40.331251484363506 ] ], [ [ 31.934136675699051, 40.34233484763795 ], [ 32.053417206000063, 40.422550201000035 ] ], [ [ 32.053417206000063, 40.422550201000035 ], [ 32.148197174000074, 40.430763245000037 ] ], [ [ 32.148197174000074, 40.430763245000037 ], [ 32.21712493900003, 40.465446472000053 ] ], [ [ 32.21712493900003, 40.465446472000053 ], [ 32.25400093836312, 40.505271179097456 ] ], [ [ 32.36565077803882, 40.529687784765464 ], [ 32.419963837000068, 40.579814911000028 ] ], [ [ 32.419963837000068, 40.579814911000028 ], [ 32.385913849000076, 40.65060806300005 ] ], [ [ 32.385913849000076, 40.65060806300005 ], [ 32.443854401158688, 40.680976404228794 ] ], [ [ 32.596788029151192, 40.688439836425765 ], [ 32.619506836000028, 40.689548492000029 ], [ 32.824432373000036, 40.66302108800005 ] ], [ [ 32.824432373000036, 40.66302108800005 ], [ 33.00421142600004, 40.61577987700008 ] ], [ [ 33.00421142600004, 40.61577987700008 ], [ 32.979408264000028, 40.565006256000061 ] ], [ [ 32.979408264000028, 40.565006256000061 ], [ 32.979347229000041, 40.509803772000055 ] ], [ [ 32.979347229000041, 40.509803772000055 ], [ 33.177249908000078, 40.452896118000069 ] ], [ [ 33.177249908000078, 40.452896118000069 ], [ 33.212600708000025, 40.420177460000048 ] ], [ [ 33.212600708000025, 40.420177460000048 ], [ 33.242897034000066, 40.321342468000068 ] ], [ [ 33.242897034000066, 40.321342468000068 ], [ 33.286548615000072, 40.331230164000033 ] ], [ [ 33.286548615000072, 40.331230164000033 ], [ 33.299255371000072, 40.373226166000052 ] ], [ [ 33.299255371000072, 40.373226166000052 ], [ 33.343677521000075, 40.404800415000068 ] ], [ [ 33.343677521000075, 40.404800415000068 ], [ 33.393188477000024, 40.410659790000068 ], [ 33.442664191872943, 40.408510171007791 ] ], [ [ 33.455944703036351, 40.407933159860058 ], [ 33.458862305000025, 40.407806396000069 ], [ 33.635486603000061, 40.345321655000077 ], [ 33.712358087144835, 40.332895807105984 ] ], [ [ 33.780489060063132, 40.321882814241619 ], [ 33.790817261000029, 40.320213318000071 ], [ 33.793316324998841, 40.318235686658198 ] ], [ [ 33.837822957689383, 40.283016141620088 ], [ 33.923271179000039, 40.277587891000053 ], [ 33.930714897131622, 40.269697972494498 ] ], [ [ 34.055761075630265, 40.184878807590181 ], [ 34.057937622000054, 40.183826447000058 ], [ 34.070711730013919, 40.14823466507552 ] ], [ [ 34.100256108345079, 40.065916817949386 ], [ 34.104747772000053, 40.053401947000054 ], [ 34.101866573329509, 40.048500401534298 ] ], [ [ 34.305523685029797, 39.936524078946739 ], [ 34.363338470000031, 39.98497390700004 ] ], [ [ 34.363338470000031, 39.98497390700004 ], [ 34.411537170000031, 39.996704102000081 ] ], [ [ 34.411537170000031, 39.996704102000081 ], [ 34.499042511000027, 39.987514496000074 ] ], [ [ 34.499042511000027, 39.987514496000074 ], [ 34.573410034000062, 39.956806183000026 ] ], [ [ 34.573410034000062, 39.956806183000026 ], [ 34.731693268000072, 39.995079041000054 ] ], [ [ 34.731693268000072, 39.995079041000054 ], [ 35.033191681000062, 39.997642517000031 ] ], [ [ 35.033191681000062, 39.997642517000031 ], [ 35.12670135500008, 40.035648346000073 ] ], [ [ 35.12670135500008, 40.035648346000073 ], [ 35.117267609000066, 40.111034393000068 ] ], [ [ 35.117267609000066, 40.111034393000068 ], [ 35.188499451000041, 40.160751343000072 ] ], [ [ 35.188499451000041, 40.160751343000072 ], [ 35.143467949271518, 40.171153790933552 ] ], [ [ 35.165938481042851, 40.217086663710184 ], [ 35.167808533000027, 40.220909119000055 ], [ 35.225475218319481, 40.227372175983042 ] ], [ [ 35.379718430882114, 40.244659153143388 ], [ 35.39840698200004, 40.246753693000073 ], [ 35.430026266813833, 40.236879615110126 ] ], [ [ 35.455085399394314, 40.229054143142271 ], [ 35.456993103000059, 40.228458405000026 ], [ 35.501403809000067, 40.177009583000029 ] ], [ [ 35.501403809000067, 40.177009583000029 ], [ 35.510570526000038, 40.133476257000041 ] ], [ [ 35.510570526000038, 40.133476257000041 ], [ 35.528381348000039, 40.126987457000041 ] ], [ [ 35.528381348000039, 40.126987457000041 ], [ 35.728076935000047, 40.091651917000036 ] ], [ [ 35.728076935000047, 40.091651917000036 ], [ 35.885280609000063, 40.112377167000034 ], [ 35.895219652944881, 40.107191057318907 ] ], [ [ 35.919220956531227, 40.094667378625076 ], [ 35.939022064000028, 40.084335327000076 ], [ 35.943046351202341, 40.076785024530182 ] ], [ [ 35.952233107142696, 40.059548981827525 ], [ 35.955535889000032, 40.053352356000062 ], [ 35.953071742338722, 40.041834177920542 ] ], [ [ 35.95448951696708, 40.011898791076227 ], [ 35.990183256418234, 39.965149427185374 ] ], [ [ 36.025688593037707, 39.881746938549732 ], [ 36.08403396600005, 39.840446472000053 ] ], [ [ 36.08403396600005, 39.840446472000053 ], [ 36.052558899000076, 39.778125763000048 ] ], [ [ 36.052558899000076, 39.778125763000048 ], [ 36.140174866000052, 39.735881805000076 ], [ 36.140712580005555, 39.729459571128771 ] ], [ [ 36.150414227910545, 39.613587097759911 ], [ 36.151535034000062, 39.600200653000059 ], [ 36.037624359000063, 39.437332153000057 ] ], [ [ 36.037624359000063, 39.437332153000057 ], [ 35.91931280842342, 39.458690656441483 ] ], [ [ 35.909275860532027, 39.456400375214606 ], [ 35.905031922807304, 39.443200863047558 ] ], [ [ 35.908637305110886, 39.356147048404488 ], [ 35.851576942082104, 39.297222160488815 ] ], [ [ 35.851576942082104, 39.297222160488815 ], [ 35.896877289000031, 39.260444641000049 ] ], [ [ 35.896877289000031, 39.260444641000049 ], [ 35.918941172133529, 39.196488371584771 ] ], [ [ 36.030850839391505, 39.150892857702701 ], [ 36.037017822000053, 39.148380280000026 ], [ 36.047531942318166, 39.138716848718161 ] ], [ [ 36.105512531192538, 39.096396306743188 ], [ 36.181086098215829, 39.095413106535851 ] ], [ [ 36.375481376034145, 39.092884751912401 ], [ 36.411724091000053, 39.127319336000028 ] ], [ [ 36.411724091000053, 39.127319336000028 ], [ 36.490146637000066, 39.098056793000069 ] ], [ [ 36.490146637000066, 39.098056793000069 ], [ 36.546360057496656, 39.098889361844329 ] ], [ [ 36.675173788289534, 39.183447304551045 ], [ 36.679599762000066, 39.186538696000071 ], [ 36.699798707355264, 39.177045015991148 ] ], [ [ 36.727513077962769, 39.164019020743893 ], [ 36.745422363000046, 39.155601501000035 ], [ 36.832447052000077, 39.07204437300004 ] ], [ [ 36.832447052000077, 39.07204437300004 ], [ 36.936317444000053, 39.060417175000055 ], [ 36.943044305440004, 39.054348491942484 ] ], [ [ 36.952777002717376, 39.045568073972099 ], [ 36.967624664000027, 39.032173157000045 ], [ 36.977915432075918, 38.996544304344859 ] ], [ [ 36.984731587976306, 38.972945306441218 ], [ 36.986705780000079, 38.966110229000037 ], [ 36.952068329000042, 38.909420013000044 ] ], [ [ 36.952068329000042, 38.909420013000044 ], [ 36.697666168000069, 38.746273041000052 ] ], [ [ 36.697666168000069, 38.746273041000052 ], [ 36.694721222000055, 38.681312561000027 ] ], [ [ 36.694721222000055, 38.681312561000027 ], [ 36.773624420000033, 38.560886383000025 ] ], [ [ 36.773624420000033, 38.560886383000025 ], [ 36.76017825662143, 38.53539016931186 ] ], [ [ 36.716730166377154, 38.513518082486172 ], [ 36.684252054663077, 38.497169034325076 ] ], [ [ 36.690976080836208, 38.463134315467897 ], [ 36.728210449000073, 38.444324493000067 ], [ 36.727743785366009, 38.442339298193794 ] ], [ [ 36.726682248980609, 38.437823504879013 ], [ 36.724411011000029, 38.428161621000072 ], [ 36.704086509596763, 38.412670490098172 ] ], [ [ 36.689243386258937, 38.4013572105221 ], [ 36.683650970000031, 38.397094727000081 ], [ 36.680811508522517, 38.39813877217491 ] ], [ [ 36.675943826091078, 38.399928576472441 ], [ 36.627493533146023, 38.417743325842672 ] ], [ [ 36.519190808877134, 38.295898078791701 ], [ 36.409679628210633, 38.253858792685286 ] ], [ [ 36.376608348768464, 38.283009084460978 ], [ 36.372817993000069, 38.286659241000052 ], [ 36.370937257004663, 38.296855420762256 ] ], [ [ 36.356724917450194, 38.331552752676345 ], [ 36.285054237895345, 38.343643021856103 ] ], [ [ 36.245273819932414, 38.382280196677677 ], [ 36.169675989917927, 38.364823156986105 ] ], [ [ 35.571640015000071, 37.746250153000062 ], [ 35.203274771769998, 37.753395061627664 ] ], [ [ 35.196722871629859, 37.750386623129373 ], [ 35.187458038000045, 37.740001678000056 ], [ 35.053718567000033, 37.684722900000054 ] ], [ [ 34.7373525633257, 37.433281492789426 ], [ 34.721575510029204, 37.432217029793861 ] ], [ [ 34.439622767610125, 37.300973733698115 ], [ 34.440673828000058, 37.297798157000045 ], [ 34.433872389017672, 37.294557475426721 ] ], [ [ 41.439876556000058, 38.489063263000048 ], [ 41.386871338000049, 38.483798981000064 ] ], [ [ 41.364283352798559, 38.604275748459976 ], [ 41.342175955736096, 38.633200651653425 ] ], [ [ 41.275490825433025, 38.710946868064944 ], [ 41.229167374474599, 38.713115705004597 ] ], [ [ 41.159422627686162, 39.33142914669213 ], [ 41.157821655000077, 39.337448120000033 ], [ 41.193804749641671, 39.368187589185162 ], [ 41.149230267312234, 39.398472058783128 ] ], [ [ 40.808504656879983, 39.534964483987139 ], [ 40.787546578719038, 39.533738145031357 ] ], [ [ 40.461080728688572, 39.512066886508613 ], [ 40.448612213000047, 39.509731293000073 ], [ 40.442240754563137, 39.516373705921488 ] ], [ [ 40.416693312728128, 39.543007585657854 ], [ 40.380850825796905, 39.580374320556153 ] ], [ [ 40.365886816532367, 39.58790392704725 ], [ 40.171001434000061, 39.575199127000076 ] ], [ [ 38.898866840413014, 39.221499485000777 ], [ 38.895053864000033, 39.21896743800005 ], [ 38.767278653379897, 39.209574023199274 ] ], [ [ 38.758849855877557, 39.205516000968743 ], [ 38.77318573000008, 39.175048828000058 ] ], [ [ 38.711029053000061, 39.017578125000057 ], [ 38.682100410030259, 39.042511611794595 ] ], [ [ 38.681704510660339, 39.042852835948189 ], [ 38.61357879600007, 39.101570129000038 ] ], [ [ 38.302978516000053, 39.143787384000063 ], [ 38.317378998000038, 39.21274948100006 ] ], [ [ 38.317378998000038, 39.21274948100006 ], [ 38.355850220000036, 39.267078400000059 ] ], [ [ 38.355850220000036, 39.267078400000059 ], [ 38.333671570000035, 39.353057861000025 ] ], [ [ 38.333671570000035, 39.353057861000025 ], [ 38.377571106000062, 39.372406006000062 ] ], [ [ 38.377571106000062, 39.372406006000062 ], [ 38.373447418000069, 39.397670746000074 ] ], [ [ 38.373447418000069, 39.397670746000074 ], [ 38.402053833000025, 39.435253143000068 ] ], [ [ 38.402053833000025, 39.435253143000068 ], [ 38.317550659000062, 39.47356033300008 ] ], [ [ 38.317550659000062, 39.47356033300008 ], [ 38.260746002000076, 39.546672821000072 ] ], [ [ 38.260746002000076, 39.546672821000072 ], [ 38.336688995000031, 39.582252502000074 ] ], [ [ 38.336688995000031, 39.582252502000074 ], [ 38.32193374600007, 39.649559021000073 ] ], [ [ 38.32193374600007, 39.649559021000073 ], [ 38.360603333000029, 39.731239319000053 ] ], [ [ 38.360603333000029, 39.731239319000053 ], [ 38.352764130000025, 39.764080048000039 ] ], [ [ 38.352764130000025, 39.764080048000039 ], [ 38.403675079000038, 39.781032562000064 ] ], [ [ 38.403675079000038, 39.781032562000064 ], [ 38.450725555000076, 39.830074310000043 ] ], [ [ 38.450725555000076, 39.830074310000043 ], [ 38.377456665000068, 39.896785736000027 ] ], [ [ 38.377456665000068, 39.896785736000027 ], [ 38.362815857000044, 39.92833328200004 ] ], [ [ 38.362815857000044, 39.92833328200004 ], [ 38.458671570000035, 39.989234924000073 ] ], [ [ 38.458671570000035, 39.989234924000073 ], [ 38.538768768000068, 39.961109161000024 ] ], [ [ 38.538768768000068, 39.961109161000024 ], [ 38.609203339000032, 39.987068176000037 ] ], [ [ 38.609203339000032, 39.987068176000037 ], [ 38.723556519000056, 39.989479065000069 ] ], [ [ 38.723556519000056, 39.989479065000069 ], [ 38.759895325000059, 40.016540527000075 ] ], [ [ 38.759895325000059, 40.016540527000075 ], [ 38.771915235154182, 40.07526299578111 ] ], [ [ 38.907577171588493, 40.039565118807843 ], [ 38.934217749592484, 40.032554754299397 ] ], [ [ 38.999396866688713, 40.034577403702293 ], [ 38.976215363000051, 40.090244293000069 ] ], [ [ 38.976215363000051, 40.090244293000069 ], [ 38.893711090000068, 40.124176025000054 ] ], [ [ 38.893711090000068, 40.124176025000054 ], [ 38.879306793000069, 40.160804749000079 ] ], [ [ 38.879306793000069, 40.160804749000079 ], [ 38.897647858000028, 40.230400085000042 ] ], [ [ 38.897647858000028, 40.230400085000042 ], [ 38.959365845000036, 40.273307800000055 ] ], [ [ 38.959365845000036, 40.273307800000055 ], [ 38.995147705000079, 40.336471558000028 ] ], [ [ 38.995147705000079, 40.336471558000028 ], [ 39.078067780000026, 40.351360321000072 ] ], [ [ 39.078067780000026, 40.351360321000072 ], [ 39.079505920000031, 40.366165161000026 ] ], [ [ 39.079505920000031, 40.366165161000026 ], [ 38.981056910184094, 40.467196702527367 ] ], [ [ 38.803550058789696, 40.523684066949286 ], [ 38.790191650000054, 40.527935028000059 ], [ 38.78306198100006, 40.549785614000029 ] ], [ [ 38.78306198100006, 40.549785614000029 ], [ 38.844299316000047, 40.662536621000072 ], [ 38.848872829435614, 40.664679777321844 ] ], [ [ 39.001087919062734, 40.736008371714803 ], [ 39.068367004000038, 40.798831940000071 ] ], [ [ 39.068367004000038, 40.798831940000071 ], [ 39.118419647000053, 40.79524993900003 ] ], [ [ 39.118419647000053, 40.79524993900003 ], [ 39.173755646000075, 40.83385086100003 ] ], [ [ 39.173755646000075, 40.83385086100003 ], [ 39.28916931200007, 40.737720490000072 ] ], [ [ 39.28916931200007, 40.737720490000072 ], [ 39.356300354000041, 40.656406403000062 ] ], [ [ 39.356300354000041, 40.656406403000062 ], [ 39.465332031000059, 40.656658173000039 ] ], [ [ 39.465332031000059, 40.656658173000039 ], [ 39.635643005000077, 40.597038269000052 ] ], [ [ 39.635643005000077, 40.597038269000052 ], [ 39.697284698000033, 40.545475006000061 ] ], [ [ 39.697284698000033, 40.545475006000061 ], [ 39.761772156000063, 40.614929199000073 ] ], [ [ 39.761772156000063, 40.614929199000073 ], [ 39.767959595000036, 40.69786453200004 ] ], [ [ 39.767959595000036, 40.69786453200004 ], [ 39.817405701000041, 40.725605011000027 ], [ 39.843994141000053, 40.729690552000079 ] ], [ [ 39.843994141000053, 40.729690552000079 ], [ 39.853252411000028, 40.71212005600006 ], [ 39.851232059645284, 40.70523441469367 ] ], [ [ 39.829354065873268, 40.630667960310248 ], [ 39.839393616000052, 40.621356964000029 ] ], [ [ 39.839393616000052, 40.621356964000029 ], [ 39.893226624000079, 40.632614136000029 ] ], [ [ 39.893226624000079, 40.632614136000029 ], [ 39.927455902000077, 40.598598480000078 ] ], [ [ 39.927455902000077, 40.598598480000078 ], [ 39.962051392000035, 40.595954895000034 ] ], [ [ 39.962051392000035, 40.595954895000034 ], [ 39.992809296000075, 40.61446380600006 ] ], [ [ 39.992809296000075, 40.61446380600006 ], [ 39.979396820000034, 40.643692017000035 ] ], [ [ 39.979396820000034, 40.643692017000035 ], [ 40.047823877128529, 40.657604018171085 ] ], [ [ 40.057088171243116, 40.608498354982089 ], [ 40.145977020000032, 40.571502686000031 ], [ 40.26152781801747, 40.526753354131515 ] ], [ [ 40.27482444922456, 40.523397421839576 ], [ 40.452224731000058, 40.527500153000062 ], [ 40.470264630375283, 40.524450677306149 ] ], [ [ 40.477935412286683, 40.524514241969577 ], [ 40.445205688000044, 40.610675812000068 ], [ 40.447064321709973, 40.613916763336441 ] ], [ [ 40.49477347445422, 40.697110142400241 ], [ 40.45521545400004, 40.790336609000065 ] ], [ [ 40.45521545400004, 40.790336609000065 ], [ 40.469496955278146, 40.86037933056901 ] ], [ [ 40.45638501677977, 40.879548467569848 ], [ 40.42935562100007, 40.902824402000078 ], [ 40.401283264000028, 40.960102081000059 ] ], [ [ 40.401283264000028, 40.960102081000059 ], [ 40.338634631934269, 40.987268112739478 ] ], [ [ 41.639970509525291, 41.478709777627969 ], [ 41.687596690542186, 41.486568883935853 ] ], [ [ 41.706839810477433, 41.463154834451544 ], [ 41.736322925995829, 41.457922144319085 ] ], [ [ 41.760996581189495, 41.453542672266188 ], [ 41.812982218000116, 41.421813863000054 ] ], [ [ 41.812982218000116, 41.421813863000054 ], [ 41.82861771564891, 41.434108868650036 ] ], [ [ 41.947962020172426, 41.50558108497232 ], [ 42.019583633110045, 41.485066092233353 ] ], [ [ 42.108586224074827, 41.494575670961268 ], [ 42.124916354552489, 41.49632055086829 ] ], [ [ 42.208634677489535, 41.481870786910314 ], [ 42.262463827000033, 41.482326966000116 ] ], [ [ 42.262463827000033, 41.482326966000116 ], [ 42.463070768208226, 41.431839335820186 ] ], [ [ 42.800933190485964, 41.579219936457605 ], [ 42.819949178000115, 41.572347311000058 ] ], [ [ 42.819949178000115, 41.572347311000058 ], [ 42.806823772176472, 41.542996009772494 ] ], [ [ 42.879901446232907, 41.483070276663518 ], [ 42.888988321536289, 41.469977118532917 ] ], [ [ 42.957719177640826, 41.437005960277013 ], [ 43.00205629264552, 41.382695579597453 ] ], [ [ 43.123910926229406, 41.312931395056914 ], [ 43.184008525994827, 41.2989792435542 ] ], [ [ 43.157240318825345, 41.269729762416709 ], [ 43.103136027000062, 41.248801168000071 ] ], [ [ 43.103136027000062, 41.248801168000071 ], [ 43.172019716504984, 41.242341707351009 ] ], [ [ 43.202278824327053, 41.206346733679496 ], [ 43.230621141706521, 41.172630872258424 ] ], [ [ 43.451796616435104, 41.132579918385076 ], [ 43.44716615897628, 41.117839629056675 ] ], [ [ 43.443450123740519, 41.10601025042255 ], [ 43.441814192519551, 41.100802536123737 ] ], [ [ 43.4604795055414, 41.022871492154792 ], [ 43.512992948714292, 41.005496290955833 ] ], [ [ 43.659536738837723, 40.851977020159062 ], [ 43.689983680904035, 40.807568790593258 ] ], [ [ 43.699534051797315, 40.634574147573275 ], [ 43.706370402050695, 40.614342246509992 ] ], [ [ 43.699968497771692, 40.605492503192345 ], [ 43.696546634201503, 40.600762994413742 ], [ 43.662728491031089, 40.565219435639193 ], [ 43.662353858592212, 40.565152461852399 ] ], [ [ 43.635029588366173, 40.53559762515458 ], [ 43.631477609343754, 40.536854344959629 ] ], [ [ 43.632702212345571, 40.520710811711218 ], [ 43.599326903534902, 40.510690598977114 ] ], [ [ 43.683030768730497, 40.233660392669314 ], [ 43.67307539900014, 40.227726543000031 ] ], [ [ 43.67307539900014, 40.227726543000031 ], [ 43.674700943592008, 40.225763719631331 ] ], [ [ 43.652760291114049, 40.139109318244309 ], [ 43.652508179000051, 40.138998109000013 ] ], [ [ 43.652508179000051, 40.138998109000013 ], [ 43.652594700864498, 40.138804992192235 ] ], [ [ 43.659895843404634, 40.122508841509195 ], [ 43.665427287000057, 40.110162659000068 ] ], [ [ 43.665427287000057, 40.110162659000068 ], [ 43.684183214246474, 40.103636979226486 ] ], [ [ 43.965773808420451, 40.017323146775574 ], [ 44.032433309000055, 40.00861847 ] ], [ [ 44.032433309000055, 40.00861847 ], [ 44.059622054307624, 40.018936149936714 ] ], [ [ 44.121873604294407, 40.028297828728135 ], [ 44.135476115000074, 40.022312724000116 ] ], [ [ 44.135476115000074, 40.022312724000116 ], [ 44.160587106189439, 40.026732605030077 ] ], [ [ 44.2410746208907, 40.040899518502123 ], [ 44.25526110050864, 40.043396534715953 ] ], [ [ 44.586802963761563, 39.862500328759403 ], [ 44.591054869680157, 39.857827378896232 ] ], [ [ 44.784325809207274, 39.690239059040351 ], [ 44.798762924683899, 39.658178113285189 ], [ 44.798758186000043, 39.65814294900008 ], [ 44.798782329565398, 39.658135020268858 ], [ 44.801071051166332, 39.653052385914705 ] ], [ [ 43.345092773000033, 37.398365021000075 ], [ 43.309322357000042, 37.491710663000049 ], [ 43.310456726414557, 37.502697038031314 ] ], [ [ 43.407732695697661, 37.578947771519267 ], [ 43.440645901357534, 37.597006028999203 ] ], [ [ 43.456201996720971, 37.609981050115628 ], [ 43.483703613000046, 37.647274017000029 ] ], [ [ 43.50182039589555, 37.735637261197972 ], [ 43.376693726000042, 37.725120544000049 ] ], [ [ 43.376693726000042, 37.725120544000049 ], [ 42.900338061485797, 37.779720631379561 ] ], [ [ 42.74132919300007, 37.947967529000039 ], [ 42.767440812963606, 37.975622594129668 ] ], [ [ 42.764617338860653, 37.982268574990457 ], [ 42.712391821994878, 38.004054638386556 ] ], [ [ 42.661758917356721, 37.992031248101419 ], [ 42.642467499000077, 37.985076904000039 ], [ 42.628559970907013, 37.984147385865548 ] ], [ [ 42.598512012260372, 37.982139112196819 ], [ 42.577743530000077, 37.980751038000051 ], [ 42.521606445000032, 37.998638153000059 ] ], [ [ 42.38179397600004, 38.145469666000054 ], [ 42.250025967674887, 38.214857210388139 ] ], [ [ 42.230612745029489, 38.220606400316278 ], [ 42.146192415389919, 38.235729492584426 ] ], [ [ 42.12533521290888, 38.233023192505748 ], [ 42.042564850220344, 38.196591096687818 ] ], [ [ 41.984942844590947, 38.171228269195915 ], [ 41.983829498000034, 38.170738220000032 ], [ 41.983131833370088, 38.171388205059948 ] ], [ [ 41.704600341087101, 38.246834031415219 ], [ 41.695247650000056, 38.249828339000032 ], [ 41.689571474908171, 38.25682994564378 ] ], [ [ 41.522370776538317, 38.571285055232615 ], [ 41.517643816680838, 38.569553617853316 ] ], [ [ 41.443996229829864, 38.493567920178734 ], [ 41.439876556000058, 38.489063263000048 ] ], [ [ 29.474035263000076, 38.847724915000072 ], [ 29.431724548000034, 38.834457397000051 ] ], [ [ 29.208737642813478, 38.771746882291325 ], [ 29.203968048000036, 38.770259857000042 ], [ 29.183502197000053, 38.78570175200008 ] ], [ [ 29.085248107018973, 38.809868398705802 ], [ 28.993562698000062, 38.868778229000043 ], [ 28.99116645731678, 38.873141293916042 ] ], [ [ 28.988065329987222, 38.878787813460605 ], [ 28.982152939000059, 38.889553070000034 ], [ 28.991198558545921, 38.916332756236237 ] ], [ [ 28.938152574570999, 38.958624218701416 ], [ 28.919885635000071, 38.971496582000043 ], [ 28.920260727912002, 38.972887203046859 ] ], [ [ 28.93160569823312, 39.01495060270959 ], [ 28.887039639606474, 39.075172786966881 ] ], [ [ 28.728425679282722, 39.114980194222142 ], [ 28.723901749000049, 39.114860535000048 ], [ 28.672327042000063, 39.148952484000063 ], [ 28.672520014305331, 39.149662598205971 ] ], [ [ 28.692060471000048, 39.221569061000025 ], [ 28.654802322000023, 39.280883789000029 ], [ 28.65813115112898, 39.280483307562939 ] ], [ [ 29.361568459404364, 40.821156547310657 ], [ 29.361867905000054, 40.85676193200004 ], [ 29.363658228330262, 40.857907984048644 ] ], [ [ 29.449914688422716, 40.913125053291651 ], [ 29.443248749000077, 40.939651489000028 ] ], [ [ 29.443248749000077, 40.939651489000028 ], [ 29.516729355000052, 40.997295380000025 ] ], [ [ 29.516729355000052, 40.997295380000025 ], [ 29.517623901000036, 41.032234192000033 ], [ 29.522430485034906, 41.034315513362742 ] ], [ [ 29.605985763670393, 41.028620681958792 ], [ 29.611112595000066, 40.987159729000041 ] ], [ [ 29.611112595000066, 40.987159729000041 ], [ 29.680332184000065, 40.974071503000062 ] ], [ [ 29.680332184000065, 40.974071503000062 ], [ 29.722079712257649, 41.042845825430675 ] ], [ [ 29.833336019171782, 41.010938241065929 ], [ 29.846407164228307, 41.01301464317168 ] ], [ [ 29.860248254469656, 41.024935267924683 ], [ 29.881757736000054, 41.069217682000044 ] ], [ [ 29.881757736000054, 41.069217682000044 ], [ 29.93322181700006, 41.094608307000044 ] ], [ [ 29.93322181700006, 41.094608307000044 ], [ 29.911497762077463, 41.120223237207341 ] ], [ [ 32.899398128224398, 41.688124872304911 ], [ 32.847733218652685, 41.631726047469243 ] ], [ [ 32.822613979320366, 41.58404591184091 ], [ 32.798019409000062, 41.537361145000034 ], [ 32.782913197899902, 41.535397915508184 ] ], [ [ 32.715273976244553, 41.526606964059184 ], [ 32.650432587000068, 41.483966827000074 ] ], [ [ 32.650432587000068, 41.483966827000074 ], [ 32.660960960607895, 41.429745700519618 ] ], [ [ 32.618383201170637, 41.417289539034911 ], [ 32.608067277979956, 41.407403213743294 ] ], [ [ 32.591158435688008, 41.38783124402984 ], [ 32.576364999164099, 41.352502044800119 ] ], [ [ 32.567908744908465, 41.332307096124644 ], [ 32.566497803000061, 41.328937531000065 ], [ 32.513137817000029, 41.294525146000069 ] ], [ [ 32.513137817000029, 41.294525146000069 ], [ 32.426311493000071, 41.287345886000026 ] ], [ [ 32.426311493000071, 41.287345886000026 ], [ 32.391382661785521, 41.326923439682581 ] ], [ [ 32.383107183158153, 41.327585961845479 ], [ 32.336472386530666, 41.317231131364075 ] ], [ [ 32.187431925942441, 41.254256021115275 ], [ 32.164233584430399, 41.239643326058612 ] ], [ [ 32.145954230592189, 41.216357190862624 ], [ 32.153644562000068, 41.138813019000054 ] ], [ [ 32.153644562000068, 41.138813019000054 ], [ 32.105785370000035, 41.097091675000058 ] ], [ [ 32.105785370000035, 41.097091675000058 ], [ 32.113491058000079, 41.060153961000026 ] ], [ [ 32.113491058000079, 41.060153961000026 ], [ 32.140548706000061, 41.046920776000036 ] ], [ [ 32.140548706000061, 41.046920776000036 ], [ 32.135219813201594, 41.024666831927455 ] ], [ [ 32.204939818806153, 41.02435791857291 ], [ 32.233974457000045, 41.033126831000061 ], [ 32.306079865000072, 41.023910522000051 ] ], [ [ 32.306079865000072, 41.023910522000051 ], [ 32.334392548000039, 40.987117767000029 ] ], [ [ 32.334392548000039, 40.987117767000029 ], [ 32.328075409000064, 40.965995789000033 ] ], [ [ 32.328075409000064, 40.965995789000033 ], [ 32.362277985000048, 40.953628540000068 ] ], [ [ 32.362277985000048, 40.953628540000068 ], [ 32.339164734000065, 40.935859680000078 ] ], [ [ 32.339164734000065, 40.935859680000078 ], [ 32.371407111886391, 40.8985491019085 ] ], [ [ 32.487728800226357, 40.871815275841101 ], [ 32.493396759000063, 40.870712280000077 ], [ 32.526330115966381, 40.849229617658146 ] ], [ [ 32.611701568737985, 40.793540037933397 ], [ 32.567692217762577, 40.691689497882109 ] ], [ [ 32.419963837000068, 40.579814911000028 ], [ 32.371959686000025, 40.531066895000038 ], [ 32.365651019896291, 40.529687320577722 ] ], [ [ 32.053417206000063, 40.422550201000035 ], [ 31.944314957000074, 40.344589233000079 ], [ 31.934136822091364, 40.342334506016556 ] ], [ [ 31.884106433521062, 40.33125144727174 ], [ 31.846832275000054, 40.322994232000042 ], [ 31.842242874031303, 40.323627334620348 ] ], [ [ 31.743464489763571, 40.33725321644544 ], [ 31.639709044221814, 40.29787670553177 ] ], [ [ 31.576471429375861, 40.273877226582663 ], [ 31.574136734000035, 40.272991180000076 ], [ 31.572622110932233, 40.273611412972713 ] ], [ [ 30.846612930000049, 40.135276794000049 ], [ 30.852312088000076, 40.108871460000046 ], [ 30.857061386000055, 40.06505203200004 ] ], [ [ 31.409128189000057, 40.053459167000028 ], [ 31.398658549326406, 40.025454965635916 ] ], [ [ 31.402300830291061, 40.024608266833759 ], [ 31.460594177000075, 40.041126251000037 ] ], [ [ 31.864168167000059, 39.844242096000073 ], [ 31.890958786000056, 39.860046387000068 ], [ 31.897118994611244, 39.856359014018913 ] ], [ [ 31.899848438844657, 39.854725225367417 ], [ 31.907337189000032, 39.85024261500007 ], [ 31.88579750100007, 39.831237793000071 ] ], [ [ 31.826530457000047, 39.74171829200003 ], [ 31.902421951000065, 39.689693451000039 ], [ 31.940684582681875, 39.645933725847286 ] ], [ [ 31.955871425873461, 39.628565028118174 ], [ 31.959589005000055, 39.624313354000037 ], [ 31.947877884000036, 39.572834015000069 ] ], [ [ 31.987554550000027, 39.362777710000046 ], [ 32.041549683000028, 39.318721771000071 ], [ 32.039212785901725, 39.312912637247983 ] ], [ [ 31.957378387000063, 39.245285034000062 ], [ 31.776844809274099, 39.126762217802316 ] ], [ [ 31.728466362759807, 39.095001091720562 ], [ 31.722545624000077, 39.091114044000051 ], [ 31.67028284907423, 39.106390272786967 ] ], [ [ 31.634042104914062, 39.113483309309281 ], [ 31.579527781834049, 39.084221358810083 ] ], [ [ 31.557761613716824, 39.112126103319859 ], [ 31.548911074663337, 39.123473356056337 ] ], [ [ 30.929346085000077, 39.241836548000038 ], [ 30.881448982737027, 39.236742454888969 ] ], [ [ 30.874206352009971, 39.230339894853032 ], [ 30.873170178681043, 39.192501592707536 ] ], [ [ 30.94577573784164, 39.151163872953475 ], [ 30.949174881000033, 39.14945220900006 ], [ 30.946063776891076, 39.14552213938186 ] ], [ [ 30.939542027165444, 39.137283607479198 ], [ 30.931959152000047, 39.127704620000031 ], [ 30.846003792134638, 39.127063667459232 ] ], [ [ 30.837878231970318, 39.126175633556535 ], [ 30.820850677981706, 39.118996742971035 ] ], [ [ 30.783907722947273, 39.103421432960296 ], [ 30.775463104000039, 39.099861145000034 ], [ 30.671097695899395, 39.152133494282559 ] ], [ [ 30.606638135565859, 39.137041610301004 ], [ 30.601316452000049, 39.135795593000068 ], [ 30.594396236297097, 39.139359384746349 ] ], [ [ 30.584570274198267, 39.144419585776241 ], [ 30.567071915000042, 39.153430939000032 ], [ 30.529767990000039, 39.209209442000031 ] ], [ [ 30.398840035275494, 39.161768655826648 ], [ 30.39476585400007, 39.15817260700004 ], [ 30.273086548000038, 39.116424561000031 ] ], [ [ 30.096088786947561, 38.858007260442058 ], [ 30.06909651123275, 38.832560108876294 ] ], [ [ 29.926163078541617, 38.91048819863822 ], [ 29.856871608750197, 38.889866160038892 ] ], [ [ 29.694551846708489, 38.938014443368779 ], [ 29.642291338300346, 38.945015330572389 ] ], [ [ 29.627615305155096, 38.940878656805985 ], [ 29.582553864000033, 38.902713776000041 ] ], [ [ 29.475938752337317, 38.849487721852796 ], [ 29.474035263000076, 38.847724915000072 ] ], [ [ 34.101865975017887, 40.048500535077167 ], [ 34.100255862803799, 40.06591676345657 ] ], [ [ 34.070711690077871, 40.14823464976272 ], [ 34.055760553643246, 40.18487831744072 ] ], [ [ 33.930714593643849, 40.269697387312803 ], [ 33.83782294925475, 40.283016063162108 ] ], [ [ 33.793316147358297, 40.318235339572666 ], [ 33.780489034715082, 40.321882700367929 ] ], [ [ 33.71235807443253, 40.332895661441242 ], [ 33.656875610000043, 40.333660126000041 ], [ 33.455944641986449, 40.407932856676439 ] ], [ [ 33.442664191627031, 40.408510090184471 ], [ 33.343677521000075, 40.404800415000068 ] ], [ [ 32.824432373000036, 40.66302108800005 ], [ 32.596788024163054, 40.688439676842741 ] ], [ [ 32.526330090432594, 40.849229576353295 ], [ 32.487728681918497, 40.871814962104729 ] ], [ [ 32.371406787810756, 40.898548553476864 ], [ 32.366737366000052, 40.89953994800004 ], [ 32.339164734000065, 40.935859680000078 ] ], [ [ 32.306079865000072, 41.023910522000051 ], [ 32.204939861508826, 41.024357625049731 ] ], [ [ 32.164233355961066, 41.23964357940006 ], [ 32.169883728000059, 41.246841431000064 ], [ 32.187431851001151, 41.254256164778944 ] ], [ [ 32.336472331427892, 41.317231303748059 ], [ 32.364501953000058, 41.329074860000048 ], [ 32.383107162570745, 41.32758625832448 ] ], [ [ 32.391382996722889, 41.326924109342031 ], [ 32.395206451000035, 41.326618195000037 ], [ 32.426311493000071, 41.287345886000026 ] ], [ [ 32.513137817000029, 41.294525146000069 ], [ 32.56790830818381, 41.332307450502206 ] ], [ [ 32.576364746291503, 41.35250211343768 ], [ 32.579261780000024, 41.37406158400006 ], [ 32.591158168291265, 41.387831409610236 ] ], [ [ 32.608067209754473, 41.407403278524008 ], [ 32.616008759000067, 41.416595459000064 ], [ 32.618382963450209, 41.417289950051448 ] ], [ [ 32.782912838789599, 41.535398560877574 ], [ 32.822613813116455, 41.584046021753252 ] ], [ [ 40.401283264000028, 40.960102081000059 ], [ 40.4563852098021, 40.879548640268368 ] ], [ [ 40.469497719313836, 40.860379484943216 ], [ 40.477123260000042, 40.849231720000034 ], [ 40.45521545400004, 40.790336609000065 ] ], [ [ 40.447065144900066, 40.613916685656918 ], [ 40.477935446653447, 40.52451424225066 ] ], [ [ 40.470264616434925, 40.524450502529987 ], [ 40.276916504000042, 40.522869110000045 ], [ 40.274824419089889, 40.523397154146437 ] ], [ [ 40.261527781001071, 40.526753237771644 ], [ 40.205020905000026, 40.541015625000057 ], [ 40.057361603000061, 40.607044220000034 ], [ 40.057087433560042, 40.608497756740917 ] ], [ [ 39.851231494581043, 40.705234414007414 ], [ 39.843994141000053, 40.729690552000079 ] ], [ [ 39.843994141000053, 40.729690552000079 ], [ 39.767959595000036, 40.69786453200004 ] ], [ [ 38.848873237643211, 40.664679334172767 ], [ 38.78306198100006, 40.549785614000029 ] ], [ [ 38.78306198100006, 40.549785614000029 ], [ 38.803550394167424, 40.523684550211151 ] ], [ [ 38.934217717152599, 40.032554468850449 ], [ 38.931148529000041, 40.032459259000063 ], [ 38.907577161969634, 40.039565084682025 ] ], [ [ 37.638900757000044, 39.011550903000057 ], [ 37.520604478595139, 39.017110260126685 ] ], [ [ 37.503315677573134, 39.012667222312643 ], [ 37.500168135645922, 39.008320617117676 ] ], [ [ 37.395172119000051, 38.646572113000047 ], [ 37.317514791282711, 38.564950375279992 ] ], [ [ 37.312611290536935, 38.562512283742308 ], [ 37.022049947294427, 38.578407233443777 ] ], [ [ 36.851769706337251, 38.561374724501292 ], [ 36.837089214716002, 38.557209692664877 ] ], [ [ 36.952068329000042, 38.909420013000044 ], [ 36.984730853800862, 38.972945377812096 ] ], [ [ 36.977915253303131, 38.996544233420892 ], [ 36.952776716694537, 39.045567854153774 ] ], [ [ 36.943044060577982, 39.054347980278635 ], [ 36.832447052000077, 39.07204437300004 ] ], [ [ 36.832447052000077, 39.07204437300004 ], [ 36.727512924981625, 39.164018787066496 ] ], [ [ 36.699798644570905, 39.177044842272288 ], [ 36.675173936240334, 39.183446480786465 ] ], [ [ 36.546360250035285, 39.098888786750514 ], [ 36.544387817000029, 39.097446442000034 ], [ 36.490146637000066, 39.098056793000069 ] ], [ [ 36.181086104145415, 39.095412983996219 ], [ 36.116600037000069, 39.088302612000064 ], [ 36.105512339147097, 39.096395730579992 ] ], [ [ 36.047531870938968, 39.138716761577605 ], [ 36.030850721071737, 39.150892645671419 ] ], [ [ 35.851576942082104, 39.297222160488815 ], [ 35.84624862700008, 39.30154800400004 ], [ 35.908637248062973, 39.356147107945951 ] ], [ [ 35.905031575632847, 39.44320091014572 ], [ 35.904529572000058, 39.455318451000039 ], [ 35.909275192448568, 39.456401103995574 ] ], [ [ 35.919312799254968, 39.458691056425351 ], [ 35.940429687000062, 39.463508606000062 ], [ 36.037624359000063, 39.437332153000057 ] ], [ [ 36.037624359000063, 39.437332153000057 ], [ 36.150413606004939, 39.613587251830438 ] ], [ [ 36.140711788031446, 39.729459057948397 ], [ 36.052558899000076, 39.778125763000048 ] ], [ [ 36.08403396600005, 39.840446472000053 ], [ 36.029033661000028, 39.870868683000026 ], [ 36.025688071238896, 39.881746560764988 ] ], [ [ 35.990183196050026, 39.965149377288391 ], [ 35.954833984000061, 40.004611969000052 ], [ 35.954488957664964, 40.011898587120207 ] ], [ [ 35.953071486042482, 40.041834198864755 ], [ 35.952232684497567, 40.059548865586088 ] ], [ [ 35.943046022078491, 40.076784742597361 ], [ 35.919220869844359, 40.094667241011685 ] ], [ [ 35.895219543799818, 40.107190502384135 ], [ 35.728076935000047, 40.091651917000036 ] ], [ [ 35.501403809000067, 40.177009583000029 ], [ 35.455085110031654, 40.22905369466033 ] ], [ [ 35.430026233151949, 40.236879469974355 ], [ 35.379718425350752, 40.244658889130598 ] ], [ [ 35.2254752266888, 40.227372117158701 ], [ 35.165939026490669, 40.217085936451532 ] ], [ [ 26.361464192486743, 41.807410947947943 ], [ 26.375525735415472, 41.816621258692116 ] ], [ [ 26.793979256111612, 41.977297682165002 ], [ 26.819427124000072, 41.965656636000048 ] ], [ [ 26.819427124000072, 41.965656636000048 ], [ 26.834763058530445, 41.973909286268842 ] ], [ [ 26.990249251393625, 42.037586161208445 ], [ 26.996248477973651, 42.042418951465947 ] ], [ [ 27.173824790847362, 42.0570729649694 ], [ 27.180059255969145, 42.063533160714165 ] ], [ [ 27.364957733807802, 42.020074075999005 ], [ 27.396859578000061, 41.989324443000058 ] ], [ [ 27.396859578000061, 41.989324443000058 ], [ 27.429527244000198, 41.970067000519656 ] ], [ [ 27.531265808031758, 41.910092573669949 ], [ 27.546410312520845, 41.901164956248756 ] ], [ [ 27.622742534482335, 41.956099152010331 ], [ 27.630574699213778, 41.957621350106074 ] ], [ [ 27.686577990098115, 41.968505710389941 ], [ 27.687073441543635, 41.968602002446197 ] ], [ [ 27.807866058216991, 41.948064695230265 ], [ 27.81533368060072, 41.946795018927709 ] ], [ [ 29.881757736000054, 41.069217682000044 ], [ 29.875207901000067, 41.037818909000066 ], [ 29.8602485751206, 41.024935021094464 ] ], [ [ 29.846407393942972, 41.013014147907356 ], [ 29.841333389000056, 41.008644104000041 ], [ 29.833335992794701, 41.010937808888897 ] ], [ [ 29.522431249891611, 41.034314922816137 ], [ 29.516729355000052, 40.997295380000025 ] ], [ [ 29.363659012985224, 40.857907525236953 ], [ 29.361568507733121, 40.821156545364815 ] ], [ [ 23.023018510058495, 44.031629596105212 ], [ 23.040071248000089, 44.062324524000118 ] ], [ [ 23.040071248000089, 44.062324524000118 ], [ 23.030976479367439, 44.09307104402501 ] ], [ [ 28.578378734418639, 43.741278343994473 ], [ 28.434574015000123, 43.735212707000031 ] ], [ [ 28.434574015000123, 43.735212707000031 ], [ 28.221254694597278, 43.761980975570033 ] ], [ [ 27.656274300806178, 44.023877508457296 ], [ 27.633434285000135, 44.029768372000078 ] ], [ [ 27.633434285000135, 44.029768372000078 ], [ 27.57452315200004, 44.016280823 ] ], [ [ 27.57452315200004, 44.016280823 ], [ 27.383838115846661, 44.015092271225939 ] ], [ [ 27.341668204355834, 44.053074767992364 ], [ 27.285342782448804, 44.072452780075047 ] ], [ [ 27.100235944862245, 44.144490460129909 ], [ 27.027477352865684, 44.177045795992065 ] ], [ [ 26.054304986204691, 43.934321531883384 ], [ 25.934004015029416, 43.870321209241162 ] ], [ [ 25.403130149036301, 43.650050044896801 ], [ 25.359620582268708, 43.654287318171036 ] ], [ [ 25.081599414583554, 43.718934882604707 ], [ 24.963675731803438, 43.74960434229483 ] ], [ [ 23.799920589448323, 43.818463830642962 ], [ 23.74287164628198, 43.842699296471757 ] ], [ [ 23.592698088551995, 43.837429061757462 ], [ 23.484695272000096, 43.880604350000041 ] ], [ [ 23.484695272000096, 43.880604350000041 ], [ 23.325151730135552, 43.886592243538637 ] ], [ [ 22.919560823604495, 43.834224921296268 ], [ 22.888763640091348, 43.839521417584187 ] ], [ [ 43.662353140492122, 40.565153249112399 ], [ 43.664807169000085, 40.57406199200004 ], [ 43.699968338467848, 40.605492646867916 ] ], [ [ 43.441813660418546, 41.100802554538269 ], [ 43.440428100000133, 41.10658762600012 ], [ 43.443449441599931, 41.106011391054125 ] ], [ [ 43.863245669256138, 41.158987544171055 ], [ 43.955847837470195, 41.16048612882463 ] ], [ [ 44.84778474538134, 41.20890768623449 ], [ 44.857705244855495, 41.219344878014617 ] ], [ [ 44.801276122910551, 41.258516988788202 ], [ 44.820704812789153, 41.273346867780504 ] ], [ [ 45.002400473540888, 41.290451524699357 ], [ 45.039399738859274, 41.231180352660004 ] ], [ [ 45.199752318881288, 41.142656779544559 ], [ 45.201044149000097, 41.126741435 ] ], [ [ 45.201044149000097, 41.126741435 ], [ 45.166730998000048, 41.107776185000048 ] ], [ [ 45.166730998000048, 41.107776185000048 ], [ 45.067822307000085, 41.110928447 ] ], [ [ 45.067822307000085, 41.110928447 ], [ 45.057176961000096, 41.078785706000062 ] ], [ [ 45.057176961000096, 41.078785706000062 ], [ 45.07004378317307, 41.062095010060752 ] ], [ [ 45.582208757091202, 40.799370583361181 ], [ 45.555855288636657, 40.776582583403446 ] ], [ [ 45.526193074522084, 40.441046273608741 ], [ 45.585413452000125, 40.398723857000093 ] ], [ [ 45.585413452000125, 40.398723857000093 ], [ 45.818369891518259, 40.297800182480529 ] ], [ [ 45.639569458335231, 40.02541286449344 ], [ 45.576267618180687, 39.993891131265464 ] ], [ [ 45.816821308130876, 39.839170839367462 ], [ 45.861881572800506, 39.804548846685471 ] ], [ [ 46.42327047411775, 39.57454308043711 ], [ 46.42536224569492, 39.574697138903979 ] ], [ [ 46.42536224569492, 39.574697138903979 ], [ 46.44693551270008, 39.576286004761293 ] ], [ [ 46.518275506976316, 39.525443395658883 ], [ 46.503703654000049, 39.518467509000018 ] ], [ [ 46.503703654000049, 39.518467509000018 ], [ 46.492025595181744, 39.510199857119808 ] ], [ [ 46.405724236247408, 39.451184362216324 ], [ 46.373995809000064, 39.435991924000106 ] ], [ [ 46.373995809000064, 39.435991924000106 ], [ 46.360869995000144, 39.41025706 ] ], [ [ 46.360869995000144, 39.41025706 ], [ 46.374615526648597, 39.378838704089034 ] ], [ [ 46.514141363416471, 39.184431417774555 ], [ 46.48564929123313, 39.195673188016372 ] ], [ [ 46.418333379721645, 39.21192232582024 ], [ 46.395286499000065, 39.195179749000076 ] ], [ [ 46.395286499000065, 39.195179749000076 ], [ 46.396268319103342, 39.164433270871243 ] ], [ [ 46.479312735846904, 39.114770287251893 ], [ 46.491921069929589, 39.08190594233146 ] ], [ [ 45.955107346988257, 39.203241987429074 ], [ 45.979238844579115, 39.227941892128072 ] ], [ [ 45.958826418395731, 39.27243636998525 ], [ 45.90178842600011, 39.294123976000051 ] ], [ [ 45.90178842600011, 39.294123976000051 ], [ 45.89984590977533, 39.294862580691635 ] ], [ [ 45.862935019926972, 39.314367686143292 ], [ 45.844312378000097, 39.330055237000025 ] ], [ [ 45.844312378000097, 39.330055237000025 ], [ 45.823745158000065, 39.343077698000073 ] ], [ [ 45.823745158000065, 39.343077698000073 ], [ 45.799425737592458, 39.347928292548943 ] ], [ [ 45.714655228328063, 39.569471963615072 ], [ 45.709065735994898, 39.568422103297394 ] ], [ [ 45.709065735994898, 39.568422103297394 ], [ 45.586447962667442, 39.545391115384135 ] ], [ [ 45.547993303204436, 39.531052608126359 ], [ 45.529140249563689, 39.521759361187733 ] ], [ [ 45.144407041694215, 39.589833626672579 ], [ 45.149484550747005, 39.608460067874887 ] ], [ [ 45.067511316641273, 39.757212986937013 ], [ 45.033510086624652, 39.770389754960142 ] ], [ [ 44.979456574011614, 41.032638401293319 ], [ 45.015732463000063, 41.023233541000067 ] ], [ [ 45.015732463000063, 41.023233541000067 ], [ 45.029995158000133, 41.046281230000048 ] ], [ [ 45.029995158000133, 41.046281230000048 ], [ 45.018884725000078, 41.074909973 ] ], [ [ 45.018884725000078, 41.074909973 ], [ 44.979456590017392, 41.082041143206624 ] ], [ [ 45.22047334221979, 40.979050941099786 ], [ 45.191846579662005, 40.997808188445411 ] ], [ [ 45.513685590296213, 40.601967487454964 ], [ 45.479271034016797, 40.609821860701949 ] ], [ [ 45.314423172399636, 41.451630801948788 ], [ 45.333095596684416, 41.444352456300805 ] ], [ [ 45.333095596684416, 41.444352456300805 ], [ 45.368488044689357, 41.430556791513617 ] ], [ [ 45.685873081371859, 41.296239361906572 ], [ 45.709746306208437, 41.267715509816071 ] ], [ [ 45.820748888509137, 41.208803346980901 ], [ 45.969161674469184, 41.168289549025239 ] ], [ [ 46.087608890787038, 41.183659487423647 ], [ 46.11313227941541, 41.196039094674546 ] ], [ [ 46.47492088014225, 41.044110853068588 ], [ 46.496779012000047, 41.044834290000054 ] ], [ [ 46.496779012000047, 41.044834290000054 ], [ 46.505563361795687, 41.055272164721934 ] ], [ [ 46.219689135609308, 41.593302634415792 ], [ 46.192766561000042, 41.610174459000049 ] ], [ [ 46.192766561000042, 41.610174459000049 ], [ 46.180002754780929, 41.655157831640842 ] ], [ [ 46.188994964058956, 41.740141308092412 ], [ 46.20832038499077, 41.755513802947156 ] ], [ [ 46.238781564208082, 41.755842740141837 ], [ 46.255062974311173, 41.753057289208272 ] ], [ [ 44.801070991462879, 39.653052356599638 ], [ 44.788329728129902, 39.676958643911277 ], [ 44.78432568732805, 39.690239013690608 ] ], [ [ 43.447165617477687, 41.117839645147541 ], [ 43.446505499148941, 41.120482769620722 ], [ 43.451796515268882, 41.132579955782987 ] ], [ [ 42.262463827000033, 41.482326966000116 ], [ 42.213267863000112, 41.480208232000038 ], [ 42.208634618869382, 41.481870441050212 ] ] ] } }
]
}
