{"type":"FeatureCollection","features":[{"type":"Feature","geometry":{"type":"LineString","coordinates":[[29.30544,39.10588],[35.07183,39.05063]]},"properties":{"zone_a":"TUR_1","zone_b":"TUR_3","mw":15801,"status":"existing","label":"15,801 MW"}},{"type":"Feature","geometry":{"type":"LineString","coordinates":[[41.36343,39.03017],[35.07183,39.05063]]},"properties":{"zone_a":"TUR_2","zone_b":"TUR_3","mw":10551,"status":"existing","label":"10,551 MW"}},{"type":"Feature","geometry":{"type":"LineString","coordinates":[[44.9323,40.28813],[41.36343,39.03017]]},"properties":{"zone_a":"ARM_1","zone_b":"TUR_2","mw":2832,"status":"existing","label":"2,832 MW"}},{"type":"Feature","geometry":{"type":"LineString","coordinates":[[25.21751,42.76852],[29.30544,39.10588]]},"properties":{"zone_a":"BGR_1","zone_b":"TUR_1","mw":650,"status":"existing","label":"650 MW"}},{"type":"Feature","geometry":{"type":"LineString","coordinates":[[44.9323,40.28813],[45.48652,39.30524]]},"properties":{"zone_a":"ARM_1","zone_b":"AZE_2","mw":531,"status":"existing","label":"531 MW"}},{"type":"Feature","geometry":{"type":"LineString","coordinates":[[45.48652,39.30524],[41.36343,39.03017]]},"properties":{"zone_a":"AZE_2","zone_b":"TUR_2","mw":50,"status":"existing","label":"50 MW"}},{"type":"Feature","geometry":{"type":"LineString","coordinates":[[47.661,40.34602],[43.50753,42.1688]]},"properties":{"zone_a":"AZE_1","zone_b":"GEO_1","mw":2000,"status":"existing","label":"2,000 MW"}},{"type":"Feature","geometry":{"type":"LineString","coordinates":[[44.9323,40.28813],[43.50753,42.1688]]},"properties":{"zone_a":"ARM_1","zone_b":"GEO_1","mw":500,"status":"existing","label":"500 MW"}},{"type":"Feature","geometry":{"type":"LineString","coordinates":[[43.50753,42.1688],[41.36343,39.03017]]},"properties":{"zone_a":"GEO_1","zone_b":"TUR_2","mw":1170,"status":"existing","label":"1,170 MW"}},{"type":"Feature","geometry":{"type":"LineString","coordinates":[[28.55943,44.6724],[24.73647,45.93134]]},"properties":{"zone_a":"Dobrogea","zone_b":"Romania","mw":10370,"status":"existing","label":"10,370 MW"}},{"type":"Feature","geometry":{"type":"LineString","coordinates":[[25.21751,42.76852],[24.73647,45.93134]]},"properties":{"zone_a":"BGR_1","zone_b":"Romania","mw":1500,"status":"existing","label":"1,500 MW"}},{"type":"Feature","geometry":{"type":"LineString","coordinates":[[25.21751,42.76852],[28.55943,44.6724]]},"properties":{"zone_a":"BGR_1","zone_b":"Dobrogea","mw":1500,"status":"existing","label":"1,500 MW"}},{"type":"Feature","geometry":{"type":"LineString","coordinates":[[44.9323,40.28813],[47.661,40.34602]]},"properties":{"zone_a":"ARM_1","zone_b":"AZE_1","mw":436,"status":"existing","label":"436 MW"}},{"type":"Feature","geometry":{"type":"LineString","coordinates":[[47.661,40.34602],[29.30544,39.10588]]},"properties":{"zone_a":"AZE_1","zone_b":"TUR_1","mw":1000,"status":"planned","label":"1,000 MW"}},{"type":"Feature","geometry":{"type":"LineString","coordinates":[[47.661,40.34602],[47.661,40.34602]]},"properties":{"zone_a":"AZE_1","zone_b":"AZE_1","mw":1000,"status":"under_construction","label":"1,000 MW"}}]}