{
"type": "FeatureCollection",
"name": "blacksea_recommended_inner_borders",
"crs": { "type": "name", "properties": { "name": "urn:ogc:def:crs:OGC:1.3:CRS84" } },
"features": [
{ "type": "Feature", "properties": { }, "geometry": { "type": "MultiLineString", "coordinates": [ [ [ 32.571878962116806, 36.094176117711086 ], [ 32.575097283912498, 36.101104234272952 ] ], [ [ 32.575097283912498, 36.101104234272952 ], [ 32.590290155366347, 36.119940294409048 ] ], [ [ 32.590290155366347, 36.119940294409048 ], [ 32.597834914249859, 36.144124863771424 ] ], [ [ 32.597834914249859, 36.144124863771424 ], [ 32.601969028447911, 36.169342962807491 ] ], [ [ 32.601969028447911, 36.169342962807491 ], [ 32.614784783990558, 36.196395575395456 ] ], [ [ 32.614784783990558, 36.196395575395456 ], [ 32.631321241681917, 36.221329454490728 ] ], [ [ 32.631321241681917, 36.221329454490728 ], [ 32.647237582648302, 36.269259345442435 ] ], [ [ 32.647237582648302, 36.269259345442435 ], [ 32.64258670361346, 36.379381821913512 ] ], [ [ 32.64258670361346, 36.379381821913512 ], [ 32.651681756108133, 36.438034573336893 ] ], [ [ 32.651681756108133, 36.438034573336893 ], [ 32.632044712093773, 36.47030650484129 ] ], [ [ 32.632044712093773, 36.47030650484129 ], [ 32.592253859228208, 36.487437241735279 ] ], [ [ 32.592253859228208, 36.487437241735279 ], [ 32.558664178109325, 36.50619578750559 ] ], [ [ 32.558664178109325, 36.50619578750559 ], [ 32.531585727998902, 36.533791002452801 ] ], [ [ 32.531585727998902, 36.533791002452801 ], [ 32.490554639884692, 36.601564642993878 ] ], [ [ 32.490554639884692, 36.601564642993878 ], [ 32.45624148925333, 36.673394884266486 ] ], [ [ 32.45624148925333, 36.673394884266486 ], [ 32.463166131411811, 36.741581935957583 ] ], [ [ 32.463166131411811, 36.741581935957583 ], [ 32.447456496020436, 36.808270371780225 ] ], [ [ 32.447456496020436, 36.808270371780225 ], [ 32.426372512081741, 36.832119046157061 ] ], [ [ 32.426372512081741, 36.832119046157061 ], [ 32.394849887612224, 36.837855129910281 ] ], [ [ 32.394849887612224, 36.837855129910281 ], [ 32.348651157424968, 36.841239936174077 ] ], [ [ 32.348651157424968, 36.841239936174077 ], [ 32.305346307086381, 36.854184882026686 ] ], [ [ 32.305346307086381, 36.854184882026686 ], [ 32.290256789319358, 36.881392524245598 ] ], [ [ 32.290256789319358, 36.881392524245598 ], [ 32.30162560403835, 36.911597398201366 ] ], [ [ 32.30162560403835, 36.911597398201366 ], [ 32.327153762336252, 36.927642931276239 ] ], [ [ 32.327153762336252, 36.927642931276239 ], [ 32.323536411176406, 36.958209540437906 ] ], [ [ 32.323536411176406, 36.958209540437906 ], [ 32.291600375556868, 36.973945014251001 ] ], [ [ 32.291600375556868, 36.973945014251001 ], [ 32.253049757939948, 36.986941636946938 ] ], [ [ 32.253049757939948, 36.986941636946938 ], [ 32.185870395702182, 37.037171129444062 ] ], [ [ 32.185870395702182, 37.037171129444062 ], [ 32.155484652794485, 37.05463776312223 ] ], [ [ 32.155484652794485, 37.05463776312223 ], [ 32.127889438746593, 37.07623851189777 ] ], [ [ 32.127889438746593, 37.07623851189777 ], [ 32.083241001271176, 37.126623033126464 ] ], [ [ 32.083241001271176, 37.126623033126464 ], [ 32.033114861561614, 37.168635973171604 ] ], [ [ 32.033114861561614, 37.168635973171604 ], [ 31.96304162037444, 37.207600002837864 ] ], [ [ 31.96304162037444, 37.207600002837864 ], [ 31.898652785197839, 37.255168159482935 ] ], [ [ 31.898652785197839, 37.255168159482935 ], [ 31.815350376418735, 37.298498847343922 ] ], [ [ 31.815350376418735, 37.298498847343922 ], [ 31.558725212598461, 37.340718492064752 ] ], [ [ 31.558725212598461, 37.340718492064752 ], [ 31.458989698915445, 37.341286932845662 ] ], [ [ 31.458989698915445, 37.341286932845662 ], [ 31.415478143001906, 37.354851996322566 ] ], [ [ 31.415478143001906, 37.354851996322566 ], [ 31.37641075964882, 37.379940904149407 ] ], [ [ 31.37641075964882, 37.379940904149407 ], [ 31.352846307011419, 37.399836331481481 ] ], [ [ 31.352846307011419, 37.399836331481481 ], [ 31.331865675860229, 37.422238064135342 ] ], [ [ 31.331865675860229, 37.422238064135342 ], [ 31.358530714820631, 37.477609361183056 ] ], [ [ 31.358530714820631, 37.477609361183056 ], [ 31.367729120102808, 37.537554022899826 ] ], [ [ 31.367729120102808, 37.537554022899826 ], [ 31.353776482998285, 37.573779202348305 ] ], [ [ 31.353776482998285, 37.573779202348305 ], [ 31.329281854374074, 37.603880724415887 ] ], [ [ 31.329281854374074, 37.603880724415887 ], [ 31.329178500687249, 37.638865667716345 ] ], [ [ 31.329178500687249, 37.638865667716345 ], [ 31.372690056600788, 37.649200955459719 ] ], [ [ 31.372690056600788, 37.649200955459719 ], [ 31.405142857057172, 37.681498725385836 ] ], [ [ 31.405142857057172, 37.681498725385836 ], [ 31.409276971255224, 37.729118557075708 ] ], [ [ 31.409276971255224, 37.729118557075708 ], [ 31.450721469620134, 37.780743313553046 ] ], [ [ 31.450721469620134, 37.780743313553046 ], [ 31.448241000921428, 37.859213976144076 ] ], [ [ 31.448241000921428, 37.859213976144076 ], [ 31.425193312221552, 37.937581285048225 ] ], [ [ 31.425193312221552, 37.937581285048225 ], [ 31.447104120258928, 38.002771104103147 ] ], [ [ 31.447104120258928, 38.002771104103147 ], [ 31.479453566129166, 38.018739121912915 ] ], [ [ 31.479453566129166, 38.018739121912915 ], [ 31.549630161003108, 38.039693915541761 ] ], [ [ 31.549630161003108, 38.039693915541761 ], [ 31.613605584130369, 38.071991686367198 ] ], [ [ 31.613605584130369, 38.071991686367198 ], [ 31.620736931863917, 38.104651191499272 ] ], [ [ 31.620736931863917, 38.104651191499272 ], [ 31.548286573866278, 38.154803167831915 ] ], [ [ 31.548286573866278, 38.154803167831915 ], [ 31.525342237953907, 38.18089976691067 ] ], [ [ 31.525342237953907, 38.18089976691067 ], [ 31.491442499371828, 38.192604479313275 ] ], [ [ 31.491442499371828, 38.192604479313275 ], [ 31.421886021222861, 38.238079739088676 ] ], [ [ 31.421886021222861, 38.238079739088676 ], [ 31.361424594669302, 38.300039781510691 ] ], [ [ 31.361424594669302, 38.300039781510691 ], [ 31.283289828862507, 38.350062568432747 ] ], [ [ 31.283289828862507, 38.350062568432747 ], [ 31.254351026778465, 38.422978014423791 ] ], [ [ 31.254351026778465, 38.422978014423791 ], [ 31.430774367243259, 38.514109402027259 ] ], [ [ 31.430774367243259, 38.514109402027259 ], [ 31.507152133863883, 38.577077134801925 ] ], [ [ 31.507152133863883, 38.577077134801925 ], [ 31.59479536331537, 38.666374009752701 ] ], [ [ 31.59479536331537, 38.666374009752701 ], [ 31.598309359889015, 38.689008287302613 ] ], [ [ 31.598309359889015, 38.689008287302613 ], [ 31.593451776178483, 38.708645331316973 ] ], [ [ 31.593451776178483, 38.708645331316973 ], [ 31.592211540929839, 38.728824977690522 ] ], [ [ 31.592211540929839, 38.728824977690522 ], [ 31.608024530008038, 38.782077542144805 ] ], [ [ 31.608024530008038, 38.782077542144805 ], [ 31.63830691922891, 38.829103095531423 ] ], [ [ 31.63830691922891, 38.829103095531423 ], [ 31.714891392323864, 38.927650050809177 ] ], [ [ 31.714891392323864, 38.927650050809177 ], [ 31.723573031869932, 38.967466742995782 ] ], [ [ 31.723573031869932, 38.967466742995782 ], [ 31.704762811054877, 38.976380927437845 ] ], [ [ 31.704762811054877, 38.976380927437845 ], [ 31.674687127408959, 39.000487983333755 ] ], [ [ 31.674687127408959, 39.000487983333755 ], [ 31.679027948081341, 39.012864488405398 ] ], [ [ 31.679027948081341, 39.012864488405398 ], [ 31.685229119828023, 39.025990302310561 ] ], [ [ 31.685229119828023, 39.025990302310561 ], [ 31.69783816889634, 39.092627062189138 ] ], [ [ 31.69783816889634, 39.092627062189138 ], [ 31.75705936020131, 39.086348375177351 ] ], [ [ 31.75705936020131, 39.086348375177351 ], [ 31.835400831583115, 39.097872219527289 ] ], [ [ 31.835400831583115, 39.097872219527289 ], [ 31.850490350249459, 39.113556017396263 ] ], [ [ 31.850490350249459, 39.113556017396263 ], [ 31.85803510913297, 39.14218476021847 ] ], [ [ 31.85803510913297, 39.14218476021847 ], [ 31.861445753818487, 39.171433621564347 ] ], [ [ 31.861445753818487, 39.171433621564347 ], [ 31.885320264818347, 39.185050360985372 ] ], [ [ 31.885320264818347, 39.185050360985372 ], [ 31.938340285275899, 39.204532376268105 ] ], [ [ 31.938340285275899, 39.204532376268105 ], [ 31.948468865645623, 39.215048530265449 ] ], [ [ 31.948468865645623, 39.215048530265449 ], [ 31.95611697821596, 39.225513007419352 ] ], [ [ 31.95611697821596, 39.225513007419352 ], [ 31.978027785354016, 39.230473944816652 ] ], [ [ 31.978027785354016, 39.230473944816652 ], [ 31.999938591592695, 39.232721869518627 ] ], [ [ 31.999938591592695, 39.232721869518627 ], [ 32.023606397916922, 39.251067003239598 ] ], [ [ 32.023606397916922, 39.251067003239598 ], [ 32.042726677993755, 39.275122382292068 ] ], [ [ 32.042726677993755, 39.275122382292068 ], [ 32.035802035835275, 39.305275580303771 ] ], [ [ 32.035802035835275, 39.305275580303771 ], [ 32.00427941316434, 39.322251288466191 ] ], [ [ 32.00427941316434, 39.322251288466191 ], [ 31.983298781113831, 39.348244533858121 ] ], [ [ 31.983298781113831, 39.348244533858121 ], [ 31.982678664388857, 39.386485094011846 ] ], [ [ 31.982678664388857, 39.386485094011846 ], [ 31.979578078065856, 39.391962796246048 ] ], [ [ 31.979578078065856, 39.391962796246048 ], [ 31.975237258292793, 39.404933580520321 ] ], [ [ 31.975237258292793, 39.404933580520321 ], [ 31.984952426613177, 39.435112616953688 ] ], [ [ 31.984952426613177, 39.435112616953688 ], [ 31.990533481634827, 39.46518829970023 ] ], [ [ 31.990533481634827, 39.46518829970023 ], [ 31.991153599259178, 39.495909939392163 ] ], [ [ 31.991153599259178, 39.495909939392163 ], [ 31.979474725278351, 39.516761380233504 ] ], [ [ 31.979474725278351, 39.516761380233504 ], [ 31.965108677023807, 39.534899807480087 ] ], [ [ 31.965108677023807, 39.534899807480087 ], [ 31.961181268400821, 39.566164049531267 ] ], [ [ 31.961181268400821, 39.566164049531267 ], [ 31.946918572933782, 39.586472887114041 ] ], [ [ 31.946918572933782, 39.586472887114041 ], [ 31.896999138799174, 39.620605169692794 ] ], [ [ 31.896999138799174, 39.620605169692794 ], [ 31.847286411138953, 39.725895900875116 ] ], [ [ 31.847286411138953, 39.725895900875116 ], [ 31.840775181029755, 39.775763658166284 ] ], [ [ 31.840775181029755, 39.775763658166284 ], [ 31.88170291455782, 39.811782132039752 ] ], [ [ 31.88170291455782, 39.811782132039752 ], [ 31.879532505121006, 39.838292141369209 ] ], [ [ 31.879532505121006, 39.838292141369209 ], [ 31.867130160728323, 39.845294297893531 ] ], [ [ 31.867130160728323, 39.845294297893531 ], [ 31.852454054111263, 39.861959946794059 ] ], [ [ 31.852454054111263, 39.861959946794059 ], [ 31.845012648015256, 39.876067613529528 ] ], [ [ 31.845012648015256, 39.876067613529528 ], [ 31.811629673370703, 39.878134671078158 ] ], [ [ 31.811629673370703, 39.878134671078158 ], [ 31.782277459237321, 39.890537014571521 ] ], [ [ 31.782277459237321, 39.890537014571521 ], [ 31.756956008313125, 39.920250963011483 ] ], [ [ 31.756956008313125, 39.920250963011483 ], [ 31.743003371208601, 39.951360175431716 ] ], [ [ 31.743003371208601, 39.951360175431716 ], [ 31.738662551435596, 39.976397407314494 ] ], [ [ 31.738662551435596, 39.976397407314494 ], [ 31.726053500568582, 39.994070746567672 ] ], [ [ 31.726053500568582, 39.994070746567672 ], [ 31.726983676555392, 40.02352631348856 ] ], [ [ 31.726983676555392, 40.02352631348856 ], [ 31.681198358417475, 40.018384508038594 ] ], [ [ 31.681198358417475, 40.018384508038594 ], [ 31.640270623990091, 40.040062771179919 ] ], [ [ 31.640270623990091, 40.040062771179919 ], [ 31.604097121384996, 40.029985866754316 ] ], [ [ 31.604097121384996, 40.029985866754316 ], [ 31.531543409700589, 40.029107368510211 ] ], [ [ 31.531543409700589, 40.029107368510211 ], [ 31.492579380034329, 40.022053534243184 ] ], [ [ 31.492579380034329, 40.022053534243184 ], [ 31.459816522114807, 40.030063382019421 ] ], [ [ 31.459816522114807, 40.030063382019421 ], [ 31.430774367243259, 40.023577989432624 ] ], [ [ 31.430774367243259, 40.023577989432624 ], [ 31.389123163303339, 40.056883449711393 ] ], [ [ 31.389123163303339, 40.056883449711393 ], [ 31.364111768942962, 40.054480496277847 ] ], [ [ 31.364111768942962, 40.054480496277847 ], [ 31.338893669906895, 40.048279324531165 ] ], [ [ 31.338893669906895, 40.048279324531165 ], [ 31.246909620682402, 40.057710272910754 ] ], [ [ 31.246909620682402, 40.057710272910754 ], [ 31.219727817784531, 40.039132595193109 ] ], [ [ 31.219727817784531, 40.039132595193109 ], [ 31.191099074063004, 40.02409475426947 ] ], [ [ 31.191099074063004, 40.02409475426947 ], [ 31.164744094364437, 40.031303616368803 ] ], [ [ 31.164744094364437, 40.031303616368803 ], [ 31.139939405579071, 40.04355093023122 ] ], [ [ 31.139939405579071, 40.04355093023122 ], [ 31.081648390260966, 40.048124294900276 ] ], [ [ 31.081648390260966, 40.048124294900276 ], [ 30.986460401925967, 40.016524156064918 ] ], [ [ 30.986460401925967, 40.016524156064918 ], [ 30.945739373972913, 40.014637966568898 ] ], [ [ 30.945739373972913, 40.014637966568898 ], [ 30.922071567648686, 40.020012315116219 ] ], [ [ 30.922071567648686, 40.020012315116219 ], [ 30.91659386631386, 40.04086375595756 ] ], [ [ 30.91659386631386, 40.04086375595756 ], [ 30.906671990619827, 40.100575872778279 ] ], [ [ 30.906671990619827, 40.100575872778279 ], [ 30.863573845856308, 40.142795519297749 ] ], [ [ 30.863573845856308, 40.142795519297749 ], [ 30.925378858647377, 40.205737412751375 ] ], [ [ 30.925378858647377, 40.205737412751375 ], [ 31.007234328401523, 40.241600856993955 ] ], [ [ 31.007234328401523, 40.241600856993955 ], [ 31.038240187134932, 40.292166246275201 ] ], [ [ 31.038240187134932, 40.292166246275201 ], [ 31.034106072936879, 40.352420966354487 ] ], [ [ 31.034106072936879, 40.352420966354487 ], [ 31.043924594944087, 40.389886380152291 ] ], [ [ 31.043924594944087, 40.389886380152291 ], [ 31.069246046767603, 40.411332099296942 ] ], [ [ 31.069246046767603, 40.411332099296942 ], [ 31.162987095178266, 40.386940823460236 ] ], [ [ 31.162987095178266, 40.386940823460236 ], [ 31.250940382992269, 40.345961412189411 ] ], [ [ 31.250940382992269, 40.345961412189411 ], [ 31.419715609987406, 40.359655666875483 ] ], [ [ 31.419715609987406, 40.359655666875483 ], [ 31.452375116018743, 40.332008775084887 ] ], [ [ 31.452375116018743, 40.332008775084887 ], [ 31.475009392669335, 40.324102280995476 ] ], [ [ 31.475009392669335, 40.324102280995476 ], [ 31.504464958690846, 40.321053372415179 ] ], [ [ 31.504464958690846, 40.321053372415179 ], [ 31.535574172010399, 40.311622423136271 ] ], [ [ 31.535574172010399, 40.311622423136271 ], [ 31.567923617880638, 40.308495999290926 ] ], [ [ 31.567923617880638, 40.308495999290926 ], [ 31.657737257668259, 40.336142890182202 ] ], [ [ 31.657737257668259, 40.336142890182202 ], [ 31.696494581759509, 40.339992784439403 ] ], [ [ 31.696494581759509, 40.339992784439403 ], [ 31.821448195377911, 40.338416653305899 ] ], [ [ 31.821448195377911, 40.338416653305899 ], [ 31.906094191293846, 40.353351142341296 ] ], [ [ 31.906094191293846, 40.353351142341296 ], [ 31.975133904605968, 40.377096463031307 ] ], [ [ 31.975133904605968, 40.377096463031307 ], [ 32.093059523278384, 40.398878078960138 ] ], [ [ 32.093059523278384, 40.398878078960138 ], [ 32.134917432793259, 40.421021430094925 ] ], [ [ 32.134917432793259, 40.421021430094925 ], [ 32.176775344106829, 40.431279202573137 ] ], [ [ 32.176775344106829, 40.431279202573137 ], [ 32.315371534668543, 40.415181993554143 ] ], [ [ 32.315371534668543, 40.415181993554143 ], [ 32.396090121961549, 40.448280748257901 ] ], [ [ 32.396090121961549, 40.448280748257901 ], [ 32.423892043383091, 40.485591132424815 ] ], [ [ 32.423892043383091, 40.485591132424815 ], [ 32.459445428363836, 40.515899360067408 ] ], [ [ 32.459445428363836, 40.515899360067408 ], [ 32.476705357366313, 40.538972887188947 ] ], [ [ 32.476705357366313, 40.538972887188947 ], [ 32.438981561150115, 40.618993842491818 ] ], [ [ 32.438981561150115, 40.618993842491818 ], [ 32.44270226419809, 40.673021552402702 ] ], [ [ 32.44270226419809, 40.673021552402702 ], [ 32.471331007919673, 40.693924669188107 ] ], [ [ 32.471331007919673, 40.693924669188107 ], [ 32.507091099374691, 40.70516429269793 ] ], [ [ 32.507091099374691, 40.70516429269793 ], [ 32.52249067640355, 40.759889635498268 ] ], [ [ 32.52249067640355, 40.759889635498268 ], [ 32.524564669523841, 40.776199459537395 ] ], [ [ 32.524564669523841, 40.776199459537395 ], [ 32.526160145074641, 40.788746233252027 ] ], [ [ 32.526160145074641, 40.788746233252027 ], [ 32.529518669550953, 40.815157578859157 ] ], [ [ 32.529518669550953, 40.815157578859157 ], [ 32.492208286283358, 40.86779002478977 ] ], [ [ 32.492208286283358, 40.86779002478977 ], [ 32.376866489097154, 40.91057811119083 ] ], [ [ 32.376866489097154, 40.91057811119083 ], [ 32.330254346860613, 40.932798976691402 ] ], [ [ 32.330254346860613, 40.932798976691402 ], [ 32.302659132812721, 40.936700547792043 ] ], [ [ 32.302659132812721, 40.936700547792043 ], [ 32.278267856976015, 40.94856028892616 ] ], [ [ 32.278267856976015, 40.94856028892616 ], [ 32.278577915338474, 40.976155503873372 ] ], [ [ 32.278577915338474, 40.976155503873372 ], [ 32.283952263885851, 41.003854072507409 ] ], [ [ 32.283952263885851, 41.003854072507409 ], [ 32.198272739195545, 41.018116767075128 ] ], [ [ 32.198272739195545, 41.018116767075128 ], [ 32.14936019951358, 41.019229287801352 ] ], [ [ 32.14936019951358, 41.019229287801352 ], [ 32.149644659573369, 41.108513216111987 ] ], [ [ 32.149644659573369, 41.108513216111987 ], [ 32.18197202798666, 41.189331637145301 ] ], [ [ 32.18197202798666, 41.189331637145301 ], [ 32.198135712193334, 41.241863610816949 ] ], [ [ 32.198135712193334, 41.241863610816949 ], [ 32.234504001658308, 41.274190980129617 ] ], [ [ 32.234504001658308, 41.274190980129617 ], [ 32.287035976229276, 41.330763874852892 ] ], [ [ 32.287035976229276, 41.330763874852892 ], [ 32.396140845523576, 41.326722953801266 ] ], [ [ 32.396140845523576, 41.326722953801266 ], [ 32.501204792866872, 41.346927559059566 ] ], [ [ 32.501204792866872, 41.346927559059566 ], [ 32.622432425316163, 41.423705059940517 ] ], [ [ 32.622432425316163, 41.423705059940517 ], [ 32.666882556884445, 41.496441638870522 ] ], [ [ 32.666882556884445, 41.496441638870522 ], [ 32.723455452507096, 41.508564402025513 ] ], [ [ 32.723455452507096, 41.508564402025513 ], [ 32.81797651530394, 41.576351427176576 ] ], [ [ 32.81797651530394, 41.576351427176576 ], [ 32.808468051659247, 41.647845770765684 ] ], [ [ 32.808468051659247, 41.647845770765684 ], [ 32.872969532318052, 41.682324008146452 ] ], [ [ 32.872969532318052, 41.682324008146452 ], [ 32.836601241953758, 41.75506058797572 ] ], [ [ 32.836601241953758, 41.75506058797572 ], [ 32.808314794592093, 41.79951071954406 ] ], [ [ 32.808314794592093, 41.79951071954406 ], [ 32.798730821706016, 41.858350625142506 ] ], [ [ 39.148322052245405, 41.072453948642142 ], [ 39.120124138618053, 40.951195787255756 ] ], [ [ 39.120124138618053, 40.951195787255756 ], [ 39.117436965243712, 40.901121324389578 ] ], [ [ 39.117436965243712, 40.901121324389578 ], [ 39.126015252002276, 40.809550686315106 ] ], [ [ 39.126015252002276, 40.809550686315106 ], [ 39.14441206166731, 40.771361803004766 ] ], [ [ 39.14441206166731, 40.771361803004766 ], [ 39.024419387244905, 40.760535589745643 ] ], [ [ 39.024419387244905, 40.760535589745643 ], [ 39.016564569099558, 40.748624173566725 ] ], [ [ 39.016564569099558, 40.748624173566725 ], [ 39.012430454002242, 40.734361477200366 ] ], [ [ 39.012430454002242, 40.734361477200366 ], [ 38.993103469249661, 40.726248277535944 ] ], [ [ 38.993103469249661, 40.726248277535944 ], [ 38.968918898088646, 40.721028957720193 ] ], [ [ 38.968918898088646, 40.721028957720193 ], [ 38.939773390429593, 40.702115383218313 ] ], [ [ 38.939773390429593, 40.702115383218313 ], [ 38.907734002022551, 40.686715807088831 ] ], [ [ 38.907734002022551, 40.686715807088831 ], [ 38.895538364104198, 40.660877590428413 ] ], [ [ 38.895538364104198, 40.660877590428413 ], [ 38.908560825221912, 40.630026760426631 ] ], [ [ 38.908560825221912, 40.630026760426631 ], [ 38.889750604406856, 40.603723455772865 ] ], [ [ 38.889750604406856, 40.603723455772865 ], [ 38.859364862398479, 40.579952298459773 ] ], [ [ 38.859364862398479, 40.579952298459773 ], [ 38.848719517191967, 40.568454290732916 ] ], [ [ 38.848719517191967, 40.568454290732916 ], [ 38.846549106855775, 40.560832018382939 ] ], [ [ 38.846549106855775, 40.560832018382939 ], [ 38.839727818384063, 40.516028551276577 ] ], [ [ 38.839727818384063, 40.516028551276577 ], [ 38.842311638970955, 40.480165107034054 ] ], [ [ 38.842311638970955, 40.480165107034054 ], [ 38.869803501130662, 40.454223538485508 ] ], [ [ 38.869803501130662, 40.454223538485508 ], [ 38.987935825378031, 40.432545274444863 ] ], [ [ 38.987935825378031, 40.432545274444863 ], [ 39.015737745900253, 40.414691067139017 ] ], [ [ 39.015737745900253, 40.414691067139017 ], [ 39.04302290158563, 40.393555406356882 ] ], [ [ 39.04302290158563, 40.393555406356882 ], [ 39.065450473560475, 40.388387763384571 ] ], [ [ 39.065450473560475, 40.388387763384571 ], [ 39.059766065751319, 40.351878363995297 ] ], [ [ 39.059766065751319, 40.351878363995297 ], [ 39.029587030217272, 40.333042303859202 ] ], [ [ 39.029587030217272, 40.333042303859202 ], [ 38.929024693334895, 40.290460923932471 ] ], [ [ 38.929024693334895, 40.290460923932471 ], [ 38.90711388529752, 40.269867866408902 ] ], [ [ 38.90711388529752, 40.269867866408902 ], [ 38.905873650948195, 40.236872464492592 ] ], [ [ 38.905873650948195, 40.236872464492592 ], [ 38.910214470721201, 40.203282783373709 ] ], [ [ 38.910214470721201, 40.203282783373709 ], [ 38.905666945373184, 40.167031765503566 ] ], [ [ 38.905666945373184, 40.167031765503566 ], [ 38.914658644181088, 40.132150173191917 ] ], [ [ 38.914658644181088, 40.132150173191917 ], [ 38.942357211915748, 40.105097561503214 ] ], [ [ 38.942357211915748, 40.105097561503214 ], [ 38.933262160320396, 40.071327013231041 ] ], [ [ 38.933262160320396, 40.071327013231041 ], [ 38.892541130568702, 40.057606920123249 ] ], [ [ 38.892541130568702, 40.057606920123249 ], [ 38.805518018741566, 40.052542629938387 ] ], [ [ 38.805518018741566, 40.052542629938387 ], [ 38.761593051677949, 40.054945584271252 ] ], [ [ 38.761593051677949, 40.054945584271252 ], [ 38.758492466254268, 40.003760077365655 ] ], [ [ 38.758492466254268, 40.003760077365655 ], [ 38.737201775841243, 39.96549367879021 ] ], [ [ 38.737201775841243, 39.96549367879021 ], [ 38.691313104016501, 39.96570038526454 ] ], [ [ 38.691313104016501, 39.96570038526454 ], [ 38.64563113776677, 39.971513984282922 ] ], [ [ 38.64563113776677, 39.971513984282922 ], [ 38.593231235832832, 39.962677314206644 ] ], [ [ 38.593231235832832, 39.962677314206644 ], [ 38.546412388021281, 39.937045803121293 ] ], [ [ 38.546412388021281, 39.937045803121293 ], [ 38.497733189135374, 39.943066107714685 ] ], [ [ 38.497733189135374, 39.943066107714685 ], [ 38.451121046898777, 39.970790513871123 ] ], [ [ 38.451121046898777, 39.970790513871123 ], [ 38.406679314998371, 39.950740057807423 ] ], [ [ 38.406679314998371, 39.950740057807423 ], [ 38.369162225256446, 39.867928575443386 ] ], [ [ 38.369162225256446, 39.867928575443386 ], [ 38.377223748976803, 39.836328437507348 ] ], [ [ 38.377223748976803, 39.836328437507348 ], [ 38.446160108602101, 39.838162950159983 ] ], [ [ 38.446160108602101, 39.838162950159983 ], [ 38.519230584224033, 39.851986396055338 ] ], [ [ 38.519230584224033, 39.851986396055338 ], [ 38.540211216274599, 39.832762763190942 ] ], [ [ 38.540211216274599, 39.832762763190942 ], [ 38.529669223855592, 39.805219225087171 ] ], [ [ 38.529669223855592, 39.805219225087171 ], [ 38.510342238203691, 39.802118638764171 ] ], [ [ 38.510342238203691, 39.802118638764171 ], [ 38.489981723777532, 39.80263540270164 ] ], [ [ 38.489981723777532, 39.80263540270164 ], [ 38.452671339610617, 39.787184149728716 ] ], [ [ 38.452671339610617, 39.787184149728716 ], [ 38.426626418274566, 39.754111233446622 ] ], [ [ 38.426626418274566, 39.754111233446622 ], [ 38.378567336113633, 39.703468328900215 ] ], [ [ 38.378567336113633, 39.703468328900215 ], [ 38.367095167707816, 39.599133613025799 ] ], [ [ 38.367095167707816, 39.599133613025799 ], [ 38.344150831795446, 39.564794623073396 ] ], [ [ 38.344150831795446, 39.564794623073396 ], [ 38.355623000201263, 39.52647654945315 ] ], [ [ 38.355623000201263, 39.52647654945315 ], [ 38.390762974031986, 39.5004833031619 ] ], [ [ 38.390762974031986, 39.5004833031619 ], [ 38.423835890314081, 39.484101874202111 ] ], [ [ 38.423835890314081, 39.484101874202111 ], [ 38.446676874338266, 39.459943142362135 ] ], [ [ 38.446676874338266, 39.459943142362135 ], [ 38.438511996931084, 39.444026801395751 ] ], [ [ 38.438511996931084, 39.444026801395751 ], [ 38.402958611950339, 39.426017564459016 ] ], [ [ 38.402958611950339, 39.426017564459016 ], [ 38.392209913956322, 39.417852687951154 ] ], [ [ 38.392209913956322, 39.417852687951154 ], [ 38.38352827261167, 39.409067694718317 ] ], [ [ 38.38352827261167, 39.409067694718317 ], [ 38.374123162653802, 39.402039699772331 ] ], [ [ 38.374123162653802, 39.402039699772331 ], [ 38.361410759898604, 39.39930084955455 ] ], [ [ 38.361410759898604, 39.39930084955455 ], [ 38.366681755658476, 39.388603827504596 ] ], [ [ 38.366681755658476, 39.388603827504596 ], [ 38.368232049269636, 39.371395576244822 ] ], [ [ 38.368232049269636, 39.371395576244822 ], [ 38.368852166893987, 39.33744415902072 ] ], [ [ 38.368852166893987, 39.33744415902072 ], [ 38.381564568749809, 39.309332180135982 ] ], [ [ 38.381564568749809, 39.309332180135982 ], [ 38.387455682133975, 39.279101466859174 ] ], [ [ 38.387455682133975, 39.279101466859174 ], [ 38.383114862360969, 39.26168651002439 ] ], [ [ 38.383114862360969, 39.26168651002439 ], [ 38.381667922436634, 39.242721259578445 ] ], [ [ 38.381667922436634, 39.242721259578445 ], [ 38.387869094183316, 39.227140815396297 ] ], [ [ 38.387869094183316, 39.227140815396297 ], [ 38.392623325106342, 39.210966091112198 ] ], [ [ 38.392623325106342, 39.210966091112198 ], [ 38.384045038347836, 39.177324734049193 ] ], [ [ 38.384045038347836, 39.177324734049193 ], [ 38.361720819160439, 39.150272122360548 ] ], [ [ 38.361720819160439, 39.150272122360548 ], [ 38.440889112842285, 39.119524645146214 ] ], [ [ 38.440889112842285, 39.119524645146214 ], [ 38.535560337239758, 39.115907293986425 ] ], [ [ 38.535560337239758, 39.115907293986425 ], [ 38.580932245126974, 39.101954657781221 ] ], [ [ 38.580932245126974, 39.101954657781221 ], [ 38.623616977841209, 39.082162584135915 ] ], [ [ 38.623616977841209, 39.082162584135915 ], [ 38.687902459330985, 39.022967231252721 ] ], [ [ 38.687902459330985, 39.022967231252721 ], [ 38.616795689369553, 39.020305895400725 ] ], [ [ 38.616795689369553, 39.020305895400725 ], [ 38.589303827209847, 38.992193914717348 ] ], [ [ 38.589303827209847, 38.992193914717348 ], [ 38.589923943934821, 38.950775254774157 ] ], [ [ 38.589923943934821, 38.950775254774157 ], [ 38.606770460888015, 38.924782009382227 ] ], [ [ 38.606770460888015, 38.924782009382227 ], [ 38.619379509956389, 38.895946560085633 ] ], [ [ 38.619379509956389, 38.895946560085633 ], [ 38.624340448253065, 38.834477444078743 ] ], [ [ 38.624340448253065, 38.834477444078743 ], [ 38.623927036203725, 38.812618312884808 ] ], [ [ 38.623927036203725, 38.812618312884808 ], [ 38.635709262972114, 38.781715806938905 ] ], [ [ 38.635709262972114, 38.781715806938905 ], [ 38.631575147874742, 38.775721339867914 ] ], [ [ 38.631575147874742, 38.775721339867914 ], [ 38.633022087799077, 38.762414658809462 ] ], [ [ 38.633022087799077, 38.762414658809462 ], [ 38.631678500662247, 38.752260240018018 ] ], [ [ 38.631678500662247, 38.752260240018018 ], [ 38.618656040443909, 38.748229479506847 ] ], [ [ 38.618656040443909, 38.748229479506847 ], [ 38.508895298279356, 38.756807766265354 ] ], [ [ 38.508895298279356, 38.756807766265354 ], [ 38.483573845556521, 38.753035387273258 ] ], [ [ 38.483573845556521, 38.753035387273258 ], [ 38.471274854850662, 38.7407622340898 ] ], [ [ 38.471274854850662, 38.7407622340898 ], [ 38.478096144221638, 38.725440172326046 ] ], [ [ 38.478096144221638, 38.725440172326046 ], [ 38.472618442886812, 38.707456772911712 ] ], [ [ 38.472618442886812, 38.707456772911712 ], [ 38.460422804968459, 38.692418931988072 ] ], [ [ 38.460422804968459, 38.692418931988072 ], [ 38.446676874338266, 38.686166083398007 ] ], [ [ 38.446676874338266, 38.686166083398007 ], [ 38.42207889202723, 38.682652085924985 ] ], [ [ 38.42207889202723, 38.682652085924985 ], [ 38.40244184711355, 38.673427843120464 ] ], [ [ 38.40244184711355, 38.673427843120464 ], [ 38.387042270984011, 38.660327866737646 ] ], [ [ 38.387042270984011, 38.660327866737646 ], [ 38.375673456264963, 38.645186673026501 ] ], [ [ 38.375673456264963, 38.645186673026501 ], [ 38.370402458706508, 38.634515489398268 ] ], [ [ 38.370402458706508, 38.634515489398268 ], [ 38.363787875809805, 38.61629954688658 ] ], [ [ 38.363787875809805, 38.61629954688658 ], [ 38.348905063617792, 38.595628974097849 ] ], [ [ 38.348905063617792, 38.595628974097849 ], [ 38.351282180428257, 38.588626817573527 ] ], [ [ 38.351282180428257, 38.588626817573527 ], [ 38.357690056850629, 38.582554837036071 ] ], [ [ 38.357690056850629, 38.582554837036071 ], [ 38.361410759898604, 38.573175563701284 ] ], [ [ 38.361410759898604, 38.573175563701284 ], [ 38.36461469900911, 38.556406562013194 ] ], [ [ 38.36461469900911, 38.556406562013194 ], [ 38.373503045029508, 38.53651113558044 ] ], [ [ 38.373503045029508, 38.53651113558044 ], [ 38.386628858934671, 38.518682765796996 ] ], [ [ 38.386628858934671, 38.518682765796996 ], [ 38.402958611950339, 38.508011583068082 ] ], [ [ 38.402958611950339, 38.508011583068082 ], [ 38.414224073881883, 38.516770737879256 ] ], [ [ 38.414224073881883, 38.516770737879256 ], [ 38.425592888600931, 38.512429918106193 ] ], [ [ 38.425592888600931, 38.512429918106193 ], [ 38.44326622875343, 38.494343166803674 ] ], [ [ 38.44326622875343, 38.494343166803674 ], [ 38.456598749132922, 38.484938055946486 ] ], [ [ 38.456598749132922, 38.484938055946486 ], [ 38.46869103426377, 38.479201972193266 ] ], [ [ 38.46869103426377, 38.479201972193266 ], [ 38.481713495381484, 38.475946357138639 ] ], [ [ 38.481713495381484, 38.475946357138639 ], [ 38.539797805124579, 38.470416978960372 ] ], [ [ 38.539797805124579, 38.470416978960372 ], [ 38.566669548760672, 38.464603379941991 ] ], [ [ 38.566669548760672, 38.464603379941991 ], [ 38.571423780582961, 38.462277939974911 ] ], [ [ 38.571423780582961, 38.462277939974911 ], [ 38.587650180811181, 38.449849758059884 ] ], [ [ 38.587650180811181, 38.449849758059884 ], [ 38.594574822969662, 38.450211493265783 ] ], [ [ 38.594574822969662, 38.450211493265783 ], [ 38.600569289141333, 38.453079534692733 ] ], [ [ 38.600569289141333, 38.453079534692733 ], [ 38.607803988763067, 38.453389593954569 ] ], [ [ 38.607803988763067, 38.453389593954569 ], [ 38.688935988105357, 38.420730088822495 ] ], [ [ 38.688935988105357, 38.420730088822495 ], [ 38.717668083715068, 38.418637192852145 ] ], [ [ 38.717668083715068, 38.418637192852145 ], [ 38.778956332568669, 38.436930649729675 ] ], [ [ 38.778956332568669, 38.436930649729675 ], [ 38.810478957038242, 38.44028961847107 ] ], [ [ 38.810478957038242, 38.44028961847107 ], [ 38.834353468937422, 38.426078599847472 ] ], [ [ 38.834353468937422, 38.426078599847472 ], [ 38.826912061942096, 38.418637192852145 ] ], [ [ 38.826912061942096, 38.418637192852145 ], [ 38.852853631389962, 38.404658718225221 ] ], [ [ 38.852853631389962, 38.404658718225221 ], [ 38.861018507897825, 38.398767604841055 ] ], [ [ 38.861018507897825, 38.398767604841055 ], [ 38.88385949102269, 38.368976142035308 ] ], [ [ 38.88385949102269, 38.368976142035308 ], [ 38.885513137421356, 38.364015203738631 ] ], [ [ 38.885513137421356, 38.364015203738631 ], [ 38.911144646708067, 38.360656235896556 ] ], [ [ 38.911144646708067, 38.360656235896556 ], [ 38.927887810873756, 38.352336331556444 ] ], [ [ 38.927887810873756, 38.352336331556444 ], [ 38.957240025007138, 38.330477200362509 ] ], [ [ 38.957240025007138, 38.330477200362509 ], [ 38.992173293262852, 38.326033026902621 ] ], [ [ 38.992173293262852, 38.326033026902621 ], [ 39.073408643594007, 38.347943834040677 ] ], [ [ 39.073408643594007, 38.347943834040677 ], [ 39.114853142858237, 38.343525499002567 ] ], [ [ 39.114853142858237, 38.343525499002567 ], [ 39.132423130223231, 38.329650377163148 ] ], [ [ 39.132423130223231, 38.329650377163148 ], [ 39.145032180190924, 38.307842922812597 ] ], [ [ 39.145032180190924, 38.307842922812597 ], [ 39.148546176764626, 38.284175117387747 ] ], [ [ 39.148546176764626, 38.284175117387747 ], [ 39.114853142858237, 38.192707831201403 ] ], [ [ 39.114853142858237, 38.192707831201403 ], [ 39.141311476243629, 38.17857432694359 ] ], [ [ 39.141311476243629, 38.17857432694359 ], [ 39.221926710749074, 38.205032660328982 ] ], [ [ 39.221926710749074, 38.205032660328982 ], [ 39.252622512019286, 38.179659532561345 ] ], [ [ 39.252622512019286, 38.179659532561345 ], [ 39.256343215067318, 38.153097846388505 ] ], [ [ 39.256343215067318, 38.153097846388505 ], [ 39.248591749709476, 38.130386054472808 ] ], [ [ 39.248591749709476, 38.130386054472808 ], [ 39.224717237810239, 38.090285143244728 ] ], [ [ 39.224717237810239, 38.090285143244728 ], [ 39.234639112604953, 38.07607412372181 ] ], [ [ 39.234639112604953, 38.07607412372181 ], [ 39.224923944284569, 38.063723456172568 ] ], [ [ 39.224923944284569, 38.063723456172568 ], [ 39.188957147254541, 38.043052883383837 ] ], [ [ 39.188957147254541, 38.043052883383837 ], [ 39.149889763901456, 38.020728665095817 ] ], [ [ 39.149889763901456, 38.020728665095817 ], [ 39.08963504382217, 38.006956895144583 ] ], [ [ 39.08963504382217, 38.006956895144583 ], [ 39.072271762931507, 37.999515489048576 ] ], [ [ 39.072271762931507, 37.999515489048576 ], [ 39.060282830588164, 37.987862454388733 ] ], [ [ 39.060282830588164, 37.987862454388733 ], [ 39.055631951553323, 37.973134670928289 ] ], [ [ 39.055631951553323, 37.973134670928289 ], [ 39.050464307681636, 37.939700019440295 ] ], [ [ 39.050464307681636, 37.939700019440295 ], [ 39.040439080998794, 37.925178941554861 ] ], [ [ 39.040439080998794, 37.925178941554861 ], [ 39.02720991430607, 37.917970079455586 ] ], [ [ 39.02720991430607, 37.917970079455586 ], [ 38.978324008945833, 37.905955308690523 ] ], [ [ 38.978324008945833, 37.905955308690523 ], [ 38.98845259021482, 37.890736598814954 ] ], [ [ 38.98845259021482, 37.890736598814954 ], [ 38.989176059727356, 37.877998359436731 ] ], [ [ 38.989176059727356, 37.877998359436731 ], [ 38.982664828718839, 37.865440986312422 ] ], [ [ 38.982664828718839, 37.865440986312422 ], [ 38.970882602849827, 37.850713201952658 ] ], [ [ 38.970882602849827, 37.850713201952658 ], [ 38.976153598609642, 37.845855618242183 ] ], [ [ 38.976153598609642, 37.845855618242183 ], [ 38.979150832145137, 37.83844005056784 ] ], [ [ 38.979150832145137, 37.83844005056784 ], [ 38.977910596896493, 37.830197658794873 ] ], [ [ 38.977910596896493, 37.830197658794873 ], [ 38.970882602849827, 37.822756252698866 ] ], [ [ 38.970882602849827, 37.822756252698866 ], [ 38.965301547828119, 37.823117987904823 ] ], [ [ 38.965301547828119, 37.823117987904823 ], [ 38.945457798238749, 37.828802394814659 ] ], [ [ 38.945457798238749, 37.828802394814659 ], [ 38.936776156894098, 37.829577542069899 ] ], [ [ 38.936776156894098, 37.829577542069899 ], [ 38.921376580764559, 37.825081691766627 ] ], [ [ 38.921376580764559, 37.825081691766627 ], [ 38.908457472434407, 37.816761786527195 ] ], [ [ 38.908457472434407, 37.816761786527195 ], [ 38.897812127227894, 37.804617825452283 ] ], [ [ 38.897812127227894, 37.804617825452283 ], [ 38.888923781207495, 37.788649806743138 ] ], [ [ 38.888923781207495, 37.788649806743138 ], [ 38.90349653503705, 37.791750393066138 ] ], [ [ 38.90349653503705, 37.791750393066138 ], [ 38.930574986046736, 37.807485866879233 ] ], [ [ 38.930574986046736, 37.807485866879233 ], [ 38.94359744626513, 37.809113673956858 ] ], [ [ 38.94359744626513, 37.809113673956858 ], [ 38.953932733109127, 37.801362210397656 ] ], [ [ 38.953932733109127, 37.801362210397656 ], [ 38.952485793184792, 37.775213935374779 ] ], [ [ 38.952485793184792, 37.775213935374779 ], [ 38.964681431103145, 37.761312975113697 ] ], [ [ 38.964681431103145, 37.761312975113697 ], [ 38.944837680614455, 37.75692047849725 ] ], [ [ 38.944837680614455, 37.75692047849725 ], [ 38.9222034030646, 37.756041978454505 ] ], [ [ 38.9222034030646, 37.756041978454505 ], [ 38.901842888638384, 37.75270884903415 ] ], [ [ 38.901842888638384, 37.75270884903415 ], [ 38.888923781207495, 37.740849107000656 ] ], [ [ 38.888923781207495, 37.740849107000656 ], [ 38.897915480015342, 37.735603950561824 ] ], [ [ 38.897915480015342, 37.735603950561824 ], [ 38.923133579051409, 37.713512275371215 ] ], [ [ 38.923133579051409, 37.713512275371215 ], [ 38.916415643367202, 37.709016425067944 ] ], [ [ 38.916415643367202, 37.709016425067944 ], [ 38.908147414071891, 37.706200060484377 ] ], [ [ 38.908147414071891, 37.706200060484377 ], [ 38.899672479201513, 37.706174221163337 ] ], [ [ 38.899672479201513, 37.706174221163337 ], [ 38.882412551098355, 37.714855862508045 ] ], [ [ 38.882412551098355, 37.714855862508045 ], [ 38.874971144102972, 37.710385851525814 ] ], [ [ 38.874971144102972, 37.710385851525814 ], [ 38.869286737193136, 37.703073634840337 ] ], [ [ 38.869286737193136, 37.703073634840337 ], [ 38.8647392109458, 37.699249579004857 ] ], [ [ 38.8647392109458, 37.699249579004857 ], [ 38.861121860685273, 37.698112698342356 ] ], [ [ 38.861121860685273, 37.698112698342356 ], [ 38.856057569601148, 37.69563222874433 ] ], [ [ 38.856057569601148, 37.69563222874433 ], [ 38.849339633916941, 37.693280951254849 ] ], [ [ 38.849339633916941, 37.693280951254849 ], [ 38.841174758308455, 37.692428290533144 ] ], [ [ 38.841174758308455, 37.692428290533144 ], [ 38.836007114436768, 37.694702052757521 ] ], [ [ 38.836007114436768, 37.694702052757521 ], [ 38.822777947744044, 37.704468898820608 ] ], [ [ 38.822777947744044, 37.704468898820608 ], [ 38.820710890195414, 37.706690986000183 ] ], [ [ 38.820710890195414, 37.706690986000183 ], [ 38.800453728556704, 37.69697581588116 ] ], [ [ 38.800453728556704, 37.69697581588116 ], [ 38.818540479859223, 37.680852770239142 ] ], [ [ 38.818540479859223, 37.680852770239142 ], [ 38.868459913993831, 37.651448880161695 ] ], [ [ 38.868459913993831, 37.651448880161695 ], [ 38.64563113776677, 37.624163723576942 ] ], [ [ 38.64563113776677, 37.624163723576942 ], [ 38.597365350030884, 37.583442694724567 ] ], [ [ 38.597365350030884, 37.583442694724567 ], [ 38.587960239173697, 37.579463609258141 ] ], [ [ 38.587960239173697, 37.579463609258141 ], [ 38.575351190105323, 37.561480210743127 ] ], [ [ 38.575351190105323, 37.561480210743127 ], [ 38.515406528388553, 37.511069851092714 ] ], [ [ 38.515406528388553, 37.511069851092714 ], [ 38.494839308387327, 37.500631212360531 ] ], [ [ 38.494839308387327, 37.500631212360531 ], [ 38.372262810680127, 37.483913885717243 ] ], [ [ 38.372262810680127, 37.483913885717243 ], [ 38.340843539897435, 37.49443003971453 ] ], [ [ 38.340843539897435, 37.49443003971453 ], [ 38.28255252457933, 37.476937568513961 ] ], [ [ 38.28255252457933, 37.476937568513961 ], [ 38.272010532160323, 37.476420802777795 ] ], [ [ 38.272010532160323, 37.476420802777795 ], [ 38.265706007626136, 37.454406642852291 ] ], [ [ 38.265706007626136, 37.454406642852291 ], [ 38.249893019447256, 37.448515530367388 ] ], [ [ 38.249893019447256, 37.448515530367388 ], [ 38.206794874683681, 37.453476466865425 ] ], [ [ 38.206794874683681, 37.453476466865425 ], [ 38.198009880551524, 37.447947088687158 ] ], [ [ 38.198009880551524, 37.447947088687158 ], [ 38.196769647101519, 37.435751450768805 ] ], [ [ 38.196769647101519, 37.435751450768805 ], [ 38.197183058251539, 37.423607489693893 ] ], [ [ 38.197183058251539, 37.423607489693893 ], [ 38.193152296840992, 37.418078111515626 ] ], [ [ 38.193152296840992, 37.418078111515626 ], [ 38.190051711417311, 37.417096258685376 ] ], [ [ 38.190051711417311, 37.417096258685376 ], [ 38.188294712231141, 37.414977525192626 ] ], [ [ 38.188294712231141, 37.414977525192626 ], [ 38.185710889845666, 37.412858791699875 ] ], [ [ 38.185710889845666, 37.412858791699875 ], [ 38.180129835723335, 37.411876938869625 ] ], [ [ 38.180129835723335, 37.411876938869625 ], [ 38.176615838250314, 37.413737290843301 ] ], [ [ 38.176615838250314, 37.413737290843301 ], [ 38.175065544639153, 37.422573960919522 ] ], [ [ 38.175065544639153, 37.422573960919522 ], [ 38.170207960928622, 37.425519518510953 ] ], [ [ 38.170207960928622, 37.425519518510953 ], [ 38.125559522553885, 37.43373607006356 ] ], [ [ 38.125559522553885, 37.43373607006356 ], [ 38.108402948137552, 37.440893256218772 ] ], [ [ 38.108402948137552, 37.440893256218772 ], [ 38.094450311033029, 37.453476466865425 ] ], [ [ 38.094450311033029, 37.453476466865425 ], [ 38.06551150894893, 37.436836656386561 ] ], [ [ 38.06551150894893, 37.436836656386561 ], [ 38.054039341442433, 37.43642324523654 ] ], [ [ 38.054039341442433, 37.43642324523654 ], [ 38.039879998762899, 37.445983384825354 ] ], [ [ 38.039879998762899, 37.445983384825354 ], [ 38.0229301290222, 37.443451240182583 ] ], [ [ 38.0229301290222, 37.443451240182583 ], [ 38.0059802592815, 37.445234075991777 ] ], [ [ 38.0059802592815, 37.445234075991777 ], [ 37.989650506265832, 37.444743150475972 ] ], [ [ 37.989650506265832, 37.444743150475972 ], [ 37.974354282024478, 37.435441393305609 ] ], [ [ 37.974354282024478, 37.435441393305609 ], [ 37.930015902911578, 37.390767117408529 ] ], [ [ 37.930015902911578, 37.390767117408529 ], [ 37.896322869904509, 37.363817856708692 ] ], [ [ 37.896322869904509, 37.363817856708692 ], [ 37.885574171910491, 37.350588690915345 ] ], [ [ 37.885574171910491, 37.350588690915345 ], [ 37.878959588114469, 37.325112210360203 ] ], [ [ 37.878959588114469, 37.325112210360203 ], [ 37.872758417267107, 37.320900579997726 ] ], [ [ 37.872758417267107, 37.320900579997726 ], [ 37.865006951909265, 37.317670803364877 ] ], [ [ 37.865006951909265, 37.317670803364877 ], [ 37.857668897701444, 37.312864894699089 ] ], [ [ 37.857668897701444, 37.312864894699089 ], [ 37.852191196366618, 37.303795681525457 ] ], [ [ 37.852191196366618, 37.303795681525457 ], [ 37.840615676072559, 37.267854722917093 ] ], [ [ 37.840615676072559, 37.267854722917093 ], [ 37.854878370640279, 37.259948227928362 ] ], [ [ 37.854878370640279, 37.259948227928362 ], [ 37.866867302983621, 37.24930288272185 ] ], [ [ 37.866867302983621, 37.24930288272185 ], [ 37.874205357191443, 37.234316717742331 ] ], [ [ 37.874205357191443, 37.234316717742331 ], [ 37.874722121128968, 37.2132585722253 ] ], [ [ 37.874722121128968, 37.2132585722253 ], [ 37.867900831757936, 37.2132585722253 ] ], [ [ 37.867900831757936, 37.2132585722253 ], [ 37.861699660011254, 37.224549872578507 ] ], [ [ 37.861699660011254, 37.224549872578507 ], [ 37.852501254729077, 37.226487738917967 ] ], [ [ 37.852501254729077, 37.226487738917967 ], [ 37.844233026333086, 37.219227199975251 ] ], [ [ 37.844233026333086, 37.219227199975251 ], [ 37.840615676072559, 37.203000799747088 ] ], [ [ 37.840615676072559, 37.203000799747088 ], [ 37.84350955592123, 37.186619370787298 ] ], [ [ 37.84350955592123, 37.186619370787298 ], [ 37.850744256442283, 37.173338528150509 ] ], [ [ 37.850744256442283, 37.173338528150509 ], [ 37.867900831757936, 37.15178945621841 ] ], [ [ 37.867900831757936, 37.15178945621841 ], [ 37.874308709079628, 37.140007229450077 ] ], [ [ 37.874308709079628, 37.140007229450077 ], [ 37.876169061053304, 37.1308088241679 ] ], [ [ 37.876169061053304, 37.1308088241679 ], [ 37.874722121128968, 37.106805121059494 ] ], [ [ 37.874722121128968, 37.106805121059494 ], [ 37.868210890120451, 37.077582099034601 ] ], [ [ 37.868210890120451, 37.077582099034601 ], [ 37.869347771682271, 37.065128078697853 ] ], [ [ 37.869347771682271, 37.065128078697853 ], [ 37.881543409600624, 37.054973659906466 ] ], [ [ 37.881543409600624, 37.054973659906466 ], [ 37.893842401205802, 37.060115465356432 ] ], [ [ 37.893842401205802, 37.060115465356432 ], [ 37.903764276000516, 37.055283718268981 ] ], [ [ 37.903764276000516, 37.055283718268981 ], [ 37.912859327595868, 37.047093004238718 ] ], [ [ 37.912859327595868, 37.047093004238718 ], [ 37.922574496815571, 37.041925361266408 ] ], [ [ 37.922574496815571, 37.041925361266408 ], [ 37.930842726110882, 37.043449815556528 ] ], [ [ 37.930842726110882, 37.043449815556528 ], [ 37.954303826860098, 37.052777411148611 ] ], [ [ 37.954303826860098, 37.052777411148611 ], [ 37.967532992653446, 37.054973659906466 ] ], [ [ 37.967532992653446, 37.054973659906466 ], [ 37.978798456383629, 37.05003856093083 ] ], [ [ 37.978798456383629, 37.05003856093083 ], [ 37.976628045148118, 37.038411362894067 ] ], [ [ 37.976628045148118, 37.038411362894067 ], [ 37.964122348867306, 37.014020087057361 ] ], [ [ 37.964122348867306, 37.014020087057361 ], [ 37.963915643292296, 36.998775540558711 ] ], [ [ 37.963915643292296, 36.998775540558711 ], [ 37.966912875928472, 36.990403958475895 ] ], [ [ 37.966912875928472, 36.990403958475895 ], [ 37.981175571395454, 36.976761379733887 ] ], [ [ 37.981175571395454, 36.976761379733887 ], [ 38.007943963143362, 36.957072658876086 ] ], [ [ 38.007943963143362, 36.957072658876086 ], [ 38.011871371766347, 36.949166164786675 ] ], [ [ 38.011871371766347, 36.949166164786675 ], [ 38.013111607015048, 36.923663844910493 ] ], [ [ 38.013111607015048, 36.923663844910493 ], [ 38.015178663664358, 36.913457750174985 ] ], [ [ 38.015178663664358, 36.913457750174985 ], [ 38.018692661137379, 36.904155992105302 ] ], [ [ 38.018692661137379, 36.904155992105302 ], [ 38.036055942927419, 36.888704739132379 ] ], [ [ 38.036055942927419, 36.888704739132379 ], [ 38.040603469174755, 36.880436509837011 ] ], [ [ 38.040603469174755, 36.880436509837011 ], [ 38.029338006343892, 36.876844997998262 ] ], [ [ 38.029338006343892, 36.876844997998262 ], [ 38.021173129836029, 36.871057237401544 ] ], [ [ 38.021173129836029, 36.871057237401544 ], [ 38.019002720399214, 36.858008937862166 ] ], [ [ 38.019002720399214, 36.858008937862166 ], [ 38.021173129836029, 36.844159654444468 ] ], [ [ 38.021173129836029, 36.844159654444468 ], [ 38.02582400887087, 36.835348822789911 ] ], [ [ 38.02582400887087, 36.835348822789911 ], [ 38.026004702162112, 36.835006509398625 ] ], [ [ 26.334186260507298, 41.789543902257257 ], [ 26.375525735308234, 41.816621258621879 ] ], [ [ 27.54641212367677, 41.901164755864066 ], [ 27.562739294392667, 41.906434918341979 ] ], [ [ 27.609302372456359, 41.953487027553813 ], [ 27.687073441543635, 41.968602002446197 ] ], [ [ 41.947962020172426, 41.50558108497232 ], [ 42.019583633110045, 41.485066092233353 ] ], [ [ 42.213268862099568, 41.480208275028488 ], [ 42.262462828630106, 41.482326923003086 ] ], [ [ 42.800933190485964, 41.579219936457605 ], [ 42.819948178539818, 41.572347672218022 ] ], [ [ 43.157240318825345, 41.269729762416709 ], [ 43.103138116831808, 41.248801976387718 ] ], [ [ 43.699534051797315, 40.634574147573275 ], [ 43.707181844000104, 40.611940817000018 ] ], [ [ 43.707181844000104, 40.611940817000018 ], [ 43.664807913995084, 40.574062657952886 ] ], [ [ 43.593699660045907, 40.509000691020624 ], [ 43.559491345599056, 40.477892829112676 ] ], [ [ 43.691367997770783, 40.238629757456685 ], [ 43.673076268297834, 40.227727061140691 ] ], [ [ 43.652508587861625, 40.138997196420959 ], [ 43.665426878606432, 40.11016357053466 ] ], [ [ 43.912131565154105, 40.024327975571019 ], [ 44.032432317432992, 40.008618599482979 ] ], [ [ 44.5981878081652, 39.831007006643951 ], [ 44.611519409000039, 39.83731109600005 ] ], [ [ 44.611519409000039, 39.83731109600005 ], [ 44.647692164623493, 39.805117343275128 ] ], [ [ 27.341668204355834, 44.053074767992364 ], [ 27.285342782448804, 44.072452780075047 ] ], [ [ 27.252663172980075, 44.121519612576137 ], [ 27.252786493202109, 44.121648260958466 ] ], [ [ 27.252786493202109, 44.121648260958466 ], [ 27.265343866326361, 44.134748237341284 ] ], [ [ 27.265343866326361, 44.134748237341284 ], [ 27.277746208920405, 44.14249970179975 ] ], [ [ 27.277746208920405, 44.14249970179975 ], [ 27.292422316436728, 44.151568914973438 ] ], [ [ 27.292422316436728, 44.151568914973438 ], [ 27.444867791315517, 44.134128118817614 ] ], [ [ 27.444867791315517, 44.134128118817614 ], [ 27.461352573062754, 44.137771308399124 ] ], [ [ 27.461352573062754, 44.137771308399124 ], [ 27.48191979306398, 44.145832831220162 ] ], [ [ 27.48191979306398, 44.145832831220162 ], [ 27.499541457272414, 44.155858058802323 ] ], [ [ 27.499541457272414, 44.155858058802323 ], [ 27.506982863368421, 44.165469876133841 ] ], [ [ 27.506982863368421, 44.165469876133841 ], [ 27.516026239019709, 44.172704575755517 ] ], [ [ 27.516026239019709, 44.172704575755517 ], [ 27.569046257678622, 44.19554555888044 ] ], [ [ 27.569046257678622, 44.19554555888044 ], [ 27.607958612300081, 44.205467434574416 ] ], [ [ 27.607958612300081, 44.205467434574416 ], [ 27.691829460960832, 44.204537257688287 ] ], [ [ 27.691829460960832, 44.204537257688287 ], [ 27.732912225019163, 44.209859931190863 ] ], [ [ 27.732912225019163, 44.209859931190863 ], [ 27.753221062601938, 44.21885162999871 ] ], [ [ 27.753221062601938, 44.21885162999871 ], [ 27.788826125325386, 44.239883937993341 ] ], [ [ 27.788826125325386, 44.239883937993341 ], [ 27.933985222839738, 44.266032213016217 ] ], [ [ 27.933985222839738, 44.266032213016217 ], [ 27.967523228014556, 44.280553290002331 ] ], [ [ 27.967523228014556, 44.280553290002331 ], [ 27.993516473406487, 44.304427801901511 ] ], [ [ 27.993516473406487, 44.304427801901511 ], [ 28.022765333853044, 44.354708971242019 ] ], [ [ 28.022765333853044, 44.354708971242019 ], [ 28.048190137564802, 44.398220527155559 ] ], [ [ 28.048190137564802, 44.398220527155559 ], [ 28.057285190958794, 44.405868638826576 ] ], [ [ 28.057285190958794, 44.405868638826576 ], [ 28.098781366167088, 44.430389105872507 ] ], [ [ 28.098781366167088, 44.430389105872507 ], [ 28.110253533673642, 44.442610582212581 ] ], [ [ 28.110253533673642, 44.442610582212581 ], [ 28.109013299324261, 44.457803452767109 ] ], [ [ 28.109013299324261, 44.457803452767109 ], [ 28.102192009953285, 44.478525702399224 ] ], [ [ 28.102192009953285, 44.478525702399224 ], [ 28.093355339877007, 44.496819160176074 ] ], [ [ 28.093355339877007, 44.496819160176074 ], [ 28.08606896341189, 44.504673977422101 ] ], [ [ 28.08606896341189, 44.504673977422101 ], [ 28.06700036017844, 44.507154446120751 ] ], [ [ 28.06700036017844, 44.507154446120751 ], [ 28.042609084341734, 44.513510647498379 ] ], [ [ 28.042609084341734, 44.513510647498379 ], [ 28.020336541098459, 44.522295640731215 ] ], [ [ 28.020336541098459, 44.522295640731215 ], [ 28.007210728092616, 44.531984972428518 ] ], [ [ 28.007210728092616, 44.531984972428518 ], [ 28.003903436194605, 44.53991730404033 ] ], [ [ 28.003903436194605, 44.53991730404033 ], [ 28.015220574969533, 44.543327948725846 ] ], [ [ 28.015220574969533, 44.543327948725846 ], [ 28.0215250986044, 44.552474677164582 ] ], [ [ 28.0215250986044, 44.552474677164582 ], [ 28.02137006987283, 44.587976386201262 ] ], [ [ 28.02137006987283, 44.587976386201262 ], [ 28.028036329612917, 44.598208320257754 ] ], [ [ 28.028036329612917, 44.598208320257754 ], [ 28.033617384634567, 44.62182444883922 ] ], [ [ 28.033617384634567, 44.62182444883922 ], [ 28.034547559722057, 44.630971178177333 ] ], [ [ 28.034547559722057, 44.630971178177333 ], [ 28.030775180729961, 44.63706899713651 ] ], [ [ 28.030775180729961, 44.63706899713651 ], [ 27.977961866746739, 44.679288641857283 ] ], [ [ 27.977961866746739, 44.679288641857283 ], [ 27.960288526594184, 44.686419990490151 ] ], [ [ 27.960288526594184, 44.686419990490151 ], [ 27.935225457189063, 44.689003811076986 ] ], [ [ 27.935225457189063, 44.689003811076986 ], [ 27.916363560429943, 44.694455674889468 ] ], [ [ 27.916363560429943, 44.694455674889468 ], [ 27.898535190646498, 44.708124091153877 ] ], [ [ 27.898535190646498, 44.708124091153877 ], [ 27.88447920075447, 44.726004136881386 ] ], [ [ 27.88447920075447, 44.726004136881386 ], [ 27.876882765027574, 44.744245916915531 ] ], [ [ 27.876882765027574, 44.744245916915531 ], [ 27.883704054398549, 44.757914334079203 ] ], [ [ 27.883704054398549, 44.757914334079203 ], [ 27.894762810755083, 44.768973090435736 ] ], [ [ 27.894762810755083, 44.768973090435736 ], [ 27.910885858195797, 44.775303453391643 ] ], [ [ 27.910885858195797, 44.775303453391643 ], [ 27.926647170430556, 44.777835598034414 ] ], [ [ 27.926647170430556, 44.777835598034414 ], [ 27.94576744960807, 44.778404038815324 ] ], [ [ 27.94576744960807, 44.778404038815324 ], [ 27.965094435259971, 44.775225938126539 ] ], [ [ 27.965094435259971, 44.775225938126539 ], [ 27.995066766118327, 44.761092433868725 ] ], [ [ 27.995066766118327, 44.761092433868725 ], [ 28.014083693407713, 44.757914334079203 ] ], [ [ 28.014083693407713, 44.757914334079203 ], [ 28.034702590252323, 44.763237005783139 ] ], [ [ 28.034702590252323, 44.763237005783139 ], [ 28.054804722260087, 44.777008774835053 ] ], [ [ 28.054804722260087, 44.777008774835053 ], [ 28.070100945602121, 44.795922350236253 ] ], [ [ 28.070100945602121, 44.795922350236253 ], [ 28.076147087717914, 44.816902981387443 ] ], [ [ 28.076147087717914, 44.816902981387443 ], [ 28.080074497240219, 44.84077749328668 ] ], [ [ 28.080074497240219, 44.84077749328668 ], [ 28.090203077609942, 44.856073717528034 ] ], [ [ 28.090203077609942, 44.856073717528034 ], [ 28.117074823044618, 44.88144684529567 ] ], [ [ 28.117074823044618, 44.88144684529567 ], [ 28.12503299307815, 44.891601264087058 ] ], [ [ 28.12503299307815, 44.891601264087058 ], [ 28.126634962633375, 44.895761216706774 ] ], [ [ 28.126634962633375, 44.895761216706774 ], [ 28.12518802270904, 44.90051544942844 ] ], [ [ 28.12518802270904, 44.90051544942844 ], [ 28.124102817990661, 44.944853826742701 ] ], [ [ 28.124102817990661, 44.944853826742701 ], [ 28.127358433045231, 44.949711412251872 ] ], [ [ 28.127358433045231, 44.949711412251872 ], [ 28.141362746093819, 44.959788315778098 ] ], [ [ 28.141362746093819, 44.959788315778098 ], [ 28.141001010887919, 44.982370917383889 ] ], [ [ 28.141001010887919, 44.982370917383889 ], [ 28.130769076831427, 45.018596095933049 ] ], [ [ 28.130769076831427, 45.018596095933049 ], [ 28.133094516798508, 45.025624090879091 ] ], [ [ 28.133094516798508, 45.025624090879091 ], [ 28.14239627486819, 45.036450304138214 ] ], [ [ 28.14239627486819, 45.036450304138214 ], [ 28.144411654674116, 45.042832343038185 ] ], [ [ 28.144411654674116, 45.042832343038185 ], [ 28.14332644995568, 45.048723456422351 ] ], [ [ 28.14332644995568, 45.048723456422351 ], [ 28.141001010887919, 45.051824041846032 ] ], [ [ 28.141001010887919, 45.051824041846032 ], [ 28.138675570920839, 45.053839423450597 ] ], [ [ 28.138675570920839, 45.053839423450597 ], [ 28.137590366202403, 45.056474920880873 ] ], [ [ 28.137590366202403, 45.056474920880873 ], [ 28.131440871299162, 45.089031074124762 ] ], [ [ 28.131440871299162, 45.089031074124762 ], [ 28.134179722416263, 45.093707791581267 ] ], [ [ 28.134179722416263, 45.093707791581267 ], [ 28.147770623415511, 45.097919420145104 ] ], [ [ 28.147770623415511, 45.097919420145104 ], [ 28.162705111551645, 45.108306382933222 ] ], [ [ 28.162705111551645, 45.108306382933222 ], [ 28.174280632744967, 45.121638902413395 ] ], [ [ 28.174280632744967, 45.121638902413395 ], [ 28.177949659848878, 45.134661363531052 ] ], [ [ 28.177949659848878, 45.134661363531052 ], [ 28.169629753710126, 45.147890530223776 ] ], [ [ 28.169629753710126, 45.147890530223776 ], [ 28.152576532081298, 45.16124888812567 ] ], [ [ 28.152576532081298, 45.16124888812567 ], [ 28.132060988024136, 45.171532498126282 ] ], [ [ 28.132060988024136, 45.171532498126282 ], [ 28.113664178359102, 45.175640773902558 ] ], [ [ 28.113664178359102, 45.175640773902558 ], [ 28.097696161448653, 45.184167384717 ] ], [ [ 28.097696161448653, 45.184167384717 ], [ 28.102967157208525, 45.203546048111605 ] ], [ [ 28.102967157208525, 45.203546048111605 ], [ 28.117901646243979, 45.22447500331873 ] ], [ [ 28.117901646243979, 45.22447500331873 ], [ 28.130769076831427, 45.237704169112078 ] ], [ [ 28.130769076831427, 45.237704169112078 ], [ 28.126893345051826, 45.24452545848311 ] ], [ [ 28.126893345051826, 45.24452545848311 ], [ 28.122397494748554, 45.249770615821262 ] ], [ [ 28.122397494748554, 45.249770615821262 ], [ 28.116971470257113, 45.254085598071867 ] ], [ [ 28.116971470257113, 45.254085598071867 ], [ 28.110253533673642, 45.258219713169183 ] ], [ [ 28.110253533673642, 45.258219713169183 ], [ 28.075526970992883, 45.248220323109422 ] ], [ [ 28.075526970992883, 45.248220323109422 ], [ 28.041317173149025, 45.258426418744193 ] ], [ [ 28.041317173149025, 45.258426418744193 ], [ 27.986746859979576, 45.292326158225592 ] ], [ [ 27.986746859979576, 45.292326158225592 ], [ 27.99976932109729, 45.30674388332352 ] ], [ [ 27.99976932109729, 45.30674388332352 ], [ 28.004316847344626, 45.312841702282697 ] ], [ [ 28.004316847344626, 45.312841702282697 ], [ 28.009381138428751, 45.328060411258946 ] ], [ [ 28.009381138428751, 45.328060411258946 ], [ 28.010828078353143, 45.330308335960922 ] ], [ [ 28.010828078353143, 45.330308335960922 ], [ 28.019199660435959, 45.341108709899004 ] ], [ [ 28.019199660435959, 45.341108709899004 ], [ 28.020904981879369, 45.344467677741136 ] ], [ [ 28.020904981879369, 45.344467677741136 ], [ 28.021680129134609, 45.348136704845047 ] ], [ [ 28.021680129134609, 45.348136704845047 ], [ 28.024005568202369, 45.377695624553382 ] ], [ [ 28.024005568202369, 45.377695624553382 ], [ 28.026020948907671, 45.38632558905465 ] ], [ [ 28.026020948907671, 45.38632558905465 ], [ 28.030206739949051, 45.395420641549322 ] ], [ [ 28.030206739949051, 45.395420641549322 ], [ 28.04369428906017, 45.411285304772946 ] ], [ [ 28.04369428906017, 45.411285304772946 ], [ 28.051135695156177, 45.415031847142018 ] ], [ [ 28.051135695156177, 45.415031847142018 ], [ 28.061367629212725, 45.416117051860454 ] ], [ [ 28.061367629212725, 45.416117051860454 ], [ 28.10498253791377, 45.42663320585774 ] ], [ [ 28.10498253791377, 45.42663320585774 ], [ 28.115834587795973, 45.427976792994571 ] ], [ [ 28.115834587795973, 45.427976792994571 ], [ 28.124877964346581, 45.428028468938692 ] ], [ [ 28.124877964346581, 45.428028468938692 ], [ 28.142241245237244, 45.424230252424195 ] ], [ [ 28.142241245237244, 45.424230252424195 ], [ 28.171231724164727, 45.414385891095947 ] ], [ [ 28.171231724164727, 45.414385891095947 ], [ 28.181670362896909, 45.413016466436773 ] ], [ [ 28.181670362896909, 45.413016466436773 ], [ 28.187096388287671, 45.414385891095947 ] ], [ [ 28.187096388287671, 45.414385891095947 ], [ 28.190817092235022, 45.417021389425543 ] ], [ [ 28.190817092235022, 45.417021389425543 ], [ 28.194382764752788, 45.423429266747235 ] ], [ [ 28.194382764752788, 45.423429266747235 ], [ 28.196088087994838, 45.42872610092877 ] ], [ [ 28.196088087994838, 45.42872610092877 ], [ 28.199808791042869, 45.436916815858353 ] ], [ [ 28.199808791042869, 45.436916815858353 ], [ 28.213761428147393, 45.448802395414191 ] ], [ [ 28.213761428147393, 45.448802395414191 ], [ 28.215145134853202, 45.450364007434125 ] ], [ [ 28.578378734418639, 43.741278343994473 ], [ 28.434574015000123, 43.735212707000031 ] ], [ [ 28.434574015000123, 43.735212707000031 ], [ 28.221254694597278, 43.761980975570033 ] ], [ [ 27.656274300806178, 44.023877508457296 ], [ 27.633434285000135, 44.029768372000078 ] ], [ [ 27.633434285000135, 44.029768372000078 ], [ 27.57452315200004, 44.016280823 ] ], [ [ 27.57452315200004, 44.016280823 ], [ 27.383838115846661, 44.015092271225939 ] ], [ [ 25.403130149036301, 43.650050044896801 ], [ 25.359620582268708, 43.654287318171036 ] ], [ [ 25.081599414583554, 43.718934882604707 ], [ 24.963675731803438, 43.74960434229483 ] ], [ [ 23.799920589448323, 43.818463830642962 ], [ 23.74287164628198, 43.842699296471757 ] ], [ [ 23.592698088551995, 43.837429061757462 ], [ 23.484695272000096, 43.880604350000041 ] ], [ [ 23.484695272000096, 43.880604350000041 ], [ 23.325151730135552, 43.886592243538637 ] ], [ [ 22.919560823604495, 43.834224921296268 ], [ 22.888763640091348, 43.839521417584187 ] ], [ [ 23.023018510058495, 44.031629596105212 ], [ 23.040071248000089, 44.062324524000118 ] ], [ [ 23.040071248000089, 44.062324524000118 ], [ 23.030976479367439, 44.09307104402501 ] ], [ [ 27.100235944862245, 44.144490460129909 ], [ 27.027477352865684, 44.177045795992065 ] ], [ [ 26.054304986204691, 43.934321531883384 ], [ 25.934004015029416, 43.870321209241162 ] ], [ [ 43.863245669256138, 41.158987544171055 ], [ 43.955847837470195, 41.16048612882463 ] ], [ [ 44.84778474538134, 41.20890768623449 ], [ 44.857705244855495, 41.219344878014617 ] ], [ [ 44.801276122910551, 41.258516988788202 ], [ 44.820704812789153, 41.273346867780504 ] ], [ [ 45.002400473540888, 41.290451524699357 ], [ 45.039399738859274, 41.231180352660004 ] ], [ [ 45.199752318881288, 41.142656779544559 ], [ 45.201044149000097, 41.126741435 ] ], [ [ 45.201044149000097, 41.126741435 ], [ 45.166730998000048, 41.107776185000048 ] ], [ [ 45.166730998000048, 41.107776185000048 ], [ 45.067822307000085, 41.110928447 ] ], [ [ 45.067822307000085, 41.110928447 ], [ 45.057176961000096, 41.078785706000062 ] ], [ [ 45.057176961000096, 41.078785706000062 ], [ 45.07004378317307, 41.062095010060752 ] ], [ [ 45.582208757091202, 40.799370583361181 ], [ 45.555855288636657, 40.776582583403446 ] ], [ [ 45.526193074522084, 40.441046273608741 ], [ 45.585413452000125, 40.398723857000093 ] ], [ [ 45.585413452000125, 40.398723857000093 ], [ 45.818369891518259, 40.297800182480529 ] ], [ [ 45.639569458335231, 40.02541286449344 ], [ 45.576267618180687, 39.993891131265464 ] ], [ [ 45.816821308130876, 39.839170839367462 ], [ 45.861881572800506, 39.804548846685471 ] ], [ [ 46.42327047411775, 39.57454308043711 ], [ 46.42536224569492, 39.574697138903979 ] ], [ [ 46.42536224569492, 39.574697138903979 ], [ 46.44693551270008, 39.576286004761293 ] ], [ [ 46.518275506976316, 39.525443395658883 ], [ 46.503703654000049, 39.518467509000018 ] ], [ [ 46.503703654000049, 39.518467509000018 ], [ 46.492025595181744, 39.510199857119808 ] ], [ [ 46.405724236247408, 39.451184362216324 ], [ 46.373995809000064, 39.435991924000106 ] ], [ [ 46.373995809000064, 39.435991924000106 ], [ 46.360869995000144, 39.41025706 ] ], [ [ 46.360869995000144, 39.41025706 ], [ 46.374615526648597, 39.378838704089034 ] ], [ [ 46.514141363416471, 39.184431417774555 ], [ 46.48564929123313, 39.195673188016372 ] ], [ [ 46.418333379721645, 39.21192232582024 ], [ 46.395286499000065, 39.195179749000076 ] ], [ [ 46.395286499000065, 39.195179749000076 ], [ 46.396268319103342, 39.164433270871243 ] ], [ [ 46.479312735846904, 39.114770287251893 ], [ 46.491921069929589, 39.08190594233146 ] ], [ [ 45.955107346988257, 39.203241987429074 ], [ 45.979238844579115, 39.227941892128072 ] ], [ [ 45.958826418395731, 39.27243636998525 ], [ 45.90178842600011, 39.294123976000051 ] ], [ [ 45.90178842600011, 39.294123976000051 ], [ 45.89984590977533, 39.294862580691635 ] ], [ [ 45.862935019926972, 39.314367686143292 ], [ 45.844312378000097, 39.330055237000025 ] ], [ [ 45.844312378000097, 39.330055237000025 ], [ 45.823745158000065, 39.343077698000073 ] ], [ [ 45.823745158000065, 39.343077698000073 ], [ 45.799425737592458, 39.347928292548943 ] ], [ [ 45.714655228328063, 39.569471963615072 ], [ 45.709065735994898, 39.568422103297394 ] ], [ [ 45.709065735994898, 39.568422103297394 ], [ 45.586447962667442, 39.545391115384135 ] ], [ [ 45.547993303204436, 39.531052608126359 ], [ 45.529140249563689, 39.521759361187733 ] ], [ [ 45.144407041694215, 39.589833626672579 ], [ 45.149484550747005, 39.608460067874887 ] ], [ [ 45.067511316641273, 39.757212986937013 ], [ 45.033510086624652, 39.770389754960142 ] ], [ [ 44.979456574011614, 41.032638401293319 ], [ 45.015732463000063, 41.023233541000067 ] ], [ [ 45.015732463000063, 41.023233541000067 ], [ 45.029995158000133, 41.046281230000048 ] ], [ [ 45.029995158000133, 41.046281230000048 ], [ 45.018884725000078, 41.074909973 ] ], [ [ 45.018884725000078, 41.074909973 ], [ 44.979456590017392, 41.082041143206624 ] ], [ [ 45.22047334221979, 40.979050941099786 ], [ 45.191846579662005, 40.997808188445411 ] ], [ [ 45.513685590296213, 40.601967487454964 ], [ 45.479271034016797, 40.609821860701949 ] ], [ [ 45.314423172399636, 41.451630801948788 ], [ 45.333095596684416, 41.444352456300805 ] ], [ [ 45.333095596684416, 41.444352456300805 ], [ 45.368488044689357, 41.430556791513617 ] ], [ [ 45.685873081371859, 41.296239361906572 ], [ 45.709746306208437, 41.267715509816071 ] ], [ [ 45.820748888509137, 41.208803346980901 ], [ 45.969161674469184, 41.168289549025239 ] ], [ [ 46.087608890787038, 41.183659487423647 ], [ 46.11313227941541, 41.196039094674546 ] ], [ [ 46.47492088014225, 41.044110853068588 ], [ 46.496779012000047, 41.044834290000054 ] ], [ [ 46.496779012000047, 41.044834290000054 ], [ 46.505563361795687, 41.055272164721934 ] ], [ [ 46.219689135609308, 41.593302634415792 ], [ 46.192766561000042, 41.610174459000049 ] ], [ [ 46.192766561000042, 41.610174459000049 ], [ 46.180002754780929, 41.655157831640842 ] ], [ [ 46.188994964058956, 41.740141308092412 ], [ 46.20832038499077, 41.755513802947156 ] ], [ [ 46.238781564208082, 41.755842740141837 ], [ 46.255062974311173, 41.753057289208272 ] ] ] } }
]
}
