{"type":"FeatureCollection","features":[{"type":"Feature","geometry":{"type":"LineString","coordinates":[[44.93056,40.28897],[42.07506,39.61824]]},"properties":{"zone_a":"ARM_1","zone_b":"EastAna","mw":2396,"status":"existing","label":"2,396 MW"}},{"type":"Feature","geometry":{"type":"LineString","coordinates":[[44.93056,40.28897],[47.54303,40.28968]]},"properties":{"zone_a":"ARM_1","zone_b":"AZE_1","mw":967,"status":"existing","label":"967 MW"}},{"type":"Feature","geometry":{"type":"LineString","coordinates":[[47.54303,40.28968],[42.07506,39.61824]]},"properties":{"zone_a":"AZE_1","zone_b":"EastAna","mw":50,"status":"existing","label":"50 MW"}},{"type":"Feature","geometry":{"type":"LineString","coordinates":[[47.54303,40.28968],[43.5075,42.16862]]},"properties":{"zone_a":"AZE_1","zone_b":"GEO_1","mw":2000,"status":"existing","label":"2,000 MW"}},{"type":"Feature","geometry":{"type":"LineString","coordinates":[[44.93056,40.28897],[43.5075,42.16862]]},"properties":{"zone_a":"ARM_1","zone_b":"GEO_1","mw":500,"status":"existing","label":"500 MW"}},{"type":"Feature","geometry":{"type":"LineString","coordinates":[[42.07506,39.61824],[43.5075,42.16862]]},"properties":{"zone_a":"EastAna","zone_b":"GEO_1","mw":1170,"status":"existing","label":"1,170 MW"}},{"type":"Feature","geometry":{"type":"LineString","coordinates":[[25.21788,42.76899],[24.97278,45.8538]]},"properties":{"zone_a":"BGR_1","zone_b":"ROU_1","mw":1500,"status":"existing","label":"1,500 MW"}},{"type":"Feature","geometry":{"type":"LineString","coordinates":[[25.21788,42.76899],[27.51987,41.30239]]},"properties":{"zone_a":"BGR_1","zone_b":"Trakia","mw":650,"status":"existing","label":"650 MW"}},{"type":"Feature","geometry":{"type":"LineString","coordinates":[[35.97934,40.58063],[42.07506,39.61824]]},"properties":{"zone_a":"CenterBlack","zone_b":"EastAna","mw":4728,"status":"existing","label":"4,728 MW"}},{"type":"Feature","geometry":{"type":"LineString","coordinates":[[30.45956,40.15832],[27.51987,41.30239]]},"properties":{"zone_a":"NorthWest","zone_b":"Trakia","mw":6927,"status":"existing","label":"6,927 MW"}},{"type":"Feature","geometry":{"type":"LineString","coordinates":[[33.68289,38.71746],[35.97934,40.58063]]},"properties":{"zone_a":"CenterAna","zone_b":"CenterBlack","mw":5353,"status":"existing","label":"5,353 MW"}},{"type":"Feature","geometry":{"type":"LineString","coordinates":[[33.68289,38.71746],[30.45956,40.15832]]},"properties":{"zone_a":"CenterAna","zone_b":"NorthWest","mw":7635,"status":"existing","label":"7,635 MW"}},{"type":"Feature","geometry":{"type":"LineString","coordinates":[[33.68289,38.71746],[39.4316,37.97828]]},"properties":{"zone_a":"CenterAna","zone_b":"SouthEast","mw":3927,"status":"existing","label":"3,927 MW"}},{"type":"Feature","geometry":{"type":"LineString","coordinates":[[35.01425,36.97164],[39.4316,37.97828]]},"properties":{"zone_a":"EastMed","zone_b":"SouthEast","mw":3312,"status":"existing","label":"3,312 MW"}},{"type":"Feature","geometry":{"type":"LineString","coordinates":[[35.97934,40.58063],[39.4316,37.97828]]},"properties":{"zone_a":"CenterBlack","zone_b":"SouthEast","mw":3354,"status":"existing","label":"3,354 MW"}},{"type":"Feature","geometry":{"type":"LineString","coordinates":[[30.45956,40.15832],[30.37008,37.71609]]},"properties":{"zone_a":"NorthWest","zone_b":"WestMed","mw":1989,"status":"existing","label":"1,989 MW"}},{"type":"Feature","geometry":{"type":"LineString","coordinates":[[42.07506,39.61824],[39.4316,37.97828]]},"properties":{"zone_a":"EastAna","zone_b":"SouthEast","mw":3885,"status":"existing","label":"3,885 MW"}},{"type":"Feature","geometry":{"type":"LineString","coordinates":[[27.82794,38.6206],[30.37008,37.71609]]},"properties":{"zone_a":"WestAna","zone_b":"WestMed","mw":2343,"status":"existing","label":"2,343 MW"}},{"type":"Feature","geometry":{"type":"LineString","coordinates":[[33.68289,38.71746],[35.01425,36.97164]]},"properties":{"zone_a":"CenterAna","zone_b":"EastMed","mw":6315,"status":"existing","label":"6,315 MW"}},{"type":"Feature","geometry":{"type":"LineString","coordinates":[[33.68289,38.71746],[30.37008,37.71609]]},"properties":{"zone_a":"CenterAna","zone_b":"WestMed","mw":5781,"status":"existing","label":"5,781 MW"}},{"type":"Feature","geometry":{"type":"LineString","coordinates":[[30.45956,40.15832],[27.82794,38.6206]]},"properties":{"zone_a":"NorthWest","zone_b":"WestAna","mw":4635,"status":"existing","label":"4,635 MW"}},{"type":"Feature","geometry":{"type":"LineString","coordinates":[[35.97934,40.58063],[30.45956,40.15832]]},"properties":{"zone_a":"CenterBlack","zone_b":"NorthWest","mw":1281,"status":"existing","label":"1,281 MW"}},{"type":"Feature","geometry":{"type":"LineString","coordinates":[[35.01425,36.97164],[30.37008,37.71609]]},"properties":{"zone_a":"EastMed","zone_b":"WestMed","mw":750,"status":"existing","label":"750 MW"}},{"type":"Feature","geometry":{"type":"LineString","coordinates":[[47.54303,40.28968],[27.51987,41.30239]]},"properties":{"zone_a":"AZE_1","zone_b":"Trakia","mw":1000,"status":"planned","label":"1,000 MW"}},{"type":"Feature","geometry":{"type":"LineString","coordinates":[[47.54303,40.28968],[47.54303,40.28968]]},"properties":{"zone_a":"AZE_1","zone_b":"AZE_1","mw":1000,"status":"under_construction","label":"1,000 MW"}}]}