{"type":"FeatureCollection","features":[{"type":"Feature","geometry":{"type":"LineString","coordinates":[[28.7468,-10.412],[26.19867,-8.53266]]},"properties":{"zone_a":"COD_3","zone_b":"COD_6","mw":1106,"status":"existing","label":"1,106 MW"}},{"type":"Feature","geometry":{"type":"LineString","coordinates":[[21.99449,-6.40543],[26.19867,-8.53266]]},"properties":{"zone_a":"COD_2","zone_b":"COD_6","mw":1731,"status":"existing","label":"1,731 MW"}},{"type":"Feature","geometry":{"type":"LineString","coordinates":[[21.99449,-6.40543],[18.70368,-1.618]]},"properties":{"zone_a":"COD_2","zone_b":"COD_5","mw":1540,"status":"existing","label":"1,540 MW"}}]}