{"type":"FeatureCollection","features":[{"type":"Feature","geometry":{"type":"LineString","coordinates":[[25.99628,-8.57846],[28.72824,-10.30855]]},"properties":{"zone_a":"COD_2","zone_b":"COD_6","mw":1106,"status":"existing","label":"1,106 MW"}},{"type":"Feature","geometry":{"type":"LineString","coordinates":[[25.99628,-8.57846],[21.6041,-6.05718]]},"properties":{"zone_a":"COD_2","zone_b":"COD_4","mw":1640,"status":"existing","label":"1,640 MW"}},{"type":"Feature","geometry":{"type":"LineString","coordinates":[[16.12715,-5.18507],[21.6041,-6.05718]]},"properties":{"zone_a":"COD_3","zone_b":"COD_4","mw":1988,"status":"existing","label":"1,988 MW"}}]}