{
"type": "FeatureCollection",
"name": "KAZ_2z_outside",
"crs": { "type": "name", "properties": { "name": "urn:ogc:def:crs:OGC:1.3:CRS84" } },
"features": [
{ "type": "Feature", "properties": { "zone_id": "KAZ_WEST", "zone_name": "Kazakhstan - Western zone", "ISO_A3": "KAZ", "status": "not modelled", "reason": "KEGOC Western zone: isolated from the rest of the Kazakh grid and synchronised with Russia. No plant and no load in the 2020 model.", "area_km2": 431303 }, "geometry": { "type": "MultiPolygon", "coordinates": [ [ [ [ 50.991, 43.9081 ], [ 50.9831, 43.919 ], [ 50.9532, 43.9387 ], [ 50.9467, 43.9472 ], [ 50.9388, 43.9657 ], [ 50.9237, 43.983 ], [ 50.9114, 44.0023 ], [ 50.9021, 44.0107 ], [ 50.9017, 44.011 ], [ 50.8913, 44.0155 ], [ 50.8892, 44.0159 ], [ 50.869, 44.0203 ], [ 50.8607, 44.0253 ], [ 50.8528, 44.0388 ], [ 50.8538, 44.0475 ], [ 50.8582, 44.0562 ], [ 50.8607, 44.0694 ], [ 50.8571, 44.1527 ], [ 50.8561, 44.1572 ], [ 50.8528, 44.1733 ], [ 50.8474, 44.1892 ], [ 50.8218, 44.2149 ], [ 50.7839, 44.2344 ], [ 50.7811, 44.2358 ], [ 50.6962, 44.2643 ], [ 50.4676, 44.2948 ], [ 50.3821, 44.3062 ], [ 50.3444, 44.3113 ], [ 50.2991, 44.3263 ], [ 50.2778, 44.3364 ], [ 50.2552, 44.351 ], [ 50.2375, 44.3692 ], [ 50.2303, 44.3908 ], [ 50.2368, 44.4359 ], [ 50.2375, 44.4577 ], [ 50.2303, 44.4765 ], [ 50.2375, 44.484 ], [ 50.2274, 44.5022 ], [ 50.222, 44.5348 ], [ 50.2246, 44.5677 ], [ 50.2375, 44.5864 ], [ 50.2541, 44.5575 ], [ 50.2685, 44.5706 ], [ 50.2786, 44.5983 ], [ 50.2818, 44.6136 ], [ 50.2926, 44.6189 ], [ 50.2951, 44.6311 ], [ 50.2955, 44.645 ], [ 50.2991, 44.6553 ], [ 50.3113, 44.6623 ], [ 50.3203, 44.6599 ], [ 50.329, 44.6533 ], [ 50.3401, 44.6478 ], [ 50.4978, 44.6258 ], [ 50.5009, 44.6259 ], [ 50.5381, 44.6271 ], [ 50.5453, 44.6274 ], [ 50.5925, 44.6397 ], [ 50.617, 44.6397 ], [ 50.6274, 44.6239 ], [ 50.6429, 44.6208 ], [ 50.7304, 44.6205 ], [ 50.7455, 44.6092 ], [ 50.753, 44.6065 ], [ 50.757, 44.6051 ], [ 50.7665, 44.6096 ], [ 50.7682, 44.6103 ], [ 50.779, 44.6281 ], [ 50.7844, 44.6327 ], [ 50.7959, 44.6342 ], [ 50.8093, 44.6339 ], [ 50.8231, 44.6335 ], [ 50.8481, 44.6328 ], [ 50.8729, 44.6288 ], [ 50.8949, 44.6205 ], [ 50.9305, 44.5969 ], [ 50.9604, 44.5697 ], [ 50.9701, 44.5653 ], [ 50.9946, 44.5683 ], [ 51.0047, 44.566 ], [ 51.0112, 44.558 ], [ 51.0086, 44.5514 ], [ 51.0007, 44.5469 ], [ 50.9942, 44.5459 ], [ 50.991, 44.5454 ], [ 50.9967, 44.5395 ], [ 51.0072, 44.5288 ], [ 51.0335, 44.5158 ], [ 51.1145, 44.4884 ], [ 51.1433, 44.4847 ], [ 51.1728, 44.4856 ], [ 51.2027, 44.4909 ], [ 51.2254, 44.4997 ], [ 51.2786, 44.5386 ], [ 51.2858, 44.5485 ], [ 51.2923, 44.5522 ], [ 51.2992, 44.5537 ], [ 51.3236, 44.5522 ], [ 51.3388, 44.554 ], [ 51.3661, 44.5601 ], [ 51.3816, 44.5597 ], [ 51.3737, 44.5276 ], [ 51.3819, 44.5258 ], [ 51.3823, 44.5257 ], [ 51.4025, 44.5213 ], [ 51.4709, 44.5318 ], [ 51.5378, 44.5093 ], [ 51.5602, 44.5113 ], [ 51.5738, 44.5239 ], [ 51.5688, 44.5376 ], [ 51.5544, 44.5504 ], [ 51.5396, 44.5597 ], [ 51.5309, 44.5631 ], [ 51.4949, 44.5772 ], [ 51.4795, 44.5832 ], [ 51.4757, 44.5857 ], [ 51.4388, 44.6101 ], [ 51.4154, 44.6121 ], [ 51.3679, 44.6008 ], [ 51.3409, 44.5983 ], [ 51.3193, 44.5963 ], [ 51.3175, 44.5975 ], [ 51.3124, 44.6009 ], [ 51.292, 44.6145 ], [ 51.2581, 44.6889 ], [ 51.2344, 44.719 ], [ 51.2009, 44.7409 ], [ 51.121, 44.7782 ], [ 51.0961, 44.7968 ], [ 51.0601, 44.8002 ], [ 51.0497, 44.8034 ], [ 51.0454, 44.8095 ], [ 51.0342, 44.8178 ], [ 50.9826, 44.8416 ], [ 50.9708, 44.847 ], [ 50.9686, 44.8516 ], [ 50.9626, 44.8636 ], [ 50.96, 44.8864 ], [ 50.9654, 44.9066 ], [ 50.9899, 44.9189 ], [ 50.9939, 44.927 ], [ 50.9939, 44.9365 ], [ 50.991, 44.9434 ], [ 50.9798, 44.9486 ], [ 50.9662, 44.9494 ], [ 50.9543, 44.9522 ], [ 50.9496, 44.9638 ], [ 50.9593, 44.9788 ], [ 50.9824, 44.9894 ], [ 51.0086, 44.9957 ], [ 51.0284, 44.9979 ], [ 51.0536, 44.9954 ], [ 51.0652, 44.997 ], [ 51.0792, 45.0047 ], [ 51.0979, 45.0252 ], [ 51.1073, 45.0321 ], [ 51.1501, 45.0535 ], [ 51.1746, 45.0621 ], [ 51.1966, 45.0656 ], [ 51.2135, 45.0576 ], [ 51.2315, 45.0407 ], [ 51.2513, 45.0261 ], [ 51.2729, 45.0246 ], [ 51.2729, 45.0247 ], [ 51.2819, 45.0375 ], [ 51.275, 45.0568 ], [ 51.2606, 45.0766 ], [ 51.2585, 45.0789 ], [ 51.2477, 45.0905 ], [ 51.2434, 45.1011 ], [ 51.253, 45.1229 ], [ 51.2581, 45.1344 ], [ 51.2567, 45.1413 ], [ 51.2492, 45.1538 ], [ 51.2444, 45.1617 ], [ 51.2475, 45.1678 ], [ 51.2513, 45.1755 ], [ 51.2632, 45.1925 ], [ 51.2848, 45.2158 ], [ 51.2925, 45.224 ], [ 51.2938, 45.2254 ], [ 51.294, 45.2261 ], [ 51.2995, 45.2409 ], [ 51.3092, 45.2572 ], [ 51.3971, 45.3326 ], [ 51.4061, 45.3485 ], [ 51.4097, 45.371 ], [ 51.4158, 45.3898 ], [ 51.4298, 45.3808 ], [ 51.4568, 45.3473 ], [ 51.4939, 45.3346 ], [ 51.5436, 45.3349 ], [ 51.59, 45.3441 ], [ 51.5929, 45.3446 ], [ 51.6278, 45.3611 ], [ 51.6281, 45.3613 ], [ 51.6588, 45.3853 ], [ 51.6678, 45.3896 ], [ 51.6901, 45.3886 ], [ 51.6998, 45.392 ], [ 51.715, 45.4096 ], [ 51.7265, 45.4293 ], [ 51.7394, 45.4468 ], [ 51.7582, 45.4572 ], [ 51.7704, 45.4477 ], [ 51.7816, 45.4342 ], [ 51.7895, 45.4193 ], [ 51.7916, 45.4091 ], [ 51.7924, 45.4054 ], [ 51.8784, 45.3951 ], [ 51.8942, 45.3908 ], [ 51.9212, 45.3715 ], [ 51.94, 45.3672 ], [ 51.958, 45.3715 ], [ 51.99, 45.3908 ], [ 52.0087, 45.3951 ], [ 52.0314, 45.393 ], [ 52.0721, 45.3835 ], [ 52.094, 45.3815 ], [ 52.1082, 45.3828 ], [ 52.1545, 45.387 ], [ 52.2747, 45.3978 ], [ 52.3189, 45.4018 ], [ 52.4029, 45.4093 ], [ 52.4458, 45.4006 ], [ 52.5192, 45.4089 ], [ 52.5667, 45.4006 ], [ 52.7352, 45.3478 ], [ 52.8353, 45.3366 ], [ 52.885, 45.3183 ], [ 52.9098, 45.3126 ], [ 53.0023, 45.32 ], [ 53.0286, 45.3164 ], [ 53.0833, 45.3015 ], [ 53.1082, 45.2995 ], [ 53.1294, 45.3048 ], [ 53.1708, 45.3224 ], [ 53.2003, 45.3285 ], [ 53.2126, 45.338 ], [ 53.218, 45.3405 ], [ 53.2453, 45.3337 ], [ 53.2612, 45.3428 ], [ 53.2673, 45.3508 ], [ 53.2658, 45.3611 ], [ 53.2475, 45.3697 ], [ 53.1431, 45.384 ], [ 53.1344, 45.3896 ], [ 53.1218, 45.402 ], [ 53.1121, 45.4062 ], [ 53.0819, 45.4089 ], [ 53.0358, 45.4188 ], [ 52.9098, 45.4634 ], [ 52.885, 45.4674 ], [ 52.8756, 45.4711 ], [ 52.85, 45.4942 ], [ 52.8407, 45.4972 ], [ 52.8043, 45.501 ], [ 52.7554, 45.5168 ], [ 52.7384, 45.5255 ], [ 52.7435, 45.5382 ], [ 52.732, 45.5541 ], [ 52.7345, 45.5627 ], [ 52.7428, 45.5733 ], [ 52.7431, 45.5807 ], [ 52.7384, 45.5972 ], [ 52.7399, 45.6208 ], [ 52.7456, 45.6391 ], [ 52.7572, 45.651 ], [ 52.7759, 45.6552 ], [ 52.7921, 45.6629 ], [ 52.804, 45.6806 ], [ 52.8202, 45.7173 ], [ 52.8504, 45.7546 ], [ 52.8587, 45.7648 ], [ 52.8756, 45.7788 ], [ 52.8864, 45.7837 ], [ 52.9109, 45.7904 ], [ 52.9199, 45.7961 ], [ 52.9544, 45.8302 ], [ 52.9674, 45.8478 ], [ 52.9832, 45.8795 ], [ 52.9865, 45.8861 ], [ 53.0023, 45.906 ], [ 53.0311, 45.9274 ], [ 53.0401, 45.9364 ], [ 53.0538, 45.9671 ], [ 53.0603, 45.978 ], [ 53.0819, 46.0051 ], [ 53.0866, 46.0204 ], [ 53.0819, 46.0387 ], [ 53.0819, 46.0325 ], [ 53.0768, 46.0478 ], [ 53.0822, 46.0607 ], [ 53.1053, 46.0838 ], [ 53.1139, 46.0978 ], [ 53.1186, 46.1142 ], [ 53.1276, 46.1832 ], [ 53.1568, 46.2722 ], [ 53.1568, 46.3416 ], [ 53.1283, 46.3939 ], [ 53.083, 46.4349 ], [ 53.0326, 46.4709 ], [ 53.0531, 46.4686 ], [ 53.0833, 46.4501 ], [ 53.102, 46.4435 ], [ 53.102, 46.451 ], [ 53.084, 46.4601 ], [ 53.0754, 46.4756 ], [ 53.075, 46.4942 ], [ 53.0819, 46.5124 ], [ 53.0632, 46.5058 ], [ 53.0408, 46.4902 ], [ 53.0178, 46.4786 ], [ 52.9984, 46.4845 ], [ 52.9966, 46.5048 ], [ 53.0095, 46.5317 ], [ 53.0401, 46.5739 ], [ 53.0419, 46.5553 ], [ 53.0542, 46.5456 ], [ 53.0718, 46.5447 ], [ 53.088, 46.5533 ], [ 53.0956, 46.5683 ], [ 53.1002, 46.6051 ], [ 53.1082, 46.6217 ], [ 53.1175, 46.6014 ], [ 53.1258, 46.6065 ], [ 53.1337, 46.6227 ], [ 53.1424, 46.6353 ], [ 53.1521, 46.6376 ], [ 53.1751, 46.6349 ], [ 53.1841, 46.6353 ], [ 53.2007, 46.6432 ], [ 53.2046, 46.6558 ], [ 53.2063, 46.6753 ], [ 53.2079, 46.695 ], [ 53.1993, 46.7049 ], [ 53.1967, 46.7079 ], [ 53.1881, 46.7179 ], [ 53.1751, 46.7224 ], [ 53.1568, 46.7289 ], [ 53.1498, 46.7295 ], [ 53.1413, 46.7302 ], [ 53.1258, 46.7315 ], [ 53.1056, 46.7372 ], [ 53.0995, 46.7511 ], [ 53.102, 46.783 ], [ 53.0837, 46.8532 ], [ 53.065, 46.8794 ], [ 53.0603, 46.8923 ], [ 53.052, 46.8983 ], [ 53.0092, 46.8947 ], [ 52.9922, 46.8953 ], [ 52.9742, 46.9083 ], [ 52.9357, 46.9488 ], [ 52.9199, 46.9574 ], [ 52.8749, 46.9567 ], [ 52.7827, 46.9438 ], [ 52.7273, 46.95 ], [ 52.6146, 46.95 ], [ 52.5905, 46.9543 ], [ 52.5714, 46.9622 ], [ 52.5368, 46.9888 ], [ 52.5196, 46.9942 ], [ 52.4558, 47.0011 ], [ 52.4368, 46.9991 ], [ 52.4274, 46.9901 ], [ 52.4234, 46.979 ], [ 52.4231, 46.9537 ], [ 52.4191, 46.944 ], [ 52.3741, 46.9036 ], [ 52.3572, 46.8936 ], [ 52.2622, 46.87 ], [ 52.2352, 46.8688 ], [ 52.2017, 46.8854 ], [ 52.1887, 46.8837 ], [ 52.1808, 46.8754 ], [ 52.183, 46.8618 ], [ 52.2244, 46.8482 ], [ 52.2373, 46.8322 ], [ 52.2427, 46.8212 ], [ 52.2449, 46.81 ], [ 52.2391, 46.8067 ], [ 52.1124, 46.8126 ], [ 52.0879, 46.8209 ], [ 52.0717, 46.8299 ], [ 52.0685, 46.8374 ], [ 52.0674, 46.8514 ], [ 52.062, 46.85 ], [ 52.0494, 46.8568 ], [ 52.0174, 46.8806 ], [ 52.0069, 46.885 ], [ 52.0001, 46.8905 ], [ 51.9979, 46.9028 ], [ 52.0224, 46.9261 ], [ 52.0188, 46.937 ], [ 51.999, 46.941 ], [ 51.9814, 46.9232 ], [ 51.9608, 46.8857 ], [ 51.9414, 46.8799 ], [ 51.9097, 46.881 ], [ 51.8766, 46.8869 ], [ 51.8539, 46.8953 ], [ 51.8856, 46.9244 ], [ 51.8957, 46.9308 ], [ 51.8741, 46.9355 ], [ 51.8496, 46.9281 ], [ 51.806, 46.9091 ], [ 51.7848, 46.9091 ], [ 51.7636, 46.9156 ], [ 51.7438, 46.9268 ], [ 51.7276, 46.9404 ], [ 51.6894, 46.9614 ], [ 51.6839, 46.9682 ], [ 51.6757, 46.9785 ], [ 51.6962, 47.0211 ], [ 51.6941, 47.0417 ], [ 51.68, 47.057 ], [ 51.6552, 47.0597 ], [ 51.6358, 47.0487 ], [ 51.6268, 47.0293 ], [ 51.621, 47.0074 ], [ 51.6141, 46.9946 ], [ 51.6109, 46.9888 ], [ 51.5922, 46.9872 ], [ 51.572, 47.0048 ], [ 51.5599, 47.0212 ], [ 51.5461, 47.04 ], [ 51.527, 47.0529 ], [ 51.5026, 47.0613 ], [ 51.4378, 47.0691 ], [ 51.382, 47.0836 ], [ 51.3187, 47.0932 ], [ 51.2534, 47.103 ], [ 51.2149, 47.1199 ], [ 51.2128, 47.1209 ], [ 51.1872, 47.1168 ], [ 51.1418, 47.0947 ], [ 51.1026, 47.0804 ], [ 51.1013, 47.0802 ], [ 50.9708, 47.0597 ], [ 50.9518, 47.0522 ], [ 50.923, 47.0248 ], [ 50.9053, 47.0188 ], [ 50.8909, 47.0223 ], [ 50.8682, 47.0367 ], [ 50.8574, 47.04 ], [ 50.8466, 47.0367 ], [ 50.8405, 47.0294 ], [ 50.8394, 47.0223 ], [ 50.8438, 47.0188 ], [ 50.838, 47.0098 ], [ 50.7577, 46.9155 ], [ 50.7404, 46.9061 ], [ 50.7304, 46.9232 ], [ 50.734, 46.935 ], [ 50.753, 46.955 ], [ 50.7577, 46.9679 ], [ 50.752, 46.9746 ], [ 50.7394, 46.9692 ], [ 50.7037, 46.9427 ], [ 50.6782, 46.9327 ], [ 50.6515, 46.9282 ], [ 50.631, 46.9338 ], [ 50.6162, 46.9355 ], [ 50.6105, 46.9152 ], [ 50.6069, 46.868 ], [ 50.5986, 46.8524 ], [ 50.5856, 46.8372 ], [ 50.5691, 46.8289 ], [ 50.5514, 46.8345 ], [ 50.5698, 46.8522 ], [ 50.581, 46.8676 ], [ 50.5781, 46.8783 ], [ 50.5554, 46.8823 ], [ 50.5212, 46.8746 ], [ 50.5144, 46.8717 ], [ 50.5028, 46.8636 ], [ 50.4938, 46.8657 ], [ 50.4863, 46.872 ], [ 50.4535, 46.8917 ], [ 50.4431, 46.8953 ], [ 50.4301, 46.8966 ], [ 50.4192, 46.8858 ], [ 50.4157, 46.8823 ], [ 50.393, 46.8365 ], [ 50.3837, 46.8178 ], [ 50.3675, 46.8066 ], [ 50.3722, 46.8192 ], [ 50.3733, 46.8375 ], [ 50.3743, 46.8544 ], [ 50.361, 46.8464 ], [ 50.3531, 46.8348 ], [ 50.3473, 46.8228 ], [ 50.3408, 46.8144 ], [ 50.3401, 46.8135 ], [ 50.3329, 46.8109 ], [ 50.3237, 46.8101 ], [ 50.3142, 46.8093 ], [ 50.3059, 46.8066 ], [ 50.294, 46.7979 ], [ 50.2516, 46.7423 ], [ 50.231, 46.726 ], [ 50.23, 46.7261 ], [ 50.213, 46.7282 ], [ 50.213, 46.7376 ], [ 50.2199, 46.7501 ], [ 50.2231, 46.7609 ], [ 50.2135, 46.7654 ], [ 50.213, 46.7657 ], [ 50.2004, 46.7631 ], [ 50.1688, 46.7491 ], [ 50.0795, 46.6837 ], [ 50.0507, 46.6496 ], [ 50.0341, 46.6352 ], [ 50.0143, 46.6291 ], [ 49.9765, 46.6321 ], [ 49.9628, 46.6291 ], [ 49.9527, 46.6236 ], [ 49.9373, 46.6078 ], [ 49.9286, 46.6012 ], [ 49.8933, 46.5906 ], [ 49.8822, 46.5758 ], [ 49.8685, 46.5755 ], [ 49.8397, 46.5806 ], [ 49.8253, 46.5715 ], [ 49.8231, 46.5533 ], [ 49.8174, 46.5404 ], [ 49.7918, 46.5471 ], [ 49.7796, 46.5617 ], [ 49.7713, 46.567 ], [ 49.7609, 46.5633 ], [ 49.7609, 46.5417 ], [ 49.7576, 46.5317 ], [ 49.7472, 46.5363 ], [ 49.7267, 46.5546 ], [ 49.7137, 46.5613 ], [ 49.7025, 46.5602 ], [ 49.7007, 46.5524 ], [ 49.7043, 46.5271 ], [ 49.7025, 46.5192 ], [ 49.6377, 46.5773 ], [ 49.6226, 46.5828 ], [ 49.6197, 46.5637 ], [ 49.6269, 46.5192 ], [ 49.6082, 46.527 ], [ 49.5978, 46.5211 ], [ 49.5899, 46.5092 ], [ 49.5791, 46.4988 ], [ 49.5708, 46.5218 ], [ 49.5578, 46.5343 ], [ 49.4981, 46.5527 ], [ 49.4808, 46.5606 ], [ 49.4696, 46.5735 ], [ 49.4689, 46.5944 ], [ 49.4693, 46.5626 ], [ 49.4725, 46.5466 ], [ 49.4862, 46.5346 ], [ 49.4966, 46.5089 ], [ 49.5042, 46.4988 ], [ 49.4927, 46.4995 ], [ 49.4567, 46.5095 ], [ 49.4574, 46.5172 ], [ 49.4617, 46.5261 ], [ 49.4624, 46.5328 ], [ 49.4383, 46.5503 ], [ 49.4289, 46.5549 ], [ 49.4235, 46.5504 ], [ 49.4214, 46.5397 ], [ 49.3893, 46.544 ], [ 49.3537, 46.5534 ], [ 49.3231, 46.568 ], [ 49.3055, 46.5875 ], [ 49.313, 46.562 ], [ 49.3785, 46.5101 ], [ 49.3944, 46.4783 ], [ 49.3746, 46.484 ], [ 49.3332, 46.4845 ], [ 49.3191, 46.4972 ], [ 49.3094, 46.5122 ], [ 49.2979, 46.5237 ], [ 49.2781, 46.5254 ], [ 49.2781, 46.5192 ], [ 49.2947, 46.5079 ], [ 49.2975, 46.4868 ], [ 49.3037, 46.4664 ], [ 49.3296, 46.4571 ], [ 49.367, 46.4298 ], [ 49.371, 46.4208 ], [ 49.3728, 46.4103 ], [ 49.3713, 46.3993 ], [ 49.367, 46.3889 ], [ 49.3256, 46.4103 ], [ 49.3062, 46.4238 ], [ 49.2662, 46.464 ], [ 49.2504, 46.4693 ], [ 49.2234, 46.4709 ], [ 49.2432, 46.4586 ], [ 49.2489, 46.4491 ], [ 49.2507, 46.4337 ], [ 49.2554, 46.4241 ], [ 49.2918, 46.3963 ], [ 49.2781, 46.3889 ], [ 49.2637, 46.396 ], [ 49.1849, 46.4138 ], [ 49.1737, 46.4135 ], [ 49.1683, 46.4093 ], [ 49.1705, 46.399 ], [ 49.1784, 46.3927 ], [ 49.1888, 46.3896 ], [ 49.1993, 46.3889 ], [ 49.2158, 46.3803 ], [ 49.2223, 46.3612 ], [ 49.2237, 46.3422 ], [ 49.2256, 46.3338 ], [ 49.227, 46.3278 ], [ 49.0691, 46.3906 ], [ 49.0437, 46.4008 ], [ 49.0333, 46.4049 ], [ 48.9847, 46.4316 ], [ 48.9599, 46.4453 ], [ 48.9181, 46.4743 ], [ 48.8969, 46.4822 ], [ 48.8688, 46.4823 ], [ 48.8546, 46.4801 ], [ 48.8443, 46.4785 ], [ 48.8195, 46.4792 ], [ 48.7586, 46.5131 ], [ 48.7331, 46.534 ], [ 48.705, 46.5504 ], [ 48.6701, 46.5564 ], [ 48.6654, 46.5572 ], [ 48.6589, 46.5572 ], [ 48.607, 46.5578 ], [ 48.5879, 46.558 ], [ 48.5732, 46.5582 ], [ 48.5698, 46.5592 ], [ 48.5475, 46.5656 ], [ 48.5394, 46.5679 ], [ 48.5566, 46.5848 ], [ 48.5581, 46.5863 ], [ 48.5631, 46.5912 ], [ 48.5469, 46.5992 ], [ 48.5419, 46.6133 ], [ 48.5394, 46.6279 ], [ 48.53, 46.6382 ], [ 48.4933, 46.6535 ], [ 48.4739, 46.6592 ], [ 48.4551, 46.6608 ], [ 48.4789, 46.6834 ], [ 48.5059, 46.7325 ], [ 48.5567, 46.7617 ], [ 48.6182, 46.7704 ], [ 48.6765, 46.7579 ], [ 48.6974, 46.7451 ], [ 48.7125, 46.7287 ], [ 48.7289, 46.7057 ], [ 48.7395, 46.6905 ], [ 48.7483, 46.6878 ], [ 48.7568, 46.6851 ], [ 48.764, 46.6828 ], [ 48.7966, 46.687 ], [ 48.917, 46.7026 ], [ 48.948, 46.7199 ], [ 48.9893, 46.7547 ], [ 49.0063, 46.7691 ], [ 48.9375, 46.843 ], [ 48.6974, 47.101 ], [ 48.5628, 47.34 ], [ 48.5462, 47.3694 ], [ 48.5358, 47.3935 ], [ 48.525, 47.4102 ], [ 48.5102, 47.4174 ], [ 48.4731, 47.4204 ], [ 48.4375, 47.4291 ], [ 48.4349, 47.4308 ], [ 48.4112, 47.4457 ], [ 48.3605, 47.4931 ], [ 48.178, 47.7085 ], [ 48.1743, 47.7127 ], [ 48.1124, 47.7484 ], [ 48.0444, 47.7696 ], [ 47.6498, 47.7655 ], [ 47.4353, 47.8344 ], [ 47.4202, 47.8353 ], [ 47.4147, 47.8357 ], [ 47.4122, 47.8358 ], [ 47.3942, 47.8267 ], [ 47.3888, 47.8118 ], [ 47.3895, 47.7515 ], [ 47.3831, 47.7053 ], [ 47.3741, 47.6857 ], [ 47.3739, 47.6857 ], [ 47.3597, 47.6833 ], [ 47.2056, 47.7558 ], [ 47.1929, 47.7618 ], [ 47.1746, 47.7704 ], [ 47.1404, 47.7926 ], [ 47.1239, 47.8079 ], [ 47.1195, 47.8196 ], [ 47.1244, 47.8301 ], [ 47.1253, 47.8321 ], [ 47.1383, 47.8496 ], [ 47.1566, 47.8633 ], [ 47.1588, 47.8716 ], [ 47.1553, 47.8772 ], [ 47.1552, 47.8775 ], [ 47.1217, 47.9155 ], [ 47.0907, 47.9416 ], [ 47.0511, 47.9748 ], [ 47.0443, 47.9862 ], [ 47.0547, 47.9924 ], [ 47.0583, 47.9945 ], [ 47.1372, 48.0273 ], [ 47.1782, 48.0519 ], [ 47.182, 48.0574 ], [ 47.1919, 48.0718 ], [ 47.1739, 48.0842 ], [ 47.1195, 48.0884 ], [ 47.1038, 48.1012 ], [ 47.1037, 48.1013 ], [ 47.1041, 48.1193 ], [ 47.1115, 48.1361 ], [ 47.1251, 48.1581 ], [ 47.1116, 48.1363 ], [ 47.1163, 48.1539 ], [ 47.1087, 48.1741 ], [ 47.1026, 48.1804 ], [ 47.0803, 48.196 ], [ 47.0753, 48.2052 ], [ 47.0814, 48.2119 ], [ 47.0987, 48.2226 ], [ 47.112, 48.2417 ], [ 47.112, 48.2511 ], [ 47.099, 48.2654 ], [ 47.0781, 48.2754 ], [ 46.9791, 48.294 ], [ 46.4784, 48.4107 ], [ 46.7538, 48.9141 ], [ 46.7629, 48.9224 ], [ 46.7779, 48.9362 ], [ 46.8128, 48.9538 ], [ 46.8881, 48.9805 ], [ 46.8892, 48.9812 ], [ 46.9302, 49.0041 ], [ 46.9791, 49.0474 ], [ 47.0209, 49.0969 ], [ 47.04, 49.1504 ], [ 47.0311, 49.1899 ], [ 47.0285, 49.2016 ], [ 47.0038, 49.223 ], [ 46.9854, 49.239 ], [ 46.9791, 49.2444 ], [ 46.9662, 49.2509 ], [ 46.8308, 49.3184 ], [ 46.775, 49.3326 ], [ 46.818, 49.5004 ], [ 46.8347, 49.5657 ], [ 46.8427, 49.5967 ], [ 46.848, 49.6177 ], [ 46.8605, 49.6664 ], [ 46.8999, 49.8204 ], [ 46.9226, 49.8613 ], [ 46.9416, 49.8734 ], [ 46.9586, 49.8842 ], [ 47.1775, 49.9472 ], [ 47.24, 49.9887 ], [ 47.2455, 49.9924 ], [ 47.3085, 50.0448 ], [ 47.3253, 50.0682 ], [ 47.3287, 50.073 ], [ 47.3276, 50.1093 ], [ 47.2729, 50.1584 ], [ 47.265, 50.1863 ], [ 47.2652, 50.1866 ], [ 47.2761, 50.1999 ], [ 47.3125, 50.2225 ], [ 47.3147, 50.226 ], [ 47.3222, 50.2374 ], [ 47.3176, 50.2508 ], [ 47.3168, 50.253 ], [ 47.3031, 50.2636 ], [ 47.2953, 50.2749 ], [ 47.2949, 50.2755 ], [ 47.2949, 50.2756 ], [ 47.3057, 50.295 ], [ 47.3229, 50.3045 ], [ 47.3921, 50.3233 ], [ 47.4061, 50.3343 ], [ 47.4389, 50.3832 ], [ 47.4698, 50.4119 ], [ 47.5116, 50.4369 ], [ 47.5569, 50.4527 ], [ 47.5994, 50.4528 ], [ 47.6246, 50.4409 ], [ 47.6901, 50.3864 ], [ 47.7348, 50.3701 ], [ 47.7454, 50.3629 ], [ 47.7492, 50.3603 ], [ 47.7649, 50.3398 ], [ 47.7668, 50.3373 ], [ 47.7765, 50.3299 ], [ 47.796, 50.3249 ], [ 47.8082, 50.32 ], [ 47.8547, 50.2851 ], [ 47.8741, 50.2665 ], [ 47.9133, 50.2439 ], [ 47.9537, 50.2049 ], [ 47.9684, 50.1964 ], [ 47.9933, 50.1819 ], [ 48.0005, 50.1697 ], [ 48.0051, 50.1561 ], [ 48.0123, 50.1421 ], [ 48.0129, 50.1416 ], [ 48.0246, 50.1314 ], [ 48.0448, 50.1208 ], [ 48.0746, 50.1053 ], [ 48.0751, 50.1047 ], [ 48.0962, 50.0786 ], [ 48.1059, 50.0507 ], [ 48.1124, 50.022 ], [ 48.1254, 49.993 ], [ 48.1322, 49.9838 ], [ 48.1423, 49.9638 ], [ 48.1491, 49.9549 ], [ 48.161, 49.9465 ], [ 48.2003, 49.925 ], [ 48.2197, 49.9016 ], [ 48.2271, 49.8801 ], [ 48.2273, 49.8795 ], [ 48.2284, 49.8781 ], [ 48.2391, 49.8648 ], [ 48.2609, 49.8637 ], [ 48.2741, 49.8631 ], [ 48.3029, 49.8668 ], [ 48.3045, 49.8662 ], [ 48.3122, 49.8636 ], [ 48.3238, 49.8563 ], [ 48.3594, 49.834 ], [ 48.371, 49.8296 ], [ 48.4177, 49.8117 ], [ 48.428, 49.81 ], [ 48.4299, 49.8097 ], [ 48.4429, 49.8151 ], [ 48.4456, 49.8175 ], [ 48.4659, 49.8359 ], [ 48.477, 49.8421 ], [ 48.4789, 49.8432 ], [ 48.5105, 49.8513 ], [ 48.6834, 49.8955 ], [ 48.7845, 49.9335 ], [ 48.8619, 49.993 ], [ 48.8632, 49.9944 ], [ 48.8857, 50.0199 ], [ 48.8857, 50.0275 ], [ 48.8857, 50.0305 ], [ 48.8742, 50.0698 ], [ 48.8655, 50.0863 ], [ 48.8519, 50.0973 ], [ 48.7827, 50.1115 ], [ 48.7817, 50.1263 ], [ 48.7809, 50.1377 ], [ 48.7889, 50.173 ], [ 48.7709, 50.2111 ], [ 48.7411, 50.2495 ], [ 48.7304, 50.2633 ], [ 48.7287, 50.2655 ], [ 48.7014, 50.3346 ], [ 48.6773, 50.4631 ], [ 48.6744, 50.4786 ], [ 48.6787, 50.5485 ], [ 48.6733, 50.5796 ], [ 48.6545, 50.5963 ], [ 48.6485, 50.6016 ], [ 48.5973, 50.6081 ], [ 48.5729, 50.6169 ], [ 48.5682, 50.6365 ], [ 48.584, 50.6497 ], [ 48.5922, 50.6491 ], [ 48.6089, 50.648 ], [ 48.6789, 50.621 ], [ 48.7243, 50.6035 ], [ 48.7395, 50.5976 ], [ 48.7863, 50.5906 ], [ 48.8303, 50.596 ], [ 48.9051, 50.6319 ], [ 48.9656, 50.6609 ], [ 49.0128, 50.6835 ], [ 49.1024, 50.758 ], [ 49.1442, 50.7818 ], [ 49.2835, 50.8038 ], [ 49.3695, 50.8269 ], [ 49.4061, 50.8471 ], [ 49.4084, 50.8483 ], [ 49.4239, 50.8821 ], [ 49.4055, 50.9136 ], [ 49.3717, 50.9395 ], [ 49.3472, 50.9644 ], [ 49.3555, 50.9841 ], [ 49.3591, 50.9927 ], [ 49.3832, 51.0195 ], [ 49.3926, 51.0342 ], [ 49.4009, 51.0672 ], [ 49.4106, 51.0856 ], [ 49.414, 51.0901 ], [ 49.4232, 51.1021 ], [ 49.4365, 51.1124 ], [ 49.4466, 51.114 ], [ 49.4603, 51.1162 ], [ 49.4694, 51.1145 ], [ 49.5237, 51.1039 ], [ 49.5398, 51.1008 ], [ 49.7792, 51.1022 ], [ 49.7958, 51.1097 ], [ 49.8429, 51.1507 ], [ 49.9869, 51.2299 ], [ 50.0287, 51.243 ], [ 50.2076, 51.2659 ], [ 50.3254, 51.3036 ], [ 50.3423, 51.3127 ], [ 50.3491, 51.3226 ], [ 50.349, 51.3231 ], [ 50.3473, 51.3353 ], [ 50.3405, 51.3529 ], [ 50.3376, 51.3721 ], [ 50.3419, 51.3765 ], [ 50.3466, 51.3813 ], [ 50.3617, 51.3874 ], [ 50.3685, 51.3919 ], [ 50.3761, 51.397 ], [ 50.3596, 51.4133 ], [ 50.3675, 51.419 ], [ 50.3797, 51.4212 ], [ 50.3818, 51.4213 ], [ 50.4391, 51.4231 ], [ 50.4575, 51.4269 ], [ 50.458, 51.4273 ], [ 50.4712, 51.4362 ], [ 50.4791, 51.4538 ], [ 50.4978, 51.4557 ], [ 50.5028, 51.4563 ], [ 50.5183, 51.4598 ], [ 50.5236, 51.4659 ], [ 50.5273, 51.4701 ], [ 50.5313, 51.4927 ], [ 50.5223, 51.5508 ], [ 50.5255, 51.5656 ], [ 50.5381, 51.5742 ], [ 50.5428, 51.5775 ], [ 50.5619, 51.5808 ], [ 50.5756, 51.5885 ], [ 50.5757, 51.5906 ], [ 50.5777, 51.6134 ], [ 50.5817, 51.6353 ], [ 50.586, 51.6351 ], [ 50.5997, 51.6347 ], [ 50.6393, 51.6162 ], [ 50.6857, 51.6157 ], [ 50.6944, 51.6112 ], [ 50.6749, 51.5945 ], [ 50.6587, 51.5762 ], [ 50.671, 51.5676 ], [ 50.6965, 51.5656 ], [ 50.7199, 51.5674 ], [ 50.7496, 51.575 ], [ 50.7642, 51.5788 ], [ 50.767, 51.5807 ], [ 50.7742, 51.5857 ], [ 50.7908, 51.5974 ], [ 50.7944, 51.626 ], [ 50.7473, 51.7091 ], [ 50.744, 51.7425 ], [ 50.7671, 51.7595 ], [ 50.7676, 51.7594 ], [ 50.8207, 51.7526 ], [ 50.8394, 51.7456 ], [ 50.8578, 51.7353 ], [ 50.8736, 51.7219 ], [ 50.8844, 51.7055 ], [ 50.8846, 51.7053 ], [ 50.9006, 51.6872 ], [ 50.9203, 51.6813 ], [ 50.9255, 51.6798 ], [ 50.9912, 51.677 ], [ 51.0182, 51.6759 ], [ 51.0651, 51.6739 ], [ 51.1087, 51.6721 ], [ 51.1699, 51.6695 ], [ 51.174, 51.6705 ], [ 51.1901, 51.6742 ], [ 51.2124, 51.6818 ], [ 51.234, 51.6855 ], [ 51.2409, 51.6829 ], [ 51.252, 51.6786 ], [ 51.2761, 51.6516 ], [ 51.2884, 51.6429 ], [ 51.3085, 51.6371 ], [ 51.3524, 51.6363 ], [ 51.3719, 51.6297 ], [ 51.3797, 51.6142 ], [ 51.382, 51.6098 ], [ 51.3812, 51.5871 ], [ 51.3798, 51.5842 ], [ 51.3733, 51.5716 ], [ 51.3613, 51.5632 ], [ 51.3589, 51.5616 ], [ 51.3391, 51.555 ], [ 51.2435, 51.5439 ], [ 51.2416, 51.5437 ], [ 51.2365, 51.536 ], [ 51.2477, 51.5211 ], [ 51.2639, 51.5049 ], [ 51.2729, 51.4926 ], [ 51.3042, 51.4717 ], [ 51.3794, 51.4671 ], [ 51.4619, 51.4753 ], [ 51.5152, 51.4927 ], [ 51.5184, 51.4958 ], [ 51.5321, 51.5085 ], [ 51.5447, 51.5242 ], [ 51.5598, 51.5347 ], [ 51.5819, 51.5349 ], [ 51.5843, 51.535 ], [ 51.6098, 51.5278 ], [ 51.6206, 51.5188 ], [ 51.6246, 51.481 ], [ 51.6473, 51.4512 ], [ 51.6545, 51.4517 ], [ 51.678, 51.4532 ], [ 51.6934, 51.4541 ], [ 51.7052, 51.4586 ], [ 51.7359, 51.4702 ], [ 51.7445, 51.4734 ], [ 51.7765, 51.4899 ], [ 51.7823, 51.4929 ], [ 51.783, 51.5298 ], [ 51.7679, 51.563 ], [ 51.7646, 51.5934 ], [ 51.8201, 51.633 ], [ 51.851, 51.6618 ], [ 51.8606, 51.6678 ], [ 51.869, 51.6731 ], [ 51.8732, 51.6741 ], [ 51.894, 51.6791 ], [ 51.8968, 51.6798 ], [ 51.9248, 51.6784 ], [ 51.9526, 51.6711 ], [ 51.9785, 51.6605 ], [ 52.0044, 51.6549 ], [ 52.0354, 51.6525 ], [ 52.066, 51.6535 ], [ 52.0919, 51.6588 ], [ 52.0941, 51.6601 ], [ 52.111, 51.6703 ], [ 52.1333, 51.7021 ], [ 52.148, 51.7161 ], [ 52.174, 51.7253 ], [ 52.1786, 51.7251 ], [ 52.2301, 51.7224 ], [ 52.2582, 51.7243 ], [ 52.2691, 51.73 ], [ 52.2794, 51.7355 ], [ 52.2924, 51.7657 ], [ 52.3079, 51.7745 ], [ 52.326, 51.7673 ], [ 52.3349, 51.7638 ], [ 52.3522, 51.7303 ], [ 52.3648, 51.6904 ], [ 52.3777, 51.6602 ], [ 52.4447, 51.5802 ], [ 52.4724, 51.5151 ], [ 52.4789, 51.5049 ], [ 52.49, 51.4926 ], [ 52.5059, 51.4789 ], [ 52.525, 51.4676 ], [ 52.5458, 51.4595 ], [ 52.5538, 51.458 ], [ 52.5551, 51.4585 ], [ 52.575, 51.4671 ], [ 52.5751, 51.4671 ], [ 52.5957, 51.4663 ], [ 52.6325, 51.4648 ], [ 52.6636, 51.4636 ], [ 52.6686, 51.4551 ], [ 52.6798, 51.4591 ], [ 52.701, 51.4769 ], [ 52.7052, 51.4794 ], [ 52.7096, 51.4822 ], [ 52.7215, 51.4852 ], [ 52.7456, 51.487 ], [ 52.7525, 51.4905 ], [ 52.7572, 51.498 ], [ 52.7647, 51.5053 ], [ 52.7798, 51.5082 ], [ 52.7896, 51.5048 ], [ 52.7923, 51.5029 ], [ 52.8108, 51.4907 ], [ 52.8205, 51.487 ], [ 52.8763, 51.4902 ], [ 52.8767, 51.4901 ], [ 52.8965, 51.4853 ], [ 52.8913, 51.4785 ], [ 52.8828, 51.4671 ], [ 52.9033, 51.465 ], [ 52.9292, 51.4554 ], [ 52.9444, 51.453 ], [ 52.9598, 51.456 ], [ 52.9912, 51.4756 ], [ 52.9987, 51.4803 ], [ 53.0372, 51.4897 ], [ 53.0544, 51.4894 ], [ 53.1571, 51.487 ], [ 53.1485, 51.5048 ], [ 53.1532, 51.5128 ], [ 53.1658, 51.5146 ], [ 53.1812, 51.5144 ], [ 53.1855, 51.5135 ], [ 53.1906, 51.5125 ], [ 53.1967, 51.5048 ], [ 53.1985, 51.5025 ], [ 53.205, 51.4973 ], [ 53.214, 51.4948 ], [ 53.2324, 51.5008 ], [ 53.2574, 51.4985 ], [ 53.2937, 51.4951 ], [ 53.3072, 51.4939 ], [ 53.3224, 51.4953 ], [ 53.3329, 51.4987 ], [ 53.3465, 51.5031 ], [ 53.367, 51.4936 ], [ 53.3819, 51.4901 ], [ 53.4073, 51.4842 ], [ 53.4192, 51.475 ], [ 53.4385, 51.4527 ], [ 53.4397, 51.4512 ], [ 53.4534, 51.4419 ], [ 53.4592, 51.4404 ], [ 53.5553, 51.4156 ], [ 53.5973, 51.3972 ], [ 53.5974, 51.3972 ], [ 53.5997, 51.3956 ], [ 53.6104, 51.3884 ], [ 53.6179, 51.3723 ], [ 53.6168, 51.3712 ], [ 53.6093, 51.3641 ], [ 53.5987, 51.3608 ], [ 53.5744, 51.3532 ], [ 53.5931, 51.3392 ], [ 53.5931, 51.3226 ], [ 53.5888, 51.3054 ], [ 53.5942, 51.2895 ], [ 53.628, 51.2678 ], [ 53.6424, 51.2555 ], [ 53.6492, 51.2374 ], [ 53.6737, 51.22 ], [ 53.7429, 51.2067 ], [ 53.7507, 51.2052 ], [ 53.8577, 51.1846 ], [ 53.9092, 51.1905 ], [ 53.9293, 51.1868 ], [ 53.9358, 51.1856 ], [ 53.9385, 51.1843 ], [ 53.9747, 51.1666 ], [ 53.9941, 51.1534 ], [ 54.0175, 51.1191 ], [ 54.0398, 51.1104 ], [ 54.092, 51.1052 ], [ 54.1115, 51.0961 ], [ 54.1201, 51.0812 ], [ 54.1298, 51.0424 ], [ 54.1457, 51.0196 ], [ 54.1489, 51.0098 ], [ 54.1453, 50.9927 ], [ 54.1766, 50.968 ], [ 54.1939, 50.9582 ], [ 54.2335, 50.9431 ], [ 54.2756, 50.9043 ], [ 54.3001, 50.8947 ], [ 54.3545, 50.8885 ], [ 54.3811, 50.8854 ], [ 54.3895, 50.8808 ], [ 54.4196, 50.8645 ], [ 54.4493, 50.8602 ], [ 54.4643, 50.8581 ], [ 54.4787, 50.8535 ], [ 54.4792, 50.8529 ], [ 54.4859, 50.8452 ], [ 54.488, 50.8356 ], [ 54.4852, 50.8254 ], [ 54.4787, 50.8157 ], [ 54.4218, 50.7688 ], [ 54.4142, 50.7486 ], [ 54.4124, 50.7041 ], [ 54.407, 50.6849 ], [ 54.3854, 50.6395 ], [ 54.3797, 50.6195 ], [ 54.3836, 50.5999 ], [ 54.3995, 50.5787 ], [ 54.4358, 50.5475 ], [ 54.4556, 50.5355 ], [ 54.4787, 50.5261 ], [ 54.4996, 50.5233 ], [ 54.5395, 50.5296 ], [ 54.539500004406413, 50.52959999773725 ], [ 54.5395, 50.529599997032221 ], [ 54.5432, 50.527699997031746 ], [ 54.561199997979813, 50.514099998554762 ], [ 54.4969, 50.4681 ], [ 54.4586, 50.4014 ], [ 54.3625, 50.3176 ], [ 54.362500002387392, 50.317599999061862 ], [ 54.3625, 50.317599996980036 ], [ 54.3994, 50.303099996976357 ], [ 54.44599999922616, 50.215099998415688 ], [ 54.3953, 50.1113 ], [ 54.395300001406099, 50.111299999806945 ], [ 54.3953, 50.111299996928182 ], [ 54.4441, 50.104599996926531 ], [ 54.4482, 50.075399996919096 ], [ 54.5174, 50.056699996914318 ], [ 54.535899999219438, 50.006599999015371 ], [ 54.49, 49.9487 ], [ 54.490000000803207, 49.948699997899872 ], [ 54.49, 49.948699996886681 ], [ 54.500899999162854, 49.920199999068274 ], [ 54.4053, 49.8138 ], [ 54.405300001681539, 49.813799998723276 ], [ 54.4053, 49.81379999685177 ], [ 54.464699995853458, 49.768699999988343 ], [ 54.358, 49.7684 ], [ 54.3332, 49.7327 ], [ 54.2634, 49.6765 ], [ 54.263400001923635, 49.676499998364591 ], [ 54.2634, 49.676499996815757 ], [ 54.294099997383448, 49.650399999033453 ], [ 54.1915, 49.6125 ], [ 54.1114, 49.6216 ], [ 53.9869, 49.6213 ], [ 53.9683, 49.5742 ], [ 53.8747, 49.5761 ], [ 53.7997, 49.5315 ], [ 53.7569, 49.4647 ], [ 53.6952, 49.4829 ], [ 53.695200003284889, 49.482899995795343 ], [ 53.6952, 49.482899996764303 ], [ 53.732699999107034, 49.434899997894426 ], [ 53.6704, 49.288 ], [ 53.67040000027599, 49.287999997362419 ], [ 53.6704, 49.287999996711648 ], [ 53.6801, 49.195299996686217 ], [ 53.7579, 49.146899996672936 ], [ 53.880899998503793, 49.111699997091371 ], [ 53.8684, 49.0874 ], [ 53.868400001428441, 49.087399999433352 ], [ 53.8684, 49.087399996656465 ], [ 53.9289, 49.063399996649785 ], [ 53.9679, 49.136699996670082 ], [ 54.0242, 49.130599996668373 ], [ 54.094499999384098, 48.900899998616637 ], [ 54.0689, 48.8434 ], [ 54.068900000928281, 48.843399998672972 ], [ 54.0689, 48.843399996587962 ], [ 54.112199998969693, 48.78149999804328 ], [ 54.0765, 48.7137 ], [ 54.076500001740428, 48.713699999856374 ], [ 54.0765, 48.713699996551021 ], [ 54.314, 48.694099996545425 ], [ 54.3722, 48.674399996539769 ], [ 54.4818, 48.664599996536928 ], [ 54.5114, 48.749399996561209 ], [ 54.511399999628253, 48.74939999893499 ], [ 54.5114, 48.7494 ], [ 54.501800000550858, 48.810699996482569 ], [ 54.5648, 48.799699996575541 ], [ 54.5981, 48.834599996585517 ], [ 54.6738, 48.798099996575104 ], [ 54.6767, 48.755599996563021 ], [ 54.8557, 48.742699996559324 ], [ 54.868099999739513, 48.582799999872293 ], [ 54.8373, 48.5677 ], [ 54.8046, 48.4107 ], [ 54.804600000600253, 48.410699999345049 ], [ 54.8046, 48.410699996463102 ], [ 54.8463, 48.365199996449697 ], [ 54.897699999361045, 48.206999998369319 ], [ 54.8622, 48.1164 ], [ 54.8622000010972, 48.116399999175719 ], [ 54.8622, 48.116399996375542 ], [ 55.021, 47.997099996339514 ], [ 55.0446, 47.809399996282032 ], [ 55.110999999249543, 47.728099997175732 ], [ 55.07, 47.5738 ], [ 54.9942, 47.1601 ], [ 54.994200000618129, 47.160099999450182 ], [ 54.9942, 47.160099996076553 ], [ 55.1435, 47.027299996033243 ], [ 55.2059, 46.859699995977991 ], [ 55.5053, 46.646599995906783 ], [ 55.7054, 46.585299995886103 ], [ 56.299, 46.456799995842424 ], [ 56.3086, 46.320199995795512 ], [ 56.425099998434455, 46.212399997206845 ], [ 56.4024, 46.1719 ], [ 56.402400001340979, 46.171899998136631 ], [ 56.4024, 46.171899995744134 ], [ 56.4848, 46.057399995704024 ], [ 56.5673, 45.883499995642588 ], [ 56.693599999219998, 45.165799999813551 ], [ 56.4041, 45.0966 ], [ 56.2483, 45.0607 ], [ 55.9982, 45.0004 ], [ 55.9982, 45.000399995319178 ], [ 55.9982, 44.9998 ], [ 55.9759, 44.9947 ], [ 55.975900000003193, 44.994699995317767 ], [ 55.9759, 44.994699995317035 ], [ 55.978399999995766, 41.321600000000309 ], [ 55.91, 41.3266 ], [ 55.8871, 41.3252 ], [ 55.8766, 41.3245 ], [ 55.8344, 41.309 ], [ 55.7873, 41.2917 ], [ 55.7663, 41.2894 ], [ 55.7125, 41.2835 ], [ 55.7037, 41.2826 ], [ 55.6944, 41.2816 ], [ 55.6354, 41.2644 ], [ 55.5235, 41.2594 ], [ 55.5094, 41.2588 ], [ 55.4784, 41.2668 ], [ 55.4731, 41.2691 ], [ 55.4645, 41.2728 ], [ 55.4503, 41.2788 ], [ 55.4492, 41.2795 ], [ 55.4294, 41.2907 ], [ 55.4243, 41.2959 ], [ 55.4132, 41.3072 ], [ 55.4125, 41.3079 ], [ 55.4074, 41.3172 ], [ 55.399, 41.3326 ], [ 55.398, 41.3343 ], [ 55.3848, 41.3585 ], [ 55.3726, 41.3756 ], [ 55.3567, 41.389 ], [ 55.2941, 41.4215 ], [ 55.2676, 41.439 ], [ 55.2592, 41.4446 ], [ 55.2286, 41.4727 ], [ 55.1487, 41.5792 ], [ 55.1, 41.6442 ], [ 55.0977, 41.6465 ], [ 54.9506, 41.7956 ], [ 54.9402, 41.8136 ], [ 54.934800000380868, 41.833699998582325 ], [ 54.9366, 41.855299994021593 ], [ 54.9406, 41.872699994029354 ], [ 54.9409, 41.889599994036864 ], [ 54.940899999897667, 41.889599994235446 ], [ 54.9409, 41.8896 ], [ 54.9308, 41.9092 ], [ 54.9071, 41.9321 ], [ 54.7382, 42.0482 ], [ 54.1954, 42.3181 ], [ 54.1226, 42.3375 ], [ 54.047, 42.3454 ], [ 53.5094, 42.2727 ], [ 53.4786, 42.2686 ], [ 53.4124, 42.2581 ], [ 53.1917, 42.193 ], [ 53.1352, 42.1678 ], [ 52.9786, 42.1266 ], [ 52.7647, 41.9938 ], [ 52.5593, 41.8398 ], [ 52.4378, 41.7488 ], [ 52.4357, 41.7685 ], [ 52.4436, 41.7909 ], [ 52.4821, 41.8639 ], [ 52.4911, 41.9021 ], [ 52.4846, 41.9416 ], [ 52.4742, 41.9626 ], [ 52.4612, 41.9789 ], [ 52.4418, 41.9924 ], [ 52.4339, 42.0004 ], [ 52.4306, 42.0137 ], [ 52.4371, 42.0477 ], [ 52.4368, 42.0578 ], [ 52.431, 42.0671 ], [ 52.4022, 42.0925 ], [ 52.413, 42.1067 ], [ 52.4224, 42.1253 ], [ 52.4285, 42.1455 ], [ 52.4306, 42.1638 ], [ 52.4364, 42.1798 ], [ 52.4504, 42.1878 ], [ 52.4669, 42.1925 ], [ 52.4684, 42.193 ], [ 52.4846, 42.2017 ], [ 52.4962, 42.2183 ], [ 52.5336, 42.2718 ], [ 52.5812, 42.3203 ], [ 52.5876, 42.3268 ], [ 52.5941, 42.3352 ], [ 52.5991, 42.3447 ], [ 52.6013, 42.3563 ], [ 52.6012, 42.3605 ], [ 52.6009, 42.3886 ], [ 52.6049, 42.3966 ], [ 52.6344, 42.4187 ], [ 52.6427, 42.4283 ], [ 52.6459, 42.4364 ], [ 52.6495, 42.4617 ], [ 52.6664, 42.5017 ], [ 52.6762, 42.5385 ], [ 52.6765, 42.5745 ], [ 52.6632, 42.6127 ], [ 52.6434, 42.6463 ], [ 52.638, 42.6555 ], [ 52.6186, 42.6784 ], [ 52.5975, 42.6883 ], [ 52.5757, 42.6986 ], [ 52.5642, 42.7209 ], [ 52.5638, 42.7422 ], [ 52.5746, 42.7498 ], [ 52.5815, 42.7392 ], [ 52.589, 42.7182 ], [ 52.6006, 42.6976 ], [ 52.6189, 42.6884 ], [ 52.6283, 42.6859 ], [ 52.6632, 42.6678 ], [ 52.6682, 42.6605 ], [ 52.6718, 42.6476 ], [ 52.6769, 42.6474 ], [ 52.6909, 42.611 ], [ 52.701, 42.5931 ], [ 52.7104, 42.5854 ], [ 52.7215, 42.5934 ], [ 52.7327, 42.6137 ], [ 52.7413, 42.6379 ], [ 52.7446, 42.6574 ], [ 52.7363, 42.7013 ], [ 52.7129, 42.7308 ], [ 52.6858, 42.7426 ], [ 52.6765, 42.7467 ], [ 52.6684, 42.7472 ], [ 52.6332, 42.7495 ], [ 52.6321, 42.7496 ], [ 52.629, 42.7498 ], [ 52.625, 42.7747 ], [ 52.5743, 42.7985 ], [ 52.471, 42.8262 ], [ 52.3806, 42.8319 ], [ 52.372, 42.8324 ], [ 52.3576, 42.8317 ], [ 52.345, 42.8294 ], [ 52.3205, 42.8187 ], [ 52.3, 42.7913 ], [ 52.2996, 42.7908 ], [ 52.2995, 42.7908 ], [ 52.2831, 42.7957 ], [ 52.273, 42.7988 ], [ 52.2064, 42.866 ], [ 52.1952, 42.8723 ], [ 52.1693, 42.8869 ], [ 52.1455, 42.8885 ], [ 52.0584, 42.8785 ], [ 51.9918, 42.8596 ], [ 51.9551, 42.8406 ], [ 51.9328, 42.835 ], [ 51.9126, 42.8423 ], [ 51.8762, 42.8742 ], [ 51.8539, 42.8938 ], [ 51.8399, 42.9094 ], [ 51.8179, 42.9412 ], [ 51.8024, 42.9586 ], [ 51.7927, 42.9742 ], [ 51.784, 43.0051 ], [ 51.7823, 43.0113 ], [ 51.7718, 43.0309 ], [ 51.7243, 43.0705 ], [ 51.7114, 43.0908 ], [ 51.6844, 43.096 ], [ 51.6757, 43.0999 ], [ 51.6707, 43.1127 ], [ 51.6739, 43.1212 ], [ 51.6797, 43.1291 ], [ 51.6833, 43.1408 ], [ 51.6793, 43.1597 ], [ 51.6678, 43.1797 ], [ 51.6512, 43.1913 ], [ 51.6363, 43.1858 ], [ 51.6124, 43.177 ], [ 51.5682, 43.1789 ], [ 51.5634, 43.1791 ], [ 51.5396, 43.175 ], [ 51.5395, 43.1749 ], [ 51.5188, 43.1568 ], [ 51.5087, 43.1544 ], [ 51.4957, 43.1568 ], [ 51.4784, 43.1641 ], [ 51.4727, 43.1665 ], [ 51.4604, 43.1688 ], [ 51.3947, 43.1586 ], [ 51.3679, 43.1544 ], [ 51.3509, 43.1544 ], [ 51.2763, 43.1544 ], [ 51.2758, 43.1544 ], [ 51.2628, 43.1645 ], [ 51.2664, 43.1876 ], [ 51.2789, 43.2159 ], [ 51.3024, 43.269 ], [ 51.3128, 43.3111 ], [ 51.3166, 43.3836 ], [ 51.3172, 43.3948 ], [ 51.3197, 43.4425 ], [ 51.3146, 43.4625 ], [ 51.2968, 43.4886 ], [ 51.2833, 43.5083 ], [ 51.2786, 43.5176 ], [ 51.2754, 43.5498 ], [ 51.2738, 43.5552 ], [ 51.2729, 43.5585 ], [ 51.2716, 43.5596 ], [ 51.2578, 43.5723 ], [ 51.2182, 43.5933 ], [ 51.2102, 43.61 ], [ 51.2083, 43.6186 ], [ 51.207, 43.6243 ], [ 51.1984, 43.6261 ], [ 51.1941, 43.625 ], [ 51.176, 43.6206 ], [ 51.1559, 43.6248 ], [ 51.1418, 43.6336 ], [ 51.1148, 43.6608 ], [ 51.023, 43.8009 ], [ 51.0148, 43.8185 ], [ 51.0086, 43.8456 ], [ 50.991, 43.8671 ], [ 50.9903, 43.8769 ], [ 50.9928, 43.8985 ], [ 50.991, 43.9081 ] ] ], [ [ [ 50.6976, 44.8578 ], [ 50.6936, 44.8642 ], [ 50.7019, 44.8744 ], [ 50.7019, 44.8805 ], [ 50.6918, 44.8831 ], [ 50.6886, 44.8891 ], [ 50.6933, 44.899 ], [ 50.6864, 44.9116 ], [ 50.6407, 44.9332 ], [ 50.6263, 44.9511 ], [ 50.6281, 44.967 ], [ 50.6357, 44.9674 ], [ 50.6432, 44.9529 ], [ 50.6594, 44.9389 ], [ 50.6782, 44.9356 ], [ 50.6926, 44.9406 ], [ 50.708, 44.9544 ], [ 50.7138, 44.9538 ], [ 50.7206, 44.9416 ], [ 50.7282, 44.9406 ], [ 50.7347, 44.9299 ], [ 50.7368, 44.8958 ], [ 50.7577, 44.8705 ], [ 50.7606, 44.8649 ], [ 50.7394, 44.8684 ], [ 50.7264, 44.8658 ], [ 50.7127, 44.8599 ], [ 50.6976, 44.8578 ] ] ], [ [ [ 49.9862, 44.9466 ], [ 49.9862, 44.968 ], [ 50.0417, 45.0574 ], [ 50.0521, 45.0656 ], [ 50.0676, 45.0714 ], [ 50.1133, 45.0799 ], [ 50.1122, 45.0624 ], [ 50.0704, 45.0455 ], [ 50.0536, 45.0387 ], [ 50.0403, 45.0176 ], [ 50.0384, 45.0146 ], [ 50.0352, 45.0009 ], [ 50.029, 44.9897 ], [ 50.0212, 44.9757 ], [ 50.0179, 44.9601 ], [ 50.0212, 44.9439 ], [ 50.0298, 44.9308 ], [ 50.0428, 44.9245 ], [ 50.048, 44.926 ], [ 50.0582, 44.929 ], [ 50.0585, 44.9112 ], [ 50.0586, 44.904 ], [ 50.0622, 44.8798 ], [ 50.0734, 44.8616 ], [ 50.1076, 44.8518 ], [ 50.1266, 44.8406 ], [ 50.1414, 44.8402 ], [ 50.1448, 44.8421 ], [ 50.1742, 44.8583 ], [ 50.1893, 44.8614 ], [ 50.1805, 44.8471 ], [ 50.1702, 44.8302 ], [ 50.1659, 44.8282 ], [ 50.1432, 44.8178 ], [ 50.1115, 44.8203 ], [ 50.0795, 44.8334 ], [ 50.064, 44.844 ], [ 50.0593, 44.8531 ], [ 50.0579, 44.8642 ], [ 50.0564, 44.8686 ], [ 50.0521, 44.8812 ], [ 50.0417, 44.8948 ], [ 50.0296, 44.9037 ], [ 50.0042, 44.9223 ], [ 49.9862, 44.9466 ] ] ], [ [ [ 50.289, 45.0783 ], [ 50.311, 45.0804 ], [ 50.3297, 45.0799 ], [ 50.3383, 45.0823 ], [ 50.3441, 45.0859 ], [ 50.3484, 45.0849 ], [ 50.3538, 45.073 ], [ 50.3456, 45.0548 ], [ 50.3444, 45.0523 ], [ 50.3376, 45.0428 ], [ 50.3297, 45.0389 ], [ 50.3264, 45.0331 ], [ 50.3333, 44.9946 ], [ 50.3246, 44.9731 ], [ 50.3045, 44.9594 ], [ 50.2814, 44.9555 ], [ 50.2709, 44.9607 ], [ 50.2645, 44.9638 ], [ 50.2585, 44.9806 ], [ 50.2566, 44.986 ], [ 50.2602, 45.0099 ], [ 50.2678, 45.0338 ], [ 50.2694, 45.0431 ], [ 50.2717, 45.0563 ], [ 50.2771, 45.0714 ], [ 50.289, 45.0783 ] ] ], [ [ [ 52.5613, 45.4565 ], [ 52.5522, 45.4777 ], [ 52.552, 45.4783 ], [ 52.5664, 45.4935 ], [ 52.5934, 45.5089 ], [ 52.598, 45.5168 ], [ 52.5952, 45.5235 ], [ 52.5998, 45.5274 ], [ 52.6276, 45.5259 ], [ 52.6355, 45.5255 ], [ 52.6549, 45.5214 ], [ 52.6729, 45.5038 ], [ 52.6873, 45.475 ], [ 52.6992, 45.4414 ], [ 52.7028, 45.4255 ], [ 52.7024, 45.4052 ], [ 52.6772, 45.3969 ], [ 52.6279, 45.4102 ], [ 52.5887, 45.4328 ], [ 52.5613, 45.4565 ] ] ], [ [ [ 49.7817, 46.2242 ], [ 49.767, 46.2478 ], [ 49.7209, 46.3381 ], [ 49.7198, 46.3567 ], [ 49.7501, 46.3574 ], [ 49.7922, 46.3389 ], [ 49.8116, 46.3265 ], [ 49.8224, 46.3139 ], [ 49.8383, 46.2858 ], [ 49.8411, 46.2628 ], [ 49.8217, 46.2174 ], [ 49.8048, 46.2104 ], [ 49.7817, 46.2242 ] ] ] ] } }
]
}
