{
"type": "FeatureCollection",
"name": "KAZ_2z_zones",
"crs": { "type": "name", "properties": { "name": "urn:ogc:def:crs:OGC:1.3:CRS84" } },
"features": [
{ "type": "Feature", "properties": { "zone_id": "KAZ_S", "zone_name": "KAZ_S", "ISO_A3": "KAZ" }, "geometry": { "type": "Polygon", "coordinates": [ [ [ 70.842373028196121, 42.192542015630082 ], [ 70.734265991000029, 42.197296244000071 ], [ 70.610242553000035, 42.027409973000019 ], [ 70.594590070169247, 42.021812396348608 ], [ 70.57903, 42.016248 ], [ 70.551640216439893, 42.021586816146915 ], [ 70.53422693062744, 42.024981101348367 ], [ 70.504461, 42.068467 ], [ 70.480659017058855, 42.080731760280642 ], [ 70.470199, 42.091618 ], [ 70.463124297053781, 42.089767105696275 ], [ 70.45542, 42.093737 ], [ 70.368726729341574, 42.065734805975325 ], [ 70.357906535000097, 42.062239889000082 ], [ 70.315066773000126, 42.034592998000065 ], [ 70.270314983000105, 41.965553284000109 ], [ 70.204169149000109, 41.935813497000126 ], [ 70.11109989400012, 41.825975240000091 ], [ 70.027634766421457, 41.789127759187551 ], [ 69.972039, 41.764584 ], [ 69.912404, 41.712856 ], [ 69.756988650350991, 41.688803817294918 ], [ 69.624566284000139, 41.668310446000035 ], [ 69.477288452000096, 41.573122457000082 ], [ 69.436036637163056, 41.559210180536503 ], [ 69.393779, 41.544959 ], [ 69.385049143809084, 41.527359286840401 ], [ 69.380808553000065, 41.518810526000024 ], [ 69.402357584900756, 41.474833966874357 ], [ 69.369202451988301, 41.472188129661014 ], [ 69.217149292000045, 41.460054423000045 ], [ 69.162682333000134, 41.434061178 ], [ 69.162682303488154, 41.43406114483205 ], [ 69.162682, 41.434061 ], [ 69.128059, 41.395149 ], [ 69.058356949594994, 41.379114971883631 ], [ 69.036178426000049, 41.374013163000072 ], [ 69.036178445231926, 41.374013102419667 ], [ 69.036178, 41.374013 ], [ 69.053668030510806, 41.318920908086255 ], [ 69.054781941000101, 41.315412090000066 ], [ 69.051591786432709, 41.300972442219901 ], [ 69.031217, 41.208752 ], [ 68.943781, 41.164879 ], [ 68.904268874972956, 41.159064261358942 ], [ 68.8802189540001, 41.1555252080001 ], [ 68.872058429238223, 41.145712483965681 ], [ 68.842443, 41.110102 ], [ 68.773766, 41.087261 ], [ 68.773765826565594, 41.08726074861179 ], [ 68.77376550300005, 41.087260641000071 ], [ 68.728618511355947, 41.02182100241783 ], [ 68.689378, 40.964943 ], [ 68.610246620399522, 40.934013975592762 ], [ 68.600132690000066, 40.930060934000053 ], [ 68.595384663978663, 40.919892990562545 ], [ 68.589177, 40.9066 ], [ 68.586900708620817, 40.907461588668312 ], [ 68.570883830000128, 40.913524475000074 ], [ 68.571865682000123, 40.870478008000063 ], [ 68.563261774651536, 40.856719777690429 ], [ 68.549696, 40.835028 ], [ 68.559773, 40.751312 ], [ 68.567709099624693, 40.736961528591287 ], [ 68.574604533000127, 40.724492086000097 ], [ 68.576408735879383, 40.724042373685585 ], [ 68.609434, 40.71581 ], [ 68.625770675109962, 40.671589970658488 ], [ 68.627417847000117, 40.667131247000029 ], [ 68.601114543000051, 40.630027568000045 ], [ 68.613200036517782, 40.625135049287429 ], [ 68.620389707442982, 40.622224118449545 ], [ 68.617975056883949, 40.617070157984038 ], [ 68.61424, 40.609099 ], [ 68.593001, 40.599487 ], [ 68.514815, 40.619124 ], [ 68.461743, 40.584656 ], [ 68.226099, 40.678862 ], [ 68.120794935666581, 40.751328884714837 ], [ 68.067503703000057, 40.788002421000058 ], [ 68.014040066748905, 40.804128093335514 ], [ 67.990919375547534, 40.811101886725233 ], [ 68.025766616746665, 40.835143470253755 ], [ 68.080578, 40.872958 ], [ 68.103009512597978, 40.924748395838996 ], [ 68.120575399000074, 40.965304261000128 ], [ 68.120885457000043, 40.993829652000088 ], [ 68.113999870170076, 41.000261797309392 ], [ 68.099698233765366, 41.01362178162627 ], [ 68.114770716079306, 41.021256536105554 ], [ 68.131324, 41.029641 ], [ 68.131323570299458, 41.029641152207269 ], [ 68.131324097000117, 41.0296414190001 ], [ 68.122325601814183, 41.032828386165967 ], [ 68.118922, 41.034034 ], [ 68.118378004287294, 41.04550701338399 ], [ 68.117371460000129, 41.066745097000094 ], [ 68.095977417000086, 41.065143128000059 ], [ 68.095977354343319, 41.065143026533512 ], [ 68.095977, 41.065143 ], [ 68.082128, 41.042716 ], [ 68.070946734483357, 41.048556959598244 ], [ 68.059080445000063, 41.054756165000029 ], [ 68.059080051408586, 41.054755973144765 ], [ 68.05908, 41.054756 ], [ 68.034379, 41.042716 ], [ 68.025141564490966, 41.064224098420638 ], [ 68.00306319200007, 41.115631002000086 ], [ 67.937434123000116, 41.200380351000021 ], [ 67.880510720548628, 41.176222334508232 ], [ 67.834908, 41.156869 ], [ 67.807318829150333, 41.165528435138 ], [ 67.748143351000067, 41.184102275000086 ], [ 67.374565568326958, 41.167194838296936 ], [ 66.81528, 41.141883 ], [ 66.776077112859312, 41.149585472019112 ], [ 66.732959839000046, 41.158057353000103 ], [ 66.707958850205799, 41.18103747677835 ], [ 66.688208, 41.199192 ], [ 66.602632, 41.493799 ], [ 66.57398652162064, 41.604736048276209 ], [ 66.53886315900013, 41.740760804000033 ], [ 66.529324159433259, 41.810181157937848 ], [ 66.504137, 41.993484 ], [ 66.504136650387352, 41.993484006472585 ], [ 66.50413659700007, 41.993484395000095 ], [ 66.05361354928921, 42.001824804186235 ], [ 66.008663, 42.002657 ], [ 66.009287571614976, 42.052036021620957 ], [ 66.013727254000059, 42.403020121000068 ], [ 66.039804286040606, 42.428021988513343 ], [ 66.053208, 42.440873 ], [ 66.053208006012866, 42.440873068744033 ], [ 66.053208048000045, 42.440873109000066 ], [ 66.101267131000043, 42.990322775000053 ], [ 66.10126697528537, 42.990322717441892 ], [ 66.101267, 42.990323 ], [ 65.795239273966658, 42.877203101268869 ], [ 65.516910034000034, 43.297229106000131 ], [ 65.271446981000054, 43.417015076000084 ], [ 64.922941122000054, 43.719115499000068 ], [ 64.855038290000039, 43.712914328000082 ], [ 64.475912598831002, 43.566076312170345 ], [ 64.426744, 43.547033 ], [ 64.361388705757207, 43.551346307741639 ], [ 63.208007040000098, 43.627467347000064 ], [ 62.557454501455688, 43.54664250183837 ], [ 62.026115, 43.480629 ], [ 62.01402532202642, 43.484432023592589 ], [ 61.985704386000066, 43.493341166 ], [ 61.161671997000099, 44.168106181000056 ], [ 61.117579176745323, 44.219057023742884 ], [ 61.102864198697638, 44.236060770396918 ], [ 61.083752707071206, 44.32001170687662 ], [ 61.08023, 44.335486 ], [ 61.080229964235357, 44.335486038541951 ], [ 61.080229940000095, 44.335486145000047 ], [ 61.07021911080961, 44.346274285730594 ], [ 61.036305, 44.382822 ], [ 59.055132, 45.324023 ], [ 59.027229, 45.818134 ], [ 59.112599, 46.066026 ], [ 59.668431, 46.580232 ], [ 59.920922, 46.759782 ], [ 60.169072, 46.884555 ], [ 60.411434, 46.923803 ], [ 60.44058, 47.046276 ], [ 60.537835, 47.112008 ], [ 60.764694, 47.099916 ], [ 61.016565, 47.361166 ], [ 61.108446, 47.528159 ], [ 61.327141, 47.733469 ], [ 61.573844, 47.775999 ], [ 61.858995, 47.776464 ], [ 62.04844, 47.570688 ], [ 62.170293, 47.544049 ], [ 62.319535, 47.445528 ], [ 62.467226, 47.291842 ], [ 62.449863, 47.248202 ], [ 62.637448, 47.219211 ], [ 62.752583, 47.180893 ], [ 62.842087, 47.183864 ], [ 62.669694, 47.091803 ], [ 62.652228, 47.047981 ], [ 62.950401, 47.080124 ], [ 63.209817, 46.961165 ], [ 63.350273, 46.947729 ], [ 63.600594, 46.866132 ], [ 63.732472, 46.857605 ], [ 63.788076, 46.868871 ], [ 65.013221, 46.517419 ], [ 65.100037, 46.511322 ], [ 65.342503, 46.360788 ], [ 65.553136, 46.290767 ], [ 66.978889, 46.056104 ], [ 67.247813, 46.057086 ], [ 67.275718, 45.95766 ], [ 69.170796, 45.936886 ], [ 74.18434, 45.955852 ], [ 74.761876, 46.39952 ], [ 75.402767, 46.679477 ], [ 75.636138, 46.669942 ], [ 75.895967, 46.689967 ], [ 76.160964, 46.681259 ], [ 76.328499, 46.649892 ], [ 76.402086, 46.644595 ], [ 76.407047, 46.66263 ], [ 76.520219, 46.613589 ], [ 76.526006, 46.646171 ], [ 76.54802, 46.660951 ], [ 76.597216, 46.675756 ], [ 76.681966, 46.665782 ], [ 76.722377, 46.683714 ], [ 76.730025, 46.665472 ], [ 76.715555, 46.649582 ], [ 76.730128, 46.631418 ], [ 76.935284, 46.560207 ], [ 76.832861, 46.652527 ], [ 76.82542, 46.683714 ], [ 76.840199, 46.690742 ], [ 76.920401, 46.636792 ], [ 77.019206, 46.646869 ], [ 77.062718, 46.635603 ], [ 77.133928, 46.57385 ], [ 77.134031, 46.554006 ], [ 77.159663, 46.546617 ], [ 77.227669, 46.558554 ], [ 77.283583, 46.611755 ], [ 77.491632, 46.640177 ], [ 77.599636, 46.675756 ], [ 77.611108, 46.816652 ], [ 77.580929, 47.174847 ], [ 77.65586, 47.201925 ], [ 77.851093, 47.179808 ], [ 77.948038, 47.231794 ], [ 78.046224, 47.259648 ], [ 78.110096, 47.213863 ], [ 78.275254, 47.304296 ], [ 78.562058, 47.194174 ], [ 78.639882, 47.14565 ], [ 78.736621, 47.135211 ], [ 78.804627, 47.068729 ], [ 79.044612, 47.064776 ], [ 79.308472, 47.031031 ], [ 79.491407, 46.862024 ], [ 80.018713, 46.879542 ], [ 80.26707, 46.815231 ], [ 80.271307, 46.77097 ], [ 80.349546, 46.736321 ], [ 80.779493, 46.591988 ], [ 81.054929, 46.543671 ], [ 81.16686, 46.54026 ], [ 81.261014, 46.490806 ], [ 81.373256, 46.493907 ], [ 81.410049, 46.47489 ], [ 81.41408, 46.449387 ], [ 81.604766, 46.390192 ], [ 81.647554, 46.31092 ], [ 81.913481, 46.063494 ], [ 81.983554, 45.902987 ], [ 82.08453, 45.805732 ], [ 82.13972, 45.688994 ], [ 82.125044, 45.587657 ], [ 82.274596, 45.548383 ], [ 82.297137, 45.554545 ], [ 82.291493, 45.533191 ], [ 82.32746, 45.493348 ], [ 82.362652, 45.481204 ], [ 82.51303, 45.465753 ], [ 82.615711, 45.435419 ], [ 82.631989, 45.415834 ], [ 82.614574, 45.248557 ], [ 82.585222, 45.17683 ], [ 82.566731606740021, 45.155208743010455 ], [ 82.539746949000062, 45.123655091000089 ], [ 82.50899702169022, 45.119826886499759 ], [ 82.475823068081681, 45.115697008475593 ], [ 82.341826213000104, 45.204890442000064 ], [ 82.27636320060094, 45.223148594762513 ], [ 82.245295, 45.231814 ], [ 81.950119, 45.144481 ], [ 81.875343, 45.181068 ], [ 81.829075358070838, 45.189320289818745 ], [ 81.793642922023949, 45.195640306950239 ], [ 81.765169, 45.307727 ], [ 81.739279, 45.338061 ], [ 81.704498236786335, 45.342720697939868 ], [ 81.66522668500005, 45.347982483000024 ], [ 81.573433609213296, 45.307245455648427 ], [ 81.54203, 45.293309 ], [ 81.261811415692137, 45.225384674813 ], [ 80.853855022000118, 45.12649729500005 ], [ 80.732275020904169, 45.139805754913368 ], [ 80.69712, 45.143654 ], [ 80.642727635311985, 45.12920524346135 ], [ 80.536820109000075, 45.10107249000005 ], [ 80.476428054660332, 45.103153797846829 ], [ 80.445353, 45.104225 ], [ 80.390059, 45.045779 ], [ 80.29053, 45.046244 ], [ 80.256333563381773, 45.036582741634398 ], [ 80.219010051000112, 45.026038310000061 ], [ 80.146292102150198, 45.029904903052056 ], [ 80.103358, 45.032188 ], [ 79.915284132801006, 44.933631288186071 ], [ 79.8582052000001, 44.90372019500002 ], [ 79.858205138466602, 44.903720072560922 ], [ 79.858205, 44.90372 ], [ 79.843012, 44.873489 ], [ 79.857996024277568, 44.859381849802347 ], [ 79.868643840000118, 44.849356588000049 ], [ 79.933167593628141, 44.820155661549911 ], [ 79.991737, 44.793649 ], [ 80.119180315619175, 44.804894383628969 ], [ 80.24474491400008, 44.815973613000082 ], [ 80.314508098000033, 44.780316874000093 ], [ 80.492274995940946, 44.727968656262824 ], [ 80.492135127208911, 44.716124030607226 ], [ 80.491964966000069, 44.70171702100005 ], [ 80.484367757008059, 44.699717576860365 ], [ 80.376313, 44.67128 ], [ 80.355849, 44.652883 ], [ 80.364196026506846, 44.637904953976559 ], [ 80.383754517000057, 44.602808330000059 ], [ 80.352637188239072, 44.515426528553895 ], [ 80.330424, 44.45305 ], [ 80.35300350632474, 44.335873396259956 ], [ 80.373212525000099, 44.230996400000052 ], [ 80.351801834931464, 44.16266921217769 ], [ 80.338899, 44.121494 ], [ 80.403805, 44.04894 ], [ 80.421683953415567, 43.977902450885558 ], [ 80.423131958000056, 43.972149149000117 ], [ 80.423131964371635, 43.972149141560408 ], [ 80.423132, 43.972149 ], [ 80.438644610371085, 43.954035935442228 ], [ 80.476151978000075, 43.910240784000095 ], [ 80.712726685000064, 43.45887298600006 ], [ 80.694226522000122, 43.394716696000032 ], [ 80.676118565069174, 43.3705697173583 ], [ 80.64286, 43.32622 ], [ 80.642860337039892, 43.326219837084786 ], [ 80.642860148000068, 43.326219585 ], [ 80.714815001177172, 43.291439058620398 ], [ 80.748486845499571, 43.275163074680982 ], [ 80.759445781085063, 43.244522142783566 ], [ 80.793445, 43.14946 ], [ 80.788452716795248, 43.140363088933391 ], [ 80.77339481600012, 43.112925110000063 ], [ 80.731536906000088, 43.101091207000039 ], [ 80.715820022272368, 43.108063870571833 ], [ 80.660017, 43.132821 ], [ 80.639218753240527, 43.133544843862865 ], [ 80.618468872000051, 43.134267477000051 ], [ 80.413308748843505, 43.047548783413639 ], [ 80.368148, 43.02846 ], [ 80.355833978149633, 43.002096721305001 ], [ 80.355125774000101, 43.000580546000023 ], [ 80.373832642000082, 42.975181580000125 ], [ 80.542917928000122, 42.916658021000032 ], [ 80.544241118613655, 42.914631885319473 ], [ 80.554493, 42.898933 ], [ 80.543521075824771, 42.886879709246593 ], [ 80.526691529000118, 42.868392233000108 ], [ 80.453081053455875, 42.848795664199109 ], [ 80.333938, 42.817078 ], [ 80.254516895612639, 42.816263201148978 ], [ 80.24825891100005, 42.816199036000043 ], [ 80.143769165000037, 42.644762472000039 ], [ 80.143769195470014, 42.644762320708125 ], [ 80.143769, 42.644762 ], [ 80.151707290421115, 42.60534747492536 ], [ 80.162372681000136, 42.552390849000048 ], [ 80.191432382190669, 42.51525554475127 ], [ 80.210535, 42.490844 ], [ 80.201892284367219, 42.457003490857339 ], [ 80.196169068000074, 42.434594422000046 ], [ 80.196169091465563, 42.434594358132955 ], [ 80.196169, 42.434594 ], [ 80.220917123214889, 42.367236517420167 ], [ 80.268412720000129, 42.237965597000127 ], [ 80.249085898463704, 42.204892959723949 ], [ 80.210328144822498, 42.189519057446226 ], [ 80.193794092280655, 42.196779578260582 ], [ 80.16661, 42.208717 ], [ 80.14408484043966, 42.233112657538058 ], [ 80.077003215000047, 42.305765076000043 ], [ 79.917943156000092, 42.424440003000072 ], [ 79.696457967000129, 42.459838359000102 ], [ 79.592000927301626, 42.451191396800645 ], [ 79.571918, 42.449529 ], [ 79.526292856558896, 42.455792259459969 ], [ 79.425673462000134, 42.469605204000047 ], [ 79.353016398000079, 42.577298890000023 ], [ 79.206358990854014, 42.656467017355126 ], [ 79.19701663856155, 42.674194750146924 ], [ 79.17607629400004, 42.713931376000048 ], [ 79.177839218843445, 42.736772749219192 ], [ 79.180831, 42.77553 ], [ 79.153961322251092, 42.788281893322427 ], [ 79.148274374000096, 42.790980937000072 ], [ 79.148274208660908, 42.790980900973068 ], [ 79.148274, 42.790981 ], [ 78.992935, 42.757133 ], [ 78.687114, 42.804598 ], [ 78.594303, 42.850228 ], [ 78.57922301766304, 42.853014076715326 ], [ 78.429558554000096, 42.880665385000057 ], [ 78.311219523000034, 42.850512187000064 ], [ 78.22977746600003, 42.865007427000094 ], [ 78.030616496000107, 42.854672140000091 ], [ 77.931412638929572, 42.880730617566151 ], [ 77.883855, 42.893223 ], [ 77.822357283603736, 42.874966840689275 ], [ 77.809958130000041, 42.871286113000096 ], [ 77.796638778590179, 42.882569232949848 ], [ 77.781226, 42.895626 ], [ 77.71384, 42.907589 ], [ 77.647797, 42.909501 ], [ 77.557777, 42.888133 ], [ 77.53248359543386, 42.900012226682087 ], [ 77.501553182000066, 42.91453928600005 ], [ 77.418560832000082, 42.922239075000036 ], [ 77.399126600472712, 42.916936306230667 ], [ 77.328127, 42.897564 ], [ 77.178679, 42.913196 ], [ 77.124005, 42.958904 ], [ 76.965597984870527, 42.986970082167915 ], [ 76.95688358600006, 42.988514099000056 ], [ 76.833480266000038, 42.971745097000095 ], [ 76.833480079710554, 42.971745010831626 ], [ 76.83348, 42.971745 ], [ 76.71722266654551, 42.917969977054213 ], [ 76.707906993249011, 42.913660998963785 ], [ 76.58502, 42.894799 ], [ 76.535555399703128, 42.905293599712714 ], [ 76.480530233000138, 42.916968079000114 ], [ 76.480530045703091, 42.916967990303455 ], [ 76.48053, 42.916968 ], [ 76.414074316871734, 42.885497150058235 ], [ 76.382965128000137, 42.910069275000026 ], [ 76.357386163018461, 42.905012606240078 ], [ 76.340487, 42.901672 ], [ 76.254498, 42.921154 ], [ 76.064535, 42.93397 ], [ 75.999113, 42.91764 ], [ 75.797161, 42.936192 ], [ 75.770599, 42.92565 ], [ 75.738928035379189, 42.862914096511901 ], [ 75.738249978441957, 42.861570980530303 ], [ 75.703833, 42.830488 ], [ 75.654985158438365, 42.815733205054109 ], [ 75.620427694000057, 42.805295309000073 ], [ 75.602986780717785, 42.810682706545627 ], [ 75.555936, 42.825217 ], [ 75.178594, 42.84966 ], [ 74.862851, 42.975828 ], [ 74.71392, 42.999883 ], [ 74.643778968845695, 43.039721164737557 ], [ 74.611290324000038, 43.058173930000081 ], [ 74.580918158323428, 43.090688101917188 ], [ 74.558167, 43.115044 ], [ 74.486791976673217, 43.135192648353105 ], [ 74.400553833000117, 43.159537252000021 ], [ 74.352509871178086, 43.181667473730656 ], [ 74.178759, 43.261702 ], [ 74.178759518863473, 43.261701127839821 ], [ 74.178758585000139, 43.26170155800007 ], [ 74.213898560000075, 43.202635397000037 ], [ 74.039852336000081, 43.18186147100009 ], [ 73.976222382075676, 43.21180108472268 ], [ 73.965335, 43.216924 ], [ 73.935053, 43.199716 ], [ 73.935052963465111, 43.199715924752333 ], [ 73.93505253100011, 43.19971567900005 ], [ 73.901669556000058, 43.130960185000063 ], [ 73.85549523851185, 43.123165165681016 ], [ 73.805551, 43.114734 ], [ 73.645832214375872, 43.058357137554914 ], [ 73.5709403890001, 43.031922303000059 ], [ 73.570940271040172, 43.031922095670616 ], [ 73.57094, 43.031922 ], [ 73.493012, 42.894954 ], [ 73.503554, 42.794082 ], [ 73.412707, 42.627322 ], [ 73.414392427013794, 42.602634206489384 ], [ 73.417564738000124, 42.556163229000063 ], [ 73.505104335888674, 42.402943095527441 ], [ 73.415021385303575, 42.41590085304184 ], [ 73.326200933240401, 42.428677451696842 ], [ 73.31832380533227, 42.481974269581286 ], [ 73.316588989000081, 42.49371226 ], [ 73.278348430000108, 42.513400981000061 ], [ 73.270189429071962, 42.514073815314397 ], [ 73.189052, 42.520765 ], [ 73.115051, 42.550841 ], [ 72.993948827891188, 42.547392763916307 ], [ 72.874548788000084, 42.543993429000082 ], [ 72.843568777551312, 42.55915960093683 ], [ 72.815224, 42.573036 ], [ 72.780601, 42.620449 ], [ 72.725824, 42.652876 ], [ 72.476744, 42.682564 ], [ 72.377119289519356, 42.724976715307825 ], [ 72.292362101000094, 42.761060283000049 ], [ 72.164101197000036, 42.765091044000044 ], [ 72.164101018100013, 42.765090999431152 ], [ 72.164101, 42.765091 ], [ 72.163396443252722, 42.764915470538334 ], [ 72.104880005000041, 42.750337423000033 ], [ 71.847738078000077, 42.834053243000071 ], [ 71.791515618966287, 42.8259420605279 ], [ 71.693536, 42.811807 ], [ 71.614520148125365, 42.77432246849451 ], [ 71.583568156000069, 42.759639181000054 ], [ 71.555103775984165, 42.770387449592775 ], [ 71.504193, 42.789612 ], [ 71.404613, 42.794883 ], [ 71.329785, 42.737031 ], [ 71.303406925407529, 42.740190638938685 ], [ 71.245449259000054, 42.747133484000059 ], [ 71.233593721924819, 42.732521264304538 ], [ 71.211446, 42.705224 ], [ 71.149021, 42.677939 ], [ 71.142768, 42.602543 ], [ 71.039739629560586, 42.573743655539808 ], [ 71.003190145000076, 42.563527121000064 ], [ 71.003190164057301, 42.563527045858656 ], [ 71.00319, 42.563527 ], [ 71.005968962732439, 42.552570422883385 ], [ 71.012698608000107, 42.526035868000079 ], [ 71.051715149549139, 42.497844855875421 ], [ 71.057863833278489, 42.493402120464737 ], [ 71.060083747727361, 42.485277596555576 ], [ 71.064168, 42.470329 ], [ 71.04101701553887, 42.454800010423007 ], [ 70.977145223000036, 42.478751933000055 ], [ 70.977145207544638, 42.478751922170758 ], [ 70.977145, 42.478752 ], [ 70.961952, 42.468107 ], [ 70.93285642927745, 42.41742336762708 ], [ 70.929912964000096, 42.41229604100009 ], [ 70.930086501789191, 42.410051297282223 ], [ 70.932703, 42.3762 ], [ 70.893835631795397, 42.342149901364863 ], [ 70.852656698000033, 42.306075135000029 ], [ 70.897821899000064, 42.261607564000045 ], [ 70.944352459146046, 42.24907270322106 ], [ 70.842373028196121, 42.192542015630082 ] ], [ [ 63.796343, 45.686644 ], [ 63.829657146880677, 45.718199756390554 ], [ 63.867553345000033, 45.747699687000036 ], [ 63.879745238594104, 45.765644093651773 ], [ 63.896699, 45.781703 ], [ 63.940934, 45.855703 ], [ 63.961937445594927, 45.928700202540433 ], [ 63.964084920000118, 45.936163635000057 ], [ 63.964084920000118, 45.936163721961456 ], [ 63.964085, 45.936164 ], [ 63.964085, 46.0205 ], [ 63.940934, 46.100986 ], [ 63.928251060875034, 46.119648574792322 ], [ 63.921296835000078, 46.138890280000041 ], [ 63.867553345000033, 46.208963522000076 ], [ 63.867553302206019, 46.208963555312664 ], [ 63.867553, 46.208964 ], [ 63.811484901166089, 46.252609461849033 ], [ 63.75489872300011, 46.296658427000082 ], [ 63.754892617888032, 46.296661045668046 ], [ 63.661881, 46.341048 ], [ 63.635596122780335, 46.347830935106067 ], [ 63.610928182000066, 46.358411764000081 ], [ 63.501477499000032, 46.382441305 ], [ 63.50147273032686, 46.382441305 ], [ 63.383914, 46.390839 ], [ 63.26635426970946, 46.382441305 ], [ 63.266349732000037, 46.382441305 ], [ 63.156899048000128, 46.358411764000081 ], [ 63.132231454563687, 46.347831084092384 ], [ 63.105946, 46.341048 ], [ 63.012942220270119, 46.296664309038036 ], [ 63.012928507000083, 46.296658427000082 ], [ 62.936766912320039, 46.237371167484739 ], [ 62.900274, 46.208964 ], [ 62.900272056564987, 46.208961140292089 ], [ 62.846478719000061, 46.138890280000041 ], [ 62.839447941541707, 46.119460230083952 ], [ 62.826893, 46.100986 ], [ 62.818394274593082, 46.061276934971623 ], [ 62.803638957000032, 46.020499573000066 ], [ 62.805139379740766, 45.999345356242557 ], [ 62.800642, 45.978332 ], [ 62.809596841455296, 45.936500326813423 ], [ 62.812527303000138, 45.895184225000023 ], [ 62.822641526342757, 45.875563346772076 ], [ 62.826893, 45.855703 ], [ 62.851700406404369, 45.819191173861206 ], [ 62.871025025000051, 45.781702780000089 ], [ 62.885753438711937, 45.769071529153251 ], [ 62.900274, 45.7477 ], [ 62.959538042618419, 45.705793035025607 ], [ 63.012928507000083, 45.660004781000012 ], [ 63.041810048730362, 45.647616610904386 ], [ 63.057835, 45.636285 ], [ 63.107990156278596, 45.61922995353995 ], [ 63.156899048000128, 45.598251445000031 ], [ 63.184218641692844, 45.593308782980785 ], [ 63.210488, 45.584376 ], [ 63.267017135938765, 45.578328875982052 ], [ 63.32427901200009, 45.567969055 ], [ 63.354043444382491, 45.569019360256341 ], [ 63.383914, 45.565824 ], [ 63.443217858288371, 45.572166080961544 ], [ 63.501477498000042, 45.574221904000112 ], [ 63.529103280552086, 45.581350851010811 ], [ 63.557391, 45.584376 ], [ 63.661873388159471, 45.615612724315376 ], [ 63.661881145000109, 45.615614726000061 ], [ 63.75489872300011, 45.660004781000012 ], [ 63.773869764081574, 45.674772605300753 ], [ 63.796343, 45.686644 ] ] ] } },
{ "type": "Feature", "properties": { "zone_id": "KAZ_N", "zone_name": "KAZ_N", "ISO_A3": "KAZ" }, "geometry": { "type": "Polygon", "coordinates": [ [ [ 58.554906, 45.557169 ], [ 58.547234518524647, 45.555599649205767 ], [ 58.531445145529752, 45.558718934779272 ], [ 58.531445, 45.558719 ], [ 58.531442870906858, 45.558718536777626 ], [ 57.478333387791622, 45.336935126080967 ], [ 57.478279, 45.336924 ], [ 56.74443027865798, 45.169921911696356 ], [ 56.70761, 45.161911 ], [ 56.54118, 45.953784 ], [ 56.42191, 46.154367 ], [ 56.377779, 46.26715 ], [ 56.295923, 46.352727 ], [ 56.271222, 46.457165 ], [ 55.493802, 46.659633 ], [ 55.291333, 46.791149 ], [ 55.16669, 46.917292 ], [ 55.07977, 47.067877 ], [ 54.997501, 47.152264 ], [ 55.001739, 47.296777 ], [ 55.072535, 47.645826 ], [ 55.060547, 47.762821 ], [ 54.973213, 48.012315 ], [ 54.872858, 48.09076 ], [ 54.875545, 48.199616 ], [ 54.793689, 48.427664 ], [ 54.848776, 48.628867 ], [ 54.800511, 48.741211 ], [ 54.710594, 48.746327 ], [ 54.632562, 48.806866 ], [ 54.577579, 48.813403 ], [ 54.536651, 48.794025 ], [ 54.493346, 48.747051 ], [ 54.4426, 48.657625 ], [ 54.07177, 48.716768 ], [ 54.091717, 48.750461 ], [ 54.081795, 48.89469 ], [ 54.053269, 49.005536 ], [ 53.978855, 49.127751 ], [ 53.905165, 49.058246 ], [ 53.864857, 49.073801 ], [ 53.858553, 49.103747 ], [ 53.742694, 49.142789 ], [ 53.673241, 49.18444 ], [ 53.670967, 49.288258 ], [ 53.718613, 49.401016 ], [ 53.713445, 49.462743 ], [ 53.764502, 49.471528 ], [ 53.806049, 49.528295 ], [ 53.855866, 49.558939 ], [ 53.977408, 49.582194 ], [ 54.005934, 49.617153 ], [ 54.179153, 49.612734 ], [ 54.292635, 49.650096 ], [ 54.295529, 49.692264 ], [ 54.453245, 49.814686 ], [ 54.466784, 49.869566 ], [ 54.514017, 49.931681 ], [ 54.551224, 50.031365 ], [ 54.42379, 50.150117 ], [ 54.435158, 50.255718 ], [ 54.391543, 50.35827 ], [ 54.457586, 50.404598 ], [ 54.474226, 50.455422 ], [ 54.545517, 50.530519 ], [ 54.556423136823071, 50.535086000244071 ], [ 54.591427042000134, 50.542342428000083 ], [ 54.616884479212167, 50.560404494769422 ], [ 54.647548, 50.573245 ], [ 54.67628, 50.602545 ], [ 54.639073, 50.706984 ], [ 54.650235, 50.786307 ], [ 54.626877188280581, 50.811576796307463 ], [ 54.651785115000109, 50.846251526000046 ], [ 54.651784967815416, 50.846251955195108 ], [ 54.651785, 50.846252 ], [ 54.638246, 50.885732 ], [ 54.63824599970669, 50.885732000092204 ], [ 54.638245890000064, 50.885732320000088 ], [ 54.502957023625996, 50.928262013743684 ], [ 54.545952, 50.953273 ], [ 54.545951774338498, 50.953273412961316 ], [ 54.545951783000078, 50.953273418000023 ], [ 54.53998927328491, 50.96418481008071 ], [ 54.525281224792366, 50.991100588629209 ], [ 54.533756145000041, 51.003244527 ], [ 54.586062261896878, 51.015480330206557 ], [ 54.638246, 51.027687 ], [ 54.685788, 51.023553 ], [ 54.760931683661745, 50.993014760728521 ], [ 54.811671997000076, 50.972393697000129 ], [ 54.852472016219586, 50.942751129861989 ], [ 54.894251, 50.912397 ], [ 54.975710984711299, 50.897449303250447 ], [ 55.047729940000124, 50.884233704000067 ], [ 55.063232870000036, 50.862167867000082 ], [ 55.061372518000098, 50.82268707300004 ], [ 55.08400679500005, 50.796900534000045 ], [ 55.305388631000085, 50.664970602 ], [ 55.347763306000047, 50.651379700000106 ], [ 55.467755981000039, 50.656960755000014 ], [ 55.506821698695596, 50.618073582520374 ], [ 55.52429, 50.600685 ], [ 55.570385, 50.588334 ], [ 55.659992, 50.530043 ], [ 56.078881, 50.72476 ], [ 56.078881024823858, 50.724760027063958 ], [ 56.078881470000056, 50.724760234000044 ], [ 56.100068807000127, 50.747859599000023 ], [ 56.100068925041775, 50.74785991827757 ], [ 56.100069, 50.74786 ], [ 56.15836, 50.905524 ], [ 56.315456, 50.88382 ], [ 56.323256202102165, 50.888456532236368 ], [ 56.335713338000062, 50.895860901000034 ], [ 56.343583876224777, 50.923627938919907 ], [ 56.350493, 50.948002 ], [ 56.399982112616613, 50.965126100822744 ], [ 56.432038208000051, 50.976217754000075 ], [ 56.421186158000069, 51.033526917000032 ], [ 56.478340291000109, 51.073033549000073 ], [ 56.508002564000094, 51.06626393700013 ], [ 56.596575968000138, 50.984020895000086 ], [ 56.638229628255935, 50.977266247182484 ], [ 56.688353, 50.969138 ], [ 56.688353177478128, 50.969138103814409 ], [ 56.688353312000061, 50.969138082000043 ], [ 56.698981303278252, 50.975354940915288 ], [ 56.709644, 50.981592 ], [ 56.709643965327011, 50.981592080548069 ], [ 56.709644002000061, 50.981592102000022 ], [ 56.702558907338926, 50.998051226399582 ], [ 56.680292, 51.049779 ], [ 56.716052, 51.072465 ], [ 56.76008, 51.080242 ], [ 56.817784676616398, 51.064595183527778 ], [ 56.86508671100006, 51.051768697000099 ], [ 56.965603538609201, 51.060474977464501 ], [ 57.072413, 51.069726 ], [ 57.154474783392061, 51.099956920203333 ], [ 57.181243097676266, 51.07349866203063 ], [ 57.18191325466946, 51.071179853581931 ], [ 57.197469524000098, 51.017352194000054 ], [ 57.197469978576038, 51.017352074128993 ], [ 57.19747, 51.017352 ], [ 57.216505502845777, 51.012332432235652 ], [ 57.272917114000109, 50.997456767000031 ], [ 57.334308716000066, 50.897411194000043 ], [ 57.334308937862403, 50.897411101261042 ], [ 57.334309, 50.897411 ], [ 57.345810144454951, 50.892603568545034 ], [ 57.418127889000061, 50.862374573000025 ], [ 57.46763391200011, 50.85849884100007 ], [ 57.555897258000073, 50.918753561000059 ], [ 57.61649108455947, 50.908748533871538 ], [ 57.689222, 50.896739 ], [ 57.722399, 50.908728 ], [ 57.737282, 50.938236 ], [ 57.734388, 51.073886 ], [ 57.751465637439992, 51.096605569613764 ], [ 57.768804158000137, 51.119671530000048 ], [ 57.840974839161802, 51.111482133626701 ], [ 57.912258, 51.103393 ], [ 57.935135569832681, 51.091030162769748 ], [ 57.960213664000037, 51.077477723000086 ], [ 58.077312455881241, 51.097941589455012 ], [ 58.077526043196251, 51.097749242867465 ], [ 58.113692667000066, 51.065178732000035 ], [ 58.14121523595761, 51.060077566087564 ], [ 58.167643, 51.055179 ], [ 58.190587, 51.06554 ], [ 58.19427710658119, 51.071946076634823 ], [ 58.223763469000062, 51.123133851 ], [ 58.26694025147701, 51.136853945809335 ], [ 58.308409, 51.150031 ], [ 58.356023176466209, 51.116030799086765 ], [ 58.365977011000098, 51.108922832000118 ], [ 58.370126463547841, 51.095678565803226 ], [ 58.377966, 51.070656 ], [ 58.499563040695506, 51.063227458608125 ], [ 58.520489543000053, 51.061948954000044 ], [ 58.548220215273787, 51.047593235347414 ], [ 58.595006969640146, 51.023372015717115 ], [ 58.59635054600011, 50.96247182200004 ], [ 58.581981993535486, 50.949784320015176 ], [ 58.554389, 50.92542 ], [ 58.551804596748276, 50.905814034996446 ], [ 58.550151815000049, 50.893277079000129 ], [ 58.571442505000107, 50.863511455000051 ], [ 58.571442674728331, 50.863511454747851 ], [ 58.571443, 50.863511 ], [ 58.640998992241911, 50.863408000011489 ], [ 58.641109089228124, 50.862204940111752 ], [ 58.646683, 50.801293 ], [ 58.664357, 50.789924 ], [ 58.712171847622081, 50.792886737635762 ], [ 58.747762149527375, 50.795091836781175 ], [ 58.802182741287119, 50.735688230778067 ], [ 58.811531209000066, 50.725483704000041 ], [ 58.91522120949589, 50.682583956676766 ], [ 58.925943, 50.678148 ], [ 58.964672361494223, 50.675951403812597 ], [ 59.19745080600012, 50.662748516000093 ], [ 59.252670158870245, 50.628706611657584 ], [ 59.273312, 50.615981 ], [ 59.346594396072298, 50.622733481524037 ], [ 59.437642863000065, 50.631122538000099 ], [ 59.56342296045996, 50.579859656382894 ], [ 59.560426, 50.553815 ], [ 59.515078579889042, 50.553045512119084 ], [ 59.478157186000089, 50.552419333000032 ], [ 59.451698853000096, 50.537278138000019 ], [ 59.466271606000134, 50.507357483000064 ], [ 59.466271827049525, 50.507357355098549 ], [ 59.466272, 50.507357 ], [ 59.522806, 50.474646 ], [ 59.577999609250682, 50.502099859145012 ], [ 59.62223107900013, 50.524100647000026 ], [ 59.686431340995405, 50.528148528156244 ], [ 59.774677, 50.533712 ], [ 59.811162715527324, 50.559675537860812 ], [ 59.815707642000064, 50.562909648000058 ], [ 59.815707882836911, 50.562909916625777 ], [ 59.815708, 50.56291 ], [ 59.915133, 50.673807 ], [ 59.915132998834544, 50.673807162507664 ], [ 59.91513309700008, 50.673807272 ], [ 59.914616333000083, 50.745895895000089 ], [ 59.934320014422219, 50.780548673450774 ], [ 59.962159, 50.829508 ], [ 59.990891936296386, 50.84143870330476 ], [ 60.021276489000059, 50.854054667000057 ], [ 60.136204875000089, 50.844494528000084 ], [ 60.157808102688094, 50.78993535476512 ], [ 60.176719, 50.742175 ], [ 60.300433, 50.684659 ], [ 60.477496033907158, 50.671111451393365 ], [ 60.718494914000075, 50.652671611000059 ], [ 61.372098430000051, 50.78248280800004 ], [ 61.426875448000033, 50.83307403600007 ], [ 61.507861260121999, 51.114651875036259 ], [ 61.534155908219148, 51.206074680890822 ], [ 61.545721654283589, 51.21576684816548 ], [ 61.567332, 51.233876 ], [ 61.65356252867403, 51.255827298142911 ], [ 61.663656860000117, 51.258396912000038 ], [ 61.663656776008416, 51.258396942979523 ], [ 61.663657, 51.258397 ], [ 61.64139206863959, 51.266609054084604 ], [ 61.562991170000032, 51.29552642900002 ], [ 61.522102116775883, 51.355249084096158 ], [ 61.473798, 51.425803 ], [ 61.356182, 51.459651 ], [ 61.32544574750375, 51.455591845650865 ], [ 61.304919068000117, 51.452881165000079 ], [ 61.211558747390157, 51.462975355593045 ], [ 61.02938, 51.482673 ], [ 61.001873587858213, 51.502698878011074 ], [ 60.944630981000046, 51.544374288000128 ], [ 60.937396281000076, 51.611166077000078 ], [ 60.7830026122313, 51.613631614508904 ], [ 60.515096344364636, 51.617909994500607 ], [ 60.484710734000089, 51.651034445 ], [ 60.375880167000105, 51.662532451000047 ], [ 60.358428235244212, 51.669999446659972 ], [ 60.355106246353387, 51.671420894587698 ], [ 60.356036415662139, 51.692272184592234 ], [ 60.437375, 51.728394 ], [ 60.437375001127307, 51.728394010321445 ], [ 60.437375122000105, 51.728394064000028 ], [ 60.438055706796163, 51.734626454843799 ], [ 60.440166, 51.753948 ], [ 60.453861882482578, 51.762568276625075 ], [ 60.475512329000082, 51.776194764000124 ], [ 60.452051229000062, 51.80546946300008 ], [ 60.274491007000051, 51.832832134000014 ], [ 60.138065226000094, 51.888875224000046 ], [ 60.138065035224152, 51.888874985530123 ], [ 60.138065, 51.888875 ], [ 60.117808, 51.863554 ], [ 60.093943940412025, 51.861511054792594 ], [ 60.06075728400009, 51.858670349000036 ], [ 59.985723104000101, 51.952282207000067 ], [ 59.986974399562946, 51.955169812078957 ], [ 60.003189923361525, 51.992589823144009 ], [ 60.20276412000004, 51.992744853000048 ], [ 60.298979983686699, 52.051776272941154 ], [ 60.4258, 52.129584 ], [ 60.464345393097794, 52.140121211577288 ], [ 60.506518189000076, 52.151649882000029 ], [ 60.672192830000085, 52.144337667000045 ], [ 60.77685498226392, 52.217551570028505 ], [ 60.78123, 52.220612 ], [ 60.794626644544373, 52.224566879316704 ], [ 60.89667525200008, 52.254692689000038 ], [ 61.039922323000042, 52.334997864000044 ], [ 61.017797834662979, 52.35386190137389 ], [ 60.96137401054218, 52.401970991011339 ], [ 60.936466105000079, 52.488580221000078 ], [ 60.892606238041886, 52.500608118325104 ], [ 60.814923086194177, 52.521911976362077 ], [ 60.809739267363156, 52.568475399775522 ], [ 60.803141, 52.627745 ], [ 60.781822018211784, 52.627331641824405 ], [ 60.724489380000136, 52.626220398000086 ], [ 60.675204130512739, 52.669860425363112 ], [ 60.672606252909361, 52.672160776055577 ], [ 60.686859611526174, 52.710122846509407 ], [ 60.69617094061946, 52.734921841850962 ], [ 60.829082479000135, 52.771637879000096 ], [ 60.873320622742227, 52.81413516936987 ], [ 60.884893, 52.825252 ], [ 61.058422, 52.922171 ], [ 61.058421951814957, 52.922171028207153 ], [ 61.058422485000051, 52.922171326000083 ], [ 60.974603434952826, 52.971238026024906 ], [ 61.088602, 52.978059 ], [ 61.160826904865033, 53.00297861264918 ], [ 61.190300741000101, 53.013147685000021 ], [ 61.28734908000007, 52.985164897000104 ], [ 61.349360799000067, 52.984906515000048 ], [ 61.448269320506505, 53.02141585106709 ], [ 61.478074836640843, 53.007565828134702 ], [ 61.605572550000034, 52.948319601 ], [ 61.635690065638762, 52.959239988752387 ], [ 61.675336, 52.973615 ], [ 61.819823, 52.97824 ], [ 61.959246, 52.934935 ], [ 62.034849, 52.952712 ], [ 62.08839956390473, 52.988607053834393 ], [ 62.094173218000094, 52.992477112000088 ], [ 62.116032349000079, 53.064591573000072 ], [ 62.11208237842505, 53.070454324581206 ], [ 62.083218, 53.113297 ], [ 62.050662, 53.124769 ], [ 61.764219028098914, 53.169468995615105 ], [ 61.643089640000085, 53.24334035300005 ], [ 61.514311972000087, 53.208665467000046 ], [ 61.379849894000074, 53.261866354000077 ], [ 61.202909814106704, 53.276439105014646 ], [ 61.162706, 53.299151 ], [ 61.147178018820718, 53.325343207071988 ], [ 61.133663371000068, 53.348140158000021 ], [ 61.137177368000039, 53.373125713000022 ], [ 61.200946086000044, 53.436222637000057 ], [ 61.21332180704276, 53.476684575401102 ], [ 61.218206, 53.492653 ], [ 61.235259, 53.50304 ], [ 61.287659, 53.503195 ], [ 61.31611174788933, 53.480125005846645 ], [ 61.353494914000123, 53.449813538000043 ], [ 61.412302694000118, 53.43575754900003 ], [ 61.47296870449383, 53.465433046684346 ], [ 61.555343, 53.505727 ], [ 61.555342860535568, 53.505727340918796 ], [ 61.555343059000052, 53.505727438000051 ], [ 61.541226444759793, 53.540234716498212 ], [ 61.528368, 53.571667 ], [ 61.503047, 53.588978 ], [ 61.503046772682325, 53.588977989727489 ], [ 61.503046509000058, 53.588978170000061 ], [ 61.361246379000136, 53.582570292000028 ], [ 61.361246027518597, 53.582570001243568 ], [ 61.361246, 53.58257 ], [ 61.352170612642709, 53.575062535759031 ], [ 61.316081177000058, 53.545208232000064 ], [ 61.302151684074758, 53.544108534941259 ], [ 61.280734, 53.542418 ], [ 61.140381, 53.562727 ], [ 61.110227705136161, 53.587712978389149 ], [ 61.096352987000046, 53.599210104000051 ], [ 61.03266639289248, 53.604067555870309 ], [ 60.907321, 53.613628 ], [ 60.880242212265934, 53.632799849715191 ], [ 60.904736776000107, 53.657087708000077 ], [ 60.957900173033408, 53.646054299719438 ], [ 61.007573, 53.635745 ], [ 61.0249352456796, 53.64488611859187 ], [ 61.0427128500001, 53.654245504000087 ], [ 61.042712940048794, 53.654245968436051 ], [ 61.042713, 53.654246 ], [ 61.044528584051548, 53.663610350219592 ], [ 61.052221235723287, 53.703286039436676 ], [ 61.106895, 53.712433 ], [ 61.112039109652152, 53.721118734229108 ], [ 61.127462199000092, 53.747159729000046 ], [ 61.195032525347955, 53.794302950996354 ], [ 61.199086, 53.797131 ], [ 61.20198, 53.81961 ], [ 61.177440917607662, 53.831294148713027 ], [ 61.084984172000077, 53.875317281000079 ], [ 61.035801432625377, 53.878667410100583 ], [ 60.978014, 53.882604 ], [ 60.971813026446078, 53.915831858288925 ], [ 60.976308564204174, 53.920566520618351 ], [ 60.996101, 53.941411 ], [ 61.094013953652734, 53.947145096857966 ], [ 61.145238891000133, 53.950144755000096 ], [ 61.168174022598869, 53.92526013802906 ], [ 61.176245, 53.916503 ], [ 61.19257463430241, 53.9123231434329 ], [ 61.210764608000034, 53.907666728000052 ], [ 61.210764789703262, 53.907667053829137 ], [ 61.210765, 53.907667 ], [ 61.230505, 53.943065 ], [ 61.230504980384978, 53.943065039860379 ], [ 61.230505005000111, 53.943065084000082 ], [ 61.222787578269788, 53.958747843850617 ], [ 61.193505, 54.018254 ], [ 61.225263956286454, 54.01965286680538 ], [ 61.249831990000075, 54.020734762000089 ], [ 61.303400278434744, 54.046605094261501 ], [ 61.337682, 54.063161 ], [ 61.417677, 54.055978 ], [ 61.478552, 54.002906 ], [ 61.552759, 53.992519 ], [ 61.555245879881532, 53.969499139144126 ], [ 61.556169881000073, 53.960945130000127 ], [ 61.556169992179228, 53.960945072393187 ], [ 61.55617, 53.960945 ], [ 61.581801, 53.947664 ], [ 61.591996005111803, 53.95180697346094 ], [ 61.611050253000087, 53.959549866000046 ], [ 61.61462574529444, 53.972833236063416 ], [ 61.619939, 53.992571 ], [ 61.737927472045691, 53.981940128854013 ], [ 61.742101684000033, 53.981564026000044 ], [ 61.742101689140533, 53.981564028008727 ], [ 61.742102, 53.981564 ], [ 61.762938178449708, 53.989706017532264 ], [ 61.791297648000068, 54.000787659000068 ], [ 61.82054650900011, 53.992571106000028 ], [ 61.836152791000075, 53.951126608000052 ], [ 61.848154041813338, 53.94613629178874 ], [ 61.85641, 53.942703 ], [ 62.003636, 53.932006 ], [ 62.003635995931702, 53.932006336215288 ], [ 62.00363610900007, 53.932006328000071 ], [ 62.003418060290848, 53.950017145179579 ], [ 62.002603002377377, 54.017375803526981 ], [ 62.412706746000083, 54.026625875000079 ], [ 62.44614097548591, 54.014533742810393 ], [ 62.444901321346578, 54.001527909651713 ], [ 62.4440226779993, 53.992312870821515 ], [ 62.432025724586616, 53.987499998259636 ], [ 62.399580933000038, 53.974484355000115 ], [ 62.389969116000032, 53.941566467000072 ], [ 62.38996913370007, 53.941566457879617 ], [ 62.389969, 53.941566 ], [ 62.517794919191545, 53.875700536785978 ], [ 62.525258016000066, 53.871854961000039 ], [ 62.544112735606106, 53.883099050653229 ], [ 62.545102, 53.883689 ], [ 62.536612926167692, 53.913399803368378 ], [ 62.531769247000057, 53.930352681000031 ], [ 62.566551132382834, 53.955421889980727 ], [ 62.586546, 53.969833 ], [ 62.586545876072122, 53.969833196399172 ], [ 62.586546264000049, 53.969833476000062 ], [ 62.550579467000091, 54.02683258100005 ], [ 62.580965210000045, 54.053600973000115 ], [ 62.81206221500014, 54.094993795000065 ], [ 62.84662597762982, 54.088666332886113 ], [ 62.902393, 54.078457 ], [ 62.985488, 54.092875 ], [ 63.084655, 54.08564 ], [ 63.100178634976714, 54.094639340132687 ], [ 63.127443481000114, 54.110445048000045 ], [ 63.11712551605688, 54.138612785782911 ], [ 63.110029, 54.157987 ], [ 63.156744, 54.180053 ], [ 63.347834356383032, 54.164510193116755 ], [ 63.368307333000075, 54.162844951000082 ], [ 63.41076834673602, 54.178833109522159 ], [ 63.477551, 54.203979 ], [ 63.525496336837243, 54.205744238783922 ], [ 63.544937378000043, 54.206459860000038 ], [ 63.708648316000051, 54.250436504000092 ], [ 63.897473999000056, 54.1941608690001 ], [ 64.007854859000133, 54.228680725000075 ], [ 64.00939478186028, 54.231008726009712 ], [ 64.025425, 54.255242 ], [ 64.025424731680786, 54.255242238176123 ], [ 64.025424846000078, 54.255242411 ], [ 63.98382189516029, 54.292171393576432 ], [ 63.978968, 54.29648 ], [ 63.994225650711947, 54.310379117334151 ], [ 64.004495891000033, 54.319734599000114 ], [ 64.059531291000042, 54.303714906000053 ], [ 64.093741089000048, 54.324178773000128 ], [ 64.176630086000102, 54.320509746000127 ], [ 64.294038940000064, 54.35337595600005 ], [ 64.432531779000101, 54.351515605000046 ], [ 64.442106627043557, 54.357191712433156 ], [ 64.467052, 54.371979 ], [ 64.487383906904313, 54.368827733270642 ], [ 64.511390015000131, 54.36510650700005 ], [ 64.546120442209812, 54.375694073038666 ], [ 64.578518, 54.38557 ], [ 64.652673, 54.347123 ], [ 64.720163, 54.333842 ], [ 64.867938616320941, 54.3872837092187 ], [ 64.910642131000031, 54.402726950000059 ], [ 64.977718133391718, 54.38660390334816 ], [ 65.085412, 54.308572 ], [ 65.159780774763576, 54.309972741762415 ], [ 65.184217164000074, 54.310432841000093 ], [ 65.212949259000141, 54.343040670000065 ], [ 65.181323298303056, 54.449132333664977 ], [ 65.184048651871947, 54.452180760586842 ], [ 65.202252238000142, 54.472541809000049 ], [ 65.200239675321839, 54.494043112405187 ], [ 65.198170019888906, 54.516156787492868 ], [ 65.341571900000076, 54.56147694900001 ], [ 65.35548749019668, 54.560847768824168 ], [ 65.449007, 54.556619 ], [ 65.44900700407959, 54.556619372948859 ], [ 65.449007202000075, 54.556619364000071 ], [ 65.449782348000099, 54.627467754000023 ], [ 65.549850972551525, 54.618415348907568 ], [ 65.743976, 54.600854 ], [ 65.807519238866931, 54.65585110085248 ], [ 65.826968628000088, 54.672684632000099 ], [ 65.932801961000052, 54.702553609000049 ], [ 65.949424040732893, 54.694805648220957 ], [ 65.951870573590966, 54.693665198770248 ], [ 65.960655558000042, 54.627984518000076 ], [ 65.969447359142606, 54.619463234162062 ], [ 65.97745, 54.611706 ], [ 66.446517, 54.710925 ], [ 66.7003, 54.719245 ], [ 66.700300193225033, 54.719245092384966 ], [ 66.700300334000076, 54.719245097000069 ], [ 66.732804679229616, 54.734786172620105 ], [ 66.781794, 54.758209 ], [ 66.866929049875935, 54.760593986515673 ], [ 66.977337687000045, 54.763686829000036 ], [ 67.098518921000107, 54.792005514000053 ], [ 67.18486589492214, 54.795891516273137 ], [ 67.213344, 54.797173 ], [ 67.311322, 54.859908 ], [ 67.622725, 54.853862 ], [ 67.698482, 54.867918 ], [ 67.698482260605985, 54.867918184690929 ], [ 67.69848230000008, 54.867918192000062 ], [ 67.817338094000092, 54.952150777000057 ], [ 67.845697099674069, 54.960143681883608 ], [ 67.882244, 54.970444 ], [ 68.009678, 54.943004 ], [ 68.069903865385655, 54.948059378543945 ], [ 68.166050659000121, 54.956129863000044 ], [ 68.16605075623734, 54.956129979538488 ], [ 68.166051, 54.95613 ], [ 68.199816428009811, 54.996598009661497 ], [ 68.234780282637473, 55.038502057412202 ], [ 68.240829941418497, 55.039730925655221 ], [ 68.304233439000086, 55.052609762000046 ], [ 68.30701453409381, 55.066917763840486 ], [ 68.308161, 55.072815 ], [ 68.308160815973096, 55.072815082229745 ], [ 68.308160848000057, 55.072815247000037 ], [ 68.190545288000067, 55.125370179000114 ], [ 68.206978393000043, 55.154153951000026 ], [ 68.177109737869685, 55.170535203472973 ], [ 68.262376, 55.194048 ], [ 68.305784, 55.181387 ], [ 68.347244877262185, 55.189383939764596 ], [ 68.376787150000098, 55.195081685000062 ], [ 68.417766661781428, 55.190090861224924 ], [ 68.477349, 55.182834 ], [ 68.6053, 55.195598 ], [ 68.605300074769929, 55.195598424139803 ], [ 68.605300334000106, 55.19559845 ], [ 68.611307841951614, 55.229678079087947 ], [ 68.613672, 55.243089 ], [ 68.676407, 55.273216 ], [ 68.700591971630345, 55.360497897615851 ], [ 68.726732533025896, 55.356234031940048 ], [ 68.846009, 55.336778 ], [ 68.919864362834858, 55.278678370961558 ], [ 68.922800334000044, 55.276368714000043 ], [ 68.941365647297729, 55.277251820784244 ], [ 68.970601, 55.278642 ], [ 68.970912078188277, 55.281818021502801 ], [ 68.977267293000068, 55.346700338000048 ], [ 68.939027710838502, 55.362295437359613 ], [ 68.917839285310308, 55.370936883639601 ], [ 68.903581939152815, 55.409403011235646 ], [ 68.90244, 55.412484 ], [ 68.902441708489192, 55.41248545987294 ], [ 68.938004890364709, 55.431756372070822 ], [ 69.122581, 55.39786 ], [ 69.186143, 55.325771 ], [ 69.233050224223391, 55.344537366288534 ], [ 69.334558147000052, 55.385147604000096 ], [ 69.412089429899012, 55.365750747633541 ], [ 69.477288, 55.349439 ], [ 69.545823373345854, 55.344070259784139 ], [ 69.673865601000045, 55.334039612000097 ], [ 69.766911565105886, 55.303635860305775 ], [ 69.802282, 55.292078 ], [ 69.940309, 55.200249 ], [ 70.058648, 55.18702 ], [ 70.124122930660036, 55.163776674134844 ], [ 70.213677613000073, 55.131984761000112 ], [ 70.213677962547521, 55.13198501329547 ], [ 70.213678, 55.131985 ], [ 70.228750410022201, 55.142863961390923 ], [ 70.284629307523971, 55.183196072454741 ], [ 70.296316063298775, 55.185949551632632 ], [ 70.382452841000031, 55.206243796000095 ], [ 70.382452882320109, 55.206243972273818 ], [ 70.382453, 55.206244 ], [ 70.388086, 55.230273 ], [ 70.428713495347225, 55.270901260878212 ], [ 70.441157209967528, 55.283344975967445 ], [ 70.561253, 55.269599 ], [ 70.561253273429386, 55.269599103583396 ], [ 70.561253296000132, 55.269599101 ], [ 70.566036464692203, 55.271411122369379 ], [ 70.665743, 55.309183 ], [ 70.690256437698565, 55.310917901772576 ], [ 70.721243530000095, 55.313110657000024 ], [ 70.773246411862388, 55.303160157611039 ], [ 70.82035857278467, 55.294145081749136 ], [ 70.788939657000071, 55.265464987000072 ], [ 70.791878401717824, 55.24306601518002 ], [ 70.793177, 55.233167 ], [ 70.960092, 55.105578 ], [ 70.977145, 55.077983 ], [ 70.956991, 54.973493 ], [ 70.974457900071926, 54.946931151960243 ], [ 70.945932658000061, 54.887916973000088 ], [ 70.989960978000113, 54.848642884000029 ], [ 71.005980673000067, 54.774228821000108 ], [ 71.097241251000071, 54.733042705000017 ], [ 71.141171289062626, 54.729202666580164 ], [ 71.200697, 54.723999 ], [ 71.26467286064468, 54.661729135639234 ], [ 71.259004232766927, 54.645031586678051 ], [ 71.252322, 54.625349 ], [ 71.233681936599041, 54.619316444253897 ], [ 71.147574097000131, 54.591449280000049 ], [ 71.147574035373452, 54.591449011448042 ], [ 71.147574, 54.591449 ], [ 71.144669372892906, 54.578791296788481 ], [ 71.141217895000125, 54.563750712000015 ], [ 71.145196981000083, 54.480603333000019 ], [ 71.145196984242276, 54.480603329284463 ], [ 71.145197, 54.480603 ], [ 71.16835001765412, 54.454069953605604 ], [ 71.17103499536239, 54.450992969222789 ], [ 71.165919, 54.417041 ], [ 71.19801, 54.399523 ], [ 71.195139878915811, 54.367928362178112 ], [ 71.190620565000131, 54.318184307000095 ], [ 71.148474243796514, 54.314523229209179 ], [ 71.116258, 54.311725 ], [ 71.003397, 54.333119 ], [ 70.987257811038305, 54.319182862879622 ], [ 70.970840698000131, 54.305006816000017 ], [ 70.974370824760314, 54.285475377650748 ], [ 70.977145, 54.270125 ], [ 71.005000763896206, 54.267550987785867 ], [ 71.052075957006977, 54.263200590593911 ], [ 71.049326683290587, 54.237020307158986 ], [ 71.043962850000071, 54.185944316000061 ], [ 71.043963025970996, 54.185944247311888 ], [ 71.043963, 54.185944 ], [ 71.097447990787018, 54.165067003596143 ], [ 71.098203696263738, 54.164319864820534 ], [ 71.161268, 54.10197 ], [ 71.218061, 54.116284 ], [ 71.320586798240527, 54.201033833221658 ], [ 71.411730413348081, 54.187495541566122 ], [ 71.453136872465109, 54.181345018944057 ], [ 71.477114706000066, 54.10966990200005 ], [ 71.573542928000052, 54.129203593000042 ], [ 71.647233521000089, 54.10858469700004 ], [ 71.7087284750001, 54.132200827000062 ], [ 71.715446412000119, 54.210749003 ], [ 71.761969153216299, 54.247251462132049 ], [ 71.76247196903762, 54.247645975706661 ], [ 71.983647095000094, 54.231574606000052 ], [ 72.00148446143146, 54.223129481043287 ], [ 72.018684, 54.214986 ], [ 72.037604106190841, 54.195533793621436 ], [ 72.099505656000076, 54.131890768000076 ], [ 72.141631147967828, 54.134091768602715 ], [ 72.17764, 54.135973 ], [ 72.177640041384308, 54.135973185113436 ], [ 72.177640422000081, 54.135973205000099 ], [ 72.182184911964868, 54.156302546520536 ], [ 72.187356, 54.179433 ], [ 72.179028671173725, 54.187784787117572 ], [ 72.169992309000122, 54.196848043000031 ], [ 72.066743019472781, 54.222376146241551 ], [ 72.070708975052597, 54.252160664523124 ], [ 72.072117102863643, 54.262735162552055 ], [ 72.10302, 54.31157 ], [ 72.027055270066327, 54.355339844391459 ], [ 72.024678182000059, 54.370945944000127 ], [ 72.043178345000058, 54.378025615000055 ], [ 72.124993079942882, 54.365783264334439 ], [ 72.184772, 54.356838 ], [ 72.195627307521661, 54.348317175796048 ], [ 72.252777954000123, 54.303456523000094 ], [ 72.278719524000053, 54.262735494000125 ], [ 72.278719709184628, 54.262735456502348 ], [ 72.27872, 54.262735 ], [ 72.324401, 54.253485 ], [ 72.331889090820539, 54.227549444499211 ], [ 72.332979777000105, 54.223771465000041 ], [ 72.316255357271785, 54.201723355951373 ], [ 72.298563, 54.1784 ], [ 72.298563517871855, 54.178399879818976 ], [ 72.29856327300007, 54.17839955700002 ], [ 72.386006065800416, 54.158107339422862 ], [ 72.482944552097109, 54.135611103943532 ], [ 72.471340438998197, 54.117244084352663 ], [ 72.46671817568496, 54.109928278062299 ], [ 72.423206828000048, 54.108688050000083 ], [ 72.407910799072013, 54.089568013840029 ], [ 72.388086408166743, 54.090933528585452 ], [ 72.358404582000048, 54.092978414000115 ], [ 72.361777498344665, 54.071155644734795 ], [ 72.363572, 54.059544 ], [ 72.363572214564115, 54.059543830520568 ], [ 72.363572225000041, 54.059543763000121 ], [ 72.370040691981245, 54.05443452361741 ], [ 72.418659, 54.016032 ], [ 72.399361924138645, 53.98247910841993 ], [ 72.372770630000048, 53.936243795000038 ], [ 72.389401045926419, 53.912271228185631 ], [ 72.392201, 53.908235 ], [ 72.435306311442531, 53.910869969773195 ], [ 72.476743612000064, 53.913402812000115 ], [ 72.47674383531681, 53.91340298993314 ], [ 72.476744, 53.913403 ], [ 72.556842, 53.977223 ], [ 72.673734, 53.950506 ], [ 72.698592440711067, 53.957206570662208 ], [ 72.700192505000075, 53.957637838000025 ], [ 72.700192500779238, 53.957637865435487 ], [ 72.700193, 53.957638 ], [ 72.696155926941856, 53.983875595002779 ], [ 72.694818156000053, 53.992571106000028 ], [ 72.656164185000137, 54.042542216000086 ], [ 72.632695597134671, 54.053480964051325 ], [ 72.631773, 54.053911 ], [ 72.631772975742365, 54.053910999425199 ], [ 72.631772908000073, 54.053911031 ], [ 72.503099065761674, 54.050862133202038 ], [ 72.527387, 54.100058 ], [ 72.547980368811253, 54.11296418759872 ], [ 72.573068482000053, 54.128686829000017 ], [ 72.59389202953939, 54.131252963295864 ], [ 72.624228, 54.134991 ], [ 72.942038, 54.121762 ], [ 72.95475613841549, 54.113258629974602 ], [ 72.968393057582333, 54.104140611869525 ], [ 72.971084041156445, 54.086002186873024 ], [ 72.976764771000035, 54.047709859000108 ], [ 73.023686971000075, 54.03396392900008 ], [ 73.04997999879032, 53.997028484766858 ], [ 73.062754, 53.979084 ], [ 73.062754042809544, 53.979083994148723 ], [ 73.062754354000106, 53.979083557000067 ], [ 73.247980239564271, 53.953766993742029 ], [ 73.360307, 53.938414 ], [ 73.360307193958334, 53.938414212796545 ], [ 73.360307251000052, 53.938414205000115 ], [ 73.368422999214843, 53.947318266232529 ], [ 73.39276, 53.974019 ], [ 73.420233395750145, 53.965170294118906 ], [ 73.481643514000041, 53.945390523000114 ], [ 73.518023722000123, 53.956035868000086 ], [ 73.518023732029278, 53.9560359215902 ], [ 73.518024, 53.956036 ], [ 73.528255920157576, 54.010709573367436 ], [ 73.586856730000079, 54.019442851000022 ], [ 73.586856881349846, 54.019442982318189 ], [ 73.586857, 54.019443 ], [ 73.604427, 54.034687 ], [ 73.602371339750661, 54.038751439511664 ], [ 73.588510460423734, 54.066158179071351 ], [ 73.593709368739496, 54.068180176354574 ], [ 73.601532837000093, 54.071222636000087 ], [ 73.647312777804544, 54.074345555924872 ], [ 73.670469, 54.075925 ], [ 73.678690034736633, 54.060305602143792 ], [ 73.684938599000077, 54.048433330000094 ], [ 73.684938807571712, 54.048433365600445 ], [ 73.684939, 54.048433 ], [ 73.723871962743459, 54.055078727515884 ], [ 73.740645793000112, 54.057941793000097 ], [ 73.682871582676512, 53.874128856596599 ], [ 73.6703293872297, 53.869819026095975 ], [ 73.634295695000105, 53.857437235000091 ], [ 73.485260864000111, 53.874852193000052 ], [ 73.43182743300008, 53.865447083000092 ], [ 73.43182742382858, 53.86544707459872 ], [ 73.431827, 53.865447 ], [ 73.410170469472462, 53.845608643367598 ], [ 73.39120975700007, 53.828240052000083 ], [ 73.437821406526041, 53.808499862987937 ], [ 73.393968035985452, 53.798375676618356 ], [ 73.347388143000046, 53.787622376000044 ], [ 73.331161743000052, 53.775168355000048 ], [ 73.306563807867022, 53.68566494189411 ], [ 73.281230071492018, 53.678003376910688 ], [ 73.22966923000007, 53.6624103810001 ], [ 73.22966918241822, 53.662410055167904 ], [ 73.229669, 53.66241 ], [ 73.225715321878639, 53.635334706579904 ], [ 73.224914998000088, 53.62985422800007 ], [ 73.224915030041416, 53.629854205727447 ], [ 73.224915, 53.629854 ], [ 73.237036967281696, 53.621427981208676 ], [ 73.258814738000069, 53.606289775000064 ], [ 73.24722785429185, 53.592347316023428 ], [ 73.230599, 53.572338 ], [ 73.305334834632333, 53.548099841404614 ], [ 73.391209669694248, 53.520248543315489 ], [ 73.347181, 53.459374 ], [ 73.347181503324052, 53.459373768318919 ], [ 73.347181438000064, 53.459373678000063 ], [ 73.358871037804292, 53.453993051895601 ], [ 73.41095, 53.430021 ], [ 73.525555186441622, 53.495010902664681 ], [ 73.54654911300014, 53.506915995000057 ], [ 73.561538483570359, 53.52847398387766 ], [ 73.582516, 53.558644 ], [ 73.640704, 53.563243 ], [ 73.648351992308577, 53.592054514116299 ], [ 73.652899211000033, 53.60918365600007 ], [ 73.787774699000067, 53.595075989000023 ], [ 73.787774786891603, 53.595076022291089 ], [ 73.787775, 53.595076 ], [ 73.881812352827154, 53.630695046295344 ], [ 73.904150025000035, 53.639155985000102 ], [ 73.910940285483093, 53.638512985221162 ], [ 74.058042, 53.624583 ], [ 74.060775940729698, 53.595049540584363 ], [ 74.062796672000047, 53.573216858000094 ], [ 74.076852661000032, 53.566188864000068 ], [ 74.118710572000111, 53.569547831000094 ], [ 74.118710722746115, 53.569547977751064 ], [ 74.118711, 53.569548 ], [ 74.125159917589613, 53.575826257639719 ], [ 74.14795943200005, 53.598021545000037 ], [ 74.223303670000121, 53.594610902000099 ], [ 74.238920784663492, 53.57287757910062 ], [ 74.250485, 53.556784 ], [ 74.250485340476814, 53.556783938815748 ], [ 74.250485474000129, 53.556783753000033 ], [ 74.261909994756166, 53.554730909327731 ], [ 74.270329, 53.553218 ], [ 74.26998426302103, 53.535107626645832 ], [ 74.269605754000111, 53.515235902000128 ], [ 74.38835819500008, 53.462215882000024 ], [ 74.456881144000079, 53.569754537000037 ], [ 74.456880867679956, 53.569754792338848 ], [ 74.456881, 53.569755 ], [ 74.420811029183199, 53.603085973032847 ], [ 74.438484272250847, 53.673417210287305 ], [ 74.453470959738226, 53.684992968901696 ], [ 74.616457967000031, 53.680703838000099 ], [ 74.626683690735362, 53.69890451427726 ], [ 74.654492, 53.7484 ], [ 74.654842669775078, 53.748473245185451 ], [ 74.734900350000032, 53.765194804000046 ], [ 74.77200402800014, 53.830875549 ], [ 74.845372202220858, 53.834325872024692 ], [ 74.888483, 53.836353 ], [ 75.027906, 53.807931 ], [ 75.346978819953591, 53.948261657804863 ], [ 75.433979126000054, 53.986524964000083 ], [ 75.416726151192719, 54.003717103484838 ], [ 75.36070214764591, 54.059543852873944 ], [ 75.429224894000072, 54.090084534000127 ], [ 75.64037479600006, 54.098869528000094 ], [ 75.938848923486717, 54.182740870966015 ], [ 76.183804, 54.251573 ], [ 76.183803959945223, 54.251573329065621 ], [ 76.183804159000033, 54.2515733850001 ], [ 76.17708622300006, 54.306763815000082 ], [ 76.234240100414993, 54.347432984420983 ], [ 76.433091, 54.316582 ], [ 76.476499, 54.323145 ], [ 76.502616921980831, 54.333279194279193 ], [ 76.561868938000032, 54.356269837000056 ], [ 76.599676735212981, 54.356046311184976 ], [ 76.623054, 54.355908 ], [ 76.633071507281954, 54.361843429090882 ], [ 76.640933878000112, 54.366501770000028 ], [ 76.640933912659932, 54.366501948250516 ], [ 76.640934, 54.366502 ], [ 76.651786, 54.422312 ], [ 76.67052182636489, 54.434956740542731 ], [ 76.67276656100006, 54.436471660000038 ], [ 76.782113891000051, 54.43946889300004 ], [ 76.838846201655628, 54.451629497144609 ], [ 76.895905, 54.46386 ], [ 76.910478, 54.45461 ], [ 76.909045803963053, 54.450056510173695 ], [ 76.903553508000073, 54.432595927000094 ], [ 76.893897413013462, 54.430399064400234 ], [ 76.804748, 54.410117 ], [ 76.752968, 54.376682 ], [ 76.834203740980399, 54.3456760988621 ], [ 76.837717728811242, 54.296893660268879 ], [ 76.762477, 54.202636 ], [ 76.744648179700746, 54.190144440847803 ], [ 76.664601685000036, 54.134061178000067 ], [ 76.620470455280227, 54.141093077052922 ], [ 76.476499, 54.164034 ], [ 76.376661, 54.154267 ], [ 76.376661244062504, 54.154266725614853 ], [ 76.376660604000108, 54.154266663000058 ], [ 76.420938619856898, 54.104488272381481 ], [ 76.476499, 54.042025 ], [ 76.495206, 53.992313 ], [ 76.525695, 53.961307 ], [ 76.658502665612474, 53.897958901925875 ], [ 77.612760864000052, 53.442785544000046 ], [ 77.866802080575766, 53.272330916156292 ], [ 78.014512160253872, 53.118630098499352 ], [ 78.476480754000136, 52.637925111000058 ], [ 78.85257821842302, 52.209420340439145 ], [ 79.042958, 51.992512 ], [ 79.124215992426684, 51.897343820769571 ], [ 79.469805135000058, 51.492594504000053 ], [ 79.693581833369706, 51.185157633694324 ], [ 79.966519, 50.810181 ], [ 79.991289395743038, 50.790598744358839 ], [ 80.021296021000069, 50.766876526 ], [ 80.085994914000082, 50.752148743000092 ], [ 80.085994640039615, 50.752149081940935 ], [ 80.085995, 50.752149 ], [ 80.015405032212129, 50.83948196014758 ], [ 80.018729405734092, 50.840743803202962 ], [ 80.049305, 50.852349 ], [ 80.101601, 50.82155 ], [ 80.138995019655951, 50.817510155017601 ], [ 80.142735636000054, 50.817106018000047 ], [ 80.142735649108303, 50.817106037908417 ], [ 80.142736, 50.817106 ], [ 80.181286, 50.875655 ], [ 80.267275955898015, 50.91565297948609 ], [ 80.360190064000051, 50.919218649000086 ], [ 80.439048299000092, 50.958131003000048 ], [ 80.464473104000092, 51.04370717400009 ], [ 80.451657349000129, 51.0734986370001 ], [ 80.451657062127794, 51.07349885557808 ], [ 80.451657, 51.073499 ], [ 80.442171007428286, 51.080726609597662 ], [ 80.410523040621044, 51.104840292951643 ], [ 80.420222053955172, 51.174787832106666 ], [ 80.421995029580771, 51.187574020025735 ], [ 80.452070817191071, 51.207934876241097 ], [ 80.59924523900014, 51.208554993000078 ], [ 80.607760854732888, 51.226368811806879 ], [ 80.632422, 51.277956 ], [ 80.665604893760303, 51.293815645797856 ], [ 80.68275435400011, 51.302011820000089 ], [ 80.71092446047146, 51.294167557075696 ], [ 80.842538, 51.257518 ], [ 80.882484, 51.284855 ], [ 80.905738, 51.283563 ], [ 80.924238, 51.216074 ], [ 81.022113, 51.177394 ], [ 81.052089665001958, 51.174022187156083 ], [ 81.070120890000055, 51.171993917000052 ], [ 81.112857279976112, 51.195945932777427 ], [ 81.116458049334582, 51.195081384110907 ], [ 81.152027985136542, 51.186540845212647 ], [ 81.14717, 51.13595 ], [ 81.051517, 50.955702 ], [ 81.104382, 50.936685 ], [ 81.163995498288344, 50.945638822404916 ], [ 81.277446736000115, 50.962678528000069 ], [ 81.400798029921219, 50.959112864148601 ], [ 81.407439057723209, 50.928960592204348 ], [ 81.416094605000069, 50.889659729000059 ], [ 81.452480087527618, 50.848989179480647 ], [ 81.466117, 50.833746 ], [ 81.434064286576131, 50.785491210436021 ], [ 81.418781779000085, 50.762484029000078 ], [ 81.427914327043155, 50.755401180094871 ], [ 81.460226, 50.730341 ], [ 81.562942517126245, 50.733071123568131 ], [ 81.674115031000042, 50.736025696000084 ], [ 81.744136597000079, 50.784911601 ], [ 81.822426391000079, 50.765739645000068 ], [ 81.945364624000092, 50.769201966000097 ], [ 81.982965135816428, 50.753908158339897 ], [ 82.095536, 50.70812 ], [ 82.147316, 50.701609 ], [ 82.198786, 50.708792 ], [ 82.244664708281093, 50.738143029906695 ], [ 82.255733086005606, 50.745223979451879 ], [ 82.276782280230663, 50.740194987947341 ], [ 82.288392782000074, 50.73742096000008 ], [ 82.288392933993066, 50.737421015770117 ], [ 82.288393, 50.737421 ], [ 82.304591106110195, 50.743364530896649 ], [ 82.328390142090441, 50.752096993382082 ], [ 82.408282, 50.748376 ], [ 82.444426056689409, 50.729986364607051 ], [ 82.475823201000082, 50.714011536000029 ], [ 82.629297724310902, 50.773049492267255 ], [ 82.672762, 50.789769 ], [ 82.678863332341095, 50.794884751074129 ], [ 82.698031861000061, 50.810956523000058 ], [ 82.698031871352129, 50.810956892133326 ], [ 82.698032, 50.810957 ], [ 82.699996, 50.880978 ], [ 82.726454, 50.900718 ], [ 82.975896, 50.881908 ], [ 83.010090605431785, 50.896612360397732 ], [ 83.057854858000042, 50.917151591 ], [ 83.071998732147563, 50.938632048144527 ], [ 83.107567907157289, 50.992650859000022 ], [ 83.43395593300005, 50.992650859000022 ], [ 83.498344768000038, 50.9454186 ], [ 83.554461850859155, 50.938677261540292 ], [ 83.609759, 50.932034 ], [ 83.712802, 50.882218 ], [ 83.820495981497871, 50.868007002441487 ], [ 83.82247734790775, 50.866226072772449 ], [ 83.882817, 50.81199 ], [ 83.925862215823912, 50.791928748827658 ], [ 83.950564998124605, 50.780415858202886 ], [ 83.949738, 50.717887 ], [ 83.967542357580442, 50.696381502829801 ], [ 83.975835002000053, 50.686364645000097 ], [ 84.044181933856692, 50.654996882498416 ], [ 84.101719, 50.62859 ], [ 84.134909790628612, 50.587179278327717 ], [ 84.195614868000064, 50.511439921 ], [ 84.184414088448662, 50.46850871484444 ], [ 84.176753, 50.439145 ], [ 84.176753054664161, 50.43914491750715 ], [ 84.176752970000052, 50.439144593000051 ], [ 84.22756218129453, 50.362469636153797 ], [ 84.239384822225375, 50.344628268276992 ], [ 84.241992811147838, 50.323777081394496 ], [ 84.249978, 50.259931 ], [ 84.249978459223129, 50.259930859134215 ], [ 84.249978476000138, 50.259930725000046 ], [ 84.273953859437412, 50.252576452702712 ], [ 84.304393963556763, 50.243239011178893 ], [ 84.33136885600004, 50.213473613000119 ], [ 84.368782593000049, 50.211819967000068 ], [ 84.368782694973291, 50.21182001348464 ], [ 84.368783, 50.21182 ], [ 84.387422181594332, 50.220316836063319 ], [ 84.440767863000076, 50.244634501000078 ], [ 84.53569746900007, 50.190942688000106 ], [ 84.641995891000079, 50.184896546000047 ], [ 84.720285685000135, 50.136630758000038 ], [ 84.784429172493148, 50.133098628026893 ], [ 84.790669, 50.132755 ], [ 84.838676, 50.08082 ], [ 84.873022862464495, 50.087664706020945 ], [ 84.910248251000041, 50.095082906000059 ], [ 84.91230409602197, 50.094327244042709 ], [ 84.986729, 50.066971 ], [ 85.008872931769872, 50.042241657734785 ], [ 85.028328898000041, 50.020513815000086 ], [ 85.026880163019555, 50.012287069074041 ], [ 85.025435, 50.004081 ], [ 84.954793, 49.99049 ], [ 84.954695032224535, 49.950750751038264 ], [ 84.954586629000119, 49.906929017000024 ], [ 84.982013443166281, 49.897870363966653 ], [ 85.056285959907797, 49.873339013241988 ], [ 85.08171065300013, 49.80001047800009 ], [ 85.08171091897259, 49.800010233693548 ], [ 85.081711, 49.80001 ], [ 85.185115, 49.705029 ], [ 85.195037, 49.625654 ], [ 85.208117485661148, 49.611958785982381 ], [ 85.223614136000094, 49.595733541000087 ], [ 85.263094930000136, 49.581522522000014 ], [ 85.384017782000058, 49.615680644000079 ], [ 85.475691773000108, 49.58307281600004 ], [ 85.614856404000079, 49.617127584000073 ], [ 85.673302449000062, 49.560438538000071 ], [ 85.747406218400599, 49.57299587107633 ], [ 85.809211, 49.536512 ], [ 85.850727457428647, 49.552050849413568 ], [ 85.88073164900004, 49.56328074200006 ], [ 85.940572957000086, 49.559611715000059 ], [ 85.940436534824457, 49.558615910144297 ], [ 85.931426, 49.492846 ], [ 85.931426236167866, 49.492845817320628 ], [ 85.931426229000124, 49.492845765000126 ], [ 85.946257365000122, 49.481373596000097 ], [ 85.968301997553539, 49.482351110581867 ], [ 85.980054, 49.482872 ], [ 86.070488, 49.52628 ], [ 86.087944751817574, 49.523686014578445 ], [ 86.111518596000053, 49.520182597000044 ], [ 86.177251017000117, 49.463338522000086 ], [ 86.23485824636316, 49.536382982292835 ], [ 86.272129, 49.583641 ], [ 86.475476, 49.670819 ], [ 86.472737, 49.708336 ], [ 86.565134, 49.742701 ], [ 86.565134245877729, 49.742701288175979 ], [ 86.565134318000105, 49.742701315000019 ], [ 86.61019616700014, 49.795514628000049 ], [ 86.668932745020783, 49.781906915183882 ], [ 86.68492, 49.778203 ], [ 86.748379, 49.782957 ], [ 86.750827433577342, 49.779628667428845 ], [ 86.759592733000034, 49.767712708000019 ], [ 86.744695370877551, 49.73258884520866 ], [ 86.740524, 49.722754 ], [ 86.762904721943457, 49.705183483861965 ], [ 86.775870809000139, 49.695003968000051 ], [ 86.760905156788525, 49.690199585238119 ], [ 86.647093, 49.653663 ], [ 86.595985, 49.601883 ], [ 86.599344, 49.573513 ], [ 86.599344083479636, 49.573512949673002 ], [ 86.599344116000111, 49.573512675000032 ], [ 86.642545614000028, 49.547467754000067 ], [ 86.732565959000055, 49.550671692000023 ], [ 86.778153399498805, 49.530085472087478 ], [ 86.824343, 49.509227 ], [ 86.814008, 49.450006 ], [ 86.814991203206176, 49.448910934958349 ], [ 86.828994182000088, 49.433314515000049 ], [ 86.933070516000043, 49.390113017000019 ], [ 86.90506189000007, 49.351924134000043 ], [ 86.908377746860211, 49.346412060415474 ], [ 86.91302, 49.338695 ], [ 86.916685907194235, 49.336559411728956 ], [ 87.012548869000057, 49.280714010000068 ], [ 87.036630086000116, 49.242731832000075 ], [ 87.190315797000039, 49.237822571000024 ], [ 87.239785785617883, 49.217952962094103 ], [ 87.271758, 49.205111 ], [ 87.281895230417419, 49.18176622730445 ], [ 87.323795900097906, 49.085274021423373 ], [ 87.20325001578091, 49.11112433075732 ], [ 87.116315145000044, 49.129767151000081 ], [ 86.975445190000073, 49.092405090000014 ], [ 86.859483276000049, 49.105324199000037 ], [ 86.859483034973394, 49.105323996103714 ], [ 86.859483, 49.105324 ], [ 86.833142531161783, 49.083150550537418 ], [ 86.74352136300007, 49.007707419 ], [ 86.74352120684776, 49.007707174124775 ], [ 86.743521, 49.007707 ], [ 86.734856219120331, 48.994118898042899 ], [ 86.709414917000117, 48.954222311000066 ], [ 86.718044881000139, 48.912519430000046 ], [ 86.71804491912178, 48.912519390830198 ], [ 86.718045, 48.912519 ], [ 86.749056447049483, 48.880655158274777 ], [ 86.789461711000058, 48.839138896000108 ], [ 86.739180542000099, 48.783535055000087 ], [ 86.74795574539813, 48.736899094083398 ], [ 86.751996, 48.715426 ], [ 86.605545, 48.59011 ], [ 86.595608813267589, 48.574691499768477 ], [ 86.56508264200005, 48.527323303000074 ], [ 86.447893417004181, 48.491202720086875 ], [ 86.430621, 48.485879 ], [ 86.380572094243917, 48.484745631810682 ], [ 86.307372274000045, 48.48308827700005 ], [ 86.299493487525979, 48.477148987489713 ], [ 86.246704, 48.437355 ], [ 86.209097142543072, 48.424202848676991 ], [ 86.192030477000117, 48.418234355000052 ], [ 86.005995321000057, 48.429551494000023 ], [ 85.793134410408399, 48.40852269622598 ], [ 85.783683, 48.407589 ], [ 85.726020019793708, 48.364341543095293 ], [ 85.718674357000111, 48.358832296000102 ], [ 85.7186743254276, 48.358832244071955 ], [ 85.718674, 48.358832 ], [ 85.638096174838168, 48.226303219265205 ], [ 85.58638269000005, 48.141248677000092 ], [ 85.561784709000051, 48.03066111300005 ], [ 85.530625677778289, 47.956545645387351 ], [ 85.515379, 47.92028 ], [ 85.595426, 47.624071 ], [ 85.584574, 47.492942 ], [ 85.59230378809545, 47.483156383647241 ], [ 85.670356893000076, 47.384343974000032 ], [ 85.678986857000041, 47.274893290000094 ], [ 85.659659872000077, 47.206525370000108 ], [ 85.55682377100004, 47.178749288000077 ], [ 85.513359007573257, 47.083945149655847 ], [ 85.498636, 47.051832 ], [ 85.458275095737761, 47.050314323475355 ], [ 85.225836223000101, 47.041574199000095 ], [ 85.191507013826353, 47.0182119586526 ], [ 85.048224, 46.920703 ], [ 85.02879611434328, 46.915686609979566 ], [ 84.975773967000066, 46.901996155000077 ], [ 84.916036011000131, 46.850552266000093 ], [ 84.739612671000089, 46.81476633700008 ], [ 84.729978967187705, 46.822932244987847 ], [ 84.715531492982322, 46.835178582125735 ], [ 84.74540283966553, 46.876653972688459 ], [ 84.749586, 46.882462 ], [ 84.749586009508832, 46.882462167574381 ], [ 84.749586223000108, 46.882462464000056 ], [ 84.750253175557191, 46.894219645434617 ], [ 84.751602, 46.91799 ], [ 84.731655, 46.947756 ], [ 84.663545, 46.983852 ], [ 84.521021, 46.969796 ], [ 84.421803, 46.993102 ], [ 84.265843, 47.00013 ], [ 84.158149, 46.993102 ], [ 84.110166131929446, 46.97755544450321 ], [ 84.069627726000135, 46.964421285000029 ], [ 84.002839458355155, 46.968297483714295 ], [ 83.905348, 46.973956 ], [ 83.725708919011637, 47.017890468072473 ], [ 83.524493042000131, 47.067102357000024 ], [ 83.386226944669247, 47.130034102039104 ], [ 83.353392, 47.144979 ], [ 83.291158306158337, 47.157729015137768 ], [ 83.22197920800005, 47.171902161 ], [ 83.18013650933338, 47.195057536071687 ], [ 83.150356, 47.211538 ], [ 83.13979267224407, 47.212473683758809 ], [ 83.071600790000048, 47.218514303000077 ], [ 83.021474650000073, 47.205905254000058 ], [ 83.006147718660273, 47.142860474436077 ], [ 82.99822, 47.110252 ], [ 83.002340684537842, 47.095104318659942 ], [ 83.006281779000119, 47.080615743000109 ], [ 82.985507853000058, 47.012532043000093 ], [ 82.985507853000058, 46.942510478000074 ], [ 82.922930039887305, 46.852814141017959 ], [ 82.838953, 46.732446 ], [ 82.674364, 46.331127 ], [ 82.568272, 46.19651 ], [ 82.480520402524945, 45.889599146149934 ], [ 82.372211955000068, 45.734160462000048 ], [ 82.372206099260055, 45.734145882631964 ], [ 82.297137, 45.554545 ], [ 82.274596, 45.548383 ], [ 82.125044, 45.587657 ], [ 82.13972, 45.688994 ], [ 82.08453, 45.805732 ], [ 81.983554, 45.902987 ], [ 81.913481, 46.063494 ], [ 81.647554, 46.31092 ], [ 81.604766, 46.390192 ], [ 81.41408, 46.449387 ], [ 81.410049, 46.47489 ], [ 81.373256, 46.493907 ], [ 81.261014, 46.490806 ], [ 81.16686, 46.54026 ], [ 81.054929, 46.543671 ], [ 80.779493, 46.591988 ], [ 80.349546, 46.736321 ], [ 80.271307, 46.77097 ], [ 80.26707, 46.815231 ], [ 80.018713, 46.879542 ], [ 79.491407, 46.862024 ], [ 79.308472, 47.031031 ], [ 79.044612, 47.064776 ], [ 78.804627, 47.068729 ], [ 78.736621, 47.135211 ], [ 78.639882, 47.14565 ], [ 78.562058, 47.194174 ], [ 78.275254, 47.304296 ], [ 78.110096, 47.213863 ], [ 78.046224, 47.259648 ], [ 77.948038, 47.231794 ], [ 77.851093, 47.179808 ], [ 77.65586, 47.201925 ], [ 77.580929, 47.174847 ], [ 77.611108, 46.816652 ], [ 77.599636, 46.675756 ], [ 77.491632, 46.640177 ], [ 77.283583, 46.611755 ], [ 77.227669, 46.558554 ], [ 77.159663, 46.546617 ], [ 77.134031, 46.554006 ], [ 77.133928, 46.57385 ], [ 77.062718, 46.635603 ], [ 77.019206, 46.646869 ], [ 76.920401, 46.636792 ], [ 76.840199, 46.690742 ], [ 76.82542, 46.683714 ], [ 76.832861, 46.652527 ], [ 76.935284, 46.560207 ], [ 76.730128, 46.631418 ], [ 76.715555, 46.649582 ], [ 76.730025, 46.665472 ], [ 76.722377, 46.683714 ], [ 76.681966, 46.665782 ], [ 76.597216, 46.675756 ], [ 76.54802, 46.660951 ], [ 76.526006, 46.646171 ], [ 76.520219, 46.613589 ], [ 76.407047, 46.66263 ], [ 76.402086, 46.644595 ], [ 76.328499, 46.649892 ], [ 76.160964, 46.681259 ], [ 75.895967, 46.689967 ], [ 75.636138, 46.669942 ], [ 75.402767, 46.679477 ], [ 74.761876, 46.39952 ], [ 74.18434, 45.955852 ], [ 69.170796, 45.936886 ], [ 67.275718, 45.95766 ], [ 67.247813, 46.057086 ], [ 66.978889, 46.056104 ], [ 65.553136, 46.290767 ], [ 65.342503, 46.360788 ], [ 65.100037, 46.511322 ], [ 65.013221, 46.517419 ], [ 63.788076, 46.868871 ], [ 63.732472, 46.857605 ], [ 63.600594, 46.866132 ], [ 63.350273, 46.947729 ], [ 63.209817, 46.961165 ], [ 62.950401, 47.080124 ], [ 62.652228, 47.047981 ], [ 62.669694, 47.091803 ], [ 62.842087, 47.183864 ], [ 62.752583, 47.180893 ], [ 62.637448, 47.219211 ], [ 62.449863, 47.248202 ], [ 62.467226, 47.291842 ], [ 62.319535, 47.445528 ], [ 62.170293, 47.544049 ], [ 62.04844, 47.570688 ], [ 61.858995, 47.776464 ], [ 61.573844, 47.775999 ], [ 61.327141, 47.733469 ], [ 61.108446, 47.528159 ], [ 61.016565, 47.361166 ], [ 60.764694, 47.099916 ], [ 60.537835, 47.112008 ], [ 60.44058, 47.046276 ], [ 60.411434, 46.923803 ], [ 60.169072, 46.884555 ], [ 59.920922, 46.759782 ], [ 59.668431, 46.580232 ], [ 59.112599, 46.066026 ], [ 59.027229, 45.818134 ], [ 59.055132, 45.324023 ], [ 59.054816164958957, 45.324164544893783 ], [ 58.582191203000036, 45.548693746000069 ], [ 58.566095165689788, 45.551873614952981 ], [ 58.554906, 45.557169 ] ] ] } }
]
}
