{
"type": "FeatureCollection",
"name": "KAZ_2z_inner",
"crs": { "type": "name", "properties": { "name": "urn:ogc:def:crs:OGC:1.3:CRS84" } },
"features": [
{ "type": "Feature", "properties": { }, "geometry": { "type": "LineString", "coordinates": [ [ 59.055131936510328, 45.324024124285742 ], [ 59.027229, 45.818134 ], [ 59.112599, 46.066026 ], [ 59.668431, 46.580232 ], [ 59.920922, 46.759782 ], [ 60.169072, 46.884555 ], [ 60.411434, 46.923803 ], [ 60.44058, 47.046276 ], [ 60.537835, 47.112008 ], [ 60.764694, 47.099916 ], [ 61.016565, 47.361166 ], [ 61.108446, 47.528159 ], [ 61.327141, 47.733469 ], [ 61.573844, 47.775999 ], [ 61.858995, 47.776464 ], [ 62.04844, 47.570688 ], [ 62.170293, 47.544049 ], [ 62.319535, 47.445528 ], [ 62.467226, 47.291842 ], [ 62.449863, 47.248202 ], [ 62.637448, 47.219211 ], [ 62.752583, 47.180893 ], [ 62.842087, 47.183864 ], [ 62.669694, 47.091803 ], [ 62.652228, 47.047981 ], [ 62.950401, 47.080124 ], [ 63.209817, 46.961165 ], [ 63.350273, 46.947729 ], [ 63.600594, 46.866132 ], [ 63.732472, 46.857605 ], [ 63.788076, 46.868871 ], [ 65.013221, 46.517419 ], [ 65.100037, 46.511322 ], [ 65.342503, 46.360788 ], [ 65.553136, 46.290767 ], [ 66.978889, 46.056104 ], [ 67.247813, 46.057086 ], [ 67.275718, 45.95766 ], [ 69.170796, 45.936886 ], [ 74.18434, 45.955852 ], [ 74.761876, 46.39952 ], [ 75.402767, 46.679477 ], [ 75.636138, 46.669942 ], [ 75.895967, 46.689967 ], [ 76.160964, 46.681259 ], [ 76.328499, 46.649892 ], [ 76.402086, 46.644595 ], [ 76.407047, 46.66263 ], [ 76.520219, 46.613589 ], [ 76.526006, 46.646171 ], [ 76.54802, 46.660951 ], [ 76.597216, 46.675756 ], [ 76.681966, 46.665782 ], [ 76.722377, 46.683714 ], [ 76.730025, 46.665472 ], [ 76.715555, 46.649582 ], [ 76.730128, 46.631418 ], [ 76.935284, 46.560207 ], [ 76.832861, 46.652527 ], [ 76.82542, 46.683714 ], [ 76.840199, 46.690742 ], [ 76.920401, 46.636792 ], [ 77.019206, 46.646869 ], [ 77.062718, 46.635603 ], [ 77.133928, 46.57385 ], [ 77.134031, 46.554006 ], [ 77.159663, 46.546617 ], [ 77.227669, 46.558554 ], [ 77.283583, 46.611755 ], [ 77.491632, 46.640177 ], [ 77.599636, 46.675756 ], [ 77.611108, 46.816652 ], [ 77.580929, 47.174847 ], [ 77.65586, 47.201925 ], [ 77.851093, 47.179808 ], [ 77.948038, 47.231794 ], [ 78.046224, 47.259648 ], [ 78.110096, 47.213863 ], [ 78.275254, 47.304296 ], [ 78.562058, 47.194174 ], [ 78.639882, 47.14565 ], [ 78.736621, 47.135211 ], [ 78.804627, 47.068729 ], [ 79.044612, 47.064776 ], [ 79.308472, 47.031031 ], [ 79.491407, 46.862024 ], [ 80.018713, 46.879542 ], [ 80.26707, 46.815231 ], [ 80.271307, 46.77097 ], [ 80.349546, 46.736321 ], [ 80.779493, 46.591988 ], [ 81.054929, 46.543671 ], [ 81.16686, 46.54026 ], [ 81.261014, 46.490806 ], [ 81.373256, 46.493907 ], [ 81.410049, 46.47489 ], [ 81.41408, 46.449387 ], [ 81.604766, 46.390192 ], [ 81.647554, 46.31092 ], [ 81.913481, 46.063494 ], [ 81.983554, 45.902987 ], [ 82.08453, 45.805732 ], [ 82.13972, 45.688994 ], [ 82.125044, 45.587657 ], [ 82.274596, 45.548383 ], [ 82.297135885106158, 45.554544695223107 ] ] } }
]
}
