{
"type": "FeatureCollection",
"name": "KGZ_2z_zones",
"crs": { "type": "name", "properties": { "name": "urn:ogc:def:crs:OGC:1.3:CRS84" } },
"features": [
{ "type": "Feature", "properties": { "zone_id": "KGZ_S", "zone_name": "KGZ_S", "ISO_A3": "KGZ" }, "geometry": { "type": "Polygon", "coordinates": [ [ [ 72.019820481359048, 40.258732234082629 ], [ 72.019820598000138, 40.258732401000046 ], [ 71.958222290000094, 40.286534322000094 ], [ 71.956725544513517, 40.314673155876697 ], [ 71.956672008764883, 40.315679835186351 ], [ 72.043178345000058, 40.349321188000076 ], [ 72.05155362972215, 40.360819852398151 ], [ 72.069637, 40.369423 ], [ 72.099298664782722, 40.426370356417173 ], [ 72.099298950000048, 40.426370748000082 ], [ 72.16585809087951, 40.45443100710456 ], [ 72.16585923696023, 40.454431096700127 ], [ 72.243671325380532, 40.457843907232679 ], [ 72.255441534891062, 40.454703654938989 ], [ 72.259599212741819, 40.442390534572546 ], [ 72.25959916487281, 40.442390414288454 ], [ 72.230388360263845, 40.432160337113352 ], [ 72.211644, 40.425596 ], [ 72.211644606938293, 40.425595983764033 ], [ 72.211643514000059, 40.425595601000097 ], [ 72.324179573499336, 40.403279668895472 ], [ 72.370497, 40.38565 ], [ 72.381480298811979, 40.391916919023899 ], [ 72.394061320000105, 40.389422099000072 ], [ 72.400089642518878, 40.402535154227671 ], [ 72.414422, 40.410713 ], [ 72.426204, 40.45934 ], [ 72.426203940617356, 40.459340050138501 ], [ 72.426204061000135, 40.459340312000066 ], [ 72.398277149918314, 40.482919458388089 ], [ 72.363469, 40.512309 ], [ 72.364501840628549, 40.519402244613062 ], [ 72.370083455000099, 40.557732239000089 ], [ 72.351893403081831, 40.60196713834663 ], [ 72.3605807988354, 40.604948845394709 ], [ 72.381555624000043, 40.612147522000086 ], [ 72.433335067738227, 40.571820852611694 ], [ 72.447908, 40.560471 ], [ 72.545898155247741, 40.523706479385702 ], [ 72.58578088400003, 40.508742982000072 ], [ 72.625468384000101, 40.510499980000063 ], [ 72.634742220124252, 40.518528362950995 ], [ 72.65048, 40.532152 ], [ 72.664225894892638, 40.577782651087318 ], [ 72.719209432000071, 40.564863586000044 ], [ 72.74835494000007, 40.575095521000023 ], [ 72.749566397818668, 40.582010479098187 ], [ 72.760034, 40.641758 ], [ 72.783908, 40.669663 ], [ 72.890982, 40.695088 ], [ 73.118048, 40.782938 ], [ 73.118048126171217, 40.782938126810471 ], [ 73.11804813700013, 40.78293813100008 ], [ 73.124291431267366, 40.789213063727288 ], [ 73.148641, 40.813686 ], [ 73.14337, 40.833839 ], [ 73.143369695864266, 40.83383900840137 ], [ 73.143369589000031, 40.833839417000021 ], [ 73.073448801124187, 40.835770486120325 ], [ 73.053556, 40.83632 ], [ 73.00343, 40.870168 ], [ 73.003429830830484, 40.870167933934184 ], [ 73.003429810000057, 40.870167948000088 ], [ 72.870311320000042, 40.818181458000069 ], [ 72.86948017541269, 40.841271691086078 ], [ 72.868658, 40.864122 ], [ 72.658231, 40.867171 ], [ 72.619474, 40.88009 ], [ 72.545577, 40.956519 ], [ 72.545576844101916, 40.956519035219202 ], [ 72.545576620000077, 40.956519267000047 ], [ 72.483358195000051, 40.97057525600006 ], [ 72.481911255000057, 41.008815817000041 ], [ 72.481911005484122, 41.008815855066835 ], [ 72.481911, 41.008816 ], [ 72.402708986452552, 41.020899118300818 ], [ 72.395198201000142, 41.022044983000043 ], [ 72.377035135407866, 41.036727790597268 ], [ 72.33236, 41.072843 ], [ 72.332359817991829, 41.072842789281374 ], [ 72.332359660000066, 41.072842917000045 ], [ 72.319577331144984, 41.058043958341941 ], [ 72.289778, 41.023544 ], [ 72.184458576364364, 41.003108433938301 ], [ 72.165135029761387, 40.999359089132895 ], [ 72.185599, 41.060647 ], [ 72.158417, 41.187875 ], [ 72.131505652094816, 41.192471277088131 ], [ 72.108497355000111, 41.196401266000024 ], [ 72.033773234000137, 41.156610413000109 ], [ 72.006647030755829, 41.17506512496886 ], [ 71.977033, 41.195213 ], [ 71.919452518967333, 41.194817550670955 ], [ 71.87161299210419, 41.19448923975964 ], [ 71.869127314040398, 41.26996799859392 ], [ 71.868822063000096, 41.279238587000023 ], [ 71.868822008445306, 41.27923874355416 ], [ 71.868822, 41.279239 ], [ 71.847015, 41.341819 ], [ 71.745212, 41.45282 ], [ 71.734965932247349, 41.45167330563212 ], [ 71.730432577000101, 41.451166077000053 ], [ 71.721647583000106, 41.424759420000058 ], [ 71.696119425000063, 41.447445374000026 ], [ 71.696119006651372, 41.447444994089345 ], [ 71.696119, 41.447445 ], [ 71.687524408384206, 41.439640070250334 ], [ 71.67193500727403, 41.425483028282976 ], [ 71.689505, 41.493799 ], [ 71.671418, 41.547388 ], [ 71.62739, 41.543202 ], [ 71.62738987950857, 41.543201813411073 ], [ 71.627389770000093, 41.543201803000059 ], [ 71.595453736000138, 41.493747457000026 ], [ 71.595454021045839, 41.493747032590854 ], [ 71.595454, 41.493747 ], [ 71.601926768001434, 41.484109654520694 ], [ 71.637414901703465, 41.431270795866496 ], [ 71.617947401578235, 41.390842423018107 ], [ 71.58553186100005, 41.323525289000074 ], [ 71.561355663180322, 41.312996291908178 ], [ 71.52383, 41.296654 ], [ 71.418772, 41.3474 ], [ 71.418515262300403, 41.326375790865008 ], [ 71.416084843222677, 41.127361897767599 ], [ 71.393657227037579, 41.112737148048176 ], [ 71.36137812938189, 41.1337770735608 ], [ 71.325238, 41.157334 ], [ 71.325237786411506, 41.157333807773398 ], [ 71.325237671000082, 41.157333883000021 ], [ 71.312695125449451, 41.146045591748987 ], [ 71.276145, 41.113151 ], [ 71.241522, 41.175162 ], [ 71.241521989414139, 41.175162004094268 ], [ 71.241521851000073, 41.17516225200005 ], [ 71.206381877000126, 41.188753154000054 ], [ 71.201005393272055, 41.186535354556504 ], [ 71.185711, 41.180227 ], [ 71.180130009971435, 41.108138128799624 ], [ 71.123079468000071, 41.158212382000059 ], [ 71.070584577719529, 41.175058168689269 ], [ 71.024688, 41.189787 ], [ 70.96729622992838, 41.191477819673104 ], [ 70.914203329000031, 41.193042297000019 ], [ 70.828523803000053, 41.249111227000057 ], [ 70.809314257382738, 41.245607706489722 ], [ 70.77043927038082, 41.238518049309533 ], [ 70.756280152000045, 41.269626771000034 ], [ 70.769199259000118, 41.352102356000032 ], [ 70.708530432936811, 41.438424064824403 ], [ 70.70357, 41.445482 ], [ 70.66781, 41.471372 ], [ 70.505010002972398, 41.421390795760935 ], [ 70.453197885946381, 41.405484114053628 ], [ 70.382246, 41.476436 ], [ 70.366962274343493, 41.483451394521744 ], [ 70.344418986000107, 41.493799134000128 ], [ 70.203445967674341, 41.505633012767483 ], [ 70.166549, 41.520206 ], [ 70.153874941093235, 41.542545985979437 ], [ 70.148255249000101, 41.552451884000064 ], [ 70.160186189978972, 41.56713837420034 ], [ 70.16928798072388, 41.57834197627259 ], [ 70.17932072656059, 41.583060265616744 ], [ 70.453663, 41.71208 ], [ 70.485878650137266, 41.756920710461252 ], [ 70.506476277000047, 41.785590108000108 ], [ 70.648948202000042, 41.887392680000076 ], [ 70.720089549189794, 41.901246755863554 ], [ 70.814003, 41.919535 ], [ 70.845473872468361, 42.030355550914052 ], [ 70.977145223000036, 42.044230652000081 ], [ 71.069664344018435, 42.095752364268698 ], [ 71.118429, 42.122908 ], [ 71.238215, 42.160244 ], [ 71.23821671167299, 42.160249602413096 ], [ 71.253200725000056, 42.197554627000031 ], [ 71.250935230030464, 42.19863337061944 ], [ 71.275164, 42.204272 ], [ 71.420737, 42.180785 ], [ 71.502334, 42.199776 ], [ 71.627236, 42.202876 ], [ 71.821539, 42.140942 ], [ 71.887943, 42.13655 ], [ 72.061886, 42.071696 ], [ 72.164464, 42.081178 ], [ 72.235054, 42.185746 ], [ 72.351429, 42.20621 ], [ 72.396439, 42.203006 ], [ 72.436333, 42.165514 ], [ 72.520411, 42.162233 ], [ 72.571777, 42.141562 ], [ 72.628105, 42.152208 ], [ 72.736574, 42.113967 ], [ 72.817706, 42.061154 ], [ 72.885867, 42.068776 ], [ 72.90354, 42.109161 ], [ 72.94638, 42.128178 ], [ 73.043066, 42.146084 ], [ 73.081049, 42.131537 ], [ 73.112261, 42.13934 ], [ 73.126989, 42.119807 ], [ 73.327028, 42.075572 ], [ 73.36036, 42.056916 ], [ 73.381805, 42.019141 ], [ 73.521435, 42.018572 ], [ 73.637345, 41.989091 ], [ 73.715222, 42.023688 ], [ 73.774701, 42.013353 ], [ 73.800901, 41.957594 ], [ 73.761627, 41.90584 ], [ 73.725195, 41.887418 ], [ 73.79222, 41.840599 ], [ 73.823536, 41.852484 ], [ 73.827153, 41.876927 ], [ 73.887511, 41.851554 ], [ 73.924098, 41.863802 ], [ 73.971589, 41.846748 ], [ 73.97748, 41.74399 ], [ 74.100211, 41.723862 ], [ 74.126463, 41.603094 ], [ 74.060834, 41.615496 ], [ 74.051015, 41.668077 ], [ 74.019079, 41.689807 ], [ 73.952055, 41.697507 ], [ 73.911851, 41.666604 ], [ 73.946474, 41.618545 ], [ 73.985696, 41.614153 ], [ 74.076337, 41.564957 ], [ 74.147857, 41.572553 ], [ 74.223925, 41.545733 ], [ 74.329448, 41.560306 ], [ 74.407169, 41.546198 ], [ 74.472333, 41.571985 ], [ 74.537342, 41.568677 ], [ 74.662244, 41.608417 ], [ 74.693922, 41.633015 ], [ 74.751954, 41.61175 ], [ 74.695317, 41.432923 ], [ 74.647051, 41.381144 ], [ 74.342625, 41.294224 ], [ 74.398643, 41.211645 ], [ 74.205579, 41.201904 ], [ 74.082848, 41.15878 ], [ 74.06874, 41.124622 ], [ 74.143826, 41.068501 ], [ 74.041713, 40.972021 ], [ 74.201549, 40.860917 ], [ 74.222064, 40.813349 ], [ 74.359679, 40.702839 ], [ 74.421122, 40.66682 ], [ 74.57057, 40.62318 ], [ 74.592584, 40.599693 ], [ 74.588864, 40.553907 ], [ 74.677489, 40.539025 ], [ 74.710665, 40.516907 ], [ 74.832312, 40.508116 ], [ 74.787419241953685, 40.420767656440503 ], [ 74.787403605000122, 40.420738017000062 ], [ 74.837566756950125, 40.374007491275769 ], [ 74.853859, 40.35883 ], [ 74.859092354907858, 40.338159861979584 ], [ 74.862127726000097, 40.326170146000081 ], [ 74.705754842000033, 40.331286113000075 ], [ 74.565401652000105, 40.246950176000055 ], [ 74.476621541000043, 40.17243276 ], [ 74.471957156553032, 40.169862623382336 ], [ 74.333788, 40.09373 ], [ 74.235536553181106, 40.101214495744244 ], [ 74.167596476000085, 40.106390279000053 ], [ 74.167594582402174, 40.106389533732603 ], [ 74.041005782189373, 40.064752739110716 ], [ 74.003988891000063, 40.060811666000077 ], [ 73.983568018332278, 40.045860669881549 ], [ 73.976704, 40.043603 ], [ 73.974882363911362, 40.039501530012913 ], [ 73.966368449000129, 40.033268128000074 ], [ 73.944045385647158, 39.970071119827395 ], [ 73.944044, 39.970068 ], [ 73.919820165581996, 39.945326808619647 ], [ 73.893194621000134, 39.9181330360001 ], [ 73.88078817766926, 39.865431287008171 ], [ 73.880689, 39.86501 ], [ 73.838336877042096, 39.821443221298779 ], [ 73.823018026000057, 39.805685120000064 ], [ 73.823018035284122, 39.805685036296069 ], [ 73.823018, 39.805685 ], [ 73.829529, 39.746981 ], [ 73.829529237930245, 39.746980863930936 ], [ 73.829529257000047, 39.746980692000093 ], [ 73.893504680000035, 39.710393779000057 ], [ 73.916104646566723, 39.630592032772959 ], [ 73.926784, 39.592882 ], [ 73.883397339943556, 39.557375910878235 ], [ 73.870456991000083, 39.546786194 ], [ 73.864863937483179, 39.532558703333017 ], [ 73.84802904679978, 39.489735119046493 ], [ 73.820744262000062, 39.468186341000049 ], [ 73.739836200494125, 39.459650984606256 ], [ 73.632642, 39.448343 ], [ 73.476889, 39.464776 ], [ 73.369569852985705, 39.444164680170019 ], [ 73.367645305000053, 39.443795065000032 ], [ 73.367645286318606, 39.443795054989302 ], [ 73.367645, 39.443795 ], [ 73.36303998936863, 39.441327237709345 ], [ 73.343150675000061, 39.430669251000054 ], [ 73.326407511000127, 39.390878398000055 ], [ 73.233613851836722, 39.370099635294025 ], [ 73.167864, 39.355377 ], [ 73.071126, 39.370725 ], [ 73.022437831141488, 39.35330108739079 ], [ 73.009320923000075, 39.348607077000068 ], [ 72.893669068000065, 39.363903300000018 ], [ 72.870713977866984, 39.360876478175804 ], [ 72.835275, 39.356204 ], [ 72.633737, 39.394496 ], [ 72.630674235157144, 39.3926370320562 ], [ 72.575755657471603, 39.359304098893219 ], [ 72.519015, 39.375686 ], [ 72.476744, 39.346127 ], [ 72.419608997174834, 39.349343965432688 ], [ 72.393234498000083, 39.350829163000057 ], [ 72.316339966000101, 39.328815003000088 ], [ 72.310110046581784, 39.31886996027761 ], [ 72.228903235101839, 39.189237375299292 ], [ 72.205946195915061, 39.23542916016045 ], [ 72.203272, 39.24081 ], [ 72.203271941745115, 39.240810018392104 ], [ 72.203271932000064, 39.240810038000077 ], [ 72.198418957040403, 39.242342191537873 ], [ 72.094751319615995, 39.275071899091579 ], [ 72.087155538711315, 39.303166853084548 ], [ 72.078112, 39.336618 ], [ 72.059511835341212, 39.357797452296602 ], [ 72.049792928000102, 39.368864237000068 ], [ 71.959152466000035, 39.345868226000036 ], [ 71.807017049000081, 39.272849427000082 ], [ 71.775179998129829, 39.273645352886774 ], [ 71.751207, 39.274245 ], [ 71.713119346693162, 39.318386726809294 ], [ 71.710899018916834, 39.320960029794016 ], [ 71.748106, 39.379561 ], [ 71.744132231238154, 39.41435715060183 ], [ 71.740251099000091, 39.448342590000053 ], [ 71.740251044980781, 39.448342606127561 ], [ 71.740251, 39.448343 ], [ 71.708273580452769, 39.457889502259874 ], [ 71.70459436100009, 39.458987936000042 ], [ 71.704594250806082, 39.458987925124639 ], [ 71.704594, 39.458988 ], [ 71.554319, 39.444157 ], [ 71.512875, 39.458833 ], [ 71.492101, 39.493663 ], [ 71.494788848565662, 39.497730155486074 ], [ 71.531374960000107, 39.553090719000025 ], [ 71.531374887256732, 39.553090829400958 ], [ 71.531375, 39.553091 ], [ 71.52187836407235, 39.567503481528767 ], [ 71.510911092000072, 39.584148255000073 ], [ 71.459544718000075, 39.612105205000049 ], [ 71.368542521000052, 39.591486308000057 ], [ 71.270357004727543, 39.528014561905742 ], [ 71.249273105575213, 39.514385068248124 ], [ 71.221739367776337, 39.514023270455219 ], [ 71.095898, 39.51237 ], [ 71.062928, 39.495627 ], [ 71.009288, 39.407622 ], [ 70.98180228660695, 39.396751021112976 ], [ 70.977145223000036, 39.39490916000004 ], [ 70.93441120060433, 39.409931904625338 ], [ 70.903351, 39.420851 ], [ 70.828862144621553, 39.399180111882735 ], [ 70.770129435000058, 39.382093404000059 ], [ 70.713285360000043, 39.398423157000096 ], [ 70.6980924880001, 39.418990377000071 ], [ 70.699746135000055, 39.472165426000046 ], [ 70.655976197000086, 39.493714498000074 ], [ 70.655536033500312, 39.494622377195576 ], [ 70.655564, 39.494644 ], [ 70.622392483021002, 39.56298411087149 ], [ 70.622128133000047, 39.563529358000054 ], [ 70.597840210000072, 39.577792053000039 ], [ 70.58974654244723, 39.577547143768882 ], [ 70.526113, 39.575622 ], [ 70.515684712481999, 39.581078473559359 ], [ 70.477227417000108, 39.601201477000089 ], [ 70.384313192000036, 39.570867411000066 ], [ 70.33025964300009, 39.573089498000044 ], [ 70.273034467451964, 39.544200460273103 ], [ 70.223289, 39.519088 ], [ 70.210796859836307, 39.522715707659792 ], [ 70.206030011967343, 39.524100091314978 ], [ 70.210346822665642, 39.55703887057885 ], [ 70.214814494000109, 39.591124573000045 ], [ 70.200655152000138, 39.619494934000059 ], [ 70.200655073055714, 39.619494853620274 ], [ 70.200655, 39.619495 ], [ 70.132442, 39.550042 ], [ 70.099943543910939, 39.558357979663604 ], [ 70.040354859000104, 39.573606262000098 ], [ 70.00017678089678, 39.548056780183231 ], [ 69.978757, 39.534436 ], [ 69.907753, 39.548492 ], [ 69.850061954615697, 39.53935193786068 ], [ 69.830445191000081, 39.536244202000049 ], [ 69.669421427000032, 39.577792053000039 ], [ 69.663102178906513, 39.577484711188703 ], [ 69.582295, 39.573555 ], [ 69.514392, 39.537588 ], [ 69.477246595388578, 39.533024409259703 ], [ 69.412176148000128, 39.525030416 ], [ 69.376541034742061, 39.544669809301624 ], [ 69.361637, 39.552884 ], [ 69.361636820453356, 39.552883890849444 ], [ 69.361636597000086, 39.552884014000071 ], [ 69.300348348000057, 39.515625305000057 ], [ 69.291047413585417, 39.531443682254107 ], [ 69.286189009484602, 39.539706983868335 ], [ 69.286220138093128, 39.542906045209541 ], [ 69.287533, 39.677786 ], [ 69.255172933115446, 39.716481002982206 ], [ 69.226296072554646, 39.751011392156407 ], [ 69.240714, 39.82894 ], [ 69.266440183324264, 39.886542287498372 ], [ 69.310321900000133, 39.984795635000026 ], [ 69.351218514901547, 39.962750154418679 ], [ 69.357295855887813, 39.959474077685719 ], [ 69.405354858000067, 39.896118876000017 ], [ 69.501576375000127, 39.922473857000071 ], [ 69.463129134521751, 40.025413244345231 ], [ 69.470364078891279, 40.038554793079427 ], [ 69.5180092691174, 40.12509676313968 ], [ 69.538563671332582, 40.10700606226149 ], [ 69.543020874000092, 40.103082987000064 ], [ 69.57547367300009, 40.103599752 ], [ 69.677232824077393, 40.131488110851571 ], [ 69.969558, 40.211603 ], [ 70.004595, 40.208761 ], [ 70.062927799073165, 40.179393918450828 ], [ 70.14717004400012, 40.136982727000074 ], [ 70.194493545156718, 40.134857575466832 ], [ 70.241531, 40.132745 ], [ 70.324265, 40.077503 ], [ 70.387896772767448, 40.063646042148996 ], [ 70.525493205000032, 40.033681539 ], [ 70.53562173913221, 40.015956605018857 ], [ 70.528036969578011, 40.004472470086732 ], [ 70.520945859714274, 39.993735930616609 ], [ 70.473197, 39.97012 ], [ 70.47319668901882, 39.970119544330736 ], [ 70.473196656000084, 39.970119528000041 ], [ 70.470994471796743, 39.966892716569546 ], [ 70.450872, 39.937408 ], [ 70.453652322034557, 39.919520384504558 ], [ 70.455626668000036, 39.906815898000033 ], [ 70.477227417000108, 39.900924785000129 ], [ 70.500895223000043, 39.940560608000098 ], [ 70.53765475340559, 39.946231361665795 ], [ 70.576601, 39.952239 ], [ 70.613963, 39.975752 ], [ 70.61396302659945, 39.975752114003782 ], [ 70.613963257000137, 39.97575225900006 ], [ 70.628034032244713, 40.036059658825522 ], [ 70.639439929787727, 40.084944699074121 ], [ 70.650031810932248, 40.092625361431566 ], [ 70.66595, 40.104168 ], [ 70.695384359314374, 40.111788804107931 ], [ 70.729821819000051, 40.120704651000054 ], [ 70.758647916456894, 40.139515712050091 ], [ 70.792144, 40.161374 ], [ 70.898545, 40.162614 ], [ 70.91534042854002, 40.169682970273172 ], [ 70.929293, 40.170624 ], [ 70.956029948388419, 40.185802531372985 ], [ 70.962882528000137, 40.189692688 ], [ 70.96288257704181, 40.189692759887173 ], [ 70.962883, 40.189693 ], [ 70.96980761096647, 40.199843741395696 ], [ 70.979522339000084, 40.214083964000011 ], [ 70.958955119000109, 40.238371888000117 ], [ 70.969250357663427, 40.246402174060748 ], [ 70.995129, 40.266587 ], [ 71.201008, 40.263848 ], [ 71.253821, 40.324413 ], [ 71.283225, 40.29842 ], [ 71.291158658634544, 40.29800455978264 ], [ 71.297074016000067, 40.293820699 ], [ 71.365131876000135, 40.294130758000065 ], [ 71.441354614000034, 40.260902812000054 ], [ 71.441357220011838, 40.260900510495119 ], [ 71.477115, 40.220802 ], [ 71.494264908174628, 40.21417497174091 ], [ 71.498405396000067, 40.210518291000042 ], [ 71.509420787875115, 40.208318471400283 ], [ 71.521246, 40.203749 ], [ 71.538840137240385, 40.202443304898708 ], [ 71.56827193200013, 40.196565653000064 ], [ 71.592973267000048, 40.198426005000059 ], [ 71.609347686581174, 40.226434881245495 ], [ 71.62832, 40.258887 ], [ 71.642328609724743, 40.243741700710366 ], [ 71.660152629000095, 40.224470927000041 ], [ 71.673071736000111, 40.147886455000034 ], [ 71.673071934433025, 40.147886388686992 ], [ 71.673072, 40.147886 ], [ 71.686366463652163, 40.14344357395165 ], [ 71.693328898000118, 40.141116842000102 ], [ 71.775907837000034, 40.179925843000049 ], [ 71.775907956391521, 40.179925979505668 ], [ 71.775908, 40.179926 ], [ 71.836473, 40.249172 ], [ 71.836484481870002, 40.249171424323485 ], [ 72.004834432000052, 40.237286682000033 ], [ 72.007159640439738, 40.240614135253502 ], [ 72.01889, 40.240026 ], [ 72.019821, 40.258732 ], [ 72.019820481359048, 40.258732234082629 ] ], [ [ 71.768213442425164, 39.982564763158685 ], [ 71.760611613000094, 39.983710429000027 ], [ 71.665529596504825, 39.940200071250558 ], [ 71.665527, 39.940199 ], [ 71.665527090004176, 39.940198924254055 ], [ 71.665526978000059, 39.940198873 ], [ 71.696842896000078, 39.913843892000031 ], [ 71.717098673629721, 39.910242864791421 ], [ 71.757304, 39.903095 ], [ 71.757304077315226, 39.903095237321772 ], [ 71.757304321000106, 39.903095194000016 ], [ 71.789757121000036, 39.979317932000029 ], [ 71.782492746776256, 39.980412740228623 ], [ 71.78552, 39.989705 ], [ 71.768213442425164, 39.982564763158685 ] ], [ [ 71.031199, 40.146905 ], [ 71.008564, 40.157757 ], [ 70.980644894967597, 40.146046953018335 ], [ 70.977145223000036, 40.144579163000046 ], [ 70.977145181953915, 40.144579076316525 ], [ 70.977145, 40.144579 ], [ 70.954046, 40.095797 ], [ 70.954046009321871, 40.095796930569904 ], [ 70.954045858000143, 40.095796611000068 ], [ 70.955454091928232, 40.085309408206655 ], [ 70.958438, 40.063085 ], [ 70.977130887156989, 40.034993069446188 ], [ 70.994508504000066, 40.008876852000057 ], [ 71.016916551729125, 40.001520332736085 ], [ 71.045823, 39.99203 ], [ 71.047908729863948, 39.978663993648887 ], [ 71.050370728000132, 39.962884827000053 ], [ 71.042259655633273, 39.953067192914759 ], [ 71.007634, 39.911157 ], [ 71.009086125862908, 39.888835174084363 ], [ 71.009287964000066, 39.8857319130001 ], [ 71.060964396000031, 39.904128723 ], [ 71.070394135978063, 39.90376998341231 ], [ 71.079981, 39.903405 ], [ 71.095316197214245, 39.880780030228216 ], [ 71.098894898000083, 39.875499980000129 ], [ 71.208448934000103, 39.888780823000033 ], [ 71.20844898545343, 39.888780998236548 ], [ 71.208449, 39.888781 ], [ 71.219345596720416, 39.925891996349044 ], [ 71.221057984000083, 39.931723938000104 ], [ 71.221057982226412, 39.931723939467751 ], [ 71.221058, 39.931724 ], [ 71.17703, 39.968156 ], [ 71.175615702233671, 39.98386650115507 ], [ 71.174704224000095, 39.9939940390001 ], [ 71.24400231900006, 40.046755677000064 ], [ 71.244001886980612, 40.04675591394949 ], [ 71.244002, 40.046756 ], [ 71.23527683141161, 40.051541339537792 ], [ 71.223745158000042, 40.057866109000074 ], [ 71.16204349800006, 40.046910706000105 ], [ 71.078844442000047, 40.078640036000124 ], [ 71.055951693477851, 40.111439733544636 ], [ 71.031199, 40.146905 ] ], [ [ 70.581614, 39.766566 ], [ 70.581620108076137, 39.76656875174789 ], [ 70.694526815000131, 39.814831848000054 ], [ 70.696088099860077, 39.818137698889039 ], [ 70.70481, 39.822067 ], [ 70.703056891838102, 39.832893357991814 ], [ 70.706412395000086, 39.839998271000084 ], [ 70.700978188417281, 39.845730436662592 ], [ 70.698919, 39.858447 ], [ 70.689773283434263, 39.857549709746273 ], [ 70.686620321000078, 39.860875550000046 ], [ 70.619906047000086, 39.850695292000083 ], [ 70.531850621146432, 39.871080039749728 ], [ 70.483739, 39.882218 ], [ 70.483739034705465, 39.882217826478104 ], [ 70.483738648000042, 39.882217916000045 ], [ 70.490146525000114, 39.850178529000047 ], [ 70.581613811000068, 39.766566060000017 ], [ 70.581613895057643, 39.766566095931267 ], [ 70.581614, 39.766566 ] ] ] } },
{ "type": "Feature", "properties": { "zone_id": "KGZ_N", "zone_name": "KGZ_N", "ISO_A3": "KGZ" }, "geometry": { "type": "Polygon", "coordinates": [ [ [ 77.831042, 41.062973 ], [ 77.650278, 40.997137 ], [ 77.503517, 40.981066 ], [ 77.332985, 41.02065 ], [ 77.243171, 41.005664 ], [ 77.118838, 41.011658 ], [ 77.081140357783767, 41.022704167499136 ], [ 77.007733195000071, 41.044214173000071 ], [ 76.860972128000128, 41.01320831300005 ], [ 76.766817668000044, 40.944685364000023 ], [ 76.76247684700013, 40.847016907000082 ], [ 76.647858521000103, 40.764851380000053 ], [ 76.638125132808611, 40.744322779793279 ], [ 76.630805, 40.728885 ], [ 76.62078, 40.611321 ], [ 76.582747609712513, 40.584368321728732 ], [ 76.556391235000035, 40.565690410000045 ], [ 76.486515899506088, 40.452380276026837 ], [ 76.4598962956983, 40.426147547784261 ], [ 76.389385258585946, 40.383721415031353 ], [ 76.324882527538307, 40.349380592755445 ], [ 76.309121413373859, 40.353267981838883 ], [ 76.273411646530874, 40.434120536151944 ], [ 76.27341109200006, 40.434122213000094 ], [ 76.250112363149285, 40.439761657728575 ], [ 76.244162, 40.441202 ], [ 76.17899520179509, 40.389895548053225 ], [ 76.151351359000103, 40.368131409000071 ], [ 76.051615845000072, 40.390197245000067 ], [ 75.982010144694556, 40.364548794510071 ], [ 75.962422, 40.357331 ], [ 75.938658388571582, 40.334398432244477 ], [ 75.901857591130266, 40.298885035481447 ], [ 75.889752676055707, 40.29993549205183 ], [ 75.772046346000138, 40.310150452000116 ], [ 75.699744343540132, 40.295367053006622 ], [ 75.681819230049641, 40.291702047036431 ], [ 75.667794306481028, 40.308935100372267 ], [ 75.656291019233137, 40.323069976366916 ], [ 75.655604565247003, 40.325476510537854 ], [ 75.638308, 40.386115 ], [ 75.647527027309053, 40.406766677425246 ], [ 75.666936483000086, 40.450245260000074 ], [ 75.632008698446455, 40.481414991153514 ], [ 75.617947171928208, 40.493963846566999 ], [ 75.605648234000114, 40.569411113000072 ], [ 75.595962131361702, 40.592318189745136 ], [ 75.587665, 40.611941 ], [ 75.559863, 40.63287 ], [ 75.530642246677019, 40.625845200733224 ], [ 75.481831502000091, 40.614111227000095 ], [ 75.481815128653707, 40.614101397702939 ], [ 75.229237, 40.470347 ], [ 75.220775037123033, 40.457393015021218 ], [ 75.203512587092519, 40.447029968450323 ], [ 75.13808, 40.463888 ], [ 75.116297337996315, 40.457961032584222 ], [ 75.064389283000082, 40.443837382000041 ], [ 75.030089735253597, 40.445752440064133 ], [ 75.002378, 40.4473 ], [ 74.856443, 40.513187 ], [ 74.710665, 40.516907 ], [ 74.677489, 40.539025 ], [ 74.588864, 40.553907 ], [ 74.592584, 40.599693 ], [ 74.57057, 40.62318 ], [ 74.421122, 40.66682 ], [ 74.359679, 40.702839 ], [ 74.222064, 40.813349 ], [ 74.201549, 40.860917 ], [ 74.041713, 40.972021 ], [ 74.143826, 41.068501 ], [ 74.06874, 41.124622 ], [ 74.082848, 41.15878 ], [ 74.205579, 41.201904 ], [ 74.393837, 41.209423 ], [ 74.392438982137122, 41.211331977696503 ], [ 74.398643, 41.211645 ], [ 74.351575913451398, 41.281029000501562 ], [ 74.348386924803322, 41.295869150229954 ], [ 74.647051, 41.381144 ], [ 74.651985311362466, 41.386437451042902 ], [ 74.654958, 41.387293 ], [ 74.695317, 41.432923 ], [ 74.752885, 41.602551 ], [ 74.74980449126268, 41.60496309040083 ], [ 74.751954, 41.61175 ], [ 74.731621799494903, 41.619200445336034 ], [ 74.714541, 41.632575 ], [ 74.704753948138219, 41.629045786856231 ], [ 74.693922, 41.633015 ], [ 74.674986677236888, 41.618311702148901 ], [ 74.537342, 41.568677 ], [ 74.472333, 41.571985 ], [ 74.412313880593175, 41.548233955985758 ], [ 74.329448, 41.560306 ], [ 74.223925, 41.545733 ], [ 74.171163, 41.570228 ], [ 74.156727151065368, 41.569425568602128 ], [ 74.147857, 41.572553 ], [ 74.076337, 41.564957 ], [ 73.985696, 41.614153 ], [ 73.946474, 41.618545 ], [ 73.911851, 41.666604 ], [ 73.952055, 41.697507 ], [ 74.019079, 41.689807 ], [ 74.051015, 41.668077 ], [ 74.060834, 41.615496 ], [ 74.126463, 41.603094 ], [ 74.100211, 41.723862 ], [ 73.97748, 41.74399 ], [ 73.971589, 41.846748 ], [ 73.924098, 41.863802 ], [ 73.887511, 41.851554 ], [ 73.827153, 41.876927 ], [ 73.823536, 41.852484 ], [ 73.79222, 41.840599 ], [ 73.725195, 41.887418 ], [ 73.761627, 41.90584 ], [ 73.800901, 41.957594 ], [ 73.774701, 42.013353 ], [ 73.715222, 42.023688 ], [ 73.637345, 41.989091 ], [ 73.521435, 42.018572 ], [ 73.381805, 42.019141 ], [ 73.36036, 42.056916 ], [ 73.327028, 42.075572 ], [ 73.126989, 42.119807 ], [ 73.112261, 42.13934 ], [ 73.081049, 42.131537 ], [ 73.043066, 42.146084 ], [ 72.94638, 42.128178 ], [ 72.90354, 42.109161 ], [ 72.885867, 42.068776 ], [ 72.817706, 42.061154 ], [ 72.736574, 42.113967 ], [ 72.628105, 42.152208 ], [ 72.571777, 42.141562 ], [ 72.520411, 42.162233 ], [ 72.436333, 42.165514 ], [ 72.396439, 42.203006 ], [ 72.351429, 42.20621 ], [ 72.235054, 42.185746 ], [ 72.164464, 42.081178 ], [ 72.061886, 42.071696 ], [ 71.887943, 42.13655 ], [ 71.821539, 42.140942 ], [ 71.627236, 42.202876 ], [ 71.502334, 42.199776 ], [ 71.420737, 42.180785 ], [ 71.275164, 42.204272 ], [ 71.250935230030464, 42.19863337061944 ], [ 71.077604207000036, 42.281167094000054 ], [ 71.064358716834036, 42.282529333495461 ], [ 71.045772, 42.29096 ], [ 71.033695483181788, 42.285682910102622 ], [ 71.014042195000059, 42.287704163000043 ], [ 70.947793945244399, 42.248146413044559 ], [ 70.947793, 42.248146 ], [ 70.897822, 42.261608 ], [ 70.852657, 42.306075 ], [ 70.893835631795397, 42.342149901364863 ], [ 70.932703491000041, 42.37620005300009 ], [ 70.930086501789191, 42.410051297282223 ], [ 70.929913, 42.412296 ], [ 70.93285642927745, 42.41742336762708 ], [ 70.961952352000083, 42.468106588000055 ], [ 70.977145207544638, 42.478751922170758 ], [ 71.041017, 42.4548 ], [ 71.04101701553887, 42.454800010423007 ], [ 71.041017294000085, 42.454799906000048 ], [ 71.06416833500009, 42.470328675000061 ], [ 71.060083747727361, 42.485277596555576 ], [ 71.057864, 42.493402 ], [ 71.057863833278489, 42.493402120464737 ], [ 71.057863811000061, 42.493402202000127 ], [ 71.051715149549139, 42.497844855875421 ], [ 71.012699, 42.526036 ], [ 71.005968962732439, 42.552570422883385 ], [ 71.003190164057301, 42.563527045858656 ], [ 71.003191467831286, 42.563527410300374 ], [ 71.127006877000042, 42.59060557100004 ], [ 71.134604688743323, 42.600261123543888 ], [ 71.142768, 42.602543 ], [ 71.143518211135756, 42.611588725058496 ], [ 71.148090861000071, 42.617399801000019 ], [ 71.156654408740948, 42.681275444653537 ], [ 71.211444663300327, 42.705223415749288 ], [ 71.211446167000076, 42.705223898000085 ], [ 71.254555215144904, 42.746042232292332 ], [ 71.329785, 42.737031 ], [ 71.338742278795181, 42.74395616829073 ], [ 71.347561890000065, 42.742844340000019 ], [ 71.404612671000052, 42.794882508000043 ], [ 71.504193156000042, 42.789611512000093 ], [ 71.566308228000082, 42.757236227000092 ], [ 71.577368270798885, 42.761980095853161 ], [ 71.583568, 42.759639 ], [ 71.693529597345346, 42.811803962628332 ], [ 71.69353560400009, 42.811806539000131 ], [ 71.791515618966287, 42.8259420605279 ], [ 71.847738, 42.834053 ], [ 72.10488, 42.750337 ], [ 72.163396443252722, 42.764915470538334 ], [ 72.164101018100013, 42.765090999431152 ], [ 72.292362, 42.76106 ], [ 72.377119289519356, 42.724976715307825 ], [ 72.476743612000064, 42.682563782000031 ], [ 72.725824015000057, 42.652875672000064 ], [ 72.780601034000142, 42.620448710000048 ], [ 72.815224244000035, 42.573035583000049 ], [ 72.843568777551312, 42.55915960093683 ], [ 72.874549, 42.543993 ], [ 72.993948827891188, 42.547392763916307 ], [ 73.11505090300011, 42.550840556000125 ], [ 73.189051555000106, 42.520764873000061 ], [ 73.287307764345684, 42.508787919792837 ], [ 73.316589, 42.493712 ], [ 73.31832380533227, 42.481974269581286 ], [ 73.326200806000088, 42.428677470000039 ], [ 73.326200933240401, 42.428677451696842 ], [ 73.326201, 42.428677 ], [ 73.415021385303575, 42.41590085304184 ], [ 73.505104615000107, 42.402942607000043 ], [ 73.505104335888674, 42.402943095527441 ], [ 73.505105, 42.402943 ], [ 73.417565, 42.556163 ], [ 73.414392427013794, 42.602634206489384 ], [ 73.412707153000099, 42.627321676000108 ], [ 73.503554321000081, 42.794081523000031 ], [ 73.493012330000113, 42.894953919000031 ], [ 73.570940271040172, 43.031922095670616 ], [ 73.645832214375872, 43.058357137554914 ], [ 73.805551392000041, 43.114733785000041 ], [ 73.85549523851185, 43.123165165681016 ], [ 73.90167, 43.13096 ], [ 73.935052963465111, 43.199715924752333 ], [ 73.965334920000032, 43.216923930000107 ], [ 73.976222382075676, 43.21180108472268 ], [ 74.039852, 43.181861 ], [ 74.213899, 43.202635 ], [ 74.178759518863473, 43.261701127839821 ], [ 74.352509871178086, 43.181667473730656 ], [ 74.400554, 43.159537 ], [ 74.486791976673217, 43.135192648353105 ], [ 74.558166952000136, 43.115043844000027 ], [ 74.580918158323428, 43.090688101917188 ], [ 74.61129, 43.058174 ], [ 74.643778968845695, 43.039721164737557 ], [ 74.713919718000056, 42.999882914000054 ], [ 74.862851197000111, 42.975827535000107 ], [ 75.178594198000098, 42.849659526000025 ], [ 75.555935506000139, 42.825216574000066 ], [ 75.602986780717785, 42.810682706545627 ], [ 75.620428, 42.805295 ], [ 75.654985158438365, 42.815733205054109 ], [ 75.703833455000108, 42.830487570000017 ], [ 75.738249960000076, 42.861570944000064 ], [ 75.738249978441957, 42.861570980530303 ], [ 75.73825, 42.861571 ], [ 75.738928035379189, 42.862914096511901 ], [ 75.770599406000031, 42.925649719000077 ], [ 75.797161093000057, 42.936191712000024 ], [ 75.999112590000038, 42.917639873 ], [ 76.064534953000077, 42.933969626000035 ], [ 76.254497518000107, 42.921153870000055 ], [ 76.340487101000065, 42.90167185500006 ], [ 76.357386163018461, 42.905012606240078 ], [ 76.382965, 42.910069 ], [ 76.414074, 42.885497 ], [ 76.414074316871734, 42.885497150058235 ], [ 76.41407434100006, 42.885497131000065 ], [ 76.480530045703091, 42.916967990303455 ], [ 76.535555399703128, 42.905293599712714 ], [ 76.585019979000037, 42.894798889000086 ], [ 76.70790653500012, 42.913660787000097 ], [ 76.707906993249011, 42.913660998963785 ], [ 76.707907, 42.913661 ], [ 76.71722266654551, 42.917969977054213 ], [ 76.833480079710554, 42.971745010831626 ], [ 76.956884, 42.988514 ], [ 76.965597984870527, 42.986970082167915 ], [ 77.124005168000053, 42.95890350400002 ], [ 77.178678833000049, 42.91319569900007 ], [ 77.328127075000054, 42.89756357900005 ], [ 77.399126600472712, 42.916936306230667 ], [ 77.418561, 42.922239 ], [ 77.501553, 42.914539 ], [ 77.53248359543386, 42.900012226682087 ], [ 77.557777141000031, 42.888132630000072 ], [ 77.647797485000069, 42.90950083400007 ], [ 77.713839966000137, 42.907588807000067 ], [ 77.781226034000042, 42.895625713000115 ], [ 77.796638778590179, 42.882569232949848 ], [ 77.809958, 42.871286 ], [ 77.822357283603736, 42.874966840689275 ], [ 77.883855428000118, 42.89322275800005 ], [ 77.931412638929572, 42.880730617566151 ], [ 78.030616, 42.854672 ], [ 78.229777, 42.865007 ], [ 78.31122, 42.850512 ], [ 78.429559, 42.880665 ], [ 78.57922301766304, 42.853014076715326 ], [ 78.594303019000051, 42.850227966000077 ], [ 78.68711389200007, 42.804597677000075 ], [ 78.992935018000082, 42.757132874 ], [ 79.148274208660908, 42.790980900973068 ], [ 79.153961322251092, 42.788281893322427 ], [ 79.180830526000136, 42.775529684000091 ], [ 79.177839218843445, 42.736772749219192 ], [ 79.176076, 42.713931 ], [ 79.19701663856155, 42.674194750146924 ], [ 79.206358684000065, 42.656467183000032 ], [ 79.206358990854014, 42.656467017355126 ], [ 79.206359, 42.656467 ], [ 79.353016, 42.577299 ], [ 79.425673, 42.469605 ], [ 79.526292856558896, 42.455792259459969 ], [ 79.57191776500008, 42.449528911000087 ], [ 79.592000927301626, 42.451191396800645 ], [ 79.696458, 42.459838 ], [ 79.917943, 42.42444 ], [ 80.077003, 42.305765 ], [ 80.14408484043966, 42.233112657538058 ], [ 80.166610148000075, 42.208716736000085 ], [ 80.193794092280655, 42.196779578260582 ], [ 80.210328, 42.189519 ], [ 80.224591, 42.125569 ], [ 80.256526963889783, 42.08435704659864 ], [ 80.231205838041916, 42.033688958235842 ], [ 80.200845774753972, 42.025860003173371 ], [ 80.181906372000128, 42.020976258000061 ], [ 80.017839549752225, 42.022479134253636 ], [ 79.930862, 42.023276 ], [ 79.879250343281981, 42.010691283276586 ], [ 79.842908977000036, 42.001830139000063 ], [ 79.835756837574593, 41.996072789855056 ], [ 79.812833, 41.97762 ], [ 79.783274, 41.905092 ], [ 79.747514, 41.879745 ], [ 79.677310186112749, 41.873513356755709 ], [ 79.610985148000111, 41.867626445 ], [ 79.390843937176427, 41.772697006252194 ], [ 79.337837402170194, 41.777972211770638 ], [ 79.282323039000119, 41.783497213000132 ], [ 79.195920044000047, 41.729521179000059 ], [ 79.088743123000029, 41.70254608200004 ], [ 78.976191854000035, 41.641800435000036 ], [ 78.915833781000117, 41.633170472000089 ], [ 78.808723513863072, 41.57915629432236 ], [ 78.807313233811186, 41.578445117906369 ], [ 78.718934150754293, 41.551171406317252 ], [ 78.658278, 41.532453 ], [ 78.63674907489667, 41.502494250049459 ], [ 78.619211060000055, 41.478089499000063 ], [ 78.560538316990559, 41.465329709092224 ], [ 78.51038, 41.454422 ], [ 78.412655159197527, 41.404485120038373 ], [ 78.359898723000072, 41.377527161000032 ], [ 78.339331503000096, 41.344040832000033 ], [ 78.357507055429622, 41.293527557635507 ], [ 78.359691975108376, 41.287455069180623 ], [ 78.35628133402831, 41.281770667824951 ], [ 78.34946, 41.270402 ], [ 78.285330020708031, 41.234446149038874 ], [ 78.275356080000108, 41.22885406500005 ], [ 78.275356053092025, 41.228854029767184 ], [ 78.275356, 41.228854 ], [ 78.190503, 41.11775 ], [ 78.066706667322507, 41.040304982761675 ], [ 77.831050911403736, 41.062971871809097 ], [ 77.831042, 41.062973 ] ] ] } }
]
}
