{
"type": "FeatureCollection",
"name": "KGZ_2z_inner",
"crs": { "type": "name", "properties": { "name": "urn:ogc:def:crs:OGC:1.3:CRS84" } },
"features": [
{ "type": "Feature", "properties": { }, "geometry": { "type": "LineString", "coordinates": [ [ 71.250936792449806, 42.198633734232764 ], [ 71.275164, 42.204272 ], [ 71.420737, 42.180785 ], [ 71.502334, 42.199776 ], [ 71.627236, 42.202876 ], [ 71.821539, 42.140942 ], [ 71.887943, 42.13655 ], [ 72.061886, 42.071696 ], [ 72.164464, 42.081178 ], [ 72.235054, 42.185746 ], [ 72.351429, 42.20621 ], [ 72.396439, 42.203006 ], [ 72.436333, 42.165514 ], [ 72.520411, 42.162233 ], [ 72.571777, 42.141562 ], [ 72.628105, 42.152208 ], [ 72.736574, 42.113967 ], [ 72.817706, 42.061154 ], [ 72.885867, 42.068776 ], [ 72.90354, 42.109161 ], [ 72.94638, 42.128178 ], [ 73.043066, 42.146084 ], [ 73.081049, 42.131537 ], [ 73.112261, 42.13934 ], [ 73.126989, 42.119807 ], [ 73.327028, 42.075572 ], [ 73.36036, 42.056916 ], [ 73.381805, 42.019141 ], [ 73.521435, 42.018572 ], [ 73.637345, 41.989091 ], [ 73.715222, 42.023688 ], [ 73.774701, 42.013353 ], [ 73.800901, 41.957594 ], [ 73.761627, 41.90584 ], [ 73.725195, 41.887418 ], [ 73.79222, 41.840599 ], [ 73.823536, 41.852484 ], [ 73.827153, 41.876927 ], [ 73.887511, 41.851554 ], [ 73.924098, 41.863802 ], [ 73.971589, 41.846748 ], [ 73.97748, 41.74399 ], [ 74.100211, 41.723862 ], [ 74.126463, 41.603094 ], [ 74.060834, 41.615496 ], [ 74.051015, 41.668077 ], [ 74.019079, 41.689807 ], [ 73.952055, 41.697507 ], [ 73.911851, 41.666604 ], [ 73.946474, 41.618545 ], [ 73.985696, 41.614153 ], [ 74.076337, 41.564957 ], [ 74.147857, 41.572553 ], [ 74.156726208015101, 41.569425901102107 ] ] } },
{ "type": "Feature", "properties": { }, "geometry": { "type": "LineString", "coordinates": [ [ 74.205578056582539, 41.201903668511342 ], [ 74.082848, 41.15878 ], [ 74.06874, 41.124622 ], [ 74.143826, 41.068501 ], [ 74.041713, 40.972021 ], [ 74.201549, 40.860917 ], [ 74.222064, 40.813349 ], [ 74.359679, 40.702839 ], [ 74.421122, 40.66682 ], [ 74.57057, 40.62318 ], [ 74.592584, 40.599693 ], [ 74.588864, 40.553907 ], [ 74.677489, 40.539025 ], [ 74.710664168908338, 40.516907554077818 ] ] } },
{ "type": "Feature", "properties": { }, "geometry": { "type": "LineString", "coordinates": [ [ 74.223925989934244, 41.545733136712485 ], [ 74.329447009758951, 41.560305863245141 ] ] } },
{ "type": "Feature", "properties": { }, "geometry": { "type": "LineString", "coordinates": [ [ 74.398643, 41.211645 ], [ 74.351576474705908, 41.281028173127581 ] ] } },
{ "type": "Feature", "properties": { }, "geometry": { "type": "LineString", "coordinates": [ [ 74.351576474705908, 41.281028173127588 ], [ 74.398643, 41.211645 ] ] } },
{ "type": "Feature", "properties": { }, "geometry": { "type": "LineString", "coordinates": [ [ 74.398643, 41.211645 ], [ 74.39244017745385, 41.211332038005935 ] ] } },
{ "type": "Feature", "properties": { }, "geometry": { "type": "LineString", "coordinates": [ [ 74.412314809768915, 41.548234323683488 ], [ 74.472333, 41.571985 ], [ 74.537341001728151, 41.568677050797326 ] ] } },
{ "type": "Feature", "properties": { }, "geometry": { "type": "LineString", "coordinates": [ [ 74.674987466706597, 41.618312315172965 ], [ 74.693921210963069, 41.633014387312002 ], [ 74.674987466706611, 41.618312315172957 ] ] } },
{ "type": "Feature", "properties": { }, "geometry": { "type": "LineString", "coordinates": [ [ 74.73162273802194, 41.619200101426166 ], [ 74.751954, 41.61175 ], [ 74.749804792905536, 41.604964042815119 ] ] } }
]
}
