{"type":"FeatureCollection","features":[{"type":"Feature","geometry":{"type":"LineString","coordinates":[[33.27217,-23.81245],[34.10526,-19.45182]]},"properties":{"zone_a":"MOZ_2","zone_b":"MOZ_4","mw":1719,"status":"existing","label":"1,719 MW"}},{"type":"Feature","geometry":{"type":"LineString","coordinates":[[33.90634,-14.49797],[34.10526,-19.45182]]},"properties":{"zone_a":"MOZ_1","zone_b":"MOZ_4","mw":2345,"status":"existing","label":"2,345 MW"}},{"type":"Feature","geometry":{"type":"LineString","coordinates":[[38.24982,-14.37745],[34.10526,-19.45182]]},"properties":{"zone_a":"MOZ_3","zone_b":"MOZ_4","mw":290,"status":"existing","label":"290 MW"}},{"type":"Feature","geometry":{"type":"LineString","coordinates":[[33.90634,-14.49797],[38.24982,-14.37745]]},"properties":{"zone_a":"MOZ_1","zone_b":"MOZ_3","mw":64,"status":"existing","label":"64 MW"}}]}