{"type":"FeatureCollection","features":[{"type":"Feature","geometry":{"type":"LineString","coordinates":[[33.01764,-24.04195],[34.40947,-19.71106]]},"properties":{"zone_a":"MOZ_2","zone_b":"MOZ_4","mw":1828,"status":"existing","label":"1,828 MW"}},{"type":"Feature","geometry":{"type":"LineString","coordinates":[[34.23999,-14.41531],[34.40947,-19.71106]]},"properties":{"zone_a":"MOZ_1","zone_b":"MOZ_4","mw":1512,"status":"existing","label":"1,512 MW"}},{"type":"Feature","geometry":{"type":"LineString","coordinates":[[34.40947,-19.71106],[31.89031,-16.17579]]},"properties":{"zone_a":"MOZ_4","zone_b":"MOZ_5","mw":290,"status":"existing","label":"290 MW"}},{"type":"Feature","geometry":{"type":"LineString","coordinates":[[38.45918,-14.12741],[34.40947,-19.71106]]},"properties":{"zone_a":"MOZ_3","zone_b":"MOZ_4","mw":290,"status":"existing","label":"290 MW"}},{"type":"Feature","geometry":{"type":"LineString","coordinates":[[34.23999,-14.41531],[38.45918,-14.12741]]},"properties":{"zone_a":"MOZ_1","zone_b":"MOZ_3","mw":64,"status":"existing","label":"64 MW"}},{"type":"Feature","geometry":{"type":"LineString","coordinates":[[34.23999,-14.41531],[31.89031,-16.17579]]},"properties":{"zone_a":"MOZ_1","zone_b":"MOZ_5","mw":543,"status":"existing","label":"543 MW"}}]}