{"type":"FeatureCollection","features":[{"type":"Feature","geometry":{"type":"LineString","coordinates":[[17.97103,-26.9042],[16.99024,-22.74969]]},"properties":{"zone_a":"NAM_1","zone_b":"NAM_4","mw":1036,"status":"existing","label":"1,036 MW"}},{"type":"Feature","geometry":{"type":"LineString","coordinates":[[15.69552,-18.73604],[16.99024,-22.74969]]},"properties":{"zone_a":"NAM_2","zone_b":"NAM_4","mw":870,"status":"existing","label":"870 MW"}},{"type":"Feature","geometry":{"type":"LineString","coordinates":[[15.69552,-18.73604],[20.93687,-19.25586]]},"properties":{"zone_a":"NAM_2","zone_b":"NAM_3","mw":418,"status":"existing","label":"418 MW"}}]}