{"type":"FeatureCollection","features":[{"type":"Feature","geometry":{"type":"LineString","coordinates":[[17.46911,-26.55147],[19.54863,-27.51721]]},"properties":{"zone_a":"NAM_3","zone_b":"NAM_5","mw":920,"status":"existing","label":"920 MW"}},{"type":"Feature","geometry":{"type":"LineString","coordinates":[[17.46911,-26.55147],[17.05705,-22.41929]]},"properties":{"zone_a":"NAM_3","zone_b":"NAM_4","mw":1036,"status":"existing","label":"1,036 MW"}},{"type":"Feature","geometry":{"type":"LineString","coordinates":[[15.7019,-18.72135],[17.05705,-22.41929]]},"properties":{"zone_a":"NAM_1","zone_b":"NAM_4","mw":870,"status":"existing","label":"870 MW"}},{"type":"Feature","geometry":{"type":"LineString","coordinates":[[15.7019,-18.72135],[20.94386,-19.25362]]},"properties":{"zone_a":"NAM_1","zone_b":"NAM_2","mw":418,"status":"existing","label":"418 MW"}}]}