{"type":"FeatureCollection","features":[{"type":"Feature","geometry":{"type":"LineString","coordinates":[[19.54863,-27.51721],[17.46954,-26.55113]]},"properties":{"zone_a":"NAM_3","zone_b":"NAM_5","mw":920,"status":"existing","label":"920 MW"}},{"type":"Feature","geometry":{"type":"LineString","coordinates":[[17.05491,-22.42063],[17.46954,-26.55113]]},"properties":{"zone_a":"NAM_1","zone_b":"NAM_5","mw":1036,"status":"existing","label":"1,036 MW"}},{"type":"Feature","geometry":{"type":"LineString","coordinates":[[17.05491,-22.42063],[15.70059,-18.72117]]},"properties":{"zone_a":"NAM_1","zone_b":"NAM_4","mw":870,"status":"existing","label":"870 MW"}},{"type":"Feature","geometry":{"type":"LineString","coordinates":[[20.93853,-19.25996],[15.70059,-18.72117]]},"properties":{"zone_a":"NAM_2","zone_b":"NAM_4","mw":418,"status":"existing","label":"418 MW"}}]}