{
"type": "FeatureCollection",
"name": "PAK_3z_zones",
"crs": { "type": "name", "properties": { "name": "urn:ogc:def:crs:OGC:1.3:CRS84" } },
"features": [
{ "type": "Feature", "properties": { "zone_id": "PAK_KAR", "zone_name": "PAK_KAR", "ISO_A3": "PAK" }, "geometry": { "type": "Polygon", "coordinates": [ [ [ 66.720326701616045, 24.910649912663416 ], [ 66.848841459665664, 24.955893727413638 ], [ 66.868496658294191, 24.987417467042519 ], [ 66.986427848266658, 25.00797207495134 ], [ 67.004571108469918, 25.028523242953327 ], [ 67.025738244624335, 25.124383162453057 ], [ 67.122502298442384, 25.199648958732496 ], [ 67.149717188297643, 25.24068343908948 ], [ 67.1860037078049, 25.384194943541843 ], [ 67.219266351361057, 25.448378272839079 ], [ 67.290327452849738, 25.522078603045145 ], [ 67.331149787632626, 25.535721850882737 ], [ 67.347781109410732, 25.590279317236764 ], [ 67.396300112060601, 25.641052104571031 ], [ 67.405683177836465, 25.448340566064303 ], [ 67.433851546911399, 25.407415992753897 ], [ 67.432626835759891, 25.374223709456658 ], [ 67.40323375373481, 25.337701662002132 ], [ 67.376290096710648, 25.242471209478765 ], [ 67.288110853333251, 25.119447111095326 ], [ 67.297908547041857, 25.089503567535644 ], [ 67.398334907330138, 25.060662117962409 ], [ 67.518356655035632, 24.965215132972048 ], [ 67.523255502339623, 24.828575048799507 ], [ 67.546525025009942, 24.806342866230352 ], [ 67.558772141021564, 24.729611241565578 ], [ 67.501210691720075, 24.716261773462122 ], [ 67.486514150707535, 24.744071548663101 ], [ 67.437525682164562, 24.772987115862747 ], [ 67.415480871545014, 24.762978643549616 ], [ 67.404458465785638, 24.725161577744643 ], [ 67.384863078368426, 24.739622402851637 ], [ 67.286426874600636, 24.74177747794829 ], [ 67.222304847608427, 24.723358416996653 ], [ 67.25554446700005, 24.747992255000042 ], [ 67.232676629000082, 24.770738023000035 ], [ 67.16732832100007, 24.760158596000053 ], [ 67.139659050000034, 24.803290106000077 ], [ 67.081228061000047, 24.803290106000077 ], [ 67.08234615823531, 24.778272674457298 ], [ 67.051441196054384, 24.800899090920382 ], [ 67.040933434675082, 24.79874503765565 ], [ 66.965098504000082, 24.843573309000078 ], [ 66.965098504000082, 24.810044664000088 ], [ 66.88209069100003, 24.85101959800005 ], [ 66.693512488418563, 24.841223765191682 ], [ 66.67648048998268, 24.853042874029484 ], [ 66.673313147258995, 24.87028521854236 ], [ 66.70443769600007, 24.89203522300005 ], [ 66.686188229284639, 24.906654074560546 ], [ 66.68992751384377, 24.914246073097843 ], [ 66.720326701616045, 24.910649912663416 ] ] ] } },
{ "type": "Feature", "properties": { "zone_id": "PAK_S", "zone_name": "PAK_S", "ISO_A3": "PAK" }, "geometry": { "type": "MultiPolygon", "coordinates": [ [ [ [ 69.872881444330361, 27.44636339350512 ], [ 69.848015177000036, 27.410369365000051 ], [ 69.575577026000133, 27.18841908800006 ], [ 69.534442586000125, 27.125580546 ], [ 69.507570842000121, 27.050081279000082 ], [ 69.465092814000116, 26.807770487000127 ], [ 69.466743068285354, 26.799002136188751 ], [ 69.472844, 26.766584 ], [ 69.50416, 26.735165 ], [ 69.644862343158692, 26.683080950892375 ], [ 69.659396049632079, 26.677700963662272 ], [ 69.715892019620583, 26.636337896410936 ], [ 69.772257527000136, 26.595070292000045 ], [ 69.772257665934603, 26.595070244583273 ], [ 69.772258, 26.59507 ], [ 69.805801630570684, 26.583622066409472 ], [ 69.815562378000038, 26.580290833000035 ], [ 70.056064482841506, 26.589075825592417 ], [ 70.1296, 26.562514 ], [ 70.142607626320114, 26.547712423108862 ], [ 70.15807377100009, 26.53011301700009 ], [ 70.160502564000126, 26.371311340000048 ], [ 70.150665653931938, 26.339883962791319 ], [ 70.142467, 26.313692 ], [ 70.145096253991184, 26.256745730147632 ], [ 70.146911662000036, 26.217418925000047 ], [ 70.073892863000083, 26.083111878000054 ], [ 70.064642782000078, 25.980327454000118 ], [ 70.067547300724584, 25.972461048932562 ], [ 70.083246, 25.929943 ], [ 70.15190811565833, 25.8545234885379 ], [ 70.213987671000098, 25.786334127000103 ], [ 70.264578898000138, 25.697295634000014 ], [ 70.360128622000104, 25.673472799000038 ], [ 70.477227417000108, 25.676315003000113 ], [ 70.501254788875187, 25.683104408595863 ], [ 70.592259, 25.708819 ], [ 70.632308, 25.701378 ], [ 70.653857, 25.674455 ], [ 70.654182751294798, 25.528698343752868 ], [ 70.654477580000048, 25.396590475000025 ], [ 70.654477999955773, 25.39659001978972 ], [ 70.654478, 25.39659 ], [ 70.656549854642066, 25.394344236356606 ], [ 70.710494833000098, 25.335870667 ], [ 70.734199917882876, 25.269275448850461 ], [ 70.734886, 25.267348 ], [ 70.73488601225587, 25.267347988785833 ], [ 70.734886109000115, 25.267347717000078 ], [ 70.778269683261186, 25.227651746646568 ], [ 70.848574, 25.163323 ], [ 70.890744202125887, 25.026238055552692 ], [ 70.915236857000082, 24.946617941000042 ], [ 70.961113186321739, 24.865114079877149 ], [ 71.063857968305598, 24.682577056308464 ], [ 71.048681117462834, 24.675070032545278 ], [ 70.977145, 24.639686 ], [ 70.958817852682458, 24.594397651954321 ], [ 70.954821004000053, 24.584521180000067 ], [ 70.954821018005305, 24.584521044493066 ], [ 70.954821, 24.584521 ], [ 70.954954140746466, 24.583233023715625 ], [ 70.957766561000085, 24.556021627000021 ], [ 70.980865926000035, 24.534730937000049 ], [ 70.979984444502932, 24.518197036929461 ], [ 70.977145, 24.464942 ], [ 70.977145224050417, 24.464941934702036 ], [ 70.977145223000036, 24.464941915000068 ], [ 71.075020124068317, 24.436416601339275 ], [ 71.082771849476842, 24.411508483666331 ], [ 70.996678915000132, 24.356602275000043 ], [ 70.917717326000059, 24.361718242000038 ], [ 70.840926148000108, 24.305830180000029 ], [ 70.840926163671639, 24.305830119119182 ], [ 70.840926, 24.30583 ], [ 70.851468, 24.264877 ], [ 70.805321384358621, 24.247634788978612 ], [ 70.776020549000066, 24.236687114000048 ], [ 70.621508016000121, 24.241157125000072 ], [ 70.567661174000079, 24.272808940000075 ], [ 70.545647072435557, 24.362183092760354 ], [ 70.575206, 24.400036 ], [ 70.575205875458963, 24.400036243593718 ], [ 70.575205932000131, 24.400036316000026 ], [ 70.571463788035061, 24.407355509799864 ], [ 70.562907, 24.424092 ], [ 70.501211790891261, 24.414769984152574 ], [ 70.41635258000008, 24.401948344000047 ], [ 70.388476678936669, 24.383854292759001 ], [ 70.370774, 24.372364 ], [ 70.29853, 24.363424 ], [ 70.255296958558432, 24.338074366212723 ], [ 70.242564738000056, 24.330609029000058 ], [ 70.109704630000124, 24.304900004000089 ], [ 70.067767807254455, 24.22998593049644 ], [ 70.052137, 24.202064 ], [ 70.044462455923991, 24.196121548308824 ], [ 70.015963583000087, 24.17405527800004 ], [ 69.992464350745806, 24.169327785411269 ], [ 69.972039, 24.165219 ], [ 69.714587, 24.168578 ], [ 69.620717636566553, 24.235601701877581 ], [ 69.563071330000128, 24.276762187000045 ], [ 69.484112602304194, 24.27871374855707 ], [ 69.280815, 24.283739 ], [ 69.166713, 24.253172 ], [ 69.119956904386342, 24.269826958350482 ], [ 69.067701050000039, 24.288441061000114 ], [ 68.962642863000099, 24.257228495000035 ], [ 68.935302346201283, 24.286865519455077 ], [ 68.904197, 24.320584 ], [ 68.885077, 24.313556 ], [ 68.885076982132972, 24.313555970248885 ], [ 68.885076538000078, 24.313555807000043 ], [ 68.869949185794439, 24.28836606407657 ], [ 68.838774, 24.236455 ], [ 68.819654168522874, 24.250303877935494 ], [ 68.79919030800005, 24.329084574000049 ], [ 68.799190108567203, 24.329084582044903 ], [ 68.79919, 24.329085 ], [ 68.775091038097742, 24.330056706113748 ], [ 68.747307169000067, 24.331177470000043 ], [ 68.730898594584218, 24.298994467530537 ], [ 68.725913, 24.289216 ], [ 68.724466000626293, 23.965179140249592 ], [ 68.585736685803582, 23.966109223668948 ], [ 68.431564, 23.967143 ], [ 68.39164853048031, 23.952875913869196 ], [ 68.353636109000092, 23.939289246000058 ], [ 68.351432997316891, 23.951023209916219 ], [ 68.348882, 23.964611 ], [ 68.341219067448193, 23.965426346988956 ], [ 68.33043339000011, 23.966574402000063 ], [ 68.330433471295152, 23.966573949853522 ], [ 68.330433, 23.966574 ], [ 68.332678609033422, 23.954086949246548 ], [ 68.335032593000051, 23.940994568000107 ], [ 68.331726437017309, 23.937041024561612 ], [ 68.314052, 23.915906 ], [ 68.30720758429122, 23.913196428113821 ], [ 68.300409383000044, 23.910505473000043 ], [ 68.263925822000033, 23.935930277000026 ], [ 68.261787276456488, 23.911708925882046 ], [ 68.260360008594887, 23.895545097337198 ], [ 68.213772594475657, 23.879282596571752 ], [ 68.207288, 23.877019 ], [ 68.198525596600859, 23.86440595150837 ], [ 68.183034770414267, 23.842108565914391 ], [ 68.174344701192652, 23.863529039037978 ], [ 68.15748131600003, 23.905096747000073 ], [ 68.157481525511798, 23.905095704646548 ], [ 68.157481, 23.905097 ], [ 68.162480263316041, 23.880226208691219 ], [ 68.170583530000044, 23.839911200000074 ], [ 68.147775912267718, 23.774007397344445 ], [ 68.143321, 23.761135 ], [ 68.157480831664927, 23.69623477154764 ], [ 68.102224155000044, 23.73383209800005 ], [ 68.102224129674767, 23.733831911766625 ], [ 68.102224, 23.733832 ], [ 68.101396362450657, 23.727744795290533 ], [ 68.098887591873918, 23.709296156267797 ], [ 68.062755, 23.723131 ], [ 68.056963858071001, 23.736571854602207 ], [ 68.053884311000047, 23.743719794000071 ], [ 68.074392123000052, 23.764837958000044 ], [ 68.08171634200005, 23.805650132000039 ], [ 68.084842459400477, 23.807188380232599 ], [ 68.102224, 23.815741 ], [ 68.102223871511043, 23.815741138505491 ], [ 68.102224155000044, 23.815741278000075 ], [ 68.059418165000068, 23.861883856000077 ], [ 68.06373131600003, 23.923163153000075 ], [ 68.013519727000073, 23.939276434000078 ], [ 68.023053130822333, 23.913328661987578 ], [ 68.053884, 23.829413 ], [ 68.027568553837639, 23.789727293955124 ], [ 68.0135199545239, 23.768541100120657 ], [ 68.001446247658137, 23.795122703810939 ], [ 67.994151238000086, 23.81118398600006 ], [ 67.994151011767258, 23.811183974093073 ], [ 67.994151, 23.811184 ], [ 67.991040947746924, 23.811020286573552 ], [ 67.95085696700005, 23.80890534100007 ], [ 67.934255405000044, 23.832993882000039 ], [ 67.934255048451107, 23.832993929698901 ], [ 67.934255, 23.832994 ], [ 67.921053704444361, 23.834759996097059 ], [ 67.909922982040726, 23.836249056212012 ], [ 67.902931577330136, 23.85813194342354 ], [ 67.899912957000083, 23.867580471000053 ], [ 67.883261599496606, 23.858402557466221 ], [ 67.868907012471823, 23.850491006873867 ], [ 67.855235222000033, 23.911932684000078 ], [ 67.855235144963771, 23.911932348532464 ], [ 67.855235, 23.911933 ], [ 67.831716, 23.809516 ], [ 67.788839329858078, 23.822471336098417 ], [ 67.718597852000073, 23.843695380000042 ], [ 67.718598396001184, 23.843694880346856 ], [ 67.718598, 23.843695 ], [ 67.741058715554985, 23.823065261257327 ], [ 67.732269727000073, 23.79523346600007 ], [ 67.650044999349916, 23.801947045231291 ], [ 67.631602424267186, 23.803452965356655 ], [ 67.650401238000086, 23.93305084800005 ], [ 67.650400484193028, 23.933047444090011 ], [ 67.650401, 23.933051 ], [ 67.63738, 23.874254 ], [ 67.61889103165089, 23.854711499234792 ], [ 67.614512892022844, 23.850084070586416 ], [ 67.589366058664652, 23.86652296164997 ], [ 67.589259897008787, 23.86849579813687 ], [ 67.58839, 23.88467 ], [ 67.588389558118664, 23.88466958804586 ], [ 67.588389519000032, 23.884670315000051 ], [ 67.57881653033742, 23.875744910610194 ], [ 67.574555, 23.871772 ], [ 67.555440536162706, 23.889910677100598 ], [ 67.546641472000033, 23.898260809000078 ], [ 67.546641284832987, 23.898260729707633 ], [ 67.546641, 23.898261 ], [ 67.530121, 23.891262 ], [ 67.546640371074645, 23.870998771461451 ], [ 67.478526647762251, 23.891506128630802 ], [ 67.494779488724845, 23.894733571988606 ], [ 67.512543165000068, 23.898260809000078 ], [ 67.525573115938187, 23.917351202007669 ], [ 67.540538, 23.939276 ], [ 67.540537562890549, 23.939275856583787 ], [ 67.540537957000083, 23.939276434000078 ], [ 67.521568145705629, 23.933051964718885 ], [ 67.4988713773309, 23.925605123802793 ], [ 67.506358269000032, 23.974025783000059 ], [ 67.506357977611003, 23.974025855202651 ], [ 67.506358, 23.974026 ], [ 67.451182604179522, 23.987697850291028 ], [ 67.469442979189992, 24.017920971517007 ], [ 67.478201, 24.032416 ], [ 67.49032601001899, 24.036098666965639 ], [ 67.519867384000065, 24.045070705000057 ], [ 67.533050977000073, 24.070257880000042 ], [ 67.533050909627576, 24.070257827350552 ], [ 67.533051, 24.070258 ], [ 67.52560777968236, 24.06444125523706 ], [ 67.509776238000086, 24.052069403000075 ], [ 67.441258781801707, 24.07010668427327 ], [ 67.440684, 24.070258 ], [ 67.411276435216834, 24.070464978441169 ], [ 67.354014812517974, 24.070868228933051 ], [ 67.354014134754863, 24.070869056545003 ], [ 67.329374873755825, 24.123806136239754 ], [ 67.279145, 24.281236 ], [ 67.292817, 24.302965 ], [ 67.285981005660616, 24.329575977964538 ], [ 67.362478061000047, 24.343939520000049 ], [ 67.362477003322127, 24.343939812851737 ], [ 67.362478, 24.34394 ], [ 67.271658, 24.369086 ], [ 67.286632, 24.439521 ], [ 67.276752361232099, 24.432269944340621 ], [ 67.258799920828196, 24.419094323417784 ], [ 67.246837, 24.467963 ], [ 67.210948246007078, 24.508449722475181 ], [ 67.230804884000065, 24.525091864000046 ], [ 67.230804857262683, 24.525091880372941 ], [ 67.230805, 24.525092 ], [ 67.194591, 24.547268 ], [ 67.189661315257013, 24.566583821260181 ], [ 67.183604388775137, 24.590318 ], [ 67.252615, 24.590318 ], [ 67.208995, 24.613756 ], [ 67.167739677213731, 24.612489890688863 ], [ 67.159922966269235, 24.612250074494213 ], [ 67.156647262051152, 24.619484449512235 ], [ 67.149587436000047, 24.63507721600007 ], [ 67.149588210061893, 24.635078815080838 ], [ 67.194903518827189, 24.703051328449032 ], [ 67.210038482349162, 24.714267829913592 ], [ 67.286426874600636, 24.74177747794829 ], [ 67.384863078368426, 24.739622402851637 ], [ 67.404458465785638, 24.725161577744643 ], [ 67.415480871545014, 24.762978643549616 ], [ 67.437525682164562, 24.772987115862747 ], [ 67.486514150707535, 24.744071548663101 ], [ 67.501210691720075, 24.716261773462122 ], [ 67.546525025009942, 24.720711755643038 ], [ 67.55143008097123, 24.727908494368538 ], [ 67.558772141021564, 24.729611241565578 ], [ 67.557599221972609, 24.736959909132832 ], [ 67.56244627717399, 24.744071548663101 ], [ 67.546525025009942, 24.806342866230352 ], [ 67.523255502339623, 24.828575048799507 ], [ 67.518356655035632, 24.965215132972048 ], [ 67.398334907330138, 25.060662117962409 ], [ 67.297908547041857, 25.089503567535644 ], [ 67.288110853333251, 25.119447111095326 ], [ 67.376290096710648, 25.242471209478765 ], [ 67.40323375373481, 25.337701662002132 ], [ 67.432626835759891, 25.374223709456658 ], [ 67.433851546911399, 25.407415992753897 ], [ 67.405683177836465, 25.448340566064303 ], [ 67.396300112060601, 25.641052104571031 ], [ 67.347781109410732, 25.590279317236764 ], [ 67.331149787632626, 25.535721850882737 ], [ 67.290327452849738, 25.522078603045145 ], [ 67.219266351361057, 25.448378272839079 ], [ 67.1860037078049, 25.384194943541843 ], [ 67.149717188297643, 25.24068343908948 ], [ 67.122502298442384, 25.199648958732496 ], [ 67.025738244624335, 25.124383162453057 ], [ 67.004571108469918, 25.028523242953327 ], [ 66.986427848266658, 25.00797207495134 ], [ 66.868496658294191, 24.987417467042519 ], [ 66.848841459665664, 24.955893727413638 ], [ 66.720326701616045, 24.910649912663416 ], [ 66.68992751384377, 24.914246073097843 ], [ 66.688115247853986, 24.910566566891237 ], [ 66.681326, 24.910549 ], [ 66.699554974936817, 25.085272759770696 ], [ 66.699555286054078, 25.085273552715659 ], [ 66.737966, 25.159491 ], [ 66.734057596735141, 25.173209637054601 ], [ 66.737152540000068, 25.18109772300005 ], [ 66.723277233795187, 25.211049101528449 ], [ 66.71754, 25.231187 ], [ 66.711865165654473, 25.235683309064303 ], [ 66.71021569100003, 25.239243882000039 ], [ 66.547862175000034, 25.365627346000053 ], [ 66.548518406116941, 25.367846683210502 ], [ 66.553722, 25.385443 ], [ 66.564864034676745, 25.382799748162231 ], [ 66.579274936000047, 25.379380601000037 ], [ 66.59115644600007, 25.399603583000044 ], [ 66.587087436000047, 25.426214911000045 ], [ 66.574547603166337, 25.436813722784173 ], [ 66.550548, 25.457099 ], [ 66.541415878165395, 25.485635711866447 ], [ 66.531016472000033, 25.518133856000077 ], [ 66.531016046372272, 25.518133855092557 ], [ 66.531016, 25.518134 ], [ 66.522099178136315, 25.518114842628638 ], [ 66.492849155000044, 25.518052476000037 ], [ 66.437022332000083, 25.597723700000074 ], [ 66.437022218726568, 25.597723687850273 ], [ 66.437022, 25.597724 ], [ 66.387706, 25.592434 ], [ 66.37256923717338, 25.603908820204492 ], [ 66.374816613568015, 25.620608078417117 ], [ 66.375499, 25.625678 ], [ 66.338552, 25.6081 ], [ 66.258149, 25.612006 ], [ 66.258148770422608, 25.612005920372226 ], [ 66.258148634000065, 25.612005927000041 ], [ 66.22887732209773, 25.601853264337919 ], [ 66.203949, 25.593207 ], [ 66.094412, 25.47484 ], [ 66.094412044817076, 25.474840006239912 ], [ 66.094411655000044, 25.474839585000041 ], [ 66.213063998000052, 25.491359768000052 ], [ 66.258799675000034, 25.52484772300005 ], [ 66.258799673644432, 25.524847761041734 ], [ 66.2588, 25.524848 ], [ 66.258149013195805, 25.543117629666028 ], [ 66.294267018491013, 25.547848262286053 ], [ 66.336436, 25.553371 ], [ 66.423188, 25.481024 ], [ 66.456228, 25.496039 ], [ 66.492197674253831, 25.481024135976615 ], [ 66.457726855500582, 25.453916801968873 ], [ 66.45753, 25.453762 ], [ 66.51156658188124, 25.41421130603133 ], [ 66.499308630452148, 25.399607696592948 ], [ 66.498383, 25.398505 ], [ 66.359548, 25.465237 ], [ 66.321274499526908, 25.467954050174189 ], [ 66.251800977000073, 25.472886460000041 ], [ 66.159190300000034, 25.446926174000055 ], [ 65.970439369599504, 25.428490274272956 ], [ 65.858409, 25.417548 ], [ 65.818640693945412, 25.40346035145847 ], [ 65.652110222000033, 25.34446849200009 ], [ 65.467784050000034, 25.385443427000041 ], [ 65.382335156788514, 25.371161254286143 ], [ 65.395356, 25.392279 ], [ 65.395355331307741, 25.392278822792782 ], [ 65.395355665000068, 25.392279364000046 ], [ 65.29232832100007, 25.364976304000038 ], [ 65.273740668513184, 25.373805439259662 ], [ 65.259776, 25.380439 ], [ 65.233057141465821, 25.370952474425771 ], [ 65.232269727000073, 25.370672919000071 ], [ 65.187998894000032, 25.311021226000037 ], [ 65.161535887325783, 25.298941719499801 ], [ 65.155284, 25.296088 ], [ 65.100104767580234, 25.303370551421146 ], [ 64.920664910000085, 25.327053127000056 ], [ 64.744395379000082, 25.324042059000078 ], [ 64.744395279732558, 25.32404200477832 ], [ 64.744395, 25.324042 ], [ 64.731489478211998, 25.316992617588014 ], [ 64.695974155000044, 25.29759349200009 ], [ 64.687962835364957, 25.285147334636591 ], [ 64.66863, 25.255113 ], [ 64.66863, 25.206732 ], [ 64.694386863423574, 25.189796735329423 ], [ 64.710215487279186, 25.179388872953478 ], [ 64.65504, 25.165717 ], [ 64.632334364806084, 25.168808467225968 ], [ 64.600352410000085, 25.173163153000075 ], [ 64.627696160000085, 25.228461005000042 ], [ 64.58629708028225, 25.256249798767751 ], [ 64.56544, 25.27025 ], [ 64.532188928955733, 25.274017846773095 ], [ 64.518402540000068, 25.275580145000049 ], [ 64.503075341831263, 25.258195129215242 ], [ 64.492035, 25.245673 ], [ 64.46994364047768, 25.241036386672867 ], [ 64.439300977000073, 25.234605210000041 ], [ 64.36068769600007, 25.283026434000078 ], [ 64.265798373000052, 25.298651434000078 ], [ 64.254362413392926, 25.308350007546267 ], [ 64.24464, 25.316596 ], [ 64.094493063111145, 25.335882991893111 ], [ 64.106944207000083, 25.385443427000041 ], [ 64.092907820763017, 25.396263141241395 ], [ 64.083507, 25.40351 ], [ 64.083750998819838, 25.426743887622997 ], [ 64.140879754000082, 25.428859768000052 ], [ 64.140879937115969, 25.428859997670841 ], [ 64.14088, 25.42886 ], [ 64.155284, 25.446926 ], [ 64.155283913417946, 25.446926002693697 ], [ 64.155284050000034, 25.446926174000055 ], [ 64.045420769000032, 25.450344143000052 ], [ 63.976573113000086, 25.412787177000041 ], [ 63.976573656697731, 25.412787358232581 ], [ 63.976573, 25.412787 ], [ 63.997080999798264, 25.419622999932756 ], [ 63.99708785627729, 25.419612543802682 ], [ 64.011729, 25.397284 ], [ 64.048838788907346, 25.41648989075059 ], [ 64.058130224835736, 25.40093042273697 ], [ 64.0796, 25.364976 ], [ 64.070466460015737, 25.355580266331661 ], [ 64.059743793706104, 25.34454998279606 ], [ 64.029132110111121, 25.341997112069247 ], [ 63.944102410000085, 25.334906317000048 ], [ 63.737803582000083, 25.385321356000077 ], [ 63.572520379000082, 25.364976304000038 ], [ 63.572520071001719, 25.364976008739685 ], [ 63.57252, 25.364976 ], [ 63.495779, 25.291409 ], [ 63.470596082509019, 25.289342517727004 ], [ 63.469493035000085, 25.289252020000049 ], [ 63.469493046641354, 25.28925200382734 ], [ 63.469493, 25.289252 ], [ 63.518728, 25.220852 ], [ 63.509196288440286, 25.206639401837485 ], [ 63.500498931593562, 25.193671022054712 ], [ 63.411143, 25.22248 ], [ 63.308116, 25.220364 ], [ 63.144054, 25.260932 ], [ 63.027843, 25.220364 ], [ 62.891187338099826, 25.242426461159937 ], [ 62.770518425000034, 25.261908270000049 ], [ 62.657354055021692, 25.26081084531031 ], [ 62.477179, 25.259064 ], [ 62.467621, 25.223538 ], [ 62.467621380097292, 25.223537836894518 ], [ 62.467621290000068, 25.223537502000056 ], [ 62.489430731871501, 25.21417897286867 ], [ 62.425018239086533, 25.207661214478613 ], [ 62.413828972000033, 25.206529039000088 ], [ 62.34310957100007, 25.155462958000044 ], [ 62.33912194100003, 25.124741929000038 ], [ 62.387242920571033, 25.101574820345053 ], [ 62.384982416602263, 25.096461940830487 ], [ 62.381051648000039, 25.087572198000089 ], [ 62.256055785095612, 25.098627418471086 ], [ 62.315278, 25.130194 ], [ 62.303872430757359, 25.165398818732594 ], [ 62.297479277000036, 25.185132715000066 ], [ 62.29747904574392, 25.185132858805279 ], [ 62.297479, 25.185133 ], [ 62.254222, 25.212032 ], [ 62.254221981698429, 25.212032001070778 ], [ 62.254221821000044, 25.212032101000091 ], [ 62.23618059705511, 25.213087555030182 ], [ 62.145193, 25.218411 ], [ 62.11471650661602, 25.208468091973081 ], [ 62.080030908000083, 25.197152448000054 ], [ 62.058988641000042, 25.161635844000045 ], [ 62.097178582000083, 25.107123114000046 ], [ 61.881114129000082, 25.103013414000088 ], [ 61.871447264932677, 25.084378495519413 ], [ 61.847341094148483, 25.037909181489439 ], [ 61.754868330000079, 25.013467337000066 ], [ 61.720064145686138, 25.037436348187715 ], [ 61.783051, 25.187974 ], [ 61.783050791623566, 25.187973907952419 ], [ 61.783050977000073, 25.187974351000037 ], [ 61.749522332000083, 25.173163153000075 ], [ 61.715639501555948, 25.189905257353974 ], [ 61.694184, 25.200507 ], [ 61.588227, 25.202094 ], [ 61.620042, 25.285486 ], [ 61.643193, 25.613321 ], [ 61.655562715465436, 25.631686036576536 ], [ 61.673475383000039, 25.658279928000113 ], [ 61.667749889427633, 25.706653585695623 ], [ 61.66035, 25.769178 ], [ 61.681433923848488, 25.795480904998417 ], [ 61.739311157000031, 25.803283997 ], [ 61.743552259355504, 25.80794343920903 ], [ 61.754504, 25.819975 ], [ 61.765574115966217, 25.889411366682857 ], [ 61.809901164000053, 26.167447815000045 ], [ 61.822865699232004, 26.200033563251065 ], [ 61.832949, 26.225377 ], [ 62.005529721267663, 26.284474520437765 ], [ 62.094173218000094, 26.314829000000103 ], [ 62.123835490000033, 26.373998515000082 ], [ 62.243414755000117, 26.35064076700003 ], [ 62.253983642850294, 26.35567357113241 ], [ 62.265119, 26.360976 ], [ 62.248996, 26.416528 ], [ 62.297882, 26.474044 ], [ 62.291991, 26.501226 ], [ 62.355863, 26.536624 ], [ 62.396687, 26.539053 ], [ 62.396687035604309, 26.539053037965086 ], [ 62.396687053000051, 26.539053039000024 ], [ 62.397077504749909, 26.539469397535509 ], [ 62.418495, 26.562307 ], [ 62.595331, 26.580704 ], [ 62.6406, 26.605147 ], [ 62.70194, 26.60401 ], [ 62.72872138534013, 26.624840485153459 ], [ 62.753564494000045, 26.644162903000066 ], [ 62.889467772236692, 26.641879499745393 ], [ 63.09804, 26.638375 ], [ 63.141344, 26.625404 ], [ 63.141344417097187, 26.625404366159557 ], [ 63.141344441000115, 26.625404359000086 ], [ 63.14800737350388, 26.63125361480818 ], [ 63.163772, 26.645093 ], [ 63.167120720471353, 26.657782052167395 ], [ 63.174314006000031, 26.685038961000075 ], [ 63.174634390236037, 26.688422001448025 ], [ 63.189559, 26.846011 ], [ 63.231193471306945, 26.860874265995509 ], [ 63.261647176000054, 26.871745911000019 ], [ 63.234982137000031, 26.941147359000084 ], [ 63.233549858450765, 26.990520050213945 ], [ 63.23136500142153, 27.065842950992721 ], [ 63.23418024742702, 27.070582604619858 ], [ 63.260924, 27.115607 ], [ 63.319628, 27.117312 ], [ 63.319627826897943, 27.117312308107994 ], [ 63.319628133000037, 27.117312317000042 ], [ 63.27125899300006, 27.203405253000128 ], [ 63.244255589582558, 27.219189350061963 ], [ 63.177105, 27.258441 ], [ 62.991980950366504, 27.229205308229165 ], [ 62.892419067000048, 27.213482157000058 ], [ 62.829322144000116, 27.233635966000051 ], [ 62.829322124492244, 27.233635960235564 ], [ 62.829322, 27.233636 ], [ 62.817730391424142, 27.230210655415608 ], [ 62.800641888268544, 27.225161079836113 ], [ 62.750558318906833, 27.260947577708595 ], [ 62.742351027145162, 27.266812007958436 ], [ 62.768086, 27.274357 ], [ 62.778783, 27.299833 ], [ 62.763372339105061, 27.332545242006994 ], [ 62.756045039868511, 27.348099099829319 ], [ 62.814698, 27.494964 ], [ 62.792197901904537, 27.713813197734776 ], [ 62.780281209000066, 27.829723613000013 ], [ 62.735684448000086, 27.994984843000012 ], [ 62.75000658395038, 28.134367870560428 ], [ 62.761523, 28.246442 ], [ 62.761522646246547, 28.24644218922251 ], [ 62.761522664000097, 28.246442362000025 ], [ 62.749876843964564, 28.252671522102389 ], [ 62.739302, 28.258328 ], [ 62.73223388780373, 28.257062547104265 ], [ 62.575642538000068, 28.229027405000082 ], [ 62.492288452000139, 28.300702616000066 ], [ 62.474619275743891, 28.331688875393166 ], [ 62.46428, 28.349821 ], [ 62.362787, 28.418887 ], [ 62.231801976287827, 28.447047385378792 ], [ 62.049111369000116, 28.486324361000115 ], [ 61.89279016100005, 28.542599997000096 ], [ 61.85324290610734, 28.577851601756844 ], [ 61.653012, 28.756334 ], [ 61.575629170460317, 28.858886129998115 ], [ 61.566505168000106, 28.870977886000034 ], [ 61.510901327000113, 29.007377828000088 ], [ 61.503530892361177, 29.013283055816093 ], [ 61.468010044446778, 29.041742964388479 ], [ 61.487750285000118, 29.080655009000097 ], [ 61.467666574511426, 29.090542374336213 ], [ 61.460879, 29.093884 ], [ 61.449824041029025, 29.115721745921675 ], [ 61.437727498000129, 29.139617818000104 ], [ 61.427513109505846, 29.144612256181308 ], [ 61.397937, 29.159074 ], [ 61.391779594192812, 29.185807796954744 ], [ 61.386981242000104, 29.206642151000025 ], [ 61.332824341000105, 29.274906718000082 ], [ 61.346570272000122, 29.349062398000015 ], [ 61.340226854516629, 29.36652461469123 ], [ 61.337372, 29.374384 ], [ 61.291099521589004, 29.400026784402986 ], [ 61.279184205000035, 29.406629944000073 ], [ 61.199427312272427, 29.48945805530456 ], [ 60.844379627692504, 29.858178348135549 ], [ 62.37446618600012, 29.424871725000017 ], [ 62.477508993000129, 29.407818502000069 ], [ 62.602587432012371, 29.418096568292764 ], [ 62.602581, 29.41807 ], [ 63.568605, 29.497477 ], [ 63.971991, 29.429574 ], [ 64.086093, 29.386605 ], [ 64.098690897223122, 29.391079019574565 ], [ 64.113378134000072, 29.396294658000059 ], [ 64.172599325000078, 29.484299622000051 ], [ 64.477696981000065, 29.570366720000052 ], [ 64.659077130918519, 29.569053560410932 ], [ 64.820312, 29.567886 ], [ 64.941485712119515, 29.552337376731348 ], [ 65.036370890000057, 29.540161845000043 ], [ 66.195628296000052, 29.835337627000044 ], [ 66.275210001000062, 29.885153707000072 ], [ 66.340529013000037, 29.956570536000086 ], [ 66.340528765069621, 29.956570743137174 ], [ 66.340529, 29.956571 ], [ 66.278269145237175, 30.008586452802888 ], [ 66.219296142638143, 30.057856310048443 ], [ 66.305286, 30.24477 ], [ 66.316769563260493, 30.378521289117394 ], [ 66.321822144000066, 30.437368063000022 ], [ 66.319634582464445, 30.448474143765679 ], [ 66.313761, 30.478296 ], [ 66.282518205020622, 30.529176300700524 ], [ 66.264926391000074, 30.557825826000041 ], [ 66.267975301000035, 30.601389059000084 ], [ 66.267981250524599, 30.601408518512148 ], [ 66.372625854262395, 30.92818220623278 ], [ 66.385695017239087, 30.939099184912784 ], [ 66.550025, 30.976973 ], [ 66.57056407654683, 30.996254315146512 ], [ 66.663093303000096, 31.083116760000067 ], [ 66.696993026688787, 31.195823008094688 ], [ 66.759522, 31.214788 ], [ 66.811509333254165, 31.255752525370003 ], [ 66.838483113000052, 31.277006734000068 ], [ 66.918905131682649, 31.305955488501009 ], [ 67.00946820597791, 31.308909280215175 ], [ 67.01920391006314, 31.299727172363522 ], [ 67.023655053623514, 31.282149851215149 ], [ 67.023358827887762, 31.266115808825251 ], [ 67.015268, 31.244657 ], [ 67.022900803602923, 31.241323969655269 ], [ 67.022865, 31.239386 ], [ 67.027190475847931, 31.239450790610537 ], [ 67.033188597832677, 31.236831579685347 ], [ 67.035266968000087, 31.235923971000076 ], [ 67.13675948100007, 31.241091614000098 ], [ 67.167989588823787, 31.229396043490443 ], [ 67.213757, 31.212256 ], [ 67.346204, 31.20776 ], [ 67.429406643258716, 31.227895521113069 ], [ 67.583657267000092, 31.26522450800006 ], [ 67.692797892000044, 31.32522084600005 ], [ 67.764731486000073, 31.334057516000044 ], [ 67.770364217000122, 31.394673971000131 ], [ 67.770363997411209, 31.394673972142336 ], [ 67.770364, 31.394674 ], [ 67.741280753102487, 31.394825250350841 ], [ 67.651146844609229, 31.395294087185473 ], [ 67.606136243182419, 31.420548295043289 ], [ 67.594572715763334, 31.441731899856414 ], [ 67.591099, 31.464799 ], [ 67.556114, 31.512186 ], [ 67.561764259657238, 31.519947147834156 ], [ 67.568981160000078, 31.529859517000048 ], [ 67.668108685595044, 31.522819210337452 ], [ 67.696312, 31.520816 ], [ 67.748832908429605, 31.547652399735803 ], [ 67.781164591000049, 31.564172669000087 ], [ 67.781164860390192, 31.564172928664131 ], [ 67.781165, 31.564173 ], [ 67.840870945108833, 31.621723376752943 ], [ 67.842711002307595, 31.623497000275524 ], [ 67.966063, 31.638225 ], [ 68.023891642805097, 31.674265908667948 ], [ 68.046574748000069, 31.688402812000035 ], [ 68.046574784056446, 31.68840286541614 ], [ 68.046575, 31.688403 ], [ 68.099504652922548, 31.766816384212564 ], [ 68.138558798000076, 31.824673564000065 ], [ 68.206823304570889, 31.807878737867146 ], [ 68.229116882673978, 31.788691482775967 ], [ 68.255037475000108, 31.766382548000124 ], [ 68.356064901000082, 31.762506816000055 ], [ 68.44531282216343, 31.739082079384403 ], [ 68.49802, 31.725248 ], [ 68.5498, 31.753515 ], [ 68.549799697420525, 31.753515035889212 ], [ 68.549799846000099, 31.75351511700002 ], [ 68.439574016000051, 31.766589254000067 ], [ 68.418748593087187, 31.783022217896594 ], [ 68.527476, 31.822968 ], [ 68.678796058722099, 31.771815370910353 ], [ 68.690283134698817, 31.760793988112319 ], [ 68.705449, 31.70127 ], [ 68.77728, 31.618588 ], [ 68.803841, 31.602568 ], [ 68.843529, 31.606496 ], [ 68.951348967667329, 31.64303128065994 ], [ 68.977267293000068, 31.641480611000091 ], [ 69.040105835000134, 31.673106588000067 ], [ 69.114313192000111, 31.737753804000036 ], [ 69.188393264751824, 31.835338036062929 ], [ 69.223764, 31.881931 ], [ 69.29885, 31.93769 ], [ 69.298470533162487, 31.939221807304616 ], [ 69.301157, 31.941282 ], [ 69.348873, 31.92986 ], [ 69.535994, 31.940919 ], [ 69.587205, 31.959393 ], [ 69.662291, 32.031378 ], [ 69.821661, 32.057604 ], [ 69.807863, 31.992905 ], [ 69.868066, 31.944691 ], [ 69.840109, 31.892731 ], [ 69.84445, 31.871182 ], [ 69.881399, 31.849839 ], [ 69.927649, 31.89702 ], [ 69.943617, 31.894953 ], [ 69.914782, 31.515389 ], [ 69.929665, 31.496786 ], [ 69.989558, 31.478389 ], [ 70.004286, 31.45423 ], [ 70.024956, 31.330078 ], [ 70.042319, 31.322869 ], [ 70.04542, 31.362944 ], [ 70.075392, 31.416868 ], [ 70.147998, 31.416558 ], [ 70.219518, 31.485727 ], [ 70.258172, 31.385681 ], [ 70.22882, 31.129599 ], [ 70.239103, 31.072807 ], [ 70.225719, 30.874498 ], [ 70.237708, 30.822047 ], [ 70.201689, 30.809903 ], [ 70.119472, 30.71257 ], [ 70.080043, 30.705516 ], [ 70.075298058695765, 30.698107208736214 ], [ 70.072912, 30.697326 ], [ 70.071328564285537, 30.691909206775311 ], [ 70.065729, 30.683166 ], [ 70.061535613427182, 30.658408389928205 ], [ 70.056892, 30.642523 ], [ 70.058109649020949, 30.638181613928285 ], [ 70.057357, 30.633738 ], [ 70.070741, 30.593146 ], [ 69.978861, 30.45411 ], [ 69.92982, 30.289495 ], [ 69.955451, 30.264303 ], [ 69.961652, 30.222652 ], [ 70.004311971955659, 30.252721026796049 ], [ 70.014603758963034, 30.252571063489619 ], [ 70.033510388525158, 30.249037070893138 ], [ 70.039552027104733, 30.244875976369919 ], [ 70.041142652372457, 30.234697114889642 ], [ 70.039042761973818, 30.224522434764271 ], [ 70.025525375010076, 30.197487232012879 ], [ 69.972349, 30.130125 ], [ 69.948423, 30.028374 ], [ 69.844892528295233, 29.824356850950817 ], [ 69.727041, 29.708575 ], [ 69.647563, 29.693795 ], [ 69.641790079700442, 29.688976147761146 ], [ 69.630045, 29.686276 ], [ 69.615779762948677, 29.667264454786288 ], [ 69.604723, 29.658035 ], [ 69.60364460523958, 29.651091705701777 ], [ 69.600227, 29.646537 ], [ 69.600114205425882, 29.628361064014257 ], [ 69.570307, 29.436446 ], [ 69.662446, 29.400816 ], [ 69.666012, 29.323043 ], [ 69.689783, 29.292476 ], [ 69.74332, 29.307488 ], [ 69.707456, 29.129824 ], [ 69.520336, 28.938053 ], [ 69.502352, 28.863613 ], [ 69.531033, 28.825398 ], [ 69.471295, 28.69321 ], [ 69.418156193545087, 28.627299691596026 ], [ 69.346858, 28.595257 ], [ 69.345305461649204, 28.592713342303664 ], [ 69.341277, 28.590942 ], [ 69.339071993187019, 28.582500512443115 ], [ 69.330993, 28.569264 ], [ 69.33429660598577, 28.564218767733248 ], [ 69.332854, 28.558696 ], [ 69.38515, 28.486556 ], [ 69.530413, 28.528207 ], [ 69.58922, 28.515417 ], [ 69.609684, 28.483869 ], [ 69.732416, 28.466196 ], [ 69.754482, 28.423175 ], [ 69.807143439102802, 28.380132638050554 ], [ 69.813444, 28.328349 ], [ 69.899434, 28.111385 ], [ 69.909199211177949, 28.097626683014795 ], [ 69.915092, 28.083428 ], [ 69.936790838857803, 28.058752525268496 ], [ 69.977155, 28.001883 ], [ 69.999211208697105, 27.987769360280044 ], [ 70.012089, 27.973125 ], [ 70.047623784739883, 27.956790434320201 ], [ 70.074307, 27.939716 ], [ 70.189028, 27.89179 ], [ 70.148628893180103, 27.851431974232391 ], [ 70.101953166000044, 27.811740214000011 ], [ 70.097277076722861, 27.800132376421132 ], [ 70.090688, 27.79355 ], [ 70.016900890384179, 27.600608017298587 ], [ 70.016893758000037, 27.600590312000051 ], [ 69.918628649958066, 27.507317780460703 ], [ 69.908063, 27.497289 ], [ 69.872881444330361, 27.44636339350512 ] ] ], [ [ [ 67.485361897160075, 24.048529053409514 ], [ 67.478976481837307, 24.041390953004086 ], [ 67.453949, 24.013414 ], [ 67.426931, 24.007514 ], [ 67.393403, 24.028062 ], [ 67.375629019861819, 24.062478239020916 ], [ 67.375499003028892, 24.062729998880531 ], [ 67.387208090818035, 24.058402349802527 ], [ 67.413259311000047, 24.048773505000042 ], [ 67.452837937752662, 24.061114839948974 ], [ 67.458018, 24.06273 ], [ 67.485361897160075, 24.048529053409514 ] ] ], [ [ [ 67.051441196054384, 24.800899090920382 ], [ 67.0825297133905, 24.774156246546127 ], [ 67.044343044253495, 24.796729516549494 ], [ 67.051441196054384, 24.800899090920382 ] ] ], [ [ [ 66.668325773739554, 24.866800014718773 ], [ 66.673313147258995, 24.87028521854236 ], [ 66.67648048998268, 24.853042874029484 ], [ 66.693512488418563, 24.841223765191682 ], [ 66.654146744237565, 24.839178882786953 ], [ 66.654145, 24.839179 ], [ 66.668325773739554, 24.866800014718773 ] ] ] ] } },
{ "type": "Feature", "properties": { "zone_id": "PAK_N", "zone_name": "PAK_N", "ISO_A3": "PAK" }, "geometry": { "type": "Polygon", "coordinates": [ [ [ 75.31657, 32.210748 ], [ 75.294659, 32.148892 ], [ 75.234628475464874, 32.13659675223407 ], [ 75.195750773000043, 32.128634339000044 ], [ 75.185593739303926, 32.1201469546479 ], [ 75.173116, 32.109721 ], [ 75.174149995004939, 32.086828110591675 ], [ 75.138389933000042, 32.093494364 ], [ 75.116059919591095, 32.084015241882824 ], [ 75.102113, 32.078095 ], [ 75.069062092250959, 32.088823818197156 ], [ 75.040824829000087, 32.097990215000024 ], [ 75.024433410953534, 32.095009956845708 ], [ 75.022635, 32.094683 ], [ 75.022635006872363, 32.094682974249544 ], [ 75.022634725000103, 32.094682923000036 ], [ 75.02558193457196, 32.08364097991177 ], [ 75.030179, 32.066416 ], [ 74.986151, 32.063212 ], [ 74.961542740826928, 32.038186460168582 ], [ 74.955662069000141, 32.03220611600004 ], [ 74.928789895288261, 32.030870852983341 ], [ 74.889103, 32.028899 ], [ 74.889102838809791, 32.028898825735922 ], [ 74.889102824000133, 32.028898825000041 ], [ 74.888851002271608, 32.028626563177099 ], [ 74.873186, 32.011691 ], [ 74.828641, 32.025437 ], [ 74.783683, 31.942858 ], [ 74.731177382034531, 31.947408043524348 ], [ 74.698416789000134, 31.950247295000068 ], [ 74.669994751000104, 31.90415191600006 ], [ 74.669993752893006, 31.904151195366737 ], [ 74.550415, 31.826999 ], [ 74.547280714026684, 31.815552381077342 ], [ 74.540803671000106, 31.810875956000118 ], [ 74.53511961656379, 31.771139251731597 ], [ 74.535119, 31.771137 ], [ 74.489437, 31.711192 ], [ 74.549738023306688, 31.620976578562129 ], [ 74.555583054891116, 31.612231863370141 ], [ 74.617181, 31.458908 ], [ 74.532225, 31.303207 ], [ 74.506387, 31.175411 ], [ 74.532386537173352, 31.123854292556434 ], [ 74.536772908000103, 31.115156149000072 ], [ 74.536772924849785, 31.115156149021786 ], [ 74.536773, 31.115156 ], [ 74.555235654400377, 31.115179940999695 ], [ 74.616974732000074, 31.115259501000097 ], [ 74.658832436035837, 31.083788708102801 ], [ 74.579458, 31.042706 ], [ 74.579457987979993, 31.042705970071736 ], [ 74.579457642000079, 31.042705791000103 ], [ 74.568581944582888, 31.015626034486111 ], [ 74.564058, 31.004362 ], [ 74.526228721106236, 30.968935089952673 ], [ 74.519306275000076, 30.962452291000076 ], [ 74.441584920000139, 30.946174215000056 ], [ 74.430827547034127, 30.932010340519202 ], [ 74.401277, 30.893103 ], [ 74.319215, 30.893413 ], [ 74.300198153321944, 30.838170445389103 ], [ 74.256894841191354, 30.815387349372628 ], [ 74.256687, 30.815278 ], [ 74.256687000545028, 30.81527799853621 ], [ 74.256686646000105, 30.815277812000105 ], [ 74.266290855470785, 30.789485061875762 ], [ 74.266711859246996, 30.78835437801833 ], [ 74.193997164991245, 30.719718071567826 ], [ 74.191161, 30.717041 ], [ 74.191160979084742, 30.717040960331623 ], [ 74.19116093000008, 30.717040914 ], [ 74.163669068000047, 30.664899394000045 ], [ 74.0674475510001, 30.610535787000074 ], [ 74.057525676000068, 30.531367493000047 ], [ 74.017491892294188, 30.514466071351588 ], [ 74.004402, 30.50894 ], [ 73.929265, 30.419075 ], [ 73.899913, 30.422124 ], [ 73.899913123595951, 30.42212345614594 ], [ 73.89991255700005, 30.422123515000081 ], [ 73.90611372900014, 30.394838359000076 ], [ 73.851750122000055, 30.372669169000048 ], [ 73.851750051254584, 30.372669020901018 ], [ 73.85175, 30.372669 ], [ 73.850161024029333, 30.369342540894603 ], [ 73.842345011000134, 30.352980448 ], [ 73.842345176738547, 30.35298036999524 ], [ 73.842345, 30.35298 ], [ 73.881691644184144, 30.334461960316428 ], [ 73.891644101627804, 30.329777837542064 ], [ 73.934639, 30.261048 ], [ 73.944354, 30.188288 ], [ 73.837700738292099, 30.115407732613455 ], [ 73.739715617000059, 30.048451233000051 ], [ 73.557814575000123, 30.012536113000081 ], [ 73.490115022573832, 29.981765285447779 ], [ 73.370332, 29.927322 ], [ 73.232873, 29.536596 ], [ 72.930359250033717, 29.04768540409448 ], [ 72.354580526000063, 28.767185771000115 ], [ 72.256498657000122, 28.645591125000081 ], [ 72.222252086114381, 28.528501615230457 ], [ 72.197794, 28.44488 ], [ 72.174158311689524, 28.399879727927491 ], [ 72.149941854000076, 28.353774313000102 ], [ 71.988194621000048, 28.228097230000046 ], [ 71.930429246339841, 28.161196257458066 ], [ 71.908303, 28.135571 ], [ 71.908302943251798, 28.13557067805074 ], [ 71.908302856000034, 28.135570577000109 ], [ 71.876458638511167, 27.970354424712497 ], [ 71.866404840397095, 27.957365464408426 ], [ 71.560750598839817, 27.868539421772866 ], [ 71.560727, 27.868533 ], [ 71.397791, 27.868378 ], [ 71.226329, 27.845356 ], [ 71.090030417428352, 27.789736545711019 ], [ 70.913789917000031, 27.717818299 ], [ 70.86674692722174, 27.708459966317324 ], [ 70.831573, 27.701463 ], [ 70.761758, 27.709783 ], [ 70.736672756480559, 27.725101177691407 ], [ 70.710391479000066, 27.741150207000132 ], [ 70.640734106019906, 27.85478267384957 ], [ 70.640732, 27.854787 ], [ 70.633187, 27.93163 ], [ 70.633180657673904, 27.931634883753166 ], [ 70.534898316000067, 28.015965474000026 ], [ 70.516379723128949, 28.021574588036597 ], [ 70.506786, 28.028962 ], [ 70.456249764784374, 28.039787407753309 ], [ 70.456246786000122, 28.039788310000077 ], [ 70.456239451550445, 28.039786129990951 ], [ 70.341939, 28.01147 ], [ 70.330285355517844, 28.002348954610039 ], [ 70.323851766000132, 28.000436707000077 ], [ 70.277715817027683, 27.961203959374238 ], [ 70.189028, 27.89179 ], [ 70.012089, 27.973125 ], [ 69.915092, 28.083428 ], [ 69.813444, 28.328349 ], [ 69.810499, 28.37739 ], [ 69.754482, 28.423175 ], [ 69.732416, 28.466196 ], [ 69.609684, 28.483869 ], [ 69.58922, 28.515417 ], [ 69.530413, 28.528207 ], [ 69.38515, 28.486556 ], [ 69.332854, 28.558696 ], [ 69.341277, 28.590942 ], [ 69.414967, 28.623344 ], [ 69.471295, 28.69321 ], [ 69.531033, 28.825398 ], [ 69.502352, 28.863613 ], [ 69.520336, 28.938053 ], [ 69.707456, 29.129824 ], [ 69.74332, 29.307488 ], [ 69.689783, 29.292476 ], [ 69.666012, 29.323043 ], [ 69.662446, 29.400816 ], [ 69.570307, 29.436446 ], [ 69.599762, 29.571606 ], [ 69.600227, 29.646537 ], [ 69.630045, 29.686276 ], [ 69.727041, 29.708575 ], [ 69.838559, 29.811876 ], [ 69.948423, 30.028374 ], [ 69.972349, 30.130125 ], [ 70.036273, 30.211102 ], [ 70.042784, 30.24265 ], [ 70.028677, 30.252366 ], [ 69.998549, 30.252805 ], [ 69.961652, 30.222652 ], [ 69.955451, 30.264303 ], [ 69.92982, 30.289495 ], [ 69.978861, 30.45411 ], [ 70.070741, 30.593146 ], [ 70.056892, 30.642523 ], [ 70.072912, 30.697326 ], [ 70.119472, 30.71257 ], [ 70.201689, 30.809903 ], [ 70.237708, 30.822047 ], [ 70.225719, 30.874498 ], [ 70.239103, 31.072807 ], [ 70.22882, 31.129599 ], [ 70.258172, 31.385681 ], [ 70.219518, 31.485727 ], [ 70.147998, 31.416558 ], [ 70.075392, 31.416868 ], [ 70.04542, 31.362944 ], [ 70.042319, 31.322869 ], [ 70.024956, 31.330078 ], [ 70.004286, 31.45423 ], [ 69.989558, 31.478389 ], [ 69.929665, 31.496786 ], [ 69.914782, 31.515389 ], [ 69.943617, 31.894953 ], [ 69.927649, 31.89702 ], [ 69.881399, 31.849839 ], [ 69.84445, 31.871182 ], [ 69.840109, 31.892731 ], [ 69.868066, 31.944691 ], [ 69.807863, 31.992905 ], [ 69.821661, 32.057604 ], [ 69.662291, 32.031378 ], [ 69.587205, 31.959393 ], [ 69.535994, 31.940919 ], [ 69.348873, 31.92986 ], [ 69.301157, 31.941282 ], [ 69.251049042810394, 32.130649838211056 ], [ 69.268102254000098, 32.301336976000059 ], [ 69.228001343000074, 32.42130381300008 ], [ 69.232282283611184, 32.457760125801457 ], [ 69.232858986069147, 32.462670881375445 ], [ 69.243091589308918, 32.477287347041084 ], [ 69.281951921249913, 32.532795887512478 ], [ 69.303281669953961, 32.542397055660921 ], [ 69.361223, 32.568478 ], [ 69.36580196245805, 32.574597933620751 ], [ 69.426025431000085, 32.655087992000077 ], [ 69.420415325356117, 32.689870647486202 ], [ 69.414657, 32.725575 ], [ 69.399029254683455, 32.734969055563127 ], [ 69.383237346000044, 32.744462383000084 ], [ 69.379443917240721, 32.759480394547289 ], [ 69.376313004399037, 32.771876982582384 ], [ 69.477288452000096, 32.856832785 ], [ 69.487210327000128, 32.88587493900009 ], [ 69.468503459000033, 32.994292095000063 ], [ 69.4685047663462, 32.994294412727925 ], [ 69.501076777280915, 33.038785917266146 ], [ 69.547516724000104, 33.07501068200007 ], [ 69.617180373583338, 33.076163260272743 ], [ 69.667768, 33.077 ], [ 69.677147004061382, 33.08040425513493 ], [ 69.68601, 33.080773 ], [ 69.77183357177509, 33.1147718688756 ], [ 69.771844116000125, 33.114775696 ], [ 69.838713420000033, 33.086663717000064 ], [ 69.880933065000079, 33.089247539000056 ], [ 69.95581221600014, 33.127694805000104 ], [ 69.984922818178589, 33.127424187773222 ], [ 69.994725, 33.127333 ], [ 70.048003, 33.194073 ], [ 70.124794, 33.199034 ], [ 70.294448, 33.318949 ], [ 70.297169914712157, 33.331484465020608 ], [ 70.301579224000079, 33.351789653000097 ], [ 70.300009893712314, 33.35486441570476 ], [ 70.285715, 33.382873 ], [ 70.222662622905844, 33.442548070667826 ], [ 70.154973185000131, 33.506612244000067 ], [ 70.174093466000045, 33.632108459000065 ], [ 70.14739350456729, 33.650954513648529 ], [ 70.132546, 33.661435 ], [ 70.118128, 33.716522 ], [ 70.075318494964137, 33.726163667552846 ], [ 69.957517814016612, 33.752695352834138 ], [ 69.885429, 33.889457 ], [ 69.885428923475843, 33.88945707502333 ], [ 69.885428914000101, 33.889457093000075 ], [ 69.847188355000128, 33.926948344000053 ], [ 69.843539849184523, 33.935837712426697 ], [ 69.841091, 33.941805 ], [ 69.871993, 33.971519 ], [ 69.871993003114525, 33.971519229610138 ], [ 69.871993042000042, 33.971519267000062 ], [ 69.872613160000128, 34.017227071 ], [ 69.873790571384248, 34.017814375037126 ], [ 69.916021, 34.038879 ], [ 69.974661990681355, 34.042195484838743 ], [ 70.002837769000109, 34.043788758000105 ], [ 70.166385592066561, 34.000304155608788 ], [ 70.328193, 33.957282 ], [ 70.44423576285007, 33.946157737125148 ], [ 70.521979207000072, 33.938704732000062 ], [ 70.644488368599951, 33.948092015087674 ], [ 70.862217, 33.964775 ], [ 70.872926899150755, 33.985244722697509 ], [ 70.88433435100012, 34.007046815000123 ], [ 70.907025278657187, 34.004538535814277 ], [ 70.939731, 34.000923 ], [ 70.939731386990715, 34.000923167944663 ], [ 70.939731486000085, 34.000923157000059 ], [ 70.964206750283466, 34.011544886469821 ], [ 71.062618, 34.054253 ], [ 71.062618000658958, 34.054253217058914 ], [ 71.062618042000054, 34.054253235000047 ], [ 71.062773071000095, 34.10530955000003 ], [ 71.1080933020001, 34.165228373 ], [ 71.097086223000133, 34.262457581000021 ], [ 71.118700678080629, 34.313920570797556 ], [ 71.126387, 34.332221 ], [ 71.122046, 34.356819 ], [ 71.092116012301076, 34.370696139584652 ], [ 71.05093916900006, 34.3897883100001 ], [ 70.99680634238166, 34.43831956534374 ], [ 70.991511193415747, 34.443066826596933 ], [ 70.984625969905693, 34.453194919739474 ], [ 70.961229, 34.487612 ], [ 70.960146770711233, 34.498947572942079 ], [ 70.956991415000061, 34.53200185200005 ], [ 70.970850233194966, 34.543625376875674 ], [ 70.985827, 34.556186 ], [ 71.065822, 34.55846 ], [ 71.067325662681412, 34.570105831348734 ], [ 71.080601411257746, 34.672923252653163 ], [ 71.203075, 34.748164 ], [ 71.289478, 34.87503 ], [ 71.46957, 34.949702 ], [ 71.511325, 35.008717 ], [ 71.509963172073952, 35.044969798583161 ], [ 71.508947388000138, 35.072020569000088 ], [ 71.588214255539043, 35.127102865546391 ], [ 71.604135, 35.138166 ], [ 71.604135169631036, 35.138166258594858 ], [ 71.604135376000102, 35.138166402000067 ], [ 71.621228234851856, 35.164223864486118 ], [ 71.637932, 35.189688 ], [ 71.556784619047406, 35.273162305952397 ], [ 71.529825008862844, 35.300895136332443 ], [ 71.531582, 35.327922 ], [ 71.61106, 35.395463 ], [ 71.613764475056101, 35.403588557126078 ], [ 71.620879, 35.410139 ], [ 71.61798530384516, 35.416269977635963 ], [ 71.622429, 35.429621 ], [ 71.622428765848397, 35.42962127923979 ], [ 71.622428833000072, 35.429621481000041 ], [ 71.609922125240132, 35.444536196800819 ], [ 71.597848313441105, 35.458934940098111 ], [ 71.587412930602227, 35.481044759299728 ], [ 71.586126275972219, 35.514216123940066 ], [ 71.59349, 35.549356 ], [ 71.58455645028711, 35.554693221698791 ], [ 71.584188274000041, 35.564186911000021 ], [ 71.52156475007979, 35.59232671342324 ], [ 71.50974759264318, 35.599386705376681 ], [ 71.483316103321272, 35.626560131325981 ], [ 71.514012, 35.665576 ], [ 71.514374095828572, 35.675259299838615 ], [ 71.519799438000064, 35.683766175000088 ], [ 71.514927989978531, 35.690071740937761 ], [ 71.515355, 35.701491 ], [ 71.475564650048312, 35.741023354166536 ], [ 71.475564413000029, 35.741023661000057 ], [ 71.475563536927353, 35.741027875071602 ], [ 71.470914, 35.779936 ], [ 71.465763250333296, 35.788169065684812 ], [ 71.464402303000043, 35.794715474000057 ], [ 71.447186166105126, 35.817863064535459 ], [ 71.431019, 35.843705 ], [ 71.424705620828519, 35.848088803343892 ], [ 71.422924312964227, 35.850483822929974 ], [ 71.416705, 35.858846 ], [ 71.40421738756865, 35.866085303310008 ], [ 71.371333049000043, 35.885149231000113 ], [ 71.341567424000061, 35.947264303000097 ], [ 71.257438192000109, 35.971552226000099 ], [ 71.257428295509044, 35.971558569449748 ], [ 71.169913523722528, 36.030801645466326 ], [ 71.168844991066052, 36.034789086201343 ], [ 71.165919230000043, 36.045707906000032 ], [ 71.223073364000072, 36.125392965000103 ], [ 71.242459488031315, 36.134699319019767 ], [ 71.302087, 36.163323 ], [ 71.31914, 36.200582 ], [ 71.336680675827864, 36.2055652000709 ], [ 71.382443481000053, 36.218565573000021 ], [ 71.474004282444255, 36.29622088266742 ], [ 71.479078, 36.300524 ], [ 71.55835, 36.327861 ], [ 71.558349951398412, 36.32786119058337 ], [ 71.558350057000041, 36.327861227000099 ], [ 71.54807533267379, 36.368151466660841 ], [ 71.547188, 36.371631 ], [ 71.598035233134695, 36.441006137853726 ], [ 71.610439900000074, 36.45793080600005 ], [ 71.636080645943565, 36.454521132568992 ], [ 71.649300783450968, 36.452763028798159 ], [ 71.73632369000012, 36.395919088000099 ], [ 71.736323861758237, 36.395919090300431 ], [ 71.736324, 36.395919 ], [ 71.782626, 36.396539 ], [ 71.793426300786592, 36.406676542556347 ], [ 71.794408, 36.407597962000082 ], [ 71.794407991280721, 36.407597991815777 ], [ 71.794408, 36.407598 ], [ 71.773221, 36.480048 ], [ 71.874713, 36.499065 ], [ 71.961544213326476, 36.553356572554478 ], [ 71.977032511000118, 36.563040670000092 ], [ 72.038837525000076, 36.580455627000035 ], [ 72.038837643289654, 36.580455899488541 ], [ 72.038838, 36.580456 ], [ 72.059095, 36.627119 ], [ 72.171646, 36.653629 ], [ 72.17164574894845, 36.653629407231747 ], [ 72.171645956000077, 36.653629456000104 ], [ 72.161631895582374, 36.669872919989508 ], [ 72.149632, 36.689338 ], [ 72.155197559542898, 36.695448734552492 ], [ 72.16968225100004, 36.711352031 ], [ 72.192131030559111, 36.715030955276475 ], [ 72.454109, 36.757964 ], [ 72.454109295779304, 36.757964166736421 ], [ 72.454109334000123, 36.757964173000076 ], [ 72.462092304378302, 36.762464340397123 ], [ 72.565214, 36.820596 ], [ 72.695852, 36.836719 ], [ 72.710962370228998, 36.836164784588085 ], [ 72.867727498000136, 36.830414531000045 ], [ 72.945862171361952, 36.852221959144707 ], [ 72.950340444947102, 36.851154270678805 ], [ 72.990510702000051, 36.841576641000088 ], [ 73.042497192000098, 36.864262594000039 ], [ 73.191842082000051, 36.877026673000032 ], [ 73.224769786893958, 36.872460877755245 ], [ 73.267496, 36.866536 ], [ 73.330976273819772, 36.881896041988405 ], [ 73.331781861000081, 36.882090963000095 ], [ 73.35138918143717, 36.881714338049775 ], [ 73.509342, 36.87868 ], [ 73.590957002268581, 36.889890272299738 ], [ 73.64008345600007, 36.89663787800005 ], [ 73.734979908632269, 36.889901089447697 ], [ 73.834077, 36.882866 ], [ 73.837076111697755, 36.881484550068492 ], [ 73.946938110000133, 36.830879618000083 ], [ 73.991244846299779, 36.823210147817079 ], [ 74.035305, 36.815583 ], [ 74.094319, 36.831241 ], [ 74.094319168614902, 36.831241320467058 ], [ 74.094319295000105, 36.831241354000085 ], [ 74.12966597500008, 36.898420716000132 ], [ 74.185304297138032, 36.900386494729148 ], [ 74.235706, 36.902167 ], [ 74.394043, 36.994022 ], [ 74.404816953664309, 36.996407481497052 ], [ 74.435590454000135, 37.003220521000102 ], [ 74.476621541000043, 36.999318950000045 ], [ 74.52137333100012, 36.958494568000063 ], [ 74.5347003880985, 36.961611379264482 ], [ 74.537393, 36.962241 ], [ 74.537393008762692, 36.96224110496874 ], [ 74.537393026000075, 36.962241109000061 ], [ 74.538934228555547, 36.980703433098064 ], [ 74.542354, 37.021669 ], [ 74.546444989627901, 37.022786820948575 ], [ 74.662449992000063, 37.054483541000039 ], [ 74.719190715000082, 37.016449687000019 ], [ 74.792571248000115, 37.015157776000038 ], [ 74.795278321660959, 37.013374962158849 ], [ 74.824507, 36.994125 ], [ 74.862292098394178, 36.925410967075081 ], [ 74.872359660000086, 36.907102356000095 ], [ 74.872359746548966, 36.907102460912988 ], [ 74.87236, 36.907102 ], [ 74.91201516265663, 36.955171993298315 ], [ 74.924966232402596, 36.970871030849402 ], [ 75.100149, 36.994125 ], [ 75.158139979666487, 36.966502630476612 ], [ 75.19513065600006, 36.948882752000046 ], [ 75.195138322229255, 36.948881448071504 ], [ 75.328828626722867, 36.920546116511282 ], [ 75.362307267567473, 36.902653285540993 ], [ 75.381063545025967, 36.880284771595967 ], [ 75.410518026000034, 36.747318827000086 ], [ 75.431912069000134, 36.722927551000041 ], [ 75.46139247543023, 36.721847774891522 ], [ 75.49258, 36.720705 ], [ 75.507979968936539, 36.747628945691375 ], [ 75.529368338326705, 36.754169190455578 ], [ 75.570508, 36.766749 ], [ 75.606423895798983, 36.760989553191585 ], [ 75.649779907000038, 36.75403676400002 ], [ 75.764052591901518, 36.700298397839205 ], [ 75.819374154056618, 36.664441110264889 ], [ 75.857726849120013, 36.633311898358627 ], [ 75.976580526517196, 36.462635115957262 ], [ 75.976581665000083, 36.462633362000119 ], [ 75.987433716000055, 36.421188863000069 ], [ 75.975531960950676, 36.344918451118978 ], [ 75.96883, 36.301971 ], [ 76.014408730970288, 36.230399422453196 ], [ 75.976650501526024, 36.206503479866939 ], [ 75.97007, 36.202339 ], [ 75.971517, 36.155004 ], [ 75.901444, 36.113611 ], [ 75.899997, 36.063485 ], [ 75.899997198499221, 36.063484789505459 ], [ 75.899997193000104, 36.063484599000063 ], [ 75.922321411000041, 36.031651917000019 ], [ 75.939334887630409, 36.021769922781367 ], [ 75.953017, 36.007261 ], [ 75.97084822689574, 36.003465925121375 ], [ 75.984333130000039, 35.995633444000035 ], [ 76.089958026933175, 35.978115419933886 ], [ 76.089959821618095, 35.978115037965573 ], [ 76.114661076726833, 35.94178662346259 ], [ 76.138122, 35.826652 ], [ 76.138122108295363, 35.82665192078003 ], [ 76.138122192000083, 35.826651510000019 ], [ 76.147785259933926, 35.819583154809841 ], [ 76.166027, 35.806239 ], [ 76.298925999594672, 35.809345304091664 ], [ 76.311961710000048, 35.809649963000098 ], [ 76.311961764447716, 35.809649994494336 ], [ 76.311962, 35.80965 ], [ 76.348859, 35.830992 ], [ 76.403119, 35.830992 ], [ 76.423671368456155, 35.85194847010623 ], [ 76.432057739000072, 35.860499573000126 ], [ 76.555461059000095, 35.89786163400008 ], [ 76.565279582000073, 35.86546051100008 ], [ 76.555739736603215, 35.810588989277925 ], [ 76.55112, 35.784018 ], [ 76.570757, 35.751256 ], [ 76.570757052353315, 35.751255981484562 ], [ 76.570757284000138, 35.751255595000131 ], [ 76.638546014192514, 35.727281532101749 ], [ 76.676694, 35.71379 ], [ 76.703631089489463, 35.690761982685252 ], [ 76.745423625000114, 35.655034078000099 ], [ 76.777350741000078, 35.646111714000099 ], [ 77.048970988000065, 35.110441997000024 ], [ 77.023132772000054, 35.086334941000061 ], [ 77.030254334809399, 35.055809609176222 ], [ 77.035224945059127, 35.034503235502427 ], [ 77.013107544000036, 34.986392721000115 ], [ 77.003022471590299, 34.979191525939257 ], [ 76.921123132624075, 34.920712094698942 ], [ 76.852600546000133, 34.94334625300003 ], [ 76.785127103443628, 34.923302454998442 ], [ 76.757619, 34.915131 ], [ 76.743873, 34.819271 ], [ 76.743870420174346, 34.819268956295254 ], [ 76.645756401374925, 34.74575637332422 ], [ 76.535824, 34.726202 ], [ 76.438156, 34.762892 ], [ 76.438155981653807, 34.76289199184977 ], [ 76.438155558000119, 34.762892151000088 ], [ 76.298620132924015, 34.700903701691573 ], [ 76.262042, 34.684654 ], [ 76.2355210159471, 34.678958105149945 ], [ 76.154968810191235, 34.661658042732753 ], [ 76.058334, 34.683414 ], [ 76.029894293342025, 34.678323298207069 ], [ 76.023400513000126, 34.677160950000101 ], [ 75.973377727000127, 34.622332256 ], [ 75.973373395385735, 34.622329640266017 ], [ 75.873952, 34.571379 ], [ 75.830327063322599, 34.535948185864356 ], [ 75.782145829874992, 34.506852962239648 ], [ 75.7185032234255, 34.501881351571122 ], [ 75.643149644270935, 34.499398589802276 ], [ 75.348093, 34.55722 ], [ 75.212907, 34.644967 ], [ 75.017777033788164, 34.629722002639781 ], [ 74.66493046100004, 34.68832306000003 ], [ 74.664924248091765, 34.688324733096792 ], [ 74.412129, 34.764494 ], [ 74.377618352333641, 34.765694386986219 ], [ 74.348877400000049, 34.773434143000046 ], [ 74.285835685533002, 34.768886871805769 ], [ 74.285832, 34.768887 ], [ 74.173445918796872, 34.715721449694499 ], [ 74.120880981000084, 34.690855204000016 ], [ 73.962234335000119, 34.668169251000066 ], [ 73.953413587223963, 34.662898057381213 ], [ 73.919343, 34.642538 ], [ 73.919343015922792, 34.642537813262336 ], [ 73.919342895000057, 34.642537741000083 ], [ 73.920653337381509, 34.627170757836119 ], [ 73.925956996009518, 34.564971046799187 ], [ 73.863118938000071, 34.517067363000095 ], [ 73.852855571322564, 34.484271242351284 ], [ 73.84038104563534, 34.444410145823184 ], [ 73.796249634000105, 34.418546244000126 ], [ 73.789686022500675, 34.403944586598477 ], [ 73.779817, 34.396067 ], [ 73.780548377862104, 34.383616638108251 ], [ 73.774855591000062, 34.370952250000087 ], [ 73.78270988433637, 34.346820968960259 ], [ 73.78271, 34.346819 ], [ 73.804208, 34.327492 ], [ 73.8218446062303, 34.320279572177149 ], [ 73.829115845000047, 34.315348409000094 ], [ 73.835504407874296, 34.314693444543224 ], [ 73.8533, 34.307416 ], [ 73.937739785011615, 34.304212008157542 ], [ 73.990553019000117, 34.21850677500008 ], [ 73.995410604000085, 34.176442159000047 ], [ 73.893297974000063, 34.114740499000092 ], [ 73.893297977932178, 34.114739924172902 ], [ 73.88441, 34.0842 ], [ 73.893618193934159, 34.067928295149649 ], [ 73.893711385000074, 34.054304911000074 ], [ 73.908461832610655, 34.041698253821643 ], [ 73.916242, 34.02795 ], [ 73.931399523607936, 34.022094265217255 ], [ 73.94580122900004, 34.009785665000081 ], [ 73.976703364844894, 34.004592245376486 ], [ 73.976704, 34.004592 ], [ 74.04502, 34.019423 ], [ 74.118401, 34.002525 ], [ 74.228368, 34.012886 ], [ 74.259683886607846, 33.994386066986678 ], [ 74.272292928000127, 33.962139995000129 ], [ 74.263536543385086, 33.945801189077919 ], [ 74.23953, 33.901007 ], [ 74.177518, 33.857547 ], [ 74.05191778226262, 33.832118001902224 ], [ 74.034581340000045, 33.828608093000057 ], [ 74.034581319392046, 33.82860806466406 ], [ 74.034581, 33.828608 ], [ 74.005326922389912, 33.788383269160263 ], [ 73.966161743000043, 33.734531148000073 ], [ 73.964083950496416, 33.718198497436475 ], [ 73.960787, 33.692286 ], [ 73.966956058668273, 33.6752717695245 ], [ 73.976703736000047, 33.648386536000075 ], [ 74.097973406681206, 33.575548701908879 ], [ 74.141551634972231, 33.54937421924739 ], [ 74.157777931198041, 33.494235815483208 ], [ 74.095973, 33.328484 ], [ 73.991793, 33.252571 ], [ 74.002335, 33.177692 ], [ 74.002335236304845, 33.177691820864808 ], [ 74.002335246000086, 33.177691752000086 ], [ 74.018975633765123, 33.165077264584554 ], [ 74.098453, 33.104828 ], [ 74.119317008239719, 33.080480631129774 ], [ 74.153850546000058, 33.040180766000034 ], [ 74.282252400335437, 33.002747789957226 ], [ 74.311256976023415, 32.994292006989959 ], [ 74.336681763000058, 32.870139466000026 ], [ 74.306502726000133, 32.809910584000065 ], [ 74.337530997553714, 32.776276422361029 ], [ 74.34619, 32.76689 ], [ 74.346190154200244, 32.766890031829917 ], [ 74.346190226000033, 32.766889954000064 ], [ 74.364067519243704, 32.770580266618083 ], [ 74.438691, 32.785984 ], [ 74.49725294574715, 32.748361775989906 ], [ 74.500909465000063, 32.746012675000102 ], [ 74.573773234000043, 32.752549744000063 ], [ 74.612261775106603, 32.769598193677517 ], [ 74.614081, 32.770404 ], [ 74.653562, 32.837428 ], [ 74.685290967783075, 32.831227006296359 ], [ 74.682293742000127, 32.787327983000026 ], [ 74.649737590000086, 32.723145854000066 ], [ 74.654516206822422, 32.660632138025626 ], [ 74.656041997249773, 32.640670035981572 ], [ 74.629583781000122, 32.588089498000087 ], [ 74.632168912690489, 32.581055346644909 ], [ 74.662553, 32.498379 ], [ 74.689322, 32.471352 ], [ 74.724978, 32.46081 ], [ 74.83815, 32.474866 ], [ 74.906983, 32.445178 ], [ 75.023668, 32.466262 ], [ 75.069601327386508, 32.441787868427895 ], [ 75.125987590000079, 32.411743673000061 ], [ 75.188988849633176, 32.392665166405159 ], [ 75.230167, 32.380195 ], [ 75.336609157625617, 32.297137815880092 ], [ 75.35904763316519, 32.261676366276198 ], [ 75.359048, 32.261675 ], [ 75.31657, 32.210748 ] ] ] } }
]
}
