{
"type": "FeatureCollection",
"name": "PAK_3z_inner",
"crs": { "type": "name", "properties": { "name": "urn:ogc:def:crs:OGC:1.3:CRS84" } },
"features": [
{ "type": "Feature", "properties": { }, "geometry": { "type": "LineString", "coordinates": [ [ 66.693511145972622, 24.841224696762612 ], [ 66.67648048998268, 24.853042874029484 ], [ 66.673313345863491, 24.870284137381482 ] ] } },
{ "type": "Feature", "properties": { }, "geometry": { "type": "LineString", "coordinates": [ [ 66.689928505729881, 24.914245955759785 ], [ 66.720326701616045, 24.910649912663416 ], [ 66.848841459665664, 24.955893727413638 ], [ 66.868496658294191, 24.987417467042519 ], [ 66.986427848266658, 25.00797207495134 ], [ 67.004571108469918, 25.028523242953327 ], [ 67.025738244624335, 25.124383162453057 ], [ 67.122502298442384, 25.199648958732496 ], [ 67.149717188297643, 25.24068343908948 ], [ 67.1860037078049, 25.384194943541843 ], [ 67.219266351361057, 25.448378272839079 ], [ 67.290327452849738, 25.522078603045145 ], [ 67.331149787632626, 25.535721850882737 ], [ 67.347781109410732, 25.590279317236764 ], [ 67.396300112060601, 25.641052104571031 ], [ 67.405683177836465, 25.448340566064303 ], [ 67.433851546911399, 25.407415992753897 ], [ 67.432626835759891, 25.374223709456658 ], [ 67.40323375373481, 25.337701662002132 ], [ 67.376290096710648, 25.242471209478765 ], [ 67.288110853333251, 25.119447111095326 ], [ 67.297908547041857, 25.089503567535644 ], [ 67.398334907330138, 25.060662117962409 ], [ 67.518356655035632, 24.965215132972048 ], [ 67.523255502339623, 24.828575048799507 ], [ 67.546524302787262, 24.806343556256824 ] ] } },
{ "type": "Feature", "properties": { }, "geometry": { "type": "LineString", "coordinates": [ [ 67.501210224978152, 24.716262656662316 ], [ 67.486514150707535, 24.744071548663101 ], [ 67.437525682164562, 24.772987115862747 ], [ 67.415480871545014, 24.762978643549616 ], [ 67.404458465785638, 24.725161577744643 ], [ 67.384863078368426, 24.739622402851637 ], [ 67.286427873808378, 24.741777456072519 ] ] } },
{ "type": "Feature", "properties": { }, "geometry": { "type": "LineString", "coordinates": [ [ 69.301157972324091, 31.941281767250278 ], [ 69.348873, 31.92986 ], [ 69.535994, 31.940919 ], [ 69.587205, 31.959393 ], [ 69.662291, 32.031378 ], [ 69.821661, 32.057604 ], [ 69.807863, 31.992905 ], [ 69.868066, 31.944691 ], [ 69.840109, 31.892731 ], [ 69.84445, 31.871182 ], [ 69.881399, 31.849839 ], [ 69.927649, 31.89702 ], [ 69.943617, 31.894953 ], [ 69.914782, 31.515389 ], [ 69.929665, 31.496786 ], [ 69.989558, 31.478389 ], [ 70.004286, 31.45423 ], [ 70.024956, 31.330078 ], [ 70.042319, 31.322869 ], [ 70.04542, 31.362944 ], [ 70.075392, 31.416868 ], [ 70.147998, 31.416558 ], [ 70.219518, 31.485727 ], [ 70.258172, 31.385681 ], [ 70.22882, 31.129599 ], [ 70.239103, 31.072807 ], [ 70.225719, 30.874498 ], [ 70.237708, 30.822047 ], [ 70.201689, 30.809903 ], [ 70.119472645100913, 30.712570763705891 ] ] } },
{ "type": "Feature", "properties": { }, "geometry": { "type": "LineString", "coordinates": [ [ 69.334296353532523, 28.564217801259637 ], [ 69.332854, 28.558696 ], [ 69.38515, 28.486556 ], [ 69.530413, 28.528207 ], [ 69.58922, 28.515417 ], [ 69.609684, 28.483869 ], [ 69.732416, 28.466196 ], [ 69.754482, 28.423175 ], [ 69.807142665314998, 28.380133270499176 ] ] } },
{ "type": "Feature", "properties": { }, "geometry": { "type": "LineString", "coordinates": [ [ 69.339072245910643, 28.582501479951883 ], [ 69.341277, 28.590942 ] ] } },
{ "type": "Feature", "properties": { }, "geometry": { "type": "LineString", "coordinates": [ [ 69.341277, 28.590942 ], [ 69.339072245910657, 28.582501479951883 ] ] } },
{ "type": "Feature", "properties": { }, "geometry": { "type": "LineString", "coordinates": [ [ 69.345304546669624, 28.592712939980846 ], [ 69.341277, 28.590942 ] ] } },
{ "type": "Feature", "properties": { }, "geometry": { "type": "LineString", "coordinates": [ [ 69.341277, 28.590942 ], [ 69.345304546669624, 28.592712939980849 ] ] } },
{ "type": "Feature", "properties": { }, "geometry": { "type": "LineString", "coordinates": [ [ 69.570307931557096, 29.436445639768397 ], [ 69.662446, 29.400816 ], [ 69.666012, 29.323043 ], [ 69.689783, 29.292476 ], [ 69.74332, 29.307488 ], [ 69.707456, 29.129824 ], [ 69.520336, 28.938053 ], [ 69.502352, 28.863613 ], [ 69.531033, 28.825398 ], [ 69.471295411339966, 28.693210910211377 ] ] } },
{ "type": "Feature", "properties": { }, "geometry": { "type": "LineString", "coordinates": [ [ 69.641789105673411, 29.68897592383615 ], [ 69.63004597403804, 29.686276223927528 ] ] } },
{ "type": "Feature", "properties": { }, "geometry": { "type": "LineString", "coordinates": [ [ 69.972349, 30.130125 ], [ 69.948423, 30.028374 ], [ 69.844892980535633, 29.824357742135749 ] ] } },
{ "type": "Feature", "properties": { }, "geometry": { "type": "LineString", "coordinates": [ [ 69.909199594275037, 28.097625759941828 ], [ 69.915091617097602, 28.083428922603872 ], [ 69.909199594275037, 28.097625759941824 ] ] } },
{ "type": "Feature", "properties": { }, "geometry": { "type": "LineString", "coordinates": [ [ 70.070740448894824, 30.593145166048558 ], [ 69.978861, 30.45411 ], [ 69.92982, 30.289495 ], [ 69.955451, 30.264303 ], [ 69.961651828586355, 30.222653151354574 ] ] } },
{ "type": "Feature", "properties": { }, "geometry": { "type": "LineString", "coordinates": [ [ 70.025524755547139, 30.197486447295862 ], [ 69.972349, 30.130125 ] ] } },
{ "type": "Feature", "properties": { }, "geometry": { "type": "LineString", "coordinates": [ [ 69.972349, 30.130125 ], [ 70.025524755547139, 30.197486447295866 ] ] } },
{ "type": "Feature", "properties": { }, "geometry": { "type": "LineString", "coordinates": [ [ 70.012089907781032, 27.973124582712856 ], [ 70.047622876866257, 27.956790851649913 ] ] } },
{ "type": "Feature", "properties": { }, "geometry": { "type": "LineString", "coordinates": [ [ 70.039551204127292, 30.244876543184173 ], [ 70.037228032807363, 30.246476595111908 ], [ 70.039551204127307, 30.244876543184176 ] ] } },
{ "type": "Feature", "properties": { }, "geometry": { "type": "LineString", "coordinates": [ [ 70.056892269785166, 30.64252203811234 ], [ 70.058109379221733, 30.63818257586605 ] ] } },
{ "type": "Feature", "properties": { }, "geometry": { "type": "LineString", "coordinates": [ [ 70.075297108373604, 30.698106897595515 ], [ 70.072912949930213, 30.697326311012375 ] ] } }
]
}
