{
"type": "FeatureCollection",
"name": "TJK_2z_zones",
"crs": { "type": "name", "properties": { "name": "urn:ogc:def:crs:OGC:1.3:CRS84" } },
"features": [
{ "type": "Feature", "properties": { "zone_id": "TAJ_S", "zone_name": "TAJ_S", "ISO_A3": "TJK" }, "geometry": { "type": "Polygon", "coordinates": [ [ [ 67.829224, 37.527943 ], [ 68.050192, 37.760409 ], [ 68.122229, 37.908333 ], [ 68.21557837475207, 37.938305687849237 ], [ 68.248732951000079, 37.948950907000054 ], [ 68.248733045035934, 37.948951070774925 ], [ 68.31953, 38.06021 ], [ 68.331267503676045, 38.092694869718301 ], [ 68.344334350000054, 38.115452372 ], [ 68.346814137446941, 38.135721938040838 ], [ 68.360664, 38.174053 ], [ 68.35622, 38.212604 ], [ 68.354253664964276, 38.215074500574538 ], [ 68.332035360000134, 38.242989807000058 ], [ 68.193229085008483, 38.329562361782507 ], [ 68.142967694644568, 38.381605715544659 ], [ 68.106210618810834, 38.423195748155813 ], [ 68.086883040830543, 38.49403018541723 ], [ 68.086882365000122, 38.49403391500006 ], [ 68.055153035000103, 38.536305237000064 ], [ 68.052327723928201, 38.56135799606087 ], [ 68.037635015845424, 38.691644859491468 ], [ 68.059545410148189, 38.711795917011095 ], [ 68.075927, 38.726862 ], [ 68.066729, 38.787969 ], [ 68.119025, 38.796703 ], [ 68.126906353396649, 38.802340279716802 ], [ 68.135974976000057, 38.804505921000029 ], [ 68.146800418368741, 38.816569867365999 ], [ 68.163674, 38.828639 ], [ 68.166128457140076, 38.838109164805815 ], [ 68.172561890000111, 38.845278626000024 ], [ 68.170517111141137, 38.855042146028865 ], [ 68.173699, 38.867319 ], [ 68.165102222397991, 38.880897447919203 ], [ 68.163725220000117, 38.88747243300007 ], [ 68.155318016156201, 38.899764941191073 ], [ 68.319892, 38.930596 ], [ 68.367848, 38.919563 ], [ 68.474766, 38.940052 ], [ 68.566802, 39.000023 ], [ 68.590057, 39.048056 ], [ 68.665814, 39.046919 ], [ 68.760744, 39.075548 ], [ 69.065531, 39.030383 ], [ 69.216633, 39.096839 ], [ 69.346858, 39.099112 ], [ 69.365151, 39.158721 ], [ 69.402875, 39.180296 ], [ 69.50044, 39.1858 ], [ 69.542815, 39.152391 ], [ 69.542815, 39.085754 ], [ 69.55899, 39.072086 ], [ 69.651594, 39.115003 ], [ 69.648338, 39.136268 ], [ 69.681256, 39.163191 ], [ 69.693814, 39.222516 ], [ 69.666477, 39.261635 ], [ 69.736343, 39.293364 ], [ 69.808173, 39.263573 ], [ 69.880934, 39.319306 ], [ 69.990023, 39.331889 ], [ 70.022011, 39.313156 ], [ 70.094461, 39.341785 ], [ 70.111049, 39.338142 ], [ 70.124537, 39.306697 ], [ 70.255226, 39.360233 ], [ 70.285767, 39.390413 ], [ 70.368656, 39.377597 ], [ 70.485031, 39.401988 ], [ 70.50472, 39.426224 ], [ 70.586989, 39.441624 ], [ 70.655536033500312, 39.494622377195576 ], [ 70.655535715845687, 39.494622131595165 ], [ 70.655976, 39.493714 ], [ 70.699746, 39.472165 ], [ 70.698092, 39.41899 ], [ 70.713285, 39.398423 ], [ 70.730543035651991, 39.393465155333949 ], [ 70.739744, 39.386228 ], [ 70.756627840967298, 39.385971578689116 ], [ 70.770129, 39.382093 ], [ 70.782129482809012, 39.385584275560426 ], [ 70.797621, 39.385349 ], [ 70.903343155525619, 39.420848365983829 ], [ 70.903351278000059, 39.420850729000094 ], [ 70.93441120060433, 39.409931904625338 ], [ 70.977145, 39.394909 ], [ 70.98180228660695, 39.396751021112976 ], [ 71.009287964000066, 39.407621562000102 ], [ 71.062928101000125, 39.495626526000095 ], [ 71.09589766400012, 39.512369690000057 ], [ 71.221739367776337, 39.514023270455219 ], [ 71.249273, 39.514385 ], [ 71.249273105575213, 39.514385068248124 ], [ 71.249273315000096, 39.514385071 ], [ 71.270357004727543, 39.528014561905742 ], [ 71.368543, 39.591486 ], [ 71.459545, 39.612105 ], [ 71.510911, 39.584148 ], [ 71.52187836407235, 39.567503481528767 ], [ 71.531374887256732, 39.553090829400958 ], [ 71.494788848565662, 39.497730155486074 ], [ 71.492100871000048, 39.493662821000086 ], [ 71.512874797000109, 39.45883290700003 ], [ 71.554319295000141, 39.444156799000027 ], [ 71.704594250806082, 39.458987925124639 ], [ 71.708273580452769, 39.457889502259874 ], [ 71.740251044980781, 39.448342606127561 ], [ 71.744132231238154, 39.41435715060183 ], [ 71.748105917000032, 39.379561259000084 ], [ 71.71089888500012, 39.320960185000061 ], [ 71.710899018916834, 39.320960029794016 ], [ 71.710899, 39.32096 ], [ 71.713119346693162, 39.318386726809294 ], [ 71.751206502000059, 39.27424469000006 ], [ 71.775179998129829, 39.273645352886774 ], [ 71.807017, 39.272849 ], [ 71.959152, 39.345868 ], [ 72.049793, 39.368864 ], [ 72.059511835341212, 39.357797452296602 ], [ 72.07811161300009, 39.336618144000013 ], [ 72.087155538711315, 39.303166853084548 ], [ 72.094751, 39.275072 ], [ 72.094751319615995, 39.275071899091579 ], [ 72.094751424000094, 39.275071513000071 ], [ 72.198418957040403, 39.242342191537873 ], [ 72.203271941745115, 39.240810018392104 ], [ 72.205946195915061, 39.23542916016045 ], [ 72.228903, 39.189237 ], [ 72.228903235101839, 39.189237375299292 ], [ 72.228903442000046, 39.18923695900007 ], [ 72.310110046581784, 39.31886996027761 ], [ 72.31634, 39.328815 ], [ 72.393234, 39.350829 ], [ 72.419608997174834, 39.349343965432688 ], [ 72.476743612000064, 39.346126608000091 ], [ 72.519014933000051, 39.375685527000101 ], [ 72.575755656000069, 39.359304098000067 ], [ 72.575755657471603, 39.359304098893219 ], [ 72.575756, 39.359304 ], [ 72.630674235157144, 39.3926370320562 ], [ 72.633736613000053, 39.39449574800004 ], [ 72.835274699000081, 39.356203511000032 ], [ 72.870713977866984, 39.360876478175804 ], [ 72.893669, 39.363903 ], [ 73.009321, 39.348607 ], [ 73.022437831141488, 39.35330108739079 ], [ 73.071125936000101, 39.370724589000062 ], [ 73.167864217000044, 39.355376689000096 ], [ 73.233613851836722, 39.370099635294025 ], [ 73.326408, 39.390878 ], [ 73.343151, 39.430669 ], [ 73.36303998936863, 39.441327237709345 ], [ 73.367645264240238, 39.443795043158275 ], [ 73.48856231887828, 39.463544385526269 ], [ 73.632640664034952, 39.448343140953391 ], [ 73.632642047067336, 39.448342590768945 ], [ 73.643804, 39.351294 ], [ 73.602256, 39.235772 ], [ 73.607837, 39.207324 ], [ 73.673776, 39.142625 ], [ 73.698863821919019, 39.088183847822506 ], [ 73.709329875000094, 39.065471904000034 ], [ 73.765666878906615, 39.0227455213738 ], [ 73.826118552369365, 38.976898339487761 ], [ 73.809582153000122, 38.932663473000062 ], [ 73.754759960990214, 38.924308300915648 ], [ 73.717185, 38.918582 ], [ 73.717184720096213, 38.918581649129706 ], [ 73.717184693000036, 38.918581645000117 ], [ 73.714737482432113, 38.915513941434163 ], [ 73.680804, 38.872977 ], [ 73.730226738250238, 38.807884468940472 ], [ 73.735891561000074, 38.800423483000102 ], [ 73.736188215521892, 38.755213393002215 ], [ 73.736408, 38.721669 ], [ 73.736408399532721, 38.721668475830526 ], [ 73.783824551782558, 38.641600115196141 ], [ 73.797387, 38.602839 ], [ 73.811194603391215, 38.595382211405969 ], [ 73.81640344300007, 38.586586406000023 ], [ 73.932882121000034, 38.529664815000061 ], [ 74.018421923421116, 38.527500999854297 ], [ 74.028897, 38.527236 ], [ 74.058766, 38.547028 ], [ 74.037269, 38.598472 ], [ 74.047210506611137, 38.60175327939519 ], [ 74.084397420000073, 38.614026591000069 ], [ 74.12336114611864, 38.669474970553402 ], [ 74.221443, 38.649709 ], [ 74.279788285598343, 38.658653435045437 ], [ 74.334201225402651, 38.666994923484104 ], [ 74.64612, 38.56111 ], [ 74.696453, 38.52398 ], [ 74.760325, 38.519975 ], [ 74.760376093697388, 38.519935938574996 ], [ 74.826402981372709, 38.468675747315075 ], [ 74.834665283298889, 38.435649512145339 ], [ 74.837682058623585, 38.388367351786719 ], [ 74.816872611706287, 38.358116903435793 ], [ 74.784303020000038, 38.32567209900013 ], [ 74.771073853000075, 38.291539816000054 ], [ 74.79071089700011, 38.081449280000058 ], [ 74.790710986057505, 38.081449149167092 ], [ 74.790711, 38.081449 ], [ 74.794199419237771, 38.076324340839889 ], [ 74.809934530000135, 38.053208110000085 ], [ 74.880421151611614, 38.02165966204899 ], [ 74.880934502808202, 38.020515372721228 ], [ 74.892823528000065, 37.994012757000107 ], [ 74.89180000233749, 37.946329271323961 ], [ 74.890756, 37.897714 ], [ 74.913700717107815, 37.880841208029622 ], [ 74.886105591000046, 37.830560202000086 ], [ 74.949254016279326, 37.795316971511937 ], [ 74.953688405687672, 37.787556998993239 ], [ 74.965170533000105, 37.767463278000051 ], [ 74.886105591000046, 37.653465068000074 ], [ 74.889273851832129, 37.623762625641668 ], [ 74.891893, 37.599205 ], [ 74.945223, 37.548562 ], [ 74.967446268606139, 37.53732313912198 ], [ 75.053433879000067, 37.493836568000106 ], [ 75.164124797000056, 37.400638123000093 ], [ 75.091777792000073, 37.378443095000065 ], [ 75.06842004400005, 37.312142233000046 ], [ 74.951527954000085, 37.281291403000054 ], [ 74.911516433370593, 37.247389843674306 ], [ 74.892307, 37.231114 ], [ 74.87473360272665, 37.239104169875795 ], [ 74.86264449100014, 37.244601135 ], [ 74.788540487000034, 37.331159160000098 ], [ 74.698512549892229, 37.37528373937139 ], [ 74.660383, 37.393972 ], [ 74.521167, 37.375601 ], [ 74.456798779295653, 37.383774770882994 ], [ 74.37812626200008, 37.393765158000022 ], [ 74.355652387327183, 37.405680025807904 ], [ 74.315598, 37.426916 ], [ 74.315597811010861, 37.426915571028999 ], [ 74.315597779000029, 37.426915588000028 ], [ 74.303815552000117, 37.400173035000066 ], [ 74.223923788000093, 37.403351136000126 ], [ 74.188820682070613, 37.34049557582658 ], [ 74.187647, 37.338394 ], [ 73.941090300877804, 37.281105701973175 ], [ 73.836247192000087, 37.256745097000092 ], [ 73.836247089176169, 37.256745020720395 ], [ 73.836247, 37.256745 ], [ 73.798213, 37.22853 ], [ 73.709227, 37.217006 ], [ 73.680494, 37.242457 ], [ 73.617656, 37.233181 ], [ 73.610238551296902, 37.243610090981392 ], [ 73.597295374214596, 37.261809379667937 ], [ 73.603082061981937, 37.267680395446838 ], [ 73.630988070835699, 37.295993010995815 ], [ 73.65388041851763, 37.299546586875302 ], [ 73.690416300000038, 37.305217591000073 ], [ 73.7166586154529, 37.323074622725187 ], [ 73.739096, 37.338342 ], [ 73.753462, 37.428388 ], [ 73.753461492179866, 37.428388017119843 ], [ 73.753461548000075, 37.428388367000125 ], [ 73.710739190584178, 37.429828289236148 ], [ 73.6745, 37.43105 ], [ 73.532056910566155, 37.468624794738126 ], [ 73.485260864000111, 37.480969137000031 ], [ 73.473716531515151, 37.480701906986837 ], [ 73.440612, 37.479936 ], [ 73.387362449484357, 37.456495003197261 ], [ 73.378394003000039, 37.452547099000085 ], [ 73.296331828000064, 37.464949443000066 ], [ 73.211479126000086, 37.408260396000045 ], [ 73.170241333000035, 37.408260396000045 ], [ 73.151489532546449, 37.396521464352567 ], [ 73.132104, 37.384386 ], [ 73.107065320482988, 37.357514238736165 ], [ 73.067508601948219, 37.315061968115572 ], [ 73.042457657127855, 37.313055357277094 ], [ 72.995574992000059, 37.309300029000056 ], [ 72.991102785101802, 37.306640477382459 ], [ 72.902247, 37.2538 ], [ 72.79073, 37.220262 ], [ 72.79072969439801, 37.220261560179061 ], [ 72.790729614000099, 37.220261536000081 ], [ 72.770005331298492, 37.19043515452622 ], [ 72.657714086783187, 37.028826124897968 ], [ 72.474986613000112, 36.99748443600005 ], [ 72.437657336209114, 37.002988827738342 ], [ 72.405947, 37.007665 ], [ 72.347104693184377, 36.991414423480897 ], [ 72.259805949000054, 36.967305400000058 ], [ 71.836575969000137, 36.699156392000091 ], [ 71.780476291674375, 36.686086221148798 ], [ 71.748519, 36.678641 ], [ 71.728317032714003, 36.680411829422091 ], [ 71.653021281000065, 36.687012431000099 ], [ 71.621926870927325, 36.700223725822475 ], [ 71.61106, 36.704841 ], [ 71.599991585380479, 36.717157626222139 ], [ 71.55287235600008, 36.769591370000043 ], [ 71.52848107900013, 36.856149394000042 ], [ 71.499425403834508, 36.896978814470401 ], [ 71.463059, 36.948082 ], [ 71.461010419213423, 36.989474430294898 ], [ 71.459958130000132, 37.010739441000041 ], [ 71.441410796328285, 37.046920037160874 ], [ 71.431123, 37.066989 ], [ 71.45014, 37.21667 ], [ 71.487037, 37.267055 ], [ 71.493858, 37.307543 ], [ 71.48714, 37.409087 ], [ 71.507324732156974, 37.473453337239562 ], [ 71.511221151000029, 37.485878398000054 ], [ 71.497165161000112, 37.566545309000063 ], [ 71.542537069000048, 37.719559225000054 ], [ 71.539282603801439, 37.729948976006675 ], [ 71.529515, 37.761133 ], [ 71.586340535744043, 37.812184438177439 ], [ 71.590286093000032, 37.81572906500007 ], [ 71.59772749900003, 37.898359681000031 ], [ 71.53705936700004, 37.944455058000059 ], [ 71.501195923000125, 37.946212057000125 ], [ 71.34115401300005, 37.893295390000034 ], [ 71.296292276086419, 37.911251271812674 ], [ 71.258265077282374, 37.926471969067094 ], [ 71.272631063000119, 37.997991842 ], [ 71.339566777795767, 38.142085672001663 ], [ 71.359086, 38.184105 ], [ 71.358156, 38.251258 ], [ 71.345130454021273, 38.267369524228442 ], [ 71.334384399000101, 38.280661927 ], [ 71.217699016000097, 38.325827128000057 ], [ 71.117395060000035, 38.398639221000039 ], [ 71.049802287000091, 38.408664450000074 ], [ 71.008564494000041, 38.458583883000031 ], [ 70.974044637000077, 38.473673402000131 ], [ 70.954338753671138, 38.46869700049389 ], [ 70.943452, 38.465948 ], [ 70.936217041228602, 38.433004187731186 ], [ 70.918027326824884, 38.438639828201737 ], [ 70.871002, 38.45321 ], [ 70.855031250757506, 38.445755612659966 ], [ 70.843044881000083, 38.440161235000048 ], [ 70.812741644033594, 38.443065394067986 ], [ 70.777261, 38.446466 ], [ 70.766563389544842, 38.438310165930282 ], [ 70.74181075100006, 38.419438985000099 ], [ 70.721122624985114, 38.415666771405157 ], [ 70.664865, 38.405409 ], [ 70.664865073470594, 38.405408930724562 ], [ 70.664864543000078, 38.405408834000085 ], [ 70.678727067712657, 38.392338453218308 ], [ 70.684759815337131, 38.386650174118657 ], [ 70.641351766000071, 38.354197489000072 ], [ 70.600010620000035, 38.347066142000031 ], [ 70.583060761694711, 38.27508091741975 ], [ 70.547197, 38.262653 ], [ 70.476659115994636, 38.132266068887219 ], [ 70.470302932475207, 38.120516954085609 ], [ 70.355879688291978, 38.042713336404852 ], [ 70.253933553000138, 37.97339386 ], [ 70.260424671159441, 37.944250066188062 ], [ 70.261529911281272, 37.939287398358253 ], [ 70.214711141000066, 37.92926218700002 ], [ 70.192774805644788, 37.937927572091986 ], [ 70.17213, 37.946083 ], [ 70.172129973148685, 37.946082782196164 ], [ 70.172129761000122, 37.946082866 ], [ 70.168207332069187, 37.914264356966157 ], [ 70.165205, 37.889911 ], [ 70.165205141888364, 37.889910769668084 ], [ 70.16520511900012, 37.88991058400002 ], [ 70.187930038971871, 37.853020718709168 ], [ 70.196004, 37.839914 ], [ 70.196004065009873, 37.83991397363517 ], [ 70.196004273000085, 37.839913636000048 ], [ 70.247163940000064, 37.8191655480001 ], [ 70.273399047864118, 37.776951755690249 ], [ 70.275120895067033, 37.774181168845345 ], [ 70.278572283137933, 37.744104789191333 ], [ 70.283078972954499, 37.704831235688047 ], [ 70.248300941773394, 37.623337988657582 ], [ 70.216468, 37.617137 ], [ 70.157867, 37.541431 ], [ 70.129135, 37.532284 ], [ 70.06048115376592, 37.54163908421981 ], [ 70.007592001000091, 37.548846131000047 ], [ 70.004191801146376, 37.550581579471284 ], [ 70.004187, 37.551371 ], [ 69.955413314253576, 37.57547792502438 ], [ 69.955398804000083, 37.575485331 ], [ 69.949737447622041, 37.581930321552647 ], [ 69.918812, 37.617137 ], [ 69.80223, 37.581506 ], [ 69.754274, 37.596673 ], [ 69.678856968606524, 37.579345925002315 ], [ 69.66497725500011, 37.57615712500008 ], [ 69.508656046000056, 37.578973490000052 ], [ 69.491447795000056, 37.536986390000024 ], [ 69.445168024149382, 37.507038525658253 ], [ 69.425405, 37.49425 ], [ 69.39374442384235, 37.455978574351818 ], [ 69.378379761000133, 37.437405905000062 ], [ 69.377597124629787, 37.404354562960371 ], [ 69.377036, 37.380665 ], [ 69.417912, 37.267675 ], [ 69.411758827082366, 37.250871135887763 ], [ 69.409850708000079, 37.245660503000082 ], [ 69.428344426617684, 37.240820772261635 ], [ 69.445197, 37.23641 ], [ 69.442148, 37.223621 ], [ 69.418012789937819, 37.19125838743755 ], [ 69.407731974000114, 37.177473450000051 ], [ 69.323912802000052, 37.12099111000002 ], [ 69.245674683000061, 37.103886210000056 ], [ 69.123614950000103, 37.169205221000098 ], [ 69.123614679983106, 37.169205515921568 ], [ 69.096433, 37.213027 ], [ 69.065494893861171, 37.232685864502727 ], [ 69.016065111821547, 37.286674703821284 ], [ 69.005483, 37.305528 ], [ 68.990967284381611, 37.314087379277005 ], [ 68.985225464000109, 37.320358785000067 ], [ 68.985225143219054, 37.320358843571555 ], [ 68.985225, 37.320359 ], [ 68.978136429611723, 37.321653258584014 ], [ 68.965433, 37.329144 ], [ 68.887874349731703, 37.338134148061812 ], [ 68.887867066000069, 37.338135478000098 ], [ 68.887867514125162, 37.338134940405602 ], [ 68.887867, 37.338135 ], [ 68.907065423668357, 37.315104115354778 ], [ 68.917632691000051, 37.302427064000099 ], [ 68.917632628784318, 37.302426260528257 ], [ 68.906441354605761, 37.28013293743939 ], [ 68.899102446007788, 37.280964878420534 ], [ 68.879298701204974, 37.29604430097114 ], [ 68.856757853000033, 37.324906311000106 ], [ 68.845522770240862, 37.327181068265048 ], [ 68.835829, 37.329144 ], [ 68.810197, 37.312091 ], [ 68.814603952549035, 37.28560643151831 ], [ 68.820377559045426, 37.250906176600964 ], [ 68.7840516871332, 37.265454577122114 ], [ 68.759606161000079, 37.275245260000119 ], [ 68.668862345000036, 37.278294169000034 ], [ 68.668862159197388, 37.278293994650966 ], [ 68.668862, 37.278294 ], [ 68.657545, 37.267675 ], [ 68.657545218611986, 37.267674672896185 ], [ 68.657545207000055, 37.267674662000061 ], [ 68.658118712350671, 37.266816568127261 ], [ 68.671239, 37.247185 ], [ 68.648605, 37.244369 ], [ 68.628948449294796, 37.209852299830594 ], [ 68.626901083000064, 37.206257222000076 ], [ 68.60290328600675, 37.201917894731523 ], [ 68.551453, 37.192615 ], [ 68.523858, 37.164658 ], [ 68.458383788420846, 37.157561104884891 ], [ 68.403710571000033, 37.151635234000125 ], [ 68.411476534762087, 37.138962975340732 ], [ 68.418024786141174, 37.128277348981022 ], [ 68.399185849492369, 37.111821202325444 ], [ 68.391877, 37.105437 ], [ 68.349653772406143, 37.109821287856072 ], [ 68.307282349000104, 37.114221497000059 ], [ 68.28831709800005, 37.103214417000075 ], [ 68.288317054377416, 37.103214031559823 ], [ 68.288317, 37.103214 ], [ 68.277775, 37.010068 ], [ 68.198777718887783, 37.017194391039432 ], [ 68.186411173000067, 37.018310038000024 ], [ 68.186411090220389, 37.018309991861166 ], [ 68.186411, 37.01831 ], [ 68.142621284092769, 36.99390289381202 ], [ 68.023007728005396, 36.927233957600613 ], [ 67.87811, 37.064431 ], [ 67.878109778158532, 37.064431059549023 ], [ 67.878109579000125, 37.064431254000041 ], [ 67.80803633700009, 37.083241476000055 ], [ 67.77305139200007, 37.109984029000103 ], [ 67.780544475000113, 37.188868103000047 ], [ 67.803953899000135, 37.233439026000056 ], [ 67.820645386000081, 37.303305563000052 ], [ 67.797339315000045, 37.424435120000041 ], [ 67.811911518362137, 37.471741640446254 ], [ 67.829224, 37.527943 ] ] ] } },
{ "type": "Feature", "properties": { "zone_id": "TAJ_N", "zone_name": "TAJ_N", "ISO_A3": "TJK" }, "geometry": { "type": "MultiPolygon", "coordinates": [ [ [ [ 70.729822, 40.120705 ], [ 70.695384359314374, 40.111788804107931 ], [ 70.66594974800006, 40.104168193000064 ], [ 70.650031810932248, 40.092625361431566 ], [ 70.63944, 40.084945 ], [ 70.639439929787727, 40.084944699074121 ], [ 70.639439738000078, 40.084944560000039 ], [ 70.628034032244713, 40.036059658825522 ], [ 70.61396302659945, 39.975752114003782 ], [ 70.57660119600007, 39.952239482000081 ], [ 70.53765475340559, 39.946231361665795 ], [ 70.500895, 39.940561 ], [ 70.477227, 39.900925 ], [ 70.455627, 39.906816 ], [ 70.453652322034557, 39.919520384504558 ], [ 70.450872436000054, 39.937408346000055 ], [ 70.470994471796743, 39.966892716569546 ], [ 70.47319668901882, 39.970119544330736 ], [ 70.520945679000079, 39.993735657000045 ], [ 70.520945859714274, 39.993735930616609 ], [ 70.520946, 39.993736 ], [ 70.528036969578011, 40.004472470086732 ], [ 70.535621786000092, 40.015956523000071 ], [ 70.53562173913221, 40.015956605018857 ], [ 70.535622, 40.015957 ], [ 70.525493, 40.033682 ], [ 70.387896772767448, 40.063646042148996 ], [ 70.324265177000029, 40.077503154000013 ], [ 70.241531209000073, 40.132745260000021 ], [ 70.194493545156718, 40.134857575466832 ], [ 70.14717, 40.136983 ], [ 70.062927799073165, 40.179393918450828 ], [ 70.004594767000071, 40.208761291000073 ], [ 69.969558146000054, 40.211603495000034 ], [ 69.677232824077393, 40.131488110851571 ], [ 69.575474, 40.1036 ], [ 69.543021, 40.103083 ], [ 69.538563671332582, 40.10700606226149 ], [ 69.518009481000092, 40.125097148000052 ], [ 69.5180092691174, 40.12509676313968 ], [ 69.518009, 40.125097 ], [ 69.470364078891279, 40.038554793079427 ], [ 69.463129110000068, 40.025413310000047 ], [ 69.463129134521751, 40.025413244345231 ], [ 69.463129, 40.025413 ], [ 69.501576, 39.922474 ], [ 69.405355, 39.896119 ], [ 69.357296, 39.959474 ], [ 69.357295855887813, 39.959474077685719 ], [ 69.357295776000115, 39.95947418300004 ], [ 69.313990926000031, 39.986914368 ], [ 69.312470970564107, 39.983637566981223 ], [ 69.310322, 39.984796 ], [ 69.240714740228498, 39.828941657410837 ], [ 69.24071374600004, 39.828939514000083 ], [ 69.22629602000012, 39.751011455000096 ], [ 69.226296072554646, 39.751011392156407 ], [ 69.226296, 39.751011 ], [ 69.255172933115446, 39.716481002982206 ], [ 69.287532593000037, 39.67778595 ], [ 69.286220138093128, 39.542906045209541 ], [ 69.286189, 39.539707 ], [ 69.286189009484602, 39.539706983868335 ], [ 69.286189005000097, 39.539706523000078 ], [ 69.291047413585417, 39.531443682254107 ], [ 69.300348, 39.515625 ], [ 69.361636820453356, 39.552883890849444 ], [ 69.376541034742061, 39.544669809301624 ], [ 69.412176, 39.52503 ], [ 69.477246595388578, 39.533024409259703 ], [ 69.514392131000079, 39.537587789000028 ], [ 69.582294963000038, 39.573554586000071 ], [ 69.663102178906513, 39.577484711188703 ], [ 69.669421, 39.577792 ], [ 69.830445, 39.536244 ], [ 69.850061954615697, 39.53935193786068 ], [ 69.907753133000085, 39.548491516000084 ], [ 69.97875655100006, 39.534435527000042 ], [ 70.00017678089678, 39.548056780183231 ], [ 70.040355, 39.573606 ], [ 70.099943543910939, 39.558357979663604 ], [ 70.132442261000108, 39.55004181 ], [ 70.200655073055714, 39.619494853620274 ], [ 70.214814, 39.591125 ], [ 70.210346822665642, 39.55703887057885 ], [ 70.206029500000113, 39.524100240000038 ], [ 70.206030011967343, 39.524100091314978 ], [ 70.20603, 39.5241 ], [ 70.210796859836307, 39.522715707659792 ], [ 70.22328942900009, 39.519087627 ], [ 70.273034467451964, 39.544200460273103 ], [ 70.33026, 39.573089 ], [ 70.384313, 39.570867 ], [ 70.477227, 39.601201 ], [ 70.515684712481999, 39.581078473559359 ], [ 70.526113322000072, 39.575621643000048 ], [ 70.58974654244723, 39.577547143768882 ], [ 70.59784, 39.577792 ], [ 70.622128, 39.563529 ], [ 70.622392483021002, 39.56298411087149 ], [ 70.655536033500312, 39.494622377195576 ], [ 70.586989, 39.441624 ], [ 70.50472, 39.426224 ], [ 70.485031, 39.401988 ], [ 70.368656, 39.377597 ], [ 70.285767, 39.390413 ], [ 70.255226, 39.360233 ], [ 70.124537, 39.306697 ], [ 70.111049, 39.338142 ], [ 70.094461, 39.341785 ], [ 70.022011, 39.313156 ], [ 69.990023, 39.331889 ], [ 69.880934, 39.319306 ], [ 69.808173, 39.263573 ], [ 69.736343, 39.293364 ], [ 69.666477, 39.261635 ], [ 69.693814, 39.222516 ], [ 69.681256, 39.163191 ], [ 69.648338, 39.136268 ], [ 69.651594, 39.115003 ], [ 69.55899, 39.072086 ], [ 69.542815, 39.085754 ], [ 69.542815, 39.152391 ], [ 69.50044, 39.1858 ], [ 69.402875, 39.180296 ], [ 69.365151, 39.158721 ], [ 69.346858, 39.099112 ], [ 69.216633, 39.096839 ], [ 69.065531, 39.030383 ], [ 68.760744, 39.075548 ], [ 68.665814, 39.046919 ], [ 68.590057, 39.048056 ], [ 68.566802, 39.000023 ], [ 68.474766, 38.940052 ], [ 68.367848, 38.919563 ], [ 68.319892, 38.930596 ], [ 68.155318016156201, 38.899764941191073 ], [ 68.10093835400005, 38.97927561500002 ], [ 68.082371652328462, 38.989086428626777 ], [ 68.077271, 38.995528 ], [ 68.072611591214113, 38.994243733476729 ], [ 68.069105672000092, 38.996096293000093 ], [ 68.008577372696791, 38.983224513059476 ], [ 67.988009857607679, 38.989700524439577 ], [ 67.963272339000127, 39.001909892000057 ], [ 67.955282722115612, 39.000005186960379 ], [ 67.948906, 39.002013 ], [ 67.845243300345913, 38.973772081823491 ], [ 67.757441100651008, 38.982760516496285 ], [ 67.690524074025049, 38.989610992421852 ], [ 67.667218058000117, 39.02836822600004 ], [ 67.670548330964252, 39.051089768132961 ], [ 67.678587, 39.105935 ], [ 67.66758, 39.131773 ], [ 67.652417860392049, 39.131654724244918 ], [ 67.637710815000105, 39.131540223000073 ], [ 67.580349976000093, 39.163605449 ], [ 67.538742229601851, 39.164821430961858 ], [ 67.499011, 39.165983 ], [ 67.423934842170723, 39.193126783325667 ], [ 67.350079979838469, 39.21982933980938 ], [ 67.348985141350468, 39.238282119289757 ], [ 67.346462443000064, 39.280807597000049 ], [ 67.386873413000046, 39.294191793000081 ], [ 67.427284383000085, 39.476609599000042 ], [ 67.484920654259639, 39.488780365042579 ], [ 67.491156, 39.490097 ], [ 67.491155996234255, 39.490097051335944 ], [ 67.491156454000077, 39.490097148000089 ], [ 67.487642456000117, 39.538001200000039 ], [ 67.502752630965816, 39.54940287305989 ], [ 67.507434600522444, 39.552935698570337 ], [ 67.58737797100008, 39.562650859000101 ], [ 67.702541416846614, 39.616348100820368 ], [ 67.739209318899086, 39.620044198133513 ], [ 67.903396830133872, 39.594766684161605 ], [ 68.106209, 39.554124 ], [ 68.178586138287969, 39.552399871183745 ], [ 68.337562922980126, 39.52792457543169 ], [ 68.337565, 39.527924 ], [ 68.396471600748399, 39.528448598306596 ], [ 68.436266724000063, 39.528802796000022 ], [ 68.51745039900004, 39.548439840000057 ], [ 68.511305443167231, 39.559370770993908 ], [ 68.506702, 39.56756 ], [ 68.540530502263167, 39.594761313806515 ], [ 68.600339397000141, 39.642852682000111 ], [ 68.613841961255872, 39.75090020617592 ], [ 68.626178, 39.84961 ], [ 68.627308738191772, 39.849387148153866 ], [ 68.651085653000109, 39.84470082600005 ], [ 68.651085927662692, 39.844701014256621 ], [ 68.651086, 39.844701 ], [ 68.685088791580398, 39.868006857147094 ], [ 68.741622762000134, 39.819637757000052 ], [ 68.741622963852762, 39.819638030926619 ], [ 68.741623, 39.819638 ], [ 68.74928176342938, 39.830031497796284 ], [ 68.787356405000139, 39.881701152000105 ], [ 68.755575399000122, 39.954048157000059 ], [ 68.757342129545307, 39.96820960950614 ], [ 68.758883, 39.980558 ], [ 68.759031055910782, 39.980479209887967 ], [ 68.779759969000111, 39.969447733000052 ], [ 68.838257691000081, 39.864647930000061 ], [ 68.838257986044155, 39.86464802500209 ], [ 68.838258, 39.864648 ], [ 68.880787, 39.878342 ], [ 68.880786991954722, 39.878342053222426 ], [ 68.880787395000141, 39.8783421830001 ], [ 68.877428426000108, 39.900563050000031 ], [ 68.813468058512399, 39.968427101175699 ], [ 68.789372, 39.993994 ], [ 68.785031, 40.03394 ], [ 68.77889810010025, 40.0411878529966 ], [ 68.761725128350008, 40.061483182041101 ], [ 68.774695970959826, 40.079879958811802 ], [ 68.813142944000049, 40.038900859000123 ], [ 68.881769247000079, 40.070836894000095 ], [ 68.922428618527292, 40.068306684046703 ], [ 68.977267, 40.064894 ], [ 68.977267043300486, 40.064894119538756 ], [ 68.977267293000068, 40.064894104000089 ], [ 68.986982462000071, 40.091714173000057 ], [ 68.977267293000068, 40.12101471000004 ], [ 68.977267051935073, 40.12101484336084 ], [ 68.977267, 40.121015 ], [ 68.964362052824626, 40.128154083666523 ], [ 68.930655152000099, 40.146801250000053 ], [ 68.839404639905155, 40.133134965971934 ], [ 68.687052, 40.110318 ], [ 68.635595565341475, 40.136497947470403 ], [ 68.581116114024638, 40.164216029914421 ], [ 68.637422309412656, 40.178987986841697 ], [ 68.69831791200005, 40.194963685000019 ], [ 68.801877482000066, 40.191139628000073 ], [ 68.836782563895127, 40.204930104622576 ], [ 68.856551, 40.21274 ], [ 69.019229, 40.232067 ], [ 69.093142970126394, 40.211761205154843 ], [ 69.197925659000077, 40.182974752000078 ], [ 69.285258830000032, 40.194963685000019 ], [ 69.285258830000032, 40.194963976662549 ], [ 69.285259, 40.194964 ], [ 69.285259, 40.218631 ], [ 69.285258830000032, 40.218631117117525 ], [ 69.285258830000032, 40.21863149000005 ], [ 69.22606661160728, 40.259410220364778 ], [ 69.212498399771107, 40.268757724586976 ], [ 69.208364299000038, 40.298316549 ], [ 69.305309285000078, 40.293820699 ], [ 69.312699016000067, 40.342809958000103 ], [ 69.312698998757099, 40.342809991760753 ], [ 69.312699, 40.34281 ], [ 69.311563413178916, 40.34503339743722 ], [ 69.198442478439418, 40.566517126411235 ], [ 69.235232199158389, 40.576237550645999 ], [ 69.309340048000081, 40.59581776900005 ], [ 69.309985938980603, 40.613566031109507 ], [ 69.314198, 40.729298 ], [ 69.37762617434916, 40.788943960926915 ], [ 69.402243752371589, 40.798320153067039 ], [ 69.426360078235462, 40.801448682778741 ], [ 69.509222985533555, 40.774670387219821 ], [ 69.509224, 40.77467 ], [ 69.647511, 40.647443 ], [ 69.652766672672087, 40.645334459187602 ], [ 69.660119669000096, 40.638709208000094 ], [ 69.67035712562766, 40.638277286817967 ], [ 69.690919, 40.630028 ], [ 69.701245618639945, 40.636974092587081 ], [ 69.717687215000126, 40.636280417000037 ], [ 69.803314007950235, 40.70562933270805 ], [ 69.803315, 40.70563 ], [ 70.009659, 40.75803 ], [ 70.047358963330041, 40.78007320459745 ], [ 70.104226929000049, 40.813323873000044 ], [ 70.280391886000132, 40.877712708000033 ], [ 70.331565265839231, 40.923120744554673 ], [ 70.335892, 40.92696 ], [ 70.335892005511639, 40.926960021026645 ], [ 70.335892374000082, 40.926960348000094 ], [ 70.363539266000032, 41.032431946000074 ], [ 70.401159709000126, 41.039976705000115 ], [ 70.445704793000118, 41.025920716000101 ], [ 70.635903721000787, 40.865729268010632 ], [ 70.70512, 40.807433 ], [ 70.703666470487477, 40.793734428435222 ], [ 70.703156828367867, 40.78893306209654 ], [ 70.628743, 40.815856 ], [ 70.628742981823549, 40.815855922185413 ], [ 70.62874271700008, 40.815856018000019 ], [ 70.625782538194457, 40.803182066551543 ], [ 70.621766, 40.785987 ], [ 70.637424, 40.770587 ], [ 70.756705996100479, 40.74026806724769 ], [ 70.76713198828547, 40.737617954576933 ], [ 70.76083508139368, 40.713201705288988 ], [ 70.75617679800007, 40.695139873000031 ], [ 70.732095581000067, 40.674986064000038 ], [ 70.637879242197968, 40.614478237562231 ], [ 70.569315, 40.570445 ], [ 70.532694273599958, 40.559303013210446 ], [ 70.525493205000032, 40.557112122000021 ], [ 70.525493128365852, 40.557112039055767 ], [ 70.525493, 40.557112 ], [ 70.517803879372948, 40.548789655777696 ], [ 70.477795858000036, 40.505487366000082 ], [ 70.369637085000079, 40.475515036000061 ], [ 70.369637071877023, 40.475515019917886 ], [ 70.369637, 40.475515 ], [ 70.366292476832655, 40.471416251219878 ], [ 70.353824097000086, 40.456136373000092 ], [ 70.353824180608726, 40.456136221337914 ], [ 70.353824, 40.456136 ], [ 70.384933, 40.399706 ], [ 70.37398566105027, 40.371584462121838 ], [ 70.371394083000041, 40.364927470000012 ], [ 70.371394172351941, 40.364927442737901 ], [ 70.371394, 40.364927 ], [ 70.413312323946045, 40.352137816881587 ], [ 70.442190796000091, 40.343326721000025 ], [ 70.497736572609824, 40.343607255592055 ], [ 70.524046, 40.34374 ], [ 70.5484800130438, 40.292140777785406 ], [ 70.581820516000107, 40.221732077000084 ], [ 70.622128133000047, 40.199562887000084 ], [ 70.702037159249429, 40.200145455663474 ], [ 70.707188, 40.200183 ], [ 70.938336, 40.239922 ], [ 70.979522, 40.214084 ], [ 70.96980761096647, 40.199843741395696 ], [ 70.962882636465977, 40.18969284699341 ], [ 70.925604563589204, 40.174003006845595 ], [ 70.898545370000079, 40.162614238000046 ], [ 70.792143595000084, 40.161374004 ], [ 70.758647916456894, 40.139515712050091 ], [ 70.729822, 40.120705 ] ] ], [ [ [ 70.63979173051932, 39.852645997721716 ], [ 70.654994345000091, 39.849765116000029 ], [ 70.698919047804452, 39.858446704782608 ], [ 70.70481, 39.822067 ], [ 70.60431726607456, 39.776794042878045 ], [ 70.581613893638234, 39.76656609722879 ], [ 70.490147, 39.850179 ], [ 70.483739031329065, 39.882217843359541 ], [ 70.483742587891612, 39.882217169394153 ], [ 70.619906, 39.850695 ], [ 70.63979173051932, 39.852645997721716 ] ] ], [ [ [ 70.549781299893667, 41.015223671013054 ], [ 70.549782513687276, 41.015223508695087 ], [ 70.608190691848279, 40.996265679225424 ], [ 70.620761686234331, 40.985079773767872 ], [ 70.645071937485071, 40.935177128326949 ], [ 70.60838220200003, 40.950938212000025 ], [ 70.565975463310849, 40.997458479473025 ], [ 70.549781299893667, 41.015223671013054 ] ] ] ] } }
]
}
