{
"type": "FeatureCollection",
"name": "TJK_2z_inner",
"crs": { "type": "name", "properties": { "name": "urn:ogc:def:crs:OGC:1.3:CRS84" } },
"features": [
{ "type": "Feature", "properties": { }, "geometry": { "type": "LineString", "coordinates": [ [ 68.155319090070549, 38.89976514237668 ], [ 68.319892, 38.930596 ], [ 68.367848, 38.919563 ], [ 68.474766, 38.940052 ], [ 68.566802, 39.000023 ], [ 68.590057, 39.048056 ], [ 68.665814, 39.046919 ], [ 68.760744, 39.075548 ], [ 69.065531, 39.030383 ], [ 69.216633, 39.096839 ], [ 69.346858, 39.099112 ], [ 69.365151, 39.158721 ], [ 69.402875, 39.180296 ], [ 69.50044, 39.1858 ], [ 69.542815, 39.152391 ], [ 69.542815, 39.085754 ], [ 69.55899, 39.072086 ], [ 69.651594, 39.115003 ], [ 69.648338, 39.136268 ], [ 69.681256, 39.163191 ], [ 69.693814, 39.222516 ], [ 69.666477, 39.261635 ], [ 69.736343, 39.293364 ], [ 69.808173, 39.263573 ], [ 69.880934, 39.319306 ], [ 69.990023, 39.331889 ], [ 70.022011, 39.313156 ], [ 70.094461, 39.341785 ], [ 70.111049, 39.338142 ], [ 70.124537, 39.306697 ], [ 70.255226, 39.360233 ], [ 70.285767, 39.390413 ], [ 70.368656, 39.377597 ], [ 70.485031, 39.401988 ], [ 70.50472, 39.426224 ], [ 70.586989, 39.441624 ], [ 70.655534907517804, 39.494621506621861 ] ] } }
]
}
