{
"type": "FeatureCollection",
"name": "TKM_1z_zones",
"crs": { "type": "name", "properties": { "name": "urn:ogc:def:crs:OGC:1.3:CRS84" } },
"features": [
{ "type": "Feature", "properties": { "zone_id": "TUR", "zone_name": "TUR", "ISO_A3": "TKM" }, "geometry": { "type": "MultiPolygon", "coordinates": [ [ [ [ 64.610505, 36.500926 ], [ 64.594382, 36.424186 ], [ 64.528467909175632, 36.338012724590428 ], [ 64.477696981000065, 36.271637268000021 ], [ 64.399697891056817, 36.244703497084814 ], [ 64.303651, 36.211538 ], [ 64.302141207402116, 36.209160973068755 ], [ 64.266133667000076, 36.15247141600004 ], [ 64.214120238911093, 36.156249206481419 ], [ 64.158698, 36.160275 ], [ 64.096913629957413, 36.126754055701262 ], [ 64.057257528000036, 36.105239156000025 ], [ 64.04517280414467, 36.088670910688514 ], [ 64.036225, 36.076404 ], [ 64.038911275637489, 36.052931952664686 ], [ 64.045113553243183, 35.998734141474316 ], [ 64.027395626626699, 36.004344871003049 ], [ 63.949977254000089, 36.028861389000056 ], [ 63.922467590402903, 36.029215895211173 ], [ 63.889826, 36.029637 ], [ 63.826135313605597, 36.002731385554711 ], [ 63.765905802000077, 35.977288310000048 ], [ 63.687523402802988, 35.969509567813645 ], [ 63.582093, 35.959047 ], [ 63.511089, 35.901841 ], [ 63.342934702465243, 35.856262190405658 ], [ 63.342934204000073, 35.856262106000074 ], [ 63.3429279032556, 35.856262111452885 ], [ 63.125273, 35.860241 ], [ 63.117044708828921, 35.856457769205818 ], [ 63.104086, 35.856469 ], [ 63.104085877454594, 35.856468810875882 ], [ 63.10408573400008, 35.856468811000028 ], [ 63.098576522209484, 35.847966405582603 ], [ 63.088634, 35.843395 ], [ 63.090934779929512, 35.836172850818443 ], [ 63.084397013000114, 35.826083069000063 ], [ 63.084397026688507, 35.826083041188319 ], [ 63.084397, 35.826083 ], [ 63.089657723656856, 35.815394485179127 ], [ 63.112043905000121, 35.769910787000114 ], [ 63.112047747924784, 35.769908135168734 ], [ 63.20997859920066, 35.69505194657728 ], [ 63.204953263512436, 35.690274868450089 ], [ 63.20004315355942, 35.685607419203329 ], [ 63.076648179608235, 35.62470107582962 ], [ 63.076645549000034, 35.624700012000048 ], [ 63.077343119603952, 35.561121342233314 ], [ 63.077369, 35.558761 ], [ 63.077369017008387, 35.558760975390335 ], [ 63.077369018000127, 35.558760885000041 ], [ 63.08570094100466, 35.546705404052808 ], [ 63.100726738010664, 35.52496437907584 ], [ 63.088720220778441, 35.473520838547778 ], [ 63.080211, 35.437063 ], [ 62.976285932791981, 35.405702975090087 ], [ 62.918205607000061, 35.388176982000076 ], [ 62.855052994213018, 35.353848612197012 ], [ 62.760489, 35.302446 ], [ 62.698162416719676, 35.252063892706111 ], [ 62.658530756958271, 35.236973915413856 ], [ 62.61560506831524, 35.223005841401495 ], [ 62.587169554144346, 35.224551249809231 ], [ 62.53549, 35.22736 ], [ 62.458905, 35.281879 ], [ 62.443345093287, 35.28116450861279 ], [ 62.431878703000109, 35.280638326000073 ], [ 62.286202990870557, 35.140647015983454 ], [ 62.25096, 35.202349 ], [ 62.251218, 35.260381 ], [ 62.2337, 35.293764 ], [ 62.212466641914304, 35.304143938626432 ], [ 62.136341187000141, 35.34135813400006 ], [ 62.007460164000122, 35.438923239000061 ], [ 61.919351847000087, 35.451842346 ], [ 61.807522205479721, 35.42814526585672 ], [ 61.739621, 35.413757 ], [ 61.693080381942551, 35.419569962015167 ], [ 61.604745728000069, 35.430603332000103 ], [ 61.538703247000058, 35.452307434000019 ], [ 61.457758399013954, 35.518329488843115 ], [ 61.427702, 35.542845 ], [ 61.410379087918258, 35.548238588037499 ], [ 61.39318241400008, 35.55359324100003 ], [ 61.383467245000077, 35.586459453000074 ], [ 61.351531210000076, 35.607130026000064 ], [ 61.351531210000076, 35.627800599000082 ], [ 61.351531, 35.627800575136433 ], [ 61.351531, 35.627801 ], [ 61.269676, 35.618499 ], [ 61.245388, 35.649298 ], [ 61.241155070369395, 35.662157998635564 ], [ 61.229161418000047, 35.698597311000029 ], [ 61.237765813170675, 35.708585327229187 ], [ 61.249729, 35.722472 ], [ 61.254140326685018, 35.753836172567723 ], [ 61.256343221000122, 35.769497375000086 ], [ 61.243798328649021, 35.871509388249393 ], [ 61.241047, 35.893883 ], [ 61.188337, 35.953569 ], [ 61.129839506653596, 35.970518853195351 ], [ 61.153065699602962, 35.989447928621416 ], [ 61.173971, 36.006485 ], [ 61.173971, 36.048033 ], [ 61.198156, 36.060797 ], [ 61.214394934905997, 36.099247467044655 ], [ 61.224717244000033, 36.123687643000025 ], [ 61.185443156000076, 36.283987936000088 ], [ 61.153507121000075, 36.314942118000104 ], [ 61.150204116438303, 36.335435760589611 ], [ 61.146686, 36.357265 ], [ 61.17367525617248, 36.485413766901708 ], [ 61.173970988000065, 36.486817933000097 ], [ 61.173970986789897, 36.48681793727657 ], [ 61.173971, 36.486818 ], [ 61.166323, 36.513845 ], [ 61.187614, 36.565108 ], [ 61.168288787667528, 36.628210914994298 ], [ 61.165806112000041, 36.636317851000015 ], [ 61.165806042945277, 36.636317859770131 ], [ 61.165806, 36.636318 ], [ 61.075476, 36.64779 ], [ 61.075475872212465, 36.647789998144674 ], [ 61.075475708000056, 36.647790019000027 ], [ 61.027655359696297, 36.647095700441589 ], [ 60.34229, 36.637145 ], [ 60.309218, 36.651976 ], [ 60.270546372771236, 36.716399537198789 ], [ 60.238524211000083, 36.769746399000056 ], [ 60.152805358196886, 36.853625432536973 ], [ 60.132588, 36.873409 ], [ 60.097346887858841, 36.92077697858192 ], [ 60.019209432000082, 37.025803121000038 ], [ 59.899526815000058, 37.050556132000068 ], [ 59.797207479000065, 37.112206116000024 ], [ 59.749601696986055, 37.12459455513455 ], [ 59.653237, 37.149672 ], [ 59.604971106610755, 37.123885056958763 ], [ 59.555981893000137, 37.197782288000056 ], [ 59.528130627838429, 37.193933032600121 ], [ 59.501205, 37.190212 ], [ 59.461724112458185, 37.207600950468944 ], [ 59.469372193000083, 37.240699565000043 ], [ 59.469371945043967, 37.240699762161391 ], [ 59.469372, 37.2407 ], [ 59.370360066091024, 37.319428947447982 ], [ 59.356344811830766, 37.376641450478246 ], [ 59.348346007757655, 37.409293968331895 ], [ 59.34949442686456, 37.411812660134473 ], [ 59.361989, 37.439215 ], [ 59.357902595084497, 37.468986454492587 ], [ 59.356304159000047, 37.480633240000103 ], [ 59.327236130425391, 37.513454181978794 ], [ 59.312276, 37.530346 ], [ 59.211714, 37.516316 ], [ 59.058512786457399, 37.609898749453535 ], [ 59.034566691000066, 37.624526265000029 ], [ 58.801092570000037, 37.69465118400008 ], [ 58.779801880000036, 37.659640402000051 ], [ 58.681720011000095, 37.642716370000059 ], [ 58.529791300000113, 37.700387268000028 ], [ 58.529791045800103, 37.70038698261466 ], [ 58.529791, 37.700387 ], [ 58.479665, 37.644112 ], [ 58.405926051410788, 37.63757580980598 ], [ 58.357812134000085, 37.633311260000099 ], [ 58.279350088572592, 37.656914318353081 ], [ 58.206814, 37.678735 ], [ 58.185505860255056, 37.758638861423414 ], [ 58.181182088000071, 37.774853007000061 ], [ 58.176345880508521, 37.777485373185549 ], [ 58.156687, 37.788186 ], [ 58.040932, 37.805704 ], [ 58.019618653525228, 37.813810591810977 ], [ 57.884145955000065, 37.865338440000059 ], [ 57.800016958564079, 37.867638035561136 ], [ 57.790324037462241, 37.875956694775446 ], [ 57.763016399000037, 37.899393209 ], [ 57.691186157000061, 37.920270488000071 ], [ 57.569798661898474, 37.92154164544155 ], [ 57.496263, 37.922312 ], [ 57.35239510241901, 37.96752896781021 ], [ 57.327074020657356, 37.994116104059927 ], [ 57.341821500796485, 38.068405467221964 ], [ 57.344333943000095, 38.081061707000075 ], [ 57.344333942097208, 38.081061708318856 ], [ 57.344334, 38.081062 ], [ 57.261031819185341, 38.202734744103232 ], [ 57.218346802000099, 38.26508148200007 ], [ 57.185894002000055, 38.276476136000056 ], [ 57.164137870206147, 38.272783318806191 ], [ 57.14662, 38.26981 ], [ 57.102798026731293, 38.222009029158471 ], [ 57.101343355404083, 38.221224487300034 ], [ 57.038409, 38.187283 ], [ 56.812377, 38.22896 ], [ 56.76248564432121, 38.254262461177696 ], [ 56.729384399000139, 38.271050110000076 ], [ 56.726773679058844, 38.27038947620705 ], [ 56.585207, 38.234567 ], [ 56.528156, 38.257408 ], [ 56.449966104095054, 38.255424125642222 ], [ 56.436482381000133, 38.255082092000052 ], [ 56.436482229359932, 38.255082005819439 ], [ 56.436482, 38.255082 ], [ 56.303364, 38.179428 ], [ 56.303363910611296, 38.179427806577294 ], [ 56.30336389200005, 38.179427796000098 ], [ 56.303055383905729, 38.178760204698783 ], [ 56.297059, 38.165785 ], [ 56.328995, 38.123772 ], [ 56.315456039040711, 38.08945909894409 ], [ 56.214067017000104, 38.068840231000038 ], [ 56.155248212725503, 38.080032871467225 ], [ 56.121463, 38.086462 ], [ 55.963023, 38.066515 ], [ 55.738437, 38.118605 ], [ 55.578167515433861, 38.099367727806182 ], [ 55.447395467000092, 38.083671367000065 ], [ 55.307455688000061, 38.008792216000032 ], [ 55.228804159000106, 37.985796204000067 ], [ 55.228804050090091, 37.985796014645167 ], [ 55.228804, 37.985796 ], [ 55.222416357239283, 37.974690140189637 ], [ 55.219709106000039, 37.969983215000084 ], [ 55.160688808509988, 37.958315619192355 ], [ 55.130309, 37.95231 ], [ 55.006802, 37.843092 ], [ 54.85663, 37.761133 ], [ 54.829763879090919, 37.73457307063498 ], [ 54.813635702000113, 37.718629049000086 ], [ 54.787280721000059, 37.651863098000049 ], [ 54.799168769949517, 37.625781607902042 ], [ 54.809398, 37.603339 ], [ 54.788314, 37.524636 ], [ 54.653956, 37.438905 ], [ 54.533343, 37.440817 ], [ 54.364154, 37.362682 ], [ 54.261525, 37.354827 ], [ 54.26152497466876, 37.354826986098558 ], [ 54.261524699000063, 37.354826965000044 ], [ 54.206437622000124, 37.324596253000024 ], [ 54.11660204203806, 37.330171114764497 ], [ 53.913748, 37.34276 ], [ 53.899669, 37.468411 ], [ 53.868852587871679, 37.582319937143829 ], [ 53.824880405000044, 37.74485911700009 ], [ 53.816404438458846, 37.882029800367434 ], [ 53.80714, 38.031968 ], [ 53.84505857720653, 38.159826069325582 ], [ 53.858897332000083, 38.20648834800005 ], [ 53.863251413179448, 38.254134985859451 ], [ 53.868175, 38.30801 ], [ 53.847898959858441, 38.415078757781934 ], [ 53.826996290000068, 38.525458075000074 ], [ 53.838282609638725, 38.592231719823751 ], [ 53.847423, 38.646308 ], [ 53.853508086069873, 38.655217545578608 ], [ 53.90984134200005, 38.737697658000059 ], [ 53.926931186000047, 38.773667710000041 ], [ 53.922643918236631, 38.786564654305479 ], [ 53.917003, 38.803534 ], [ 53.959593500065637, 38.876381211031592 ], [ 53.982758009000065, 38.916001695000034 ], [ 53.982757874731355, 38.916001785739283 ], [ 53.982758, 38.916002 ], [ 53.896658, 38.974189 ], [ 53.859711, 39.035224 ], [ 53.787364, 39.042467 ], [ 53.767263133771301, 39.030992076365635 ], [ 53.744693834908666, 39.070953487557887 ], [ 53.721853, 39.111396 ], [ 53.717723038421198, 39.108376146846396 ], [ 53.712168816000087, 39.104315497000073 ], [ 53.712169018484786, 39.104315013516192 ], [ 53.712169, 39.104315 ], [ 53.73087542454514, 39.059648696794035 ], [ 53.73210696700005, 39.056708075000074 ], [ 53.71083885060284, 39.071867264627997 ], [ 53.701508007891888, 39.078517994374913 ], [ 53.701433087887068, 39.080098283760933 ], [ 53.698009, 39.15233 ], [ 53.711194732892309, 39.160244610684117 ], [ 53.73210696700005, 39.172796942000048 ], [ 53.732106910696388, 39.17279694639636 ], [ 53.732107, 39.172797 ], [ 53.727016709012219, 39.17319440051174 ], [ 53.702403191000087, 39.175116278000075 ], [ 53.712961591175969, 39.206752803168442 ], [ 53.72462, 39.241685 ], [ 53.724619862141893, 39.24168491188653 ], [ 53.724619988000086, 39.241685289000088 ], [ 53.68837327776324, 39.218517524012967 ], [ 53.660004, 39.200385 ], [ 53.660004203315225, 39.200384897757523 ], [ 53.660004102000073, 39.200384833000044 ], [ 53.674082879000082, 39.193304755000042 ], [ 53.678576801318556, 39.142323278804085 ], [ 53.683766939623936, 39.083441684960349 ], [ 53.643967402237259, 39.129445069283342 ], [ 53.635997, 39.138658 ], [ 53.631226184817493, 39.15869512119383 ], [ 53.623383009000065, 39.191636460000041 ], [ 53.609444638788503, 39.192710658144868 ], [ 53.601736, 39.193305 ], [ 53.608572, 39.235785 ], [ 53.608571794172683, 39.235785118429995 ], [ 53.608571811000047, 39.23578522300005 ], [ 53.598317905000044, 39.241685289000088 ], [ 53.567638116226426, 39.193305622664646 ], [ 53.578107026159749, 39.249391147217452 ], [ 53.588145379000082, 39.303168036000045 ], [ 53.588144946118589, 39.303167711338922 ], [ 53.588145, 39.303168 ], [ 53.579088428652348, 39.296375323073633 ], [ 53.560802316956405, 39.282660738967301 ], [ 53.571846344149691, 39.308409311851598 ], [ 53.581309441000087, 39.330471096000053 ], [ 53.581308993473762, 39.330470984784426 ], [ 53.581309, 39.330471 ], [ 53.553966, 39.323676 ], [ 53.557457861026087, 39.336533382524429 ], [ 53.562022332000083, 39.353338934000078 ], [ 53.56202188485662, 39.353338576030531 ], [ 53.562022, 39.353339 ], [ 53.543958377839679, 39.338877478099626 ], [ 53.533457879000082, 39.330471096000053 ], [ 53.512125887955534, 39.327201619953918 ], [ 53.452485, 39.318061 ], [ 53.441022855263327, 39.332985361659894 ], [ 53.437266472000033, 39.337876695000034 ], [ 53.437266306611974, 39.337876600773839 ], [ 53.437266, 39.337877 ], [ 53.40836406896269, 39.321410189570329 ], [ 53.389415266370293, 39.310614528034122 ], [ 53.395512273242232, 39.322700814542507 ], [ 53.403168165000068, 39.337876695000034 ], [ 53.403167834916566, 39.337876672749964 ], [ 53.403168, 39.337877 ], [ 53.320465688854568, 39.332301935452854 ], [ 53.293305020256334, 39.330471105184735 ], [ 53.296886, 39.349066 ], [ 53.296885545335854, 39.349066121607386 ], [ 53.296885613000086, 39.34906647300005 ], [ 53.252383132356201, 39.360969022056821 ], [ 53.238617, 39.364651 ], [ 53.149913, 39.344143 ], [ 53.149913028924679, 39.344142987628494 ], [ 53.149912957000083, 39.344142971000053 ], [ 53.197764519000032, 39.32367584800005 ], [ 53.170258009000065, 39.272162177000041 ], [ 53.170258026320631, 39.272162049292227 ], [ 53.170258, 39.272162 ], [ 53.181488, 39.189358 ], [ 53.168299872956148, 39.182924349532428 ], [ 53.161468965436782, 39.179592199481377 ], [ 53.157342242171367, 39.203409556697721 ], [ 53.136892123000052, 39.321437893000052 ], [ 53.128136879996802, 39.334825831539845 ], [ 53.085216, 39.400458 ], [ 53.178233, 39.515692 ], [ 53.178233176587256, 39.515692335514956 ], [ 53.178233269000032, 39.515692450000074 ], [ 53.191191386878394, 39.540312873826039 ], [ 53.24171, 39.636298 ], [ 53.27589, 39.664862 ], [ 53.313731, 39.65884 ], [ 53.312019564474276, 39.657502462661313 ], [ 53.248545769000032, 39.607896226000037 ], [ 53.211273634000065, 39.550197658000059 ], [ 53.214730096388799, 39.534939844120608 ], [ 53.21697, 39.525051 ], [ 53.426768, 39.535956 ], [ 53.492198, 39.48078 ], [ 53.538125774340372, 39.472854115260034 ], [ 53.567881707000083, 39.467718817000048 ], [ 53.5678819572884, 39.46771900737086 ], [ 53.567882, 39.467719 ], [ 53.569445514843444, 39.46890825873956 ], [ 53.581309441000087, 39.477932033000059 ], [ 53.560802000841939, 39.501776001660126 ], [ 53.573398612287647, 39.526613883089482 ], [ 53.573741011527872, 39.527288991050114 ], [ 53.615408, 39.49494 ], [ 53.667802740565946, 39.515836119194972 ], [ 53.683767123000052, 39.52220286700009 ], [ 53.691943250630693, 39.519482920144867 ], [ 53.72462, 39.508612 ], [ 53.733165, 39.527981 ], [ 53.704948317133955, 39.539572184557983 ], [ 53.629161550793867, 39.570705246378189 ], [ 53.644617773188699, 39.577619041838567 ], [ 53.654633009000065, 39.582098700000074 ], [ 53.654632924952693, 39.582098966430237 ], [ 53.654633, 39.582099 ], [ 53.649824388433018, 39.597342026860822 ], [ 53.646494988000086, 39.607896226000037 ], [ 53.57162519600007, 39.616400458000044 ], [ 53.567361107394305, 39.637987407683227 ], [ 53.564464, 39.652655 ], [ 53.564463763407943, 39.652655212372771 ], [ 53.564463738000086, 39.65265534100007 ], [ 53.533457879000082, 39.680487372000073 ], [ 53.536195367176518, 39.659369605817794 ], [ 53.539724, 39.632148 ], [ 53.471039, 39.696357 ], [ 53.444102, 39.701077 ], [ 53.457774, 39.673082 ], [ 53.429861, 39.686713 ], [ 53.429861003166629, 39.686712894434734 ], [ 53.429860873000052, 39.686712958000044 ], [ 53.430430535000085, 39.667710679000038 ], [ 53.448821541484072, 39.635818337650655 ], [ 53.450938, 39.632148 ], [ 53.416759, 39.64997 ], [ 53.429861, 39.762519 ], [ 53.393403, 39.757514 ], [ 53.386619003875815, 39.764515317397247 ], [ 53.382009352866277, 39.769273135788104 ], [ 53.387556165803183, 39.771407630529389 ], [ 53.415212436000047, 39.782049872000073 ], [ 53.499278191000087, 39.86554596600007 ], [ 53.495892976808236, 39.870265921741364 ], [ 53.48503711957477, 39.885402833270398 ], [ 53.537119988000086, 39.896307684000078 ], [ 53.537119803407471, 39.89630795883798 ], [ 53.53712, 39.896308 ], [ 53.526134, 39.912665 ], [ 53.574474, 39.967922 ], [ 53.574473318863106, 39.967922056370405 ], [ 53.574473504000082, 39.967922268000052 ], [ 53.49187259200005, 39.974758205000057 ], [ 53.402110222000033, 40.006781317000048 ], [ 53.36325093404588, 39.985047134339418 ], [ 53.282725086982552, 39.940009048649323 ], [ 53.172373894000032, 39.997463283000059 ], [ 53.125743035000085, 39.974758205000057 ], [ 53.053559328479125, 39.967922318994681 ], [ 53.07046404967695, 39.984338936405386 ], [ 53.08171634200005, 39.995266018000052 ], [ 53.08171593668272, 39.995265938510933 ], [ 53.081716, 39.995266 ], [ 52.974864, 39.974311 ], [ 52.945989268257883, 39.981058133960403 ], [ 52.943695974245827, 39.981594034280739 ], [ 52.913585, 40.021674 ], [ 52.913584875986786, 40.021673836450184 ], [ 52.913584832000083, 40.021673895000049 ], [ 52.89584394600007, 39.998277085000041 ], [ 52.895844003450307, 39.998277004550303 ], [ 52.895844, 39.998277 ], [ 52.919932, 39.964545 ], [ 52.930186, 39.895941 ], [ 53.003928836285461, 39.816191648822034 ], [ 53.053558073551834, 39.76251939681331 ], [ 53.01037861368264, 39.781013885003212 ], [ 53.005869988000086, 39.782945054000038 ], [ 53.005870051512538, 39.78294497793631 ], [ 53.00587, 39.782945 ], [ 53.008055204341957, 39.780327997234238 ], [ 53.04004867176495, 39.742012010493553 ], [ 53.027573924361363, 39.751502538393495 ], [ 53.008067254000082, 39.76634349200009 ], [ 52.966319207000083, 39.832953192000048 ], [ 52.905284050000034, 39.874579169000071 ], [ 52.88412519600007, 39.944891669000071 ], [ 52.884125071685084, 39.944891761784888 ], [ 52.884125, 39.944892 ], [ 52.738455, 40.053616 ], [ 52.753547690282282, 40.104241146313157 ], [ 52.768321160000085, 40.153794664000088 ], [ 52.768320988417315, 40.153794961148414 ], [ 52.768321, 40.153795 ], [ 52.761562540529809, 40.165499291844682 ], [ 52.698985222000033, 40.273871161000045 ], [ 52.730770132545416, 40.451990493497604 ], [ 52.736582925796981, 40.484564584176503 ], [ 52.863129102000073, 40.658107815000051 ], [ 52.864452884773748, 40.667566456198621 ], [ 52.868175, 40.694159 ], [ 52.868174660739093, 40.694159145103349 ], [ 52.868174675000034, 40.694159247000073 ], [ 52.827647332000083, 40.711493231000077 ], [ 52.832530144000032, 40.74555084800005 ], [ 52.868174675000034, 40.755560614000046 ], [ 52.868174625094753, 40.755560894717306 ], [ 52.868175, 40.755561 ], [ 52.86199, 40.790351 ], [ 52.872434279490918, 40.816018633872105 ], [ 52.923350457000083, 40.941148179000038 ], [ 52.919909442684357, 41.013634779014865 ], [ 52.916515, 41.08515 ], [ 52.933366477519812, 41.076033824782854 ], [ 52.961191978783013, 41.060980684887966 ], [ 52.958181, 41.016262 ], [ 53.012055, 40.954779 ], [ 53.013938597449602, 40.950146743039362 ], [ 53.040049675000034, 40.885931708000044 ], [ 53.074473504000082, 40.865423895000049 ], [ 53.121917455301293, 40.872259730744979 ], [ 53.094485644329588, 40.858699660577528 ], [ 53.064707879000082, 40.843980210000041 ], [ 53.064708023890262, 40.843980011809414 ], [ 53.064708, 40.84398 ], [ 53.098762345453835, 40.797398199433374 ], [ 53.118907097000033, 40.76984284100007 ], [ 53.137325006306185, 40.769440909602842 ], [ 53.182302, 40.768459 ], [ 53.265879399712773, 40.817042651052247 ], [ 53.244883660000085, 40.774969794000071 ], [ 53.272540023036413, 40.775323355519674 ], [ 53.330821, 40.776068 ], [ 53.369965, 40.835191 ], [ 53.398692, 40.762763 ], [ 53.398692181543979, 40.762762944679764 ], [ 53.398692254000082, 40.762762762000079 ], [ 53.483083530000044, 40.73704661700009 ], [ 53.555349155000044, 40.773504950000074 ], [ 53.558461943188078, 40.806907561338136 ], [ 53.562755, 40.852973 ], [ 53.569282086781364, 40.863194569310664 ], [ 53.587412957000083, 40.891587632000039 ], [ 53.606588645636982, 40.889243006631965 ], [ 53.624685, 40.88703 ], [ 53.651547838649769, 40.869065455866448 ], [ 53.656992976266395, 40.865423934279129 ], [ 53.649587, 40.844916 ], [ 53.669157921369646, 40.8132179411406 ], [ 53.670664910000085, 40.810777085000041 ], [ 53.666619339840061, 40.805544397889733 ], [ 53.649587, 40.783515 ], [ 53.662768142296493, 40.755236109781904 ], [ 53.676442905000044, 40.725897528000075 ], [ 53.724619870641966, 40.687933753479037 ], [ 53.704763, 40.650092 ], [ 53.721039, 40.625678 ], [ 53.721039126708973, 40.625678000436672 ], [ 53.721039259000065, 40.625677802000041 ], [ 53.820729703433926, 40.626021561978469 ], [ 53.862641, 40.626166 ], [ 53.947765, 40.673651 ], [ 53.976395830556378, 40.666475110592593 ], [ 54.010752800000034, 40.657863674000055 ], [ 54.051482916502913, 40.670669462171134 ], [ 54.088145, 40.682196 ], [ 54.088145125145751, 40.682196276186779 ], [ 54.088145379000082, 40.682196356000077 ], [ 54.095225457000083, 40.697821356000077 ], [ 54.054210618554634, 40.715277076246167 ], [ 54.12623937777137, 40.724155704684129 ], [ 54.171071811000047, 40.729681708000044 ], [ 54.232187977736494, 40.728338942113062 ], [ 54.220361619630793, 40.697589442194044 ], [ 54.217539910000085, 40.690252997000073 ], [ 54.223551659026697, 40.687915094600832 ], [ 54.252696, 40.676581 ], [ 54.403575, 40.673651 ], [ 54.403573679003514, 40.673651460932057 ], [ 54.403575066000087, 40.673651434000078 ], [ 54.381783071239965, 40.681254804135428 ], [ 54.3626412972677, 40.687933896275112 ], [ 54.430430535000085, 40.72142161700009 ], [ 54.430430225825155, 40.721421617560594 ], [ 54.430431, 40.721422 ], [ 54.334971811821056, 40.721594674429717 ], [ 54.318207227000073, 40.721625067000048 ], [ 54.268809441000087, 40.839911200000074 ], [ 54.273285352000073, 40.872259833000044 ], [ 54.273284982472234, 40.872259873323117 ], [ 54.273285, 40.87226 ], [ 54.252966004672842, 40.874477090872269 ], [ 54.248302003190304, 40.874986029168198 ], [ 54.250011, 40.890611 ], [ 54.284871816480148, 40.909176476424669 ], [ 54.312510613000086, 40.923895575000074 ], [ 54.360524936000047, 40.917059637000079 ], [ 54.465830924118613, 40.865952867427801 ], [ 54.46540343246626, 40.865205997746905 ], [ 54.437836134000065, 40.81704336100006 ], [ 54.437836199403989, 40.817043348378249 ], [ 54.437836, 40.817043 ], [ 54.462647642739164, 40.812255175325916 ], [ 54.474945509000065, 40.809881903000075 ], [ 54.639903191000087, 40.838771877000056 ], [ 54.708994988000086, 40.884995835000041 ], [ 54.760020379000082, 40.965033270000049 ], [ 54.677989437255398, 41.070867833295672 ], [ 54.746652063175091, 41.044690096803954 ], [ 54.767425977000073, 41.036769924000055 ], [ 54.767425820435257, 41.03677006845934 ], [ 54.767426, 41.03677 ], [ 54.720063, 41.080471 ], [ 54.725225814826629, 41.08774639976366 ], [ 54.732595248000052, 41.098130601000037 ], [ 54.732594941398375, 41.098130917419027 ], [ 54.732595, 41.098131 ], [ 54.716075, 41.11518 ], [ 54.681131009348995, 41.122978811333681 ], [ 54.636403986123021, 41.132961297833695 ], [ 54.636029118962909, 41.141006857171796 ], [ 54.635020379000082, 41.162665106000077 ], [ 54.600433790000068, 41.192328192000048 ], [ 54.400401238000086, 41.309027411000045 ], [ 54.349760193737303, 41.327461843210983 ], [ 54.29477, 41.34748 ], [ 54.190766, 41.407294 ], [ 54.170843060513889, 41.430037694946201 ], [ 54.144786004000082, 41.459784247000073 ], [ 54.073985222000033, 41.487982489000046 ], [ 54.036104363736079, 41.558629937059067 ], [ 54.030284030528172, 41.569484943064523 ], [ 54.029219506651543, 41.579055690772336 ], [ 54.008556, 41.764838 ], [ 53.972361649061142, 41.821523686795089 ], [ 53.932302280000044, 41.884263414000088 ], [ 53.911101556339325, 41.897591052716528 ], [ 53.898774, 41.905341 ], [ 53.917003, 42.006903 ], [ 53.906912, 42.062934 ], [ 53.827691285619103, 42.118146750085764 ], [ 53.818695509000065, 42.124416408000059 ], [ 53.767914259000065, 42.136135158000059 ], [ 53.724619988000086, 42.126044012000079 ], [ 53.723765745791546, 42.126401299615665 ], [ 53.681814, 42.143948 ], [ 53.470119077728221, 42.117429610892529 ], [ 53.375173373000052, 42.105536200000074 ], [ 53.296722852000073, 42.078843492000033 ], [ 53.251172177523216, 42.080384317805212 ], [ 53.219737, 42.081448 ], [ 53.182252802662262, 42.096370475855799 ], [ 53.163828972000033, 42.103705145000049 ], [ 52.96029707100007, 41.984361070000034 ], [ 52.960297042475844, 41.984361024906342 ], [ 52.960297, 41.984361 ], [ 52.821462, 41.764879 ], [ 52.782074, 41.725531 ], [ 52.769216, 41.675605 ], [ 52.769216376900694, 41.675604694516174 ], [ 52.76921634200005, 41.675604559000078 ], [ 52.784678582000083, 41.663072007000039 ], [ 52.784678783948969, 41.663072175112696 ], [ 52.784679, 41.663072 ], [ 52.830821, 41.701483 ], [ 52.864362607373408, 41.699068042044992 ], [ 52.880544392887501, 41.697902741337138 ], [ 52.886462459643383, 41.694006501118274 ], [ 52.916514519000032, 41.674221096000053 ], [ 52.896006707000083, 41.62954336100006 ], [ 52.897180682409811, 41.604074612631337 ], [ 52.898936, 41.565985 ], [ 52.813487, 41.37934 ], [ 52.823910782096242, 41.331808264089631 ], [ 52.844004754000082, 41.240179755000042 ], [ 52.909678582000083, 41.122707424000055 ], [ 52.882334929448291, 41.050442056541748 ], [ 52.855690020769735, 41.07179589434034 ], [ 52.848318002925595, 41.077704090519063 ], [ 52.851085, 41.163316 ], [ 52.842940378799113, 41.175973544587187 ], [ 52.813487175000034, 41.221747137000079 ], [ 52.813487175000034, 41.262640692000048 ], [ 52.760996941000087, 41.37759023600006 ], [ 52.723399285000085, 41.394232489000046 ], [ 52.693614129000082, 41.444525458000044 ], [ 52.646250847000033, 41.458197333000044 ], [ 52.610747716364202, 41.484077156320055 ], [ 52.562185066218696, 41.519476951729814 ], [ 52.560905764874228, 41.535441566165119 ], [ 52.560232, 41.54385 ], [ 52.56222657113728, 41.546667823014019 ], [ 52.587738477000073, 41.582709052000041 ], [ 52.591759900241577, 41.635498743924728 ], [ 52.59254, 41.645738 ], [ 52.560232, 41.687812 ], [ 52.529552, 41.69123 ], [ 52.437671, 41.748876 ], [ 52.454860047113833, 41.761749255517984 ], [ 52.764665161000096, 41.993768616000082 ], [ 52.978708944000118, 42.126628723000081 ], [ 53.383784824257255, 42.24952749059414 ], [ 53.412274, 42.258171 ], [ 53.662896435909317, 42.292604609048979 ], [ 54.047170858000129, 42.345400899000097 ], [ 54.122618449000129, 42.337597758000086 ], [ 54.19527551300007, 42.318064067000094 ], [ 54.738291172539753, 42.048209881345691 ], [ 54.907067, 41.932144 ], [ 54.911193173237486, 41.926935736514494 ], [ 54.940759725000134, 41.889614767000083 ], [ 54.934971964000056, 41.833726706000093 ], [ 54.950681600000053, 41.795563660000099 ], [ 55.067232638211216, 41.677399458854474 ], [ 55.100026, 41.644152 ], [ 55.139216953650411, 41.59184254133303 ], [ 55.228390748000095, 41.472818502000038 ], [ 55.355173588076788, 41.390083000514039 ], [ 55.356755, 41.389051 ], [ 55.429515, 41.290814 ], [ 55.44968944191745, 41.280876692642224 ], [ 55.4782979740001, 41.266784567000045 ], [ 55.635497681000118, 41.264355774000094 ], [ 55.91010624200004, 41.326625876000023 ], [ 55.97842079490465, 41.323664539591512 ], [ 55.978422, 41.321717 ], [ 56.793315138069957, 41.28834005622884 ], [ 56.793463176000046, 41.288333639000101 ], [ 57.010194132000038, 41.254123841000094 ], [ 57.010194538613568, 41.254124236185127 ], [ 57.029521, 41.262599 ], [ 57.08006076917043, 41.322026728576574 ], [ 57.161399374000098, 41.367967021000041 ], [ 57.136511805745137, 41.375678038750024 ], [ 57.07417, 41.394994 ], [ 57.01959922948123, 41.465945701633608 ], [ 57.012054484000032, 41.557826233000029 ], [ 56.96048140500011, 41.647200623000103 ], [ 56.966273653033838, 41.698365480126377 ], [ 56.971954, 41.748538 ], [ 56.956732907190315, 41.830556573837654 ], [ 56.950146147979339, 41.866050152453077 ], [ 56.965657474101029, 41.882030419251066 ], [ 56.978361256339234, 41.895118106486848 ], [ 57.01703219979499, 41.911182549304556 ], [ 57.115510702000051, 41.952091573000061 ], [ 57.165358818072754, 42.016076346885427 ], [ 57.207804878679418, 42.07055984427366 ], [ 57.284127360833111, 42.126428294650729 ], [ 57.288213, 42.129419 ], [ 57.338204346254116, 42.147602793424348 ], [ 57.382264263210828, 42.163628982876695 ], [ 57.453302925943397, 42.1590075291057 ], [ 57.619769328000132, 42.148177796000127 ], [ 57.850452922000045, 42.191430969000081 ], [ 57.850452912588871, 42.191430983610509 ], [ 57.850453, 42.191431 ], [ 57.827302002103153, 42.227371996734952 ], [ 57.888073364000036, 42.261581727000035 ], [ 57.937476033000053, 42.354237570000109 ], [ 57.937475924125906, 42.354237857697115 ], [ 57.937476, 42.354238 ], [ 57.908641, 42.430434 ], [ 57.977683407220034, 42.474973402655479 ], [ 58.016024210000126, 42.499706726000042 ], [ 58.07989628100006, 42.49730377200008 ], [ 58.080126090267356, 42.497119612830375 ], [ 58.133226, 42.454567 ], [ 58.172613804507513, 42.462900430518765 ], [ 58.203816366000126, 42.469501851000032 ], [ 58.325049276000072, 42.43185557 ], [ 58.359829476174816, 42.406177294784932 ], [ 58.384683902096072, 42.387827072283258 ], [ 58.39608262182854, 42.299623777850023 ], [ 58.397603, 42.287859 ], [ 58.490621, 42.297574 ], [ 58.435740051106379, 42.366359579104618 ], [ 58.306239054000059, 42.528671367000115 ], [ 58.140620848103474, 42.599207148078314 ], [ 58.128138884674023, 42.615418194674113 ], [ 58.129906927747179, 42.631959513077469 ], [ 58.143736113656558, 42.644410911259307 ], [ 58.192971792592218, 42.665338410626603 ], [ 58.248627217908457, 42.68593981675965 ], [ 58.266957975391776, 42.687544307268105 ], [ 58.441838, 42.647837 ], [ 58.534546, 42.654503 ], [ 58.587875801658413, 42.791187491649723 ], [ 58.764870988120052, 42.650683389294606 ], [ 58.89442, 42.547843 ], [ 59.009245, 42.518465 ], [ 59.09417042781206, 42.533177333553986 ], [ 59.122003117572483, 42.537998945122098 ], [ 59.146084, 42.526759 ], [ 59.200970050019436, 42.480230640235327 ], [ 59.223805786000071, 42.460871888000085 ], [ 59.245199829000057, 42.365348003000022 ], [ 59.255111980197739, 42.35840217306793 ], [ 59.258429, 42.347545 ], [ 59.275848940288107, 42.343870879811448 ], [ 59.287161, 42.335944 ], [ 59.309935997685571, 42.332836287385447 ], [ 59.361575154000093, 42.325789694 ], [ 59.426480754000124, 42.286773987000075 ], [ 59.426480987611669, 42.286774007446823 ], [ 59.426481, 42.286774 ], [ 59.441195406157277, 42.288061880450563 ], [ 59.689513794000106, 42.309795838000028 ], [ 59.866350545000046, 42.30421478300012 ], [ 59.925675090000084, 42.246285502 ], [ 59.945236553519592, 42.236086225415953 ], [ 59.960712, 42.222721 ], [ 59.990535284877758, 42.212467630132039 ], [ 60.030529532135212, 42.191614773742096 ], [ 60.036986, 42.169701 ], [ 59.983656, 42.145594 ], [ 59.982614519998911, 42.140345384652029 ], [ 59.974457642000118, 42.099240215000023 ], [ 59.985765209853184, 42.055166398678878 ], [ 59.997194985633953, 42.010615055996425 ], [ 59.919267212000136, 41.989660340000043 ], [ 59.91926702697527, 41.989660007253711 ], [ 59.919267, 41.98966 ], [ 59.906451, 41.966613 ], [ 59.90645145963417, 41.966612655737237 ], [ 59.90645145700006, 41.966612651000091 ], [ 59.906954439385423, 41.966235927439229 ], [ 59.931773, 41.947647 ], [ 59.959964238464501, 41.948405533024243 ], [ 59.983656046000135, 41.949042663000014 ], [ 60.088765910000063, 41.919354553000048 ], [ 60.088770530691043, 41.919350986551585 ], [ 60.167521, 41.849591 ], [ 60.199171518064375, 41.834138745965603 ], [ 60.238366263357541, 41.803886552166524 ], [ 60.252683383316061, 41.780062026198188 ], [ 60.252683549227292, 41.780060758820248 ], [ 60.225398301293495, 41.765462161202954 ], [ 60.102408488000094, 41.795279440000044 ], [ 60.049181763000036, 41.753499044000094 ], [ 60.058276815000113, 41.718591614 ], [ 60.108481526354772, 41.655567641043966 ], [ 60.164729880745753, 41.584956149706066 ], [ 60.140128288256776, 41.571492240925664 ], [ 60.09259, 41.545476 ], [ 60.085941608041161, 41.535568854632395 ], [ 60.071712687000058, 41.514366354000018 ], [ 60.061062098465491, 41.446061749722602 ], [ 60.059207, 41.434165 ], [ 60.059207053499563, 41.434164931823446 ], [ 60.059206991000053, 41.434164531000121 ], [ 60.094243612000071, 41.389516093000097 ], [ 60.299915812000052, 41.309831035000045 ], [ 60.382353754038704, 41.256198055079381 ], [ 60.414534, 41.235262 ], [ 60.414534119019152, 41.235261956650007 ], [ 60.414534140000114, 41.235261943000083 ], [ 60.478096151000045, 41.212110902000077 ], [ 60.658860311000069, 41.243788554 ], [ 60.860295044000111, 41.252986959000097 ], [ 60.930264933000046, 41.240222880000019 ], [ 60.959389622349889, 41.217402236830118 ], [ 60.978014, 41.202809 ], [ 60.988265217569449, 41.213750392888656 ], [ 61.010260051000046, 41.237225647000017 ], [ 61.022765747000051, 41.21686513300007 ], [ 61.022765908950618, 41.216865148237353 ], [ 61.022766, 41.216865 ], [ 61.057210059465774, 41.220105861058535 ], [ 61.099660279000034, 41.224099833000039 ], [ 61.202599731000134, 41.168806051000033 ], [ 61.202599970220462, 41.168806015996012 ], [ 61.2026, 41.168806 ], [ 61.281355, 41.157282 ], [ 61.343986, 41.193817 ], [ 61.345399662089982, 41.195180304114267 ], [ 61.387498006000044, 41.235778707000023 ], [ 61.410752401000082, 41.292002666000101 ], [ 61.433179972000062, 41.300322571000052 ], [ 61.562602173620569, 41.270537321321875 ], [ 61.654355, 41.249421 ], [ 61.877907, 41.124984 ], [ 61.971446378109185, 41.008609167832645 ], [ 61.979534285777689, 40.92031031213908 ], [ 61.982707, 40.885671 ], [ 62.036812, 40.736326 ], [ 62.037163789592377, 40.735903793534966 ], [ 62.044770549000134, 40.71498362200002 ], [ 62.075948283861926, 40.684213820092431 ], [ 62.100064, 40.660413 ], [ 62.120683, 40.59897 ], [ 62.132014721092276, 40.583054727590273 ], [ 62.134171, 40.577834 ], [ 62.191825052563168, 40.499051158254709 ], [ 62.191841675000092, 40.499027812000051 ], [ 62.353278850000095, 40.430401510000095 ], [ 62.405058635000046, 40.245244853000074 ], [ 62.427849787294434, 40.207336336175125 ], [ 62.435754, 40.194189 ], [ 62.421595, 40.115072 ], [ 62.425604676684976, 40.101476507333444 ], [ 62.452807658000097, 40.009238586000052 ], [ 62.593160848000139, 39.890227763000027 ], [ 63.162134116958597, 39.576717308278042 ], [ 63.477551, 39.402919 ], [ 63.709268, 39.190891 ], [ 63.709268000820494, 39.190890999542802 ], [ 63.709268432000101, 39.190890605 ], [ 64.120612834000042, 38.96167978900003 ], [ 64.136141985503912, 38.957359395864735 ], [ 64.150585, 38.949458 ], [ 64.164541508241271, 38.949458 ], [ 64.180144, 38.945117 ], [ 64.193108487157232, 38.949458 ], [ 64.205982, 38.949458 ], [ 64.283393928677512, 38.979688972147081 ], [ 64.337343791000137, 38.970955709000052 ], [ 64.42431522600009, 38.882950745000031 ], [ 64.634896688000083, 38.744147848000026 ], [ 64.977718139000046, 38.612269592000089 ], [ 65.205301148000103, 38.449643860000023 ], [ 65.60413985200006, 38.237408753000054 ], [ 65.671629273000065, 38.219683736000022 ], [ 65.708606402542998, 38.222052279284995 ], [ 65.740204, 38.224076 ], [ 65.781340460742953, 38.247439508240888 ], [ 65.814359578000051, 38.266192526000069 ], [ 65.864945534354362, 38.271687351535512 ], [ 65.876681, 38.272962 ], [ 66.006858704801843, 38.236465700450395 ], [ 66.043492879000041, 38.226194967000097 ], [ 66.133564900000067, 38.17529368100007 ], [ 66.23107832900007, 38.14878367200005 ], [ 66.240843473870584, 38.139979741950349 ], [ 66.306939, 38.08039 ], [ 66.439438, 38.035457 ], [ 66.554159, 38.026853 ], [ 66.604578925231664, 38.003128469867981 ], [ 66.624335978000033, 37.993831889000049 ], [ 66.645781698000064, 37.945901998000053 ], [ 66.518812703000094, 37.782707825 ], [ 66.519122763000041, 37.625249736000015 ], [ 66.509142012080432, 37.585125509589737 ], [ 66.493491, 37.522207 ], [ 66.514556304873736, 37.4938879562878 ], [ 66.546614624000142, 37.45079010000002 ], [ 66.499290731383766, 37.400188041664656 ], [ 66.497005, 37.397744 ], [ 66.495730601680634, 37.386985611607159 ], [ 66.494834839000077, 37.379424948000022 ], [ 66.502990475999553, 37.374402165126924 ], [ 66.519587614982655, 37.364180237126384 ], [ 66.488195117009383, 37.342424353787052 ], [ 66.451065, 37.322943 ], [ 66.434379555795459, 37.334796775874239 ], [ 66.413496135000059, 37.349633484000023 ], [ 66.316842323736623, 37.33467815274291 ], [ 66.294434, 37.331211 ], [ 66.250848, 37.35965 ], [ 66.240714214342319, 37.362035613138055 ], [ 66.229877025313456, 37.368254032575678 ], [ 66.21846927900009, 37.374799906000064 ], [ 66.218469155700816, 37.37479991065829 ], [ 66.218469, 37.3748 ], [ 66.180379643345603, 37.376239085572827 ], [ 66.156637866201734, 37.381828181039069 ], [ 66.150923566416111, 37.386211226968435 ], [ 66.079666382000141, 37.440868225000102 ], [ 65.855183960000033, 37.507944235000039 ], [ 65.804334351000136, 37.565305074000023 ], [ 65.761442912000064, 37.578379212000087 ], [ 65.739428752000094, 37.529054057000067 ], [ 65.728525504707235, 37.528557138950696 ], [ 65.681034, 37.526393 ], [ 65.65871, 37.51027 ], [ 65.620986, 37.430404 ], [ 65.623654807606243, 37.357021688050935 ], [ 65.62408694379009, 37.345137943273933 ], [ 65.536857, 37.257107 ], [ 65.501407, 37.242276 ], [ 65.290169028834953, 37.237917447869663 ], [ 65.063087606000124, 37.233232321000102 ], [ 64.907267061861603, 37.170105459221141 ], [ 64.778764, 37.118046 ], [ 64.773557015402716, 37.103558163067106 ], [ 64.75561283400009, 37.053630880000085 ], [ 64.778763875000095, 36.938469950000112 ], [ 64.60482100400003, 36.66055409800002 ], [ 64.603243352155985, 36.654635358587697 ], [ 64.588801, 36.600454 ], [ 64.610505, 36.500926 ] ] ], [ [ [ 53.539723969260727, 39.539618059236297 ], [ 53.506195509000065, 39.508612372000073 ], [ 53.486582879000082, 39.51634349200009 ], [ 53.462901238000086, 39.573797919000071 ], [ 53.476986854720536, 39.589895766445096 ], [ 53.479991, 39.593329 ], [ 53.479993871764414, 39.593328815629917 ], [ 53.498301629000082, 39.591009833000044 ], [ 53.512946387706478, 39.591213231912775 ], [ 53.51295, 39.591213 ], [ 53.539723969260727, 39.539618059236297 ] ] ], [ [ [ 53.102060593931782, 38.75507429421998 ], [ 53.040212436000047, 38.906683661000045 ], [ 53.030836204507104, 38.996612748297842 ], [ 53.026378, 39.039374 ], [ 53.040294, 39.081 ], [ 53.050395403836497, 39.085078409486783 ], [ 53.081716161471363, 39.097723627114718 ], [ 53.087900881977014, 39.083441272550097 ], [ 53.058848504000082, 39.067084052000041 ], [ 53.053965691000087, 39.02680084800005 ], [ 53.074445690963081, 38.911094046143951 ], [ 53.102060593931782, 38.75507429421998 ] ] ] ] } }
]
}
