{"type":"FeatureCollection","features":[{"type":"Feature","geometry":{"type":"LineString","coordinates":[[35.23804,-6.67039],[31.86466,-3.67681]]},"properties":{"zone_a":"TZA_1","zone_b":"TZA_2","mw":669,"status":"existing","label":"669 MW"}},{"type":"Feature","geometry":{"type":"LineString","coordinates":[[35.23804,-6.67039],[38.28984,-8.37019]]},"properties":{"zone_a":"TZA_1","zone_b":"TZA_5","mw":870,"status":"existing","label":"870 MW"}},{"type":"Feature","geometry":{"type":"LineString","coordinates":[[35.23804,-6.67039],[33.40948,-8.82456]]},"properties":{"zone_a":"TZA_1","zone_b":"TZA_4","mw":580,"status":"existing","label":"580 MW"}},{"type":"Feature","geometry":{"type":"LineString","coordinates":[[35.23804,-6.67039],[35.96068,-3.15471]]},"properties":{"zone_a":"TZA_1","zone_b":"TZA_3","mw":1870,"status":"existing","label":"1,870 MW"}},{"type":"Feature","geometry":{"type":"LineString","coordinates":[[35.96068,-3.15471],[38.28984,-8.37019]]},"properties":{"zone_a":"TZA_3","zone_b":"TZA_5","mw":121,"status":"existing","label":"121 MW"}},{"type":"Feature","geometry":{"type":"LineString","coordinates":[[31.86466,-3.67681],[35.96068,-3.15471]]},"properties":{"zone_a":"TZA_2","zone_b":"TZA_3","mw":130,"status":"existing","label":"130 MW"}}]}