{"type":"FeatureCollection","features":[{"type":"Feature","geometry":{"type":"LineString","coordinates":[[30.6039,-3.9643],[32.91039,-3.49035]]},"properties":{"zone_a":"TZA_2","zone_b":"TZA_5","mw":420,"status":"existing","label":"420 MW"}},{"type":"Feature","geometry":{"type":"LineString","coordinates":[[38.38817,-8.59718],[35.47358,-6.34713]]},"properties":{"zone_a":"TZA_1","zone_b":"TZA_7","mw":870,"status":"existing","label":"870 MW"}},{"type":"Feature","geometry":{"type":"LineString","coordinates":[[35.43394,-9.77919],[35.47358,-6.34713]]},"properties":{"zone_a":"TZA_4","zone_b":"TZA_7","mw":290,"status":"existing","label":"290 MW"}},{"type":"Feature","geometry":{"type":"LineString","coordinates":[[38.38817,-8.59718],[38.05256,-4.59149]]},"properties":{"zone_a":"TZA_1","zone_b":"TZA_6","mw":124,"status":"existing","label":"124 MW"}},{"type":"Feature","geometry":{"type":"LineString","coordinates":[[36.01734,-2.99929],[35.47358,-6.34713]]},"properties":{"zone_a":"TZA_3","zone_b":"TZA_7","mw":1870,"status":"existing","label":"1,870 MW"}},{"type":"Feature","geometry":{"type":"LineString","coordinates":[[32.91039,-3.49035],[35.47358,-6.34713]]},"properties":{"zone_a":"TZA_5","zone_b":"TZA_7","mw":539,"status":"existing","label":"539 MW"}},{"type":"Feature","geometry":{"type":"LineString","coordinates":[[36.01734,-2.99929],[38.05256,-4.59149]]},"properties":{"zone_a":"TZA_3","zone_b":"TZA_6","mw":130,"status":"existing","label":"130 MW"}}]}