{"type":"FeatureCollection","features":[{"type":"Feature","geometry":{"type":"LineString","coordinates":[[37.05439,-7.56277],[33.61281,-8.50592]]},"properties":{"zone_a":"TZA_2","zone_b":"TZA_3","mw":290,"status":"existing","label":"290 MW"}},{"type":"Feature","geometry":{"type":"LineString","coordinates":[[35.79376,-3.32317],[37.05439,-7.56277]]},"properties":{"zone_a":"TZA_1","zone_b":"TZA_2","mw":1991,"status":"existing","label":"1,991 MW"}},{"type":"Feature","geometry":{"type":"LineString","coordinates":[[35.79376,-3.32317],[31.99499,-3.80736]]},"properties":{"zone_a":"TZA_1","zone_b":"TZA_4","mw":669,"status":"existing","label":"669 MW"}}]}