{"type":"FeatureCollection","features":[{"type":"Feature","geometry":{"type":"LineString","coordinates":[[35.32421,-6.52941],[38.2543,-8.86969]]},"properties":{"zone_a":"TZA_3","zone_b":"TZA_6","mw":870,"status":"existing","label":"870 MW"}},{"type":"Feature","geometry":{"type":"LineString","coordinates":[[35.32421,-6.52941],[33.46619,-8.7793]]},"properties":{"zone_a":"TZA_3","zone_b":"TZA_4","mw":290,"status":"existing","label":"290 MW"}},{"type":"Feature","geometry":{"type":"LineString","coordinates":[[38.02116,-4.58607],[38.2543,-8.86969]]},"properties":{"zone_a":"TZA_2","zone_b":"TZA_6","mw":124,"status":"existing","label":"124 MW"}},{"type":"Feature","geometry":{"type":"LineString","coordinates":[[35.32421,-6.52941],[35.35886,-2.84316]]},"properties":{"zone_a":"TZA_3","zone_b":"TZA_5","mw":1870,"status":"existing","label":"1,870 MW"}},{"type":"Feature","geometry":{"type":"LineString","coordinates":[[31.76604,-3.76335],[35.32421,-6.52941]]},"properties":{"zone_a":"TZA_1","zone_b":"TZA_3","mw":539,"status":"existing","label":"539 MW"}},{"type":"Feature","geometry":{"type":"LineString","coordinates":[[31.76604,-3.76335],[35.35886,-2.84316]]},"properties":{"zone_a":"TZA_1","zone_b":"TZA_5","mw":130,"status":"existing","label":"130 MW"}},{"type":"Feature","geometry":{"type":"LineString","coordinates":[[38.02116,-4.58607],[35.35886,-2.84316]]},"properties":{"zone_a":"TZA_2","zone_b":"TZA_5","mw":130,"status":"existing","label":"130 MW"}}]}