{
"type": "FeatureCollection",
"name": "UZB_1z_zones",
"crs": { "type": "name", "properties": { "name": "urn:ogc:def:crs:OGC:1.3:CRS84" } },
"features": [
{ "type": "Feature", "properties": { "zone_id": "UZB", "zone_name": "UZB", "ISO_A3": "UZB" }, "geometry": { "type": "MultiPolygon", "coordinates": [ [ [ [ 68.019806, 38.979689 ], [ 68.019806271612794, 38.979689059168727 ], [ 68.019806356000117, 38.979689026000031 ], [ 68.079513830969674, 38.992695547435325 ], [ 68.153386, 38.899403 ], [ 68.165101874324435, 38.880897997694817 ], [ 68.169226909993156, 38.861202667835087 ], [ 68.170517111141137, 38.855042146028872 ], [ 68.165333290056097, 38.835041128615458 ], [ 68.159761820681936, 38.827150372544423 ], [ 68.157893575226765, 38.824504447253965 ], [ 68.139490574295024, 38.811341369967664 ], [ 68.066728556000044, 38.787969462000049 ], [ 68.07592696200004, 38.726862081000021 ], [ 68.059545410148189, 38.711795917011095 ], [ 68.037635, 38.691645 ], [ 68.037635015845424, 38.691644859491468 ], [ 68.037634725000032, 38.69164459200006 ], [ 68.052327723928201, 38.56135799606087 ], [ 68.055153, 38.536305 ], [ 68.086882, 38.494034 ], [ 68.107553, 38.418276 ], [ 68.171704657364728, 38.351849914798478 ], [ 68.200828898000111, 38.321693014000047 ], [ 68.289108534529646, 38.26873913961186 ], [ 68.332035, 38.24299 ], [ 68.354253664964276, 38.215074500574538 ], [ 68.356219930000123, 38.212604065 ], [ 68.357499867718644, 38.201501349139988 ], [ 68.360663985847552, 38.174053122770232 ], [ 68.319529663000139, 38.060210266000084 ], [ 68.250128260212421, 37.951143681271432 ], [ 68.248733, 37.948951 ], [ 68.21557837475207, 37.938305687849237 ], [ 68.12222904500004, 37.908333232000032 ], [ 68.050192098000139, 37.760409444000047 ], [ 67.829223674000104, 37.527943014000087 ], [ 67.811911518362137, 37.471741640446254 ], [ 67.797339, 37.424435 ], [ 67.820645, 37.303306 ], [ 67.780544165566283, 37.188868472483819 ], [ 67.780543132609139, 37.188869705900665 ], [ 67.764266, 37.220882 ], [ 67.750901270255198, 37.224263984195737 ], [ 67.746593058000087, 37.22940826500006 ], [ 67.725611133312881, 37.230663727780538 ], [ 67.633163, 37.254058 ], [ 67.592287, 37.247185 ], [ 67.566040919347614, 37.224010955905754 ], [ 67.5613849816434, 37.219900027601568 ], [ 67.543289588070536, 37.247108837242926 ], [ 67.52614139800005, 37.27289398200007 ], [ 67.503145386000142, 37.281963196000035 ], [ 67.503145019969907, 37.281962992124406 ], [ 67.503145, 37.281963 ], [ 67.391163, 37.21959 ], [ 67.351274649071712, 37.209184540262179 ], [ 67.259129272000109, 37.185147400000048 ], [ 67.236753377000127, 37.192407939000091 ], [ 67.215061945034051, 37.221589443381042 ], [ 67.187816, 37.258244 ], [ 67.13147006798242, 37.278967022414015 ], [ 67.123323972414894, 37.281963062340274 ], [ 67.103139331170269, 37.327578857662488 ], [ 67.097382039000081, 37.340590108000058 ], [ 67.065149162421648, 37.356023646611142 ], [ 67.005915, 37.384386 ], [ 66.734975, 37.363302 ], [ 66.72091959619469, 37.356460667332655 ], [ 66.6940991620001, 37.343406474000048 ], [ 66.63982091700251, 37.356298221337994 ], [ 66.588576, 37.36847 ], [ 66.555267902984099, 37.366398745054241 ], [ 66.539018, 37.36909 ], [ 66.531014674675816, 37.364890831651728 ], [ 66.519587850000107, 37.36418040000008 ], [ 66.502990475999553, 37.374402165126924 ], [ 66.494835, 37.379425 ], [ 66.495730601680634, 37.386985611607159 ], [ 66.49700524900004, 37.397744242 ], [ 66.499290731383766, 37.400188041664656 ], [ 66.546615, 37.45079 ], [ 66.514556304873736, 37.4938879562878 ], [ 66.49349125100008, 37.522206929000035 ], [ 66.509142012080432, 37.585125509589737 ], [ 66.519123, 37.62525 ], [ 66.518813, 37.782708 ], [ 66.645782, 37.945902 ], [ 66.624336, 37.993832 ], [ 66.604578925231664, 38.003128469867981 ], [ 66.554159384000059, 38.026853129000031 ], [ 66.439437704000113, 38.035457255000082 ], [ 66.306939331000081, 38.080389914000065 ], [ 66.240843473870584, 38.139979741950349 ], [ 66.231078, 38.148784 ], [ 66.133565, 38.175294 ], [ 66.043493, 38.226195 ], [ 66.006858704801843, 38.236465700450395 ], [ 65.87668135600012, 38.272962138000096 ], [ 65.864945534354362, 38.271687351535512 ], [ 65.81436, 38.266193 ], [ 65.781340460742953, 38.247439508240888 ], [ 65.740203898000118, 38.224076234000037 ], [ 65.708606402542998, 38.222052279284995 ], [ 65.671629, 38.219684 ], [ 65.60414, 38.237409 ], [ 65.205301, 38.449644 ], [ 64.977718, 38.61227 ], [ 64.634897, 38.744148 ], [ 64.424315, 38.882951 ], [ 64.337344, 38.970956 ], [ 64.283394, 38.979689 ], [ 64.283393928677512, 38.979688972147081 ], [ 64.28339359600011, 38.979689026000031 ], [ 64.205982300000073, 38.949458314000097 ], [ 64.15058516400012, 38.949458314000097 ], [ 63.833775982812547, 39.122775935739206 ], [ 63.709268000797863, 39.190890999563507 ], [ 63.477551310000138, 39.402919007000023 ], [ 63.162134116958597, 39.576717308278042 ], [ 62.593161, 39.890228 ], [ 62.452808, 40.009239 ], [ 62.425604676684976, 40.101476507333444 ], [ 62.421595092000132, 40.115071920000034 ], [ 62.435754435000092, 40.194188538 ], [ 62.427849787294434, 40.207336336175125 ], [ 62.405059, 40.245245 ], [ 62.353279, 40.430402 ], [ 62.191842, 40.499028 ], [ 62.139616331917935, 40.570393088153068 ], [ 62.134170937510341, 40.577834151298383 ], [ 62.129638084696943, 40.588808979119001 ], [ 62.100064331000056, 40.660413310000095 ], [ 62.036812378000093, 40.736325989000122 ], [ 61.982707153000092, 40.885670878 ], [ 61.98190174471997, 40.9123957933421 ], [ 61.979297, 40.998842 ], [ 61.95046003281567, 41.034718839082416 ], [ 61.877907349000111, 41.12498443600002 ], [ 61.654355103000057, 41.249421285000025 ], [ 61.562602173620569, 41.270537321321875 ], [ 61.43318, 41.300323 ], [ 61.410752, 41.292003 ], [ 61.387498, 41.235779 ], [ 61.345399662089982, 41.195180304114267 ], [ 61.343986450000045, 41.193817444000032 ], [ 61.281354614000122, 41.157282207 ], [ 61.202599970220462, 41.168806015996012 ], [ 61.09966, 41.2241 ], [ 61.057210059465774, 41.220105861058535 ], [ 61.022765908950618, 41.216865148237353 ], [ 61.01026, 41.237226 ], [ 60.988265217569449, 41.213750392888656 ], [ 60.978013957000087, 41.202809144000057 ], [ 60.959389622349889, 41.217402236830118 ], [ 60.930265, 41.240223 ], [ 60.860295, 41.252987 ], [ 60.65886, 41.243789 ], [ 60.478096, 41.212111 ], [ 60.414534119019152, 41.235261956650007 ], [ 60.382353754038704, 41.256198055079381 ], [ 60.299916, 41.309831 ], [ 60.094244, 41.389516 ], [ 60.059207053499563, 41.434164931823446 ], [ 60.061062098465491, 41.446061749722602 ], [ 60.071713, 41.514366 ], [ 60.085941608041161, 41.535568854632395 ], [ 60.092589966000048, 41.545475566000064 ], [ 60.140128288256776, 41.571492240925664 ], [ 60.16473, 41.584956 ], [ 60.164729880745753, 41.584956149706066 ], [ 60.164730265000117, 41.58495636 ], [ 60.108481526354772, 41.655567641043966 ], [ 60.058277, 41.718592 ], [ 60.049182, 41.753499 ], [ 60.102408, 41.795279 ], [ 60.225398, 41.765462 ], [ 60.225398301293495, 41.765462161202954 ], [ 60.225398397000106, 41.765462138000132 ], [ 60.252683553000111, 41.780060730000102 ], [ 60.252683538977188, 41.780060753336073 ], [ 60.252684, 41.780061 ], [ 60.238591112893637, 41.803512389372109 ], [ 60.228912395000066, 41.819619039000045 ], [ 60.167520793000108, 41.84959137 ], [ 60.146916546333394, 41.867843163108333 ], [ 60.088766, 41.919355 ], [ 59.983656, 41.949043 ], [ 59.959964238464501, 41.948405533024243 ], [ 59.931772908000141, 41.947647400000037 ], [ 59.906954439385423, 41.966235927439229 ], [ 59.90645145963417, 41.966612655737237 ], [ 59.91926702697527, 41.989660007253711 ], [ 59.997195, 42.010615 ], [ 59.997194985633953, 42.010615055996425 ], [ 59.997195272000113, 42.010615133000059 ], [ 59.985765209853184, 42.055166398678878 ], [ 59.974458, 42.09924 ], [ 59.982614519998911, 42.140345384652029 ], [ 59.983656046000135, 42.145593974000022 ], [ 60.036986124000123, 42.16970102900008 ], [ 60.028201131000117, 42.199518332000068 ], [ 59.96866383507345, 42.219987125898896 ], [ 59.960712, 42.222721 ], [ 59.866351, 42.304215 ], [ 59.689514, 42.309796 ], [ 59.441195406157277, 42.288061880450563 ], [ 59.426480987611669, 42.286774007446823 ], [ 59.361575, 42.32579 ], [ 59.32363865137512, 42.333791330777096 ], [ 59.258428996000077, 42.347545471 ], [ 59.245948945617954, 42.388394352250081 ], [ 59.223806, 42.460872 ], [ 59.200970050019436, 42.480230640235327 ], [ 59.146084432000066, 42.526759339000094 ], [ 59.12200321500012, 42.537998962000032 ], [ 59.122003117572483, 42.537998945122098 ], [ 59.122003, 42.537999 ], [ 59.09417042781206, 42.533177333553986 ], [ 59.009245239000052, 42.518465271000039 ], [ 58.894420207000053, 42.547843323 ], [ 58.764870988120052, 42.650683389294606 ], [ 58.587876, 42.791188 ], [ 58.587875801658413, 42.791187491649723 ], [ 58.587875611000072, 42.791187643000043 ], [ 58.534545532000095, 42.654503480000088 ], [ 58.441838013000108, 42.647837220000085 ], [ 58.258283325000036, 42.689514262 ], [ 58.148832642000116, 42.648999939000092 ], [ 58.121340780000139, 42.624246928000062 ], [ 58.133691714994072, 42.60820641332532 ], [ 58.145732, 42.592569 ], [ 58.306239, 42.528671 ], [ 58.435740051106379, 42.366359579104618 ], [ 58.490620565000143, 42.297574361000031 ], [ 58.397602987000084, 42.287859192000084 ], [ 58.39608262182854, 42.299623777850023 ], [ 58.384684, 42.387827 ], [ 58.384683902096072, 42.387827072283258 ], [ 58.384683879000079, 42.387827251000047 ], [ 58.359829476174816, 42.406177294784932 ], [ 58.325049, 42.431856 ], [ 58.203816, 42.469502 ], [ 58.172613804507513, 42.462900430518765 ], [ 58.133226360000037, 42.454567362000077 ], [ 58.080126090267356, 42.497119612830375 ], [ 58.079896, 42.497304 ], [ 58.016024, 42.499707 ], [ 57.977683407220034, 42.474973402655479 ], [ 57.908640584000125, 42.430434469000019 ], [ 57.937475924125906, 42.354237857697115 ], [ 57.888073, 42.261582 ], [ 57.827302, 42.227372 ], [ 57.827302002103153, 42.227371996734952 ], [ 57.82730188000005, 42.227371928000039 ], [ 57.850452912588871, 42.191430983610509 ], [ 57.619769, 42.148178 ], [ 57.453302925943397, 42.1590075291057 ], [ 57.382264445000033, 42.163629049000022 ], [ 57.382264263210828, 42.163628982876695 ], [ 57.382264, 42.163629 ], [ 57.338204346254116, 42.147602793424348 ], [ 57.288213338000048, 42.129419251000044 ], [ 57.284127360833111, 42.126428294650729 ], [ 57.207805, 42.07056 ], [ 57.207804878679418, 42.07055984427366 ], [ 57.207804810000084, 42.070559794000033 ], [ 57.165358818072754, 42.016076346885427 ], [ 57.115511, 41.952092 ], [ 57.01703219979499, 41.911182549304556 ], [ 56.978361450000079, 41.895118306000072 ], [ 56.978361256339234, 41.895118106486848 ], [ 56.978361, 41.895118 ], [ 56.965657474101029, 41.882030419251066 ], [ 56.950146118000077, 41.866050314000077 ], [ 56.950146147979339, 41.866050152453077 ], [ 56.950146, 41.86605 ], [ 56.956732907190315, 41.830556573837654 ], [ 56.971953573000121, 41.748538106000055 ], [ 56.966273653033838, 41.698365480126377 ], [ 56.960481, 41.647201 ], [ 57.012054, 41.557826 ], [ 57.019599, 41.465946 ], [ 57.01959922948123, 41.465945701633608 ], [ 57.019599243000073, 41.465945537000053 ], [ 57.074169555000083, 41.394993795000076 ], [ 57.136511805745137, 41.375678038750024 ], [ 57.161399, 41.367967 ], [ 57.080061, 41.322027 ], [ 57.08006076917043, 41.322026728576574 ], [ 57.08006066900009, 41.322026672000064 ], [ 57.072763970018194, 41.313446709185612 ], [ 57.029521, 41.262599 ], [ 57.010194, 41.254124 ], [ 56.793463, 41.288334 ], [ 55.978422485773443, 41.321716980103361 ], [ 55.976974300475263, 43.661326177339767 ], [ 55.976149, 44.995084 ], [ 56.522698815315898, 45.119462441857621 ], [ 57.478279256000121, 45.336923726000023 ], [ 58.554906046000042, 45.557168681000078 ], [ 61.036304972000039, 44.382821758 ], [ 61.07021911080961, 44.346274285730594 ], [ 61.080229964235357, 44.335486038541951 ], [ 61.083752707071206, 44.32001170687662 ], [ 61.102864, 44.236061 ], [ 61.102864198697638, 44.236060770396918 ], [ 61.102864217000047, 44.236060690000031 ], [ 61.117579176745323, 44.219057023742884 ], [ 61.161672, 44.168106 ], [ 61.985704, 43.493341 ], [ 62.01402532202642, 43.484432023592589 ], [ 62.026115357000094, 43.480628765000048 ], [ 62.557454501455688, 43.54664250183837 ], [ 63.208007, 43.627467 ], [ 64.361388705757207, 43.551346307741639 ], [ 64.426744018000136, 43.547032979 ], [ 64.475912598831002, 43.566076312170345 ], [ 64.855038, 43.712914 ], [ 64.922941, 43.719115 ], [ 65.271447, 43.417015 ], [ 65.51691, 43.297229 ], [ 65.795239, 42.877203 ], [ 65.795239273966658, 42.877203101268869 ], [ 65.79523929800007, 42.877203065000103 ], [ 66.10126697528537, 42.990322717441892 ], [ 66.053208006012866, 42.440873068744033 ], [ 66.039804286040606, 42.428021988513343 ], [ 66.013727, 42.40302 ], [ 66.009287571614976, 42.052036021620957 ], [ 66.008662964000052, 42.002656962000074 ], [ 66.05361354928921, 42.001824804186235 ], [ 66.504136650387352, 41.993484006472585 ], [ 66.529324159433259, 41.810181157937848 ], [ 66.538863, 41.740761 ], [ 66.57398652162064, 41.604736048276209 ], [ 66.602631877000135, 41.493799134000128 ], [ 66.688208049000082, 41.199191793000082 ], [ 66.707958850205799, 41.18103747677835 ], [ 66.73296, 41.158057 ], [ 66.776077112859312, 41.149585472019112 ], [ 66.815280396000048, 41.141882630000012 ], [ 67.374565568326958, 41.167194838296936 ], [ 67.748143, 41.184102 ], [ 67.807318829150333, 41.165528435138 ], [ 67.834908081000037, 41.156868795000079 ], [ 67.880510720548628, 41.176222334508232 ], [ 67.937434, 41.20038 ], [ 68.003063, 41.115631 ], [ 68.025141564490966, 41.064224098420638 ], [ 68.034379110000089, 41.042715556000061 ], [ 68.059080051408586, 41.054755973144765 ], [ 68.070946734483357, 41.048556959598244 ], [ 68.08212813300014, 41.042715556000061 ], [ 68.095977354343319, 41.065143026533512 ], [ 68.117371, 41.066745 ], [ 68.118378004287294, 41.04550701338399 ], [ 68.118921753000052, 41.034033916000013 ], [ 68.122325601814183, 41.032828386165967 ], [ 68.131323570299458, 41.029641152207269 ], [ 68.114770716079306, 41.021256536105554 ], [ 68.099698, 41.013622 ], [ 68.099698233765366, 41.01362178162627 ], [ 68.099698120000085, 41.01362172400006 ], [ 68.113999870170076, 41.000261797309392 ], [ 68.120885, 40.99383 ], [ 68.120575, 40.965304 ], [ 68.103009512597978, 40.924748395838996 ], [ 68.080577841000036, 40.872958476000051 ], [ 68.025766616746665, 40.835143470253755 ], [ 67.990919, 40.811102 ], [ 67.990919375547534, 40.811101886725233 ], [ 67.990919231000134, 40.811101787000027 ], [ 68.014040066748905, 40.804128093335514 ], [ 68.067504, 40.788002 ], [ 68.120794935666581, 40.751328884714837 ], [ 68.226098673000138, 40.678861797000096 ], [ 68.461743205000062, 40.584655660000109 ], [ 68.514814901000079, 40.619123840000057 ], [ 68.59300134300014, 40.599486796000051 ], [ 68.614240357000085, 40.609098613000057 ], [ 68.617975056883949, 40.617070157984038 ], [ 68.62039, 40.622224 ], [ 68.620389707442982, 40.622224118449545 ], [ 68.620389852000073, 40.622224427 ], [ 68.613200036517782, 40.625135049287429 ], [ 68.601115, 40.630028 ], [ 68.627418, 40.667131 ], [ 68.625770675109962, 40.671589970658488 ], [ 68.609434448000115, 40.715810445000031 ], [ 68.576408735879383, 40.724042373685585 ], [ 68.574605, 40.724492 ], [ 68.567709099624693, 40.736961528591287 ], [ 68.559773397000129, 40.751312155000093 ], [ 68.549696493000056, 40.835027974000027 ], [ 68.563261774651536, 40.856719777690429 ], [ 68.571866, 40.870478 ], [ 68.570884, 40.913524 ], [ 68.586900708620817, 40.907461588668312 ], [ 68.589177287000098, 40.906599833000072 ], [ 68.595384663978663, 40.919892990562545 ], [ 68.600133, 40.930061 ], [ 68.610246620399522, 40.934013975592762 ], [ 68.689377889000127, 40.964942525000126 ], [ 68.728618511355947, 41.02182100241783 ], [ 68.773765826565594, 41.08726074861179 ], [ 68.842443482000135, 41.11010162400008 ], [ 68.872058429238223, 41.145712483965681 ], [ 68.880219, 41.155525 ], [ 68.904268874972956, 41.159064261358942 ], [ 68.94378096500003, 41.164878642000062 ], [ 69.031217489000085, 41.208751933000073 ], [ 69.051591786432709, 41.300972442219901 ], [ 69.054782, 41.315412 ], [ 69.053668030510806, 41.318920908086255 ], [ 69.036178445231926, 41.374013102419667 ], [ 69.058356949594994, 41.379114971883631 ], [ 69.128059123000128, 41.395148824000032 ], [ 69.162682303488154, 41.43406114483205 ], [ 69.217149, 41.460054 ], [ 69.369202451988301, 41.472188129661014 ], [ 69.402357626000139, 41.474833883000073 ], [ 69.402357584900756, 41.474833966874357 ], [ 69.402358, 41.474834 ], [ 69.380809, 41.518811 ], [ 69.385049143809084, 41.527359286840401 ], [ 69.393779338000115, 41.544958802000039 ], [ 69.436036637163056, 41.559210180536503 ], [ 69.477288, 41.573122 ], [ 69.624566, 41.66831 ], [ 69.756988650350991, 41.688803817294918 ], [ 69.912404012000138, 41.712855530000056 ], [ 69.972038615000031, 41.764583639000094 ], [ 70.027634766421457, 41.789127759187551 ], [ 70.1111, 41.825975 ], [ 70.204169, 41.935813 ], [ 70.270315, 41.965553 ], [ 70.315067, 42.034593 ], [ 70.357907, 42.06224 ], [ 70.364514206042927, 42.0639685870688 ], [ 70.470199130841337, 42.091617863827153 ], [ 70.505099154713434, 42.055295740837764 ], [ 70.534226522000097, 42.024981181000058 ], [ 70.534226896165109, 42.02498110806593 ], [ 70.534227, 42.024981 ], [ 70.551640216439893, 42.021586816146915 ], [ 70.579029989000048, 42.016247864000078 ], [ 70.594590070169247, 42.021812396348608 ], [ 70.610243, 42.02741 ], [ 70.734266, 42.197296 ], [ 70.842373, 42.192542 ], [ 70.842373028196121, 42.192542015630082 ], [ 70.842373088000102, 42.192542013000079 ], [ 70.910107287775162, 42.230089433102421 ], [ 70.944352660161272, 42.249072814650674 ], [ 70.947793, 42.248146 ], [ 71.045771481510798, 42.290959773435155 ], [ 71.045771526000067, 42.290959778000015 ], [ 71.045904489393564, 42.290899904723226 ], [ 71.249868, 42.198385 ], [ 71.23821671167299, 42.160249602413096 ], [ 71.238214559000085, 42.160244243000093 ], [ 71.118428589000132, 42.122908020000054 ], [ 71.069664344018435, 42.095752364268698 ], [ 70.977145, 42.044231 ], [ 70.845474, 42.030356 ], [ 70.845473872468361, 42.030355550914052 ], [ 70.845473674000061, 42.030355530000108 ], [ 70.814002726000126, 41.91953542100002 ], [ 70.720089549189794, 41.901246755863554 ], [ 70.648948, 41.887393 ], [ 70.506476, 41.78559 ], [ 70.485878650137266, 41.756920710461252 ], [ 70.453662964000102, 41.712080384000032 ], [ 70.17932072656059, 41.583060265616744 ], [ 70.169288, 41.578342 ], [ 70.16928798072388, 41.57834197627259 ], [ 70.169287557000132, 41.578341777 ], [ 70.160186189978972, 41.56713837420034 ], [ 70.148255, 41.552452 ], [ 70.153874941093235, 41.542545985979437 ], [ 70.166548706000071, 41.52020579000002 ], [ 70.166550028977611, 41.520205593590518 ], [ 70.203446, 41.505633 ], [ 70.344419, 41.493799 ], [ 70.368733706778698, 41.480951014477483 ], [ 70.387812273787333, 41.470869726212662 ], [ 70.453197742304795, 41.405484257695207 ], [ 70.453197876000047, 41.405484111000035 ], [ 70.453197885946381, 41.405484114053628 ], [ 70.453198, 41.405484 ], [ 70.505010002972398, 41.421390795760935 ], [ 70.667810099000064, 41.471371562000044 ], [ 70.703570191000097, 41.445481669000102 ], [ 70.708530432936811, 41.438424064824403 ], [ 70.769199, 41.352102 ], [ 70.75628, 41.269627 ], [ 70.770439, 41.238518 ], [ 70.77043927038082, 41.238518049309533 ], [ 70.770439494000073, 41.238517558000055 ], [ 70.809314257382738, 41.245607706489722 ], [ 70.828524, 41.249111 ], [ 70.914203, 41.193042 ], [ 70.96729622992838, 41.191477819673104 ], [ 71.024687541000048, 41.189786682000019 ], [ 71.070584577719529, 41.175058168689269 ], [ 71.123079, 41.158212 ], [ 71.18013, 41.108138 ], [ 71.180130009971435, 41.108138128799624 ], [ 71.180130249000058, 41.108137919000043 ], [ 71.185711304000108, 41.180226543000018 ], [ 71.201005393272055, 41.186535354556504 ], [ 71.206382, 41.188753 ], [ 71.241521989414139, 41.175162004094268 ], [ 71.276145061000079, 41.113150533000109 ], [ 71.312695125449451, 41.146045591748987 ], [ 71.325237786411506, 41.157333807773398 ], [ 71.36137812938189, 41.1337770735608 ], [ 71.393657, 41.112737 ], [ 71.393657227037579, 41.112737148048176 ], [ 71.393657267000094, 41.112737122000098 ], [ 71.416084839000064, 41.127361552000067 ], [ 71.416084843222677, 41.127361897767599 ], [ 71.416085, 41.127362 ], [ 71.418515262300403, 41.326375790865008 ], [ 71.418772014000126, 41.347399801000037 ], [ 71.523830201000067, 41.296653545000069 ], [ 71.561355663180322, 41.312996291908178 ], [ 71.585532, 41.323525 ], [ 71.617947401578235, 41.390842423018107 ], [ 71.637414999000043, 41.431270651000048 ], [ 71.637414901703465, 41.431270795866496 ], [ 71.637415, 41.431271 ], [ 71.601926768001434, 41.484109654520694 ], [ 71.595454021045839, 41.493747032590854 ], [ 71.62738987950857, 41.543201813411073 ], [ 71.671418091000078, 41.547387594000085 ], [ 71.689504842000076, 41.493799134000128 ], [ 71.671934855000131, 41.425482890000055 ], [ 71.67193500727403, 41.425483028282976 ], [ 71.671935, 41.425483 ], [ 71.687524408384206, 41.439640070250334 ], [ 71.696119006651372, 41.447444994089345 ], [ 71.721648, 41.424759 ], [ 71.730433, 41.451166 ], [ 71.734965932247349, 41.45167330563212 ], [ 71.745212036000112, 41.452819723000076 ], [ 71.847014608000052, 41.341818746000044 ], [ 71.868822008445306, 41.27923874355416 ], [ 71.869127314040398, 41.26996799859392 ], [ 71.871612590000041, 41.194489237000099 ], [ 71.87161299210419, 41.19448923975964 ], [ 71.871613, 41.194489 ], [ 71.919452518967333, 41.194817550670955 ], [ 71.977032511000118, 41.195212708 ], [ 72.006647030755829, 41.17506512496886 ], [ 72.033773, 41.15661 ], [ 72.108497, 41.196401 ], [ 72.131505652094816, 41.192471277088131 ], [ 72.158416789000114, 41.187874654 ], [ 72.185598592000076, 41.060647278000047 ], [ 72.16513472500003, 40.999359030000093 ], [ 72.165135029761387, 40.999359089132895 ], [ 72.165135, 40.999359 ], [ 72.184458576364364, 41.003108433938301 ], [ 72.289778280000064, 41.023543600000053 ], [ 72.319577331144984, 41.058043958341941 ], [ 72.332359817991829, 41.072842789281374 ], [ 72.377035135407866, 41.036727790597268 ], [ 72.395198, 41.022045 ], [ 72.402708986452552, 41.020899118300818 ], [ 72.481911005484122, 41.008815855066835 ], [ 72.483358, 40.970575 ], [ 72.545576844101916, 40.956519035219202 ], [ 72.61947391800004, 40.880089824000081 ], [ 72.658231242000113, 40.867170716000075 ], [ 72.868657674000076, 40.864121806000028 ], [ 72.86948017541269, 40.841271691086078 ], [ 72.870311, 40.818181 ], [ 73.003429830830484, 40.870167933934184 ], [ 73.053555949000099, 40.836319886000084 ], [ 73.073448801124187, 40.835770486120325 ], [ 73.143369695864266, 40.83383900840137 ], [ 73.148640584000134, 40.813685608000029 ], [ 73.124291431267366, 40.789213063727288 ], [ 73.118048126171217, 40.782938126810471 ], [ 72.890981893000117, 40.6950881960001 ], [ 72.78390832600013, 40.6696633910001 ], [ 72.760033814000053, 40.641758118000027 ], [ 72.749566397818668, 40.582010479098187 ], [ 72.748355, 40.575096 ], [ 72.719209, 40.564864 ], [ 72.664226, 40.577783 ], [ 72.664225894892638, 40.577782651087318 ], [ 72.664225708000117, 40.577782695000039 ], [ 72.650479777000101, 40.532152405000048 ], [ 72.634742220124252, 40.518528362950995 ], [ 72.625468, 40.5105 ], [ 72.585781, 40.508743 ], [ 72.545898155247741, 40.523706479385702 ], [ 72.447908163000136, 40.560471090000036 ], [ 72.433335067738227, 40.571820852611694 ], [ 72.381556, 40.612148 ], [ 72.3605807988354, 40.604948845394709 ], [ 72.351893351000058, 40.601967265000027 ], [ 72.351893403081831, 40.60196713834663 ], [ 72.351893, 40.601967 ], [ 72.370083, 40.557732 ], [ 72.364501840628549, 40.519402244613062 ], [ 72.363468872000112, 40.512308655000041 ], [ 72.398277149918314, 40.482919458388089 ], [ 72.426203940617356, 40.459340050138501 ], [ 72.418780433820274, 40.443192132652406 ], [ 72.400089361170345, 40.402534993694076 ], [ 72.381480298811979, 40.391916919023899 ], [ 72.349011718629995, 40.398355447563979 ], [ 72.324179082342056, 40.403279855843252 ], [ 72.269624, 40.424045 ], [ 72.211644606938293, 40.425595983764033 ], [ 72.230388360263845, 40.432160337113352 ], [ 72.259599, 40.44239 ], [ 72.25959916487281, 40.442390414288454 ], [ 72.259599244000071, 40.442390442000047 ], [ 72.259599212741819, 40.442390534572546 ], [ 72.26363, 40.452519 ], [ 72.255441589471189, 40.454703640377197 ], [ 72.254225, 40.458307 ], [ 72.243670739786253, 40.457844063467263 ], [ 72.235931, 40.459909 ], [ 72.16585923696023, 40.454431096700127 ], [ 72.165858195000112, 40.454431051000128 ], [ 72.16585809087951, 40.45443100710456 ], [ 72.165858, 40.454431 ], [ 72.099299, 40.426371 ], [ 72.051553328341626, 40.360819709016631 ], [ 71.956672, 40.31568 ], [ 71.956672008764883, 40.315679835186351 ], [ 71.956671998000047, 40.315679831000026 ], [ 71.956725544513517, 40.314673155876697 ], [ 71.958222, 40.286534 ], [ 72.019820587322315, 40.258732186257319 ], [ 72.019367997999609, 40.249630114479928 ], [ 72.01889, 40.240026 ], [ 71.900780066961673, 40.245947780577296 ], [ 71.836472616000037, 40.249172262000044 ], [ 71.775907956391521, 40.179925979505668 ], [ 71.693329, 40.141117 ], [ 71.686366463652163, 40.14344357395165 ], [ 71.673071934433025, 40.147886388686992 ], [ 71.660153, 40.224471 ], [ 71.642328609724743, 40.243741700710366 ], [ 71.628319946000033, 40.258887431000076 ], [ 71.609347686581174, 40.226434881245495 ], [ 71.592973013903389, 40.198426023781728 ], [ 71.587389554147563, 40.198840358362574 ], [ 71.521246, 40.203749 ], [ 71.477115, 40.220802 ], [ 71.441355, 40.260903 ], [ 71.365132, 40.294131 ], [ 71.283225, 40.29842 ], [ 71.254375998088165, 40.32392238425706 ], [ 71.253820841000106, 40.324413147000101 ], [ 71.201007527000058, 40.26384836900003 ], [ 71.053212932000122, 40.274235331000071 ], [ 70.995128622000038, 40.26658722000009 ], [ 70.969250357663427, 40.246402174060748 ], [ 70.958955, 40.238372 ], [ 70.943622661893556, 40.236605417423263 ], [ 70.938336, 40.239922 ], [ 70.86910045784856, 40.228019014858205 ], [ 70.622128, 40.199563 ], [ 70.581821, 40.221732 ], [ 70.5484800130438, 40.292140777785406 ], [ 70.524046265000038, 40.343740133000054 ], [ 70.497736572609824, 40.343607255592055 ], [ 70.442191, 40.343327 ], [ 70.413312323946045, 40.352137816881587 ], [ 70.371394172351941, 40.364927442737901 ], [ 70.37398566105027, 40.371584462121838 ], [ 70.384933309000132, 40.39970570900006 ], [ 70.353824180608726, 40.456136221337914 ], [ 70.366292476832655, 40.471416251219878 ], [ 70.369637071877023, 40.475515019917886 ], [ 70.477796, 40.505487 ], [ 70.517803879372948, 40.548789655777696 ], [ 70.525493128365852, 40.557112039055767 ], [ 70.532694273599958, 40.559303013210446 ], [ 70.569314820000045, 40.570444642000055 ], [ 70.637879242197968, 40.614478237562231 ], [ 70.732096, 40.674986 ], [ 70.756177, 40.69514 ], [ 70.76083508139368, 40.713201705288988 ], [ 70.767132203000074, 40.737617900000075 ], [ 70.76713198828547, 40.737617954576933 ], [ 70.767132, 40.737618 ], [ 70.756705996100479, 40.74026806724769 ], [ 70.637424357000043, 40.770587463000126 ], [ 70.62176639900008, 40.785987040000109 ], [ 70.625782538194457, 40.803182066551543 ], [ 70.628742981823549, 40.815855922185413 ], [ 70.703156779000096, 40.788932597000027 ], [ 70.703156828367867, 40.78893306209654 ], [ 70.703157, 40.788933 ], [ 70.703666470487477, 40.793734428435222 ], [ 70.70512048300003, 40.807432760000026 ], [ 70.635903721000787, 40.865729268010632 ], [ 70.445705, 41.025921 ], [ 70.40116, 41.039977 ], [ 70.363539, 41.032432 ], [ 70.335892005511639, 40.926960021026645 ], [ 70.331565265839231, 40.923120744554673 ], [ 70.280392, 40.877713 ], [ 70.104227, 40.813324 ], [ 70.047358963330041, 40.78007320459745 ], [ 70.009659057000079, 40.75803009000002 ], [ 69.803315064000117, 40.705630188000086 ], [ 69.803314007950235, 40.70562933270805 ], [ 69.701245618639945, 40.636974092587081 ], [ 69.67035712562766, 40.638277286817967 ], [ 69.652766811188499, 40.645334403615749 ], [ 69.628529368928966, 40.667172934041005 ], [ 69.509224487000097, 40.774669902000127 ], [ 69.498044004942784, 40.778937381869142 ], [ 69.435844, 40.802679 ], [ 69.385253, 40.796116 ], [ 69.366720506280771, 40.778688596364333 ], [ 69.314197632000116, 40.729297995000096 ], [ 69.309985938980603, 40.613566031109507 ], [ 69.30934, 40.595818 ], [ 69.235232199158389, 40.576237550645999 ], [ 69.198442424000064, 40.566517233000084 ], [ 69.198442478439418, 40.566517126411235 ], [ 69.198442, 40.566517 ], [ 69.311563413178916, 40.34503339743722 ], [ 69.312698998757099, 40.342809991760753 ], [ 69.305309, 40.293821 ], [ 69.208364, 40.298317 ], [ 69.212498, 40.268758 ], [ 69.212498399771107, 40.268757724586976 ], [ 69.212498413000048, 40.268757630000081 ], [ 69.22606661160728, 40.259410220364778 ], [ 69.285258830000032, 40.218631117117525 ], [ 69.285258830000032, 40.194963976662549 ], [ 69.197926, 40.182975 ], [ 69.093142970126394, 40.211761205154843 ], [ 69.01922855600003, 40.232067363000013 ], [ 68.856551148000051, 40.21274037700006 ], [ 68.836782563895127, 40.204930104622576 ], [ 68.801877, 40.19114 ], [ 68.698318, 40.194964 ], [ 68.637422309412656, 40.178987986841697 ], [ 68.581115764000117, 40.16421620800007 ], [ 68.581116114024638, 40.164216029914421 ], [ 68.581116, 40.164216 ], [ 68.635595565341475, 40.136497947470403 ], [ 68.687052450000067, 40.110317688000023 ], [ 68.839404639905155, 40.133134965971934 ], [ 68.930655, 40.146801 ], [ 68.964362052824626, 40.128154083666523 ], [ 68.977267051935073, 40.12101484336084 ], [ 68.986982, 40.091714 ], [ 68.977267043300486, 40.064894119538756 ], [ 68.922428618527292, 40.068306684046703 ], [ 68.881769, 40.070837 ], [ 68.813143, 40.038901 ], [ 68.774696, 40.07988 ], [ 68.774695970959826, 40.079879958811802 ], [ 68.774695679000104, 40.079880270000061 ], [ 68.76172489400011, 40.061483459000058 ], [ 68.761725128350008, 40.061483182041101 ], [ 68.761725, 40.061483 ], [ 68.77889810010025, 40.0411878529966 ], [ 68.785030966000136, 40.033939921000083 ], [ 68.789371785000071, 39.9939940390001 ], [ 68.813468058512399, 39.968427101175699 ], [ 68.877428, 39.900563 ], [ 68.880786991954722, 39.878342053222426 ], [ 68.838257986044155, 39.86464802500209 ], [ 68.77976, 39.969448 ], [ 68.759031055910782, 39.980479209887967 ], [ 68.758882690000121, 39.980558167000069 ], [ 68.757342129545307, 39.96820960950614 ], [ 68.755575, 39.954048 ], [ 68.787356, 39.881701 ], [ 68.74928176342938, 39.830031497796284 ], [ 68.741622963852762, 39.819638030926619 ], [ 68.685089, 39.868007 ], [ 68.685088791580398, 39.868006857147094 ], [ 68.685088745000087, 39.868006897000086 ], [ 68.651085927662692, 39.844701014256621 ], [ 68.627308738191772, 39.849387148153866 ], [ 68.626177612000049, 39.849610088000091 ], [ 68.613841961255872, 39.75090020617592 ], [ 68.600339, 39.642853 ], [ 68.540530502263167, 39.594761313806515 ], [ 68.506701701000111, 39.567560120000067 ], [ 68.511305443167231, 39.559370770993908 ], [ 68.51745, 39.54844 ], [ 68.436267, 39.528803 ], [ 68.396471600748399, 39.528448598306596 ], [ 68.33756473800014, 39.527924296 ], [ 68.337562922980126, 39.52792457543169 ], [ 68.255864, 39.550559 ], [ 68.17858613828794, 39.552399871183752 ], [ 68.094957004021865, 39.565275007629701 ], [ 67.903392483210553, 39.594767555266294 ], [ 67.764525, 39.622596 ], [ 67.739210790474914, 39.620044346467267 ], [ 67.717603, 39.623371 ], [ 67.70254104459778, 39.616348063297963 ], [ 67.680447, 39.614121 ], [ 67.587378, 39.562651 ], [ 67.507435, 39.552936 ], [ 67.507434600522444, 39.552935698570337 ], [ 67.507434530000069, 39.552935690000069 ], [ 67.502752630965816, 39.54940287305989 ], [ 67.487642, 39.538001 ], [ 67.491155996234255, 39.490097051335944 ], [ 67.484920654259639, 39.488780365042579 ], [ 67.427284, 39.47661 ], [ 67.386873, 39.294192 ], [ 67.346462, 39.280808 ], [ 67.348985141350468, 39.238282119289757 ], [ 67.350079794000123, 39.219829407000063 ], [ 67.350079979838469, 39.21982933980938 ], [ 67.35008, 39.219829 ], [ 67.423934842170723, 39.193126783325667 ], [ 67.499011271000086, 39.165982564000032 ], [ 67.538742229601851, 39.164821430961858 ], [ 67.58035, 39.163605 ], [ 67.637711, 39.13154 ], [ 67.652417860392049, 39.131654724244918 ], [ 67.667579793000073, 39.131772767000044 ], [ 67.678586874000075, 39.105934550000129 ], [ 67.670548330964252, 39.051089768132961 ], [ 67.667218, 39.028368 ], [ 67.690524, 38.989611 ], [ 67.690524074025049, 38.989610992421852 ], [ 67.690524129000039, 38.989610901000034 ], [ 67.757441100651008, 38.982760516496285 ], [ 67.845243, 38.973772 ], [ 67.845243330340651, 38.973772078752894 ], [ 67.84524336700008, 38.973772075000014 ], [ 67.845243859103149, 38.973772204809364 ], [ 67.955282402410859, 39.000005287624539 ], [ 68.019806, 38.979689 ] ], [ [ 70.549781299893667, 41.015223671013054 ], [ 70.54978112800012, 41.015223694 ], [ 70.565975463310849, 40.997458479473025 ], [ 70.608382, 40.950938 ], [ 70.645072, 40.935177 ], [ 70.645071957726543, 40.935177119631668 ], [ 70.645072469000127, 40.935176900000059 ], [ 70.637428867330129, 40.956806666829564 ], [ 70.6305, 40.976415 ], [ 70.620761331878498, 40.985080501168568 ], [ 70.61665, 40.99352 ], [ 70.608191084048642, 40.996265551927024 ], [ 70.593555100571052, 41.009288701534942 ], [ 70.593447713000103, 41.009384257000093 ], [ 70.574637296526916, 41.011899732894008 ], [ 70.549781, 41.015224 ], [ 70.549781299893667, 41.015223671013054 ] ] ], [ [ [ 71.785519643583086, 39.989704852951625 ], [ 71.785518664261616, 39.989700899904221 ], [ 71.759978803013439, 39.911305401509573 ], [ 71.748510083923293, 39.90465841780501 ], [ 71.726819097374587, 39.908514728722984 ], [ 71.66552712686557, 39.940198934418241 ], [ 71.756421667275731, 39.977699782530252 ], [ 71.785519643583086, 39.989704852951625 ] ] ], [ [ [ 71.223745, 40.057866 ], [ 71.23527683141161, 40.051541339537792 ], [ 71.244001886980612, 40.04675591394949 ], [ 71.174704, 39.993994 ], [ 71.175615702233671, 39.98386650115507 ], [ 71.177029663000042, 39.968155823000089 ], [ 71.221057982226412, 39.931723939467751 ], [ 71.219345596720416, 39.925891996349044 ], [ 71.20844898545343, 39.888780998236548 ], [ 71.098895, 39.8755 ], [ 71.095316197214245, 39.880780030228216 ], [ 71.079981323000084, 39.903405254000106 ], [ 71.070394135978063, 39.90376998341231 ], [ 71.060964, 39.904129 ], [ 71.009288, 39.885732 ], [ 71.009086125862908, 39.888835174084363 ], [ 71.0076343180001, 39.9111567180001 ], [ 71.042259655633273, 39.953067192914759 ], [ 71.050371, 39.962885 ], [ 71.047908729863948, 39.978663993648887 ], [ 71.045823201000076, 39.992030335 ], [ 71.01961326539336, 40.004303412885612 ], [ 70.987566609321803, 40.019310121174435 ], [ 70.972058447388605, 40.04261600241076 ], [ 70.957420523828191, 40.070663251487289 ], [ 70.954952317100023, 40.089046670998229 ], [ 70.957462849554901, 40.101450673782971 ], [ 70.95801518923858, 40.10417939704908 ], [ 70.977144218206547, 40.144577348956751 ], [ 70.977145172877684, 40.1445790725097 ], [ 70.980644894967597, 40.146046953018335 ], [ 71.008564358663108, 40.157756596238642 ], [ 71.078844, 40.07864 ], [ 71.169382, 40.042828 ], [ 71.223745, 40.057866 ] ] ] ] } }
]
}
