{"type":"FeatureCollection","features":[{"type":"Feature","geometry":{"type":"LineString","coordinates":[[30.27696,-29.07276],[25.69037,-32.17673]]},"properties":{"zone_a":"ZAF_3","zone_b":"ZAF_6","mw":1310,"status":"existing","label":"1,310 MW"}},{"type":"Feature","geometry":{"type":"LineString","coordinates":[[25.69037,-32.17673],[26.54728,-28.32121]]},"properties":{"zone_a":"ZAF_6","zone_b":"ZAF_8","mw":906,"status":"existing","label":"906 MW"}},{"type":"Feature","geometry":{"type":"LineString","coordinates":[[22.92351,-28.71994],[26.54728,-28.32121]]},"properties":{"zone_a":"ZAF_4","zone_b":"ZAF_8","mw":8562,"status":"existing","label":"8,562 MW"}},{"type":"Feature","geometry":{"type":"LineString","coordinates":[[27.71674,-25.54152],[26.54728,-28.32121]]},"properties":{"zone_a":"ZAF_1","zone_b":"ZAF_8","mw":11072,"status":"existing","label":"11,072 MW"}},{"type":"Feature","geometry":{"type":"LineString","coordinates":[[30.27696,-29.07276],[30.22508,-24.44152]]},"properties":{"zone_a":"ZAF_3","zone_b":"ZAF_5","mw":5390,"status":"existing","label":"5,390 MW"}},{"type":"Feature","geometry":{"type":"LineString","coordinates":[[30.27696,-29.07276],[26.54728,-28.32121]]},"properties":{"zone_a":"ZAF_3","zone_b":"ZAF_8","mw":650,"status":"existing","label":"650 MW"}},{"type":"Feature","geometry":{"type":"LineString","coordinates":[[27.71674,-25.54152],[30.22508,-24.44152]]},"properties":{"zone_a":"ZAF_1","zone_b":"ZAF_5","mw":16885,"status":"existing","label":"16,885 MW"}},{"type":"Feature","geometry":{"type":"LineString","coordinates":[[27.71674,-25.54152],[30.27696,-29.07276]]},"properties":{"zone_a":"ZAF_1","zone_b":"ZAF_3","mw":1580,"status":"existing","label":"1,580 MW"}},{"type":"Feature","geometry":{"type":"LineString","coordinates":[[20.1768,-32.39591],[22.92351,-28.71994]]},"properties":{"zone_a":"ZAF_2","zone_b":"ZAF_4","mw":790,"status":"existing","label":"790 MW"}},{"type":"Feature","geometry":{"type":"LineString","coordinates":[[22.92351,-28.71994],[19.06269,-28.5631]]},"properties":{"zone_a":"ZAF_4","zone_b":"ZAF_7","mw":1710,"status":"existing","label":"1,710 MW"}},{"type":"Feature","geometry":{"type":"LineString","coordinates":[[20.1768,-32.39591],[25.69037,-32.17673]]},"properties":{"zone_a":"ZAF_2","zone_b":"ZAF_6","mw":3724,"status":"existing","label":"3,724 MW"}},{"type":"Feature","geometry":{"type":"LineString","coordinates":[[22.92351,-28.71994],[25.69037,-32.17673]]},"properties":{"zone_a":"ZAF_4","zone_b":"ZAF_6","mw":8666,"status":"existing","label":"8,666 MW"}},{"type":"Feature","geometry":{"type":"LineString","coordinates":[[20.1768,-32.39591],[19.06269,-28.5631]]},"properties":{"zone_a":"ZAF_2","zone_b":"ZAF_7","mw":790,"status":"existing","label":"790 MW"}}]}