{"type":"FeatureCollection","features":[{"type":"Feature","geometry":{"type":"LineString","coordinates":[[24.44116,-29.74853],[30.10404,-29.12444]]},"properties":{"zone_a":"ZAF_3","zone_b":"ZAF_4","mw":1440,"status":"existing","label":"1,440 MW"}},{"type":"Feature","geometry":{"type":"LineString","coordinates":[[28.6939,-25.20151],[24.44116,-29.74853]]},"properties":{"zone_a":"ZAF_1","zone_b":"ZAF_3","mw":10673,"status":"existing","label":"10,673 MW"}},{"type":"Feature","geometry":{"type":"LineString","coordinates":[[28.6939,-25.20151],[30.10404,-29.12444]]},"properties":{"zone_a":"ZAF_1","zone_b":"ZAF_4","mw":7500,"status":"existing","label":"7,500 MW"}},{"type":"Feature","geometry":{"type":"LineString","coordinates":[[20.03503,-31.37816],[24.44116,-29.74853]]},"properties":{"zone_a":"ZAF_2","zone_b":"ZAF_3","mw":6224,"status":"existing","label":"6,224 MW"}}]}