{"type":"FeatureCollection","features":[{"type":"Feature","geometry":{"type":"LineString","coordinates":[[22.78372,-28.2047],[25.72059,-31.60538]]},"properties":{"zone_a":"ZAF_4","zone_b":"ZAF_5","mw":8948,"status":"existing","label":"8,948 MW"}},{"type":"Feature","geometry":{"type":"LineString","coordinates":[[30.29065,-28.84814],[25.72059,-31.60538]]},"properties":{"zone_a":"ZAF_1","zone_b":"ZAF_5","mw":1441,"status":"existing","label":"1,441 MW"}},{"type":"Feature","geometry":{"type":"LineString","coordinates":[[28.67892,-25.33541],[22.78372,-28.2047]]},"properties":{"zone_a":"ZAF_3","zone_b":"ZAF_4","mw":9530,"status":"existing","label":"9,530 MW"}},{"type":"Feature","geometry":{"type":"LineString","coordinates":[[30.29065,-28.84814],[28.67892,-25.33541]]},"properties":{"zone_a":"ZAF_1","zone_b":"ZAF_3","mw":7500,"status":"existing","label":"7,500 MW"}},{"type":"Feature","geometry":{"type":"LineString","coordinates":[[28.67892,-25.33541],[25.72059,-31.60538]]},"properties":{"zone_a":"ZAF_3","zone_b":"ZAF_5","mw":492,"status":"existing","label":"492 MW"}},{"type":"Feature","geometry":{"type":"LineString","coordinates":[[19.86687,-31.82812],[22.78372,-28.2047]]},"properties":{"zone_a":"ZAF_2","zone_b":"ZAF_4","mw":1870,"status":"existing","label":"1,870 MW"}},{"type":"Feature","geometry":{"type":"LineString","coordinates":[[19.86687,-31.82812],[25.72059,-31.60538]]},"properties":{"zone_a":"ZAF_2","zone_b":"ZAF_5","mw":4514,"status":"existing","label":"4,514 MW"}}]}