{"type":"FeatureCollection","features":[{"type":"Feature","geometry":{"type":"LineString","coordinates":[[30.18402,-29.13423],[25.47605,-31.79375]]},"properties":{"zone_a":"ZAF_4","zone_b":"ZAF_6","mw":1440,"status":"existing","label":"1,440 MW"}},{"type":"Feature","geometry":{"type":"LineString","coordinates":[[27.07327,-26.65503],[25.47605,-31.79375]]},"properties":{"zone_a":"ZAF_3","zone_b":"ZAF_6","mw":646,"status":"existing","label":"646 MW"}},{"type":"Feature","geometry":{"type":"LineString","coordinates":[[27.07327,-26.65503],[22.38807,-28.37943]]},"properties":{"zone_a":"ZAF_3","zone_b":"ZAF_5","mw":5498,"status":"existing","label":"5,498 MW"}},{"type":"Feature","geometry":{"type":"LineString","coordinates":[[29.99953,-24.53977],[27.07327,-26.65503]]},"properties":{"zone_a":"ZAF_1","zone_b":"ZAF_3","mw":27942,"status":"existing","label":"27,942 MW"}},{"type":"Feature","geometry":{"type":"LineString","coordinates":[[29.99953,-24.53977],[30.18402,-29.13423]]},"properties":{"zone_a":"ZAF_1","zone_b":"ZAF_4","mw":6710,"status":"existing","label":"6,710 MW"}},{"type":"Feature","geometry":{"type":"LineString","coordinates":[[27.07327,-26.65503],[30.18402,-29.13423]]},"properties":{"zone_a":"ZAF_3","zone_b":"ZAF_4","mw":260,"status":"existing","label":"260 MW"}},{"type":"Feature","geometry":{"type":"LineString","coordinates":[[19.78027,-31.931],[22.38807,-28.37943]]},"properties":{"zone_a":"ZAF_2","zone_b":"ZAF_5","mw":1080,"status":"existing","label":"1,080 MW"}},{"type":"Feature","geometry":{"type":"LineString","coordinates":[[19.78027,-31.931],[25.47605,-31.79375]]},"properties":{"zone_a":"ZAF_2","zone_b":"ZAF_6","mw":4644,"status":"existing","label":"4,644 MW"}},{"type":"Feature","geometry":{"type":"LineString","coordinates":[[22.38807,-28.37943],[25.47605,-31.79375]]},"properties":{"zone_a":"ZAF_5","zone_b":"ZAF_6","mw":6128,"status":"existing","label":"6,128 MW"}}]}