{"type":"FeatureCollection","features":[{"type":"Feature","geometry":{"type":"LineString","coordinates":[[30.59716,-11.62564],[24.49733,-13.59924]]},"properties":{"zone_a":"ZMB_1","zone_b":"ZMB_2","mw":543,"status":"existing","label":"543 MW"}},{"type":"Feature","geometry":{"type":"LineString","coordinates":[[24.49733,-13.59924],[26.3534,-15.94312]]},"properties":{"zone_a":"ZMB_2","zone_b":"ZMB_3","mw":362,"status":"existing","label":"362 MW"}},{"type":"Feature","geometry":{"type":"LineString","coordinates":[[30.59716,-11.62564],[26.3534,-15.94312]]},"properties":{"zone_a":"ZMB_1","zone_b":"ZMB_3","mw":3195,"status":"existing","label":"3,195 MW"}}]}