{"type":"FeatureCollection","features":[{"type":"Feature","geometry":{"type":"LineString","coordinates":[[30.53484,-11.43706],[24.58949,-13.1187]]},"properties":{"zone_a":"ZMB_1","zone_b":"ZMB_2","mw":543,"status":"existing","label":"543 MW"}},{"type":"Feature","geometry":{"type":"LineString","coordinates":[[24.58949,-13.1187],[25.81877,-15.72998]]},"properties":{"zone_a":"ZMB_2","zone_b":"ZMB_4","mw":362,"status":"existing","label":"362 MW"}},{"type":"Feature","geometry":{"type":"LineString","coordinates":[[30.53484,-11.43706],[31.24752,-14.31596]]},"properties":{"zone_a":"ZMB_1","zone_b":"ZMB_3","mw":615,"status":"existing","label":"615 MW"}},{"type":"Feature","geometry":{"type":"LineString","coordinates":[[30.53484,-11.43706],[25.81877,-15.72998]]},"properties":{"zone_a":"ZMB_1","zone_b":"ZMB_4","mw":3195,"status":"existing","label":"3,195 MW"}}]}