{"type":"FeatureCollection","features":[{"type":"Feature","geometry":{"type":"LineString","coordinates":[[28.20278,-12.44039],[24.16133,-13.21934]]},"properties":{"zone_a":"ZMB_1","zone_b":"ZMB_4","mw":543,"status":"existing","label":"543 MW"}},{"type":"Feature","geometry":{"type":"LineString","coordinates":[[25.88727,-15.79516],[24.16133,-13.21934]]},"properties":{"zone_a":"ZMB_3","zone_b":"ZMB_4","mw":362,"status":"existing","label":"362 MW"}},{"type":"Feature","geometry":{"type":"LineString","coordinates":[[28.20278,-12.44039],[25.88727,-15.79516]]},"properties":{"zone_a":"ZMB_1","zone_b":"ZMB_3","mw":2715,"status":"existing","label":"2,715 MW"}},{"type":"Feature","geometry":{"type":"LineString","coordinates":[[28.20278,-12.44039],[31.28459,-11.35553]]},"properties":{"zone_a":"ZMB_1","zone_b":"ZMB_5","mw":1023,"status":"existing","label":"1,023 MW"}}]}