{"type":"FeatureCollection","features":[{"type":"Feature","geometry":{"type":"LineString","coordinates":[[31.02544,-18.55397],[28.86098,-20.46855]]},"properties":{"zone_a":"ZWE_1","zone_b":"ZWE_3","mw":1736,"status":"existing","label":"1,736 MW"}},{"type":"Feature","geometry":{"type":"LineString","coordinates":[[27.97703,-17.63518],[28.86098,-20.46855]]},"properties":{"zone_a":"ZWE_2","zone_b":"ZWE_3","mw":1193,"status":"existing","label":"1,193 MW"}},{"type":"Feature","geometry":{"type":"LineString","coordinates":[[31.02544,-18.55397],[27.97703,-17.63518]]},"properties":{"zone_a":"ZWE_1","zone_b":"ZWE_2","mw":2440,"status":"existing","label":"2,440 MW"}}]}