{"type":"FeatureCollection","features":[{"type":"Feature","geometry":{"type":"LineString","coordinates":[[27.78745,-20.5084],[29.88445,-20.30931]]},"properties":{"zone_a":"ZWE_2","zone_b":"ZWE_4","mw":1080,"status":"existing","label":"1,080 MW"}},{"type":"Feature","geometry":{"type":"LineString","coordinates":[[31.26557,-17.96033],[29.88445,-20.30931]]},"properties":{"zone_a":"ZWE_3","zone_b":"ZWE_4","mw":1606,"status":"existing","label":"1,606 MW"}},{"type":"Feature","geometry":{"type":"LineString","coordinates":[[29.88445,-20.30931],[26.99891,-18.53386]]},"properties":{"zone_a":"ZWE_4","zone_b":"ZWE_5","mw":2004,"status":"existing","label":"2,004 MW"}},{"type":"Feature","geometry":{"type":"LineString","coordinates":[[29.06534,-16.83505],[31.26557,-17.96033]]},"properties":{"zone_a":"ZWE_1","zone_b":"ZWE_3","mw":1629,"status":"existing","label":"1,629 MW"}}]}