{"type":"FeatureCollection","features":[{"type":"Feature","geometry":{"type":"LineString","coordinates":[[29.55673,-20.57725],[31.11782,-18.25833]]},"properties":{"zone_a":"ZWE_1","zone_b":"ZWE_2","mw":1346,"status":"existing","label":"1,346 MW"}},{"type":"Feature","geometry":{"type":"LineString","coordinates":[[29.55673,-20.57725],[26.90688,-18.77822]]},"properties":{"zone_a":"ZWE_1","zone_b":"ZWE_3","mw":1193,"status":"existing","label":"1,193 MW"}},{"type":"Feature","geometry":{"type":"LineString","coordinates":[[31.11782,-18.25833],[26.90688,-18.77822]]},"properties":{"zone_a":"ZWE_2","zone_b":"ZWE_3","mw":811,"status":"existing","label":"811 MW"}},{"type":"Feature","geometry":{"type":"LineString","coordinates":[[31.11782,-18.25833],[28.85942,-17.01196]]},"properties":{"zone_a":"ZWE_2","zone_b":"ZWE_4","mw":1629,"status":"existing","label":"1,629 MW"}}]}